<gpx xmlns="http://www.topografix.com/GPX/1/1" xmlns:xsi="http://www.w3.org/2001/XMLSchema-instance" xsi:schemaLocation="http://www.topografix.com/GPX/1/1 http://www.topografix.com/GPX/1/1/gpx.xsd" version="1.1" creator="togpx"><metadata/><wpt lat="47.687806672384134" lon="11.986716985702515"><name></name><desc>label=Osterhofen, Bayrischzell,BY,Germany</desc></wpt><wpt lat="47.68973138768643" lon="11.961300373077394"><name></name><desc>label=Geitau 35, Bayrischzell,BY,Germany</desc></wpt><wpt lat="47.684719035128765" lon="11.951472759246826"><name></name><desc>label=Berggraben, Bayrischzell,BY,Germany</desc></wpt><wpt lat="47.671152933732806" lon="11.913846731185915"><name></name><desc>label=SB2, Schliersee,BY,Germany</desc></wpt><wpt lat="47.673544233223666" lon="11.906052231788637"><name></name><desc>label=SB2, Schliersee,BY,Germany</desc></wpt><wpt lat="47.669158896300836" lon="11.909501552581789"><name></name><desc>label=Glockenwand, Schliersee,BY,Germany</desc></wpt><wpt lat="47.66662289081608" lon="11.906250715255739"><name></name><desc>label=Schönfeldhütte, Schliersee,BY,Germany</desc></wpt><wpt lat="47.66463590584349" lon="11.901068687438967"><name></name><desc>label=Lochgraben, Schliersee,BY,Germany</desc></wpt><wpt lat="47.664130115773524" lon="11.89797878265381"><name></name><desc>label=Lochgraben, Schliersee,BY,Germany</desc></wpt><wpt lat="47.66564024588316" lon="11.890157461166384"><name></name><desc>label=Seeweg, Schliersee,BY,Germany</desc></wpt><wpt lat="47.66627246441442" lon="11.889352798461914"><name></name><desc>label=Seeweg, Schliersee,BY,Germany</desc></wpt><wpt lat="47.66459255260094" lon="11.88873052597046"><name></name><desc>label=Spitzingstraße, Schliersee,BY,Germany</desc></wpt><wpt lat="47.6623092309428" lon="11.888151168823244"><name></name><desc>label=Spitzingstraße, Schliersee,BY,Germany</desc></wpt><wpt lat="47.66162276977926" lon="11.887174844741821"><name></name><desc>label=Spitzingstraße 1, Schliersee,BY,Germany</desc></wpt><wpt lat="47.6621466488514" lon="11.886938810348513"><name></name><desc>label=Willy-Merkl-Haus, Schliersee,BY,Germany</desc></wpt><trk><name></name><desc>ascent=1251.3
descent=967.3
opacity=0.9</desc><trkseg><trkpt lat="47.687801" lon="11.986729"><ele>802</ele></trkpt><trkpt lat="47.687804" lon="11.986731"><ele>802</ele></trkpt><trkpt lat="47.687837" lon="11.986738"><ele>802</ele></trkpt><trkpt lat="47.68811" lon="11.986119"><ele>802</ele></trkpt><trkpt lat="47.68827" lon="11.985748"><ele>802</ele></trkpt><trkpt lat="47.688245" lon="11.985725"><ele>802</ele></trkpt><trkpt lat="47.688291" lon="11.985618"><ele>802</ele></trkpt><trkpt lat="47.688278" lon="11.985603"><ele>802</ele></trkpt><trkpt lat="47.688301" lon="11.985536"><ele>802</ele></trkpt><trkpt lat="47.688352" lon="11.985492"><ele>802.8</ele></trkpt><trkpt lat="47.688407" lon="11.985393"><ele>802.7</ele></trkpt><trkpt lat="47.688429" lon="11.98524"><ele>803</ele></trkpt><trkpt lat="47.688362" lon="11.985117"><ele>803</ele></trkpt><trkpt lat="47.688326" lon="11.984972"><ele>799.8</ele></trkpt><trkpt lat="47.688228" lon="11.984843"><ele>800</ele></trkpt><trkpt lat="47.688083" lon="11.984603"><ele>800.2</ele></trkpt><trkpt lat="47.688047" lon="11.984473"><ele>799</ele></trkpt><trkpt lat="47.687937" lon="11.984103"><ele>796.6</ele></trkpt><trkpt lat="47.687813" lon="11.983833"><ele>796.4</ele></trkpt><trkpt lat="47.687674" lon="11.983463"><ele>796.3</ele></trkpt><trkpt lat="47.687632" lon="11.983193"><ele>796.3</ele></trkpt><trkpt lat="47.687525" lon="11.982902"><ele>796.3</ele></trkpt><trkpt lat="47.687525" lon="11.982567"><ele>796.2</ele></trkpt><trkpt lat="47.687502" lon="11.982347"><ele>796.2</ele></trkpt><trkpt lat="47.687514" lon="11.982184"><ele>796.2</ele></trkpt><trkpt lat="47.687544" lon="11.982031"><ele>796.2</ele></trkpt><trkpt lat="47.687602" lon="11.981936"><ele>796</ele></trkpt><trkpt lat="47.687452" lon="11.98156"><ele>788</ele></trkpt><trkpt lat="47.687331" lon="11.981342"><ele>786.8</ele></trkpt><trkpt lat="47.687272" lon="11.981144"><ele>787</ele></trkpt><trkpt lat="47.687287" lon="11.980953"><ele>787.1</ele></trkpt><trkpt lat="47.687371" lon="11.980767"><ele>786.7</ele></trkpt><trkpt lat="47.687442" lon="11.980764"><ele>784</ele></trkpt><trkpt lat="47.687812" lon="11.979778"><ele>781</ele></trkpt><trkpt lat="47.687799" lon="11.979767"><ele>781</ele></trkpt><trkpt lat="47.687659" lon="11.979649"><ele>781</ele></trkpt><trkpt lat="47.687476" lon="11.979341"><ele>782.7</ele></trkpt><trkpt lat="47.687335" lon="11.979021"><ele>786</ele></trkpt><trkpt lat="47.687548" lon="11.978803"><ele>781.5</ele></trkpt><trkpt lat="47.687734" lon="11.978684"><ele>781.2</ele></trkpt><trkpt lat="47.687966" lon="11.978459"><ele>780.9</ele></trkpt><trkpt lat="47.688161" lon="11.977888"><ele>781.2</ele></trkpt><trkpt lat="47.688337" lon="11.976968"><ele>780.8</ele></trkpt><trkpt lat="47.688515" lon="11.976479"><ele>781.6</ele></trkpt><trkpt lat="47.688913" lon="11.975612"><ele>781.7</ele></trkpt><trkpt lat="47.689235" lon="11.974724"><ele>780.3</ele></trkpt><trkpt lat="47.689443" lon="11.974032"><ele>777</ele></trkpt><trkpt lat="47.689504" lon="11.97379"><ele>785</ele></trkpt><trkpt lat="47.689595" lon="11.973307"><ele>784.7</ele></trkpt><trkpt lat="47.689622" lon="11.97297"><ele>784.4</ele></trkpt><trkpt lat="47.689574" lon="11.971859"><ele>800</ele></trkpt><trkpt lat="47.68957" lon="11.971712"><ele>800</ele></trkpt><trkpt lat="47.689641" lon="11.971297"><ele>800.4</ele></trkpt><trkpt lat="47.690583" lon="11.96883"><ele>774.9</ele></trkpt><trkpt lat="47.690798" lon="11.968317"><ele>774.8</ele></trkpt><trkpt lat="47.690974" lon="11.968084"><ele>774.1</ele></trkpt><trkpt lat="47.691004" lon="11.96803"><ele>773.9</ele></trkpt><trkpt lat="47.691011" lon="11.967962"><ele>772</ele></trkpt><trkpt lat="47.691014" lon="11.967652"><ele>772</ele></trkpt><trkpt lat="47.690997" lon="11.967497"><ele>771</ele></trkpt><trkpt lat="47.691036" lon="11.96518"><ele>771</ele></trkpt><trkpt lat="47.691037" lon="11.96509"><ele>771</ele></trkpt><trkpt lat="47.690916" lon="11.964869"><ele>770</ele></trkpt><trkpt lat="47.690367" lon="11.964114"><ele>775</ele></trkpt><trkpt lat="47.690076" lon="11.963412"><ele>775</ele></trkpt><trkpt lat="47.689981" lon="11.96317"><ele>777.4</ele></trkpt><trkpt lat="47.68985" lon="11.962936"><ele>777.5</ele></trkpt><trkpt lat="47.689561" lon="11.962485"><ele>777.6</ele></trkpt><trkpt lat="47.689244" lon="11.961775"><ele>779</ele></trkpt><trkpt lat="47.689208" lon="11.961695"><ele>779</ele></trkpt><trkpt lat="47.689211" lon="11.961657"><ele>779</ele></trkpt><trkpt lat="47.689239" lon="11.961579"><ele>779</ele></trkpt><trkpt lat="47.689276" lon="11.961546"><ele>779</ele></trkpt><trkpt lat="47.68973" lon="11.961296"><ele>778.7</ele></trkpt><trkpt lat="47.689782" lon="11.961268"><ele>778.3</ele></trkpt><trkpt lat="47.690161" lon="11.960958"><ele>777</ele></trkpt><trkpt lat="47.689823" lon="11.960291"><ele>779.4</ele></trkpt><trkpt lat="47.689735" lon="11.960053"><ele>780.8</ele></trkpt><trkpt lat="47.689549" lon="11.959155"><ele>783.8</ele></trkpt><trkpt lat="47.689337" lon="11.95825"><ele>791</ele></trkpt><trkpt lat="47.689249" lon="11.958088"><ele>794.2</ele></trkpt><trkpt lat="47.688779" lon="11.957459"><ele>796.5</ele></trkpt><trkpt lat="47.688598" lon="11.957275"><ele>796.9</ele></trkpt><trkpt lat="47.688433" lon="11.957213"><ele>797.2</ele></trkpt><trkpt lat="47.68817" lon="11.95716"><ele>797</ele></trkpt><trkpt lat="47.687617" lon="11.956369"><ele>796.3</ele></trkpt><trkpt lat="47.687454" lon="11.956359"><ele>797</ele></trkpt><trkpt lat="47.687382" lon="11.956217"><ele>797</ele></trkpt><trkpt lat="47.6873" lon="11.956003"><ele>797</ele></trkpt><trkpt lat="47.687178" lon="11.955858"><ele>809.5</ele></trkpt><trkpt lat="47.686954" lon="11.955674"><ele>811.5</ele></trkpt><trkpt lat="47.686801" lon="11.955507"><ele>814.8</ele></trkpt><trkpt lat="47.686696" lon="11.955332"><ele>816.6</ele></trkpt><trkpt lat="47.686501" lon="11.954776"><ele>821.3</ele></trkpt><trkpt lat="47.686057" lon="11.954021"><ele>825</ele></trkpt><trkpt lat="47.685996" lon="11.953794"><ele>825</ele></trkpt><trkpt lat="47.685953" lon="11.953512"><ele>825.5</ele></trkpt><trkpt lat="47.685839" lon="11.953452"><ele>830</ele></trkpt><trkpt lat="47.685731" lon="11.95337"><ele>849.3</ele></trkpt><trkpt lat="47.685383" lon="11.952842"><ele>854.6</ele></trkpt><trkpt lat="47.685143" lon="11.952424"><ele>859.3</ele></trkpt><trkpt lat="47.685003" lon="11.952224"><ele>858.9</ele></trkpt><trkpt lat="47.684898" lon="11.951977"><ele>864.5</ele></trkpt><trkpt lat="47.684793" lon="11.951781"><ele>869.2</ele></trkpt><trkpt lat="47.684694" lon="11.95154"><ele>871.9</ele></trkpt><trkpt lat="47.684685" lon="11.951484"><ele>872.7</ele></trkpt><trkpt lat="47.684661" lon="11.951325"><ele>873.5</ele></trkpt><trkpt lat="47.684576" lon="11.950996"><ele>877.3</ele></trkpt><trkpt lat="47.684537" lon="11.950296"><ele>889.3</ele></trkpt><trkpt lat="47.684499" lon="11.950205"><ele>890.9</ele></trkpt><trkpt lat="47.684309" lon="11.950042"><ele>892.7</ele></trkpt><trkpt lat="47.684123" lon="11.949837"><ele>897.5</ele></trkpt><trkpt lat="47.684031" lon="11.949693"><ele>899.3</ele></trkpt><trkpt lat="47.683953" lon="11.94941"><ele>903.7</ele></trkpt><trkpt lat="47.6839" lon="11.949064"><ele>906.3</ele></trkpt><trkpt lat="47.683751" lon="11.948881"><ele>910.6</ele></trkpt><trkpt lat="47.683686" lon="11.94867"><ele>914.8</ele></trkpt><trkpt lat="47.682942" lon="11.947423"><ele>965.4</ele></trkpt><trkpt lat="47.682821" lon="11.947194"><ele>971.1</ele></trkpt><trkpt lat="47.682718" lon="11.946941"><ele>978.1</ele></trkpt><trkpt lat="47.682558" lon="11.946867"><ele>981.4</ele></trkpt><trkpt lat="47.682458" lon="11.946855"><ele>985.7</ele></trkpt><trkpt lat="47.682311" lon="11.946959"><ele>986.8</ele></trkpt><trkpt lat="47.682228" lon="11.946937"><ele>987.2</ele></trkpt><trkpt lat="47.682212" lon="11.946865"><ele>987.5</ele></trkpt><trkpt lat="47.682214" lon="11.94673"><ele>987.9</ele></trkpt><trkpt lat="47.682325" lon="11.945966"><ele>990.5</ele></trkpt><trkpt lat="47.682281" lon="11.945891"><ele>990.1</ele></trkpt><trkpt lat="47.68221" lon="11.945853"><ele>991.2</ele></trkpt><trkpt lat="47.682012" lon="11.946247"><ele>990.9</ele></trkpt><trkpt lat="47.681895" lon="11.946296"><ele>990.6</ele></trkpt><trkpt lat="47.681664" lon="11.946236"><ele>991.5</ele></trkpt><trkpt lat="47.681565" lon="11.946344"><ele>991.9</ele></trkpt><trkpt lat="47.681488" lon="11.946611"><ele>991.2</ele></trkpt><trkpt lat="47.681334" lon="11.946732"><ele>991.2</ele></trkpt><trkpt lat="47.681118" lon="11.946228"><ele>995.8</ele></trkpt><trkpt lat="47.680864" lon="11.945744"><ele>1003.2</ele></trkpt><trkpt lat="47.680578" lon="11.944966"><ele>1032.8</ele></trkpt><trkpt lat="47.68023" lon="11.944577"><ele>1043.3</ele></trkpt><trkpt lat="47.67996" lon="11.944145"><ele>1058.9</ele></trkpt><trkpt lat="47.679653" lon="11.9442"><ele>1057.7</ele></trkpt><trkpt lat="47.679394" lon="11.943876"><ele>1068.3</ele></trkpt><trkpt lat="47.679154" lon="11.942936"><ele>1088.5</ele></trkpt><trkpt lat="47.679265" lon="11.942108"><ele>1097.8</ele></trkpt><trkpt lat="47.679076" lon="11.941634"><ele>1108.5</ele></trkpt><trkpt lat="47.678903" lon="11.941471"><ele>1113</ele></trkpt><trkpt lat="47.678706" lon="11.941065"><ele>1119.9</ele></trkpt><trkpt lat="47.678552" lon="11.940401"><ele>1132.4</ele></trkpt><trkpt lat="47.678478" lon="11.939653"><ele>1141.4</ele></trkpt><trkpt lat="47.6785" lon="11.939489"><ele>1145.1</ele></trkpt><trkpt lat="47.678374" lon="11.939224"><ele>1145.3</ele></trkpt><trkpt lat="47.67835" lon="11.938934"><ele>1156.2</ele></trkpt><trkpt lat="47.67838" lon="11.937833"><ele>1172.4</ele></trkpt><trkpt lat="47.67852" lon="11.937099"><ele>1216.3</ele></trkpt><trkpt lat="47.678527" lon="11.936403"><ele>1241.5</ele></trkpt><trkpt lat="47.678589" lon="11.935996"><ele>1245.7</ele></trkpt><trkpt lat="47.6785" lon="11.935763"><ele>1255.1</ele></trkpt><trkpt lat="47.678333" lon="11.935665"><ele>1258.2</ele></trkpt><trkpt lat="47.677828" lon="11.93543"><ele>1261.6</ele></trkpt><trkpt lat="47.677873" lon="11.935274"><ele>1264.4</ele></trkpt><trkpt lat="47.678002" lon="11.935171"><ele>1271.4</ele></trkpt><trkpt lat="47.67816" lon="11.934798"><ele>1274.2</ele></trkpt><trkpt lat="47.678312" lon="11.93458"><ele>1274.2</ele></trkpt><trkpt lat="47.6784" lon="11.934519"><ele>1276.1</ele></trkpt><trkpt lat="47.67841" lon="11.934444"><ele>1277</ele></trkpt><trkpt lat="47.678264" lon="11.934391"><ele>1279.7</ele></trkpt><trkpt lat="47.678054" lon="11.93412"><ele>1291.4</ele></trkpt><trkpt lat="47.677968" lon="11.93389"><ele>1297.3</ele></trkpt><trkpt lat="47.677824" lon="11.933678"><ele>1299.6</ele></trkpt><trkpt lat="47.677792" lon="11.933565"><ele>1302.1</ele></trkpt><trkpt lat="47.677824" lon="11.933434"><ele>1303</ele></trkpt><trkpt lat="47.677965" lon="11.933254"><ele>1307.8</ele></trkpt><trkpt lat="47.678146" lon="11.933191"><ele>1307.6</ele></trkpt><trkpt lat="47.678236" lon="11.933227"><ele>1307.5</ele></trkpt><trkpt lat="47.678729" lon="11.933156"><ele>1307.3</ele></trkpt><trkpt lat="47.678438" lon="11.932548"><ele>1312.2</ele></trkpt><trkpt lat="47.678179" lon="11.93224"><ele>1318.4</ele></trkpt><trkpt lat="47.678093" lon="11.932225"><ele>1316.8</ele></trkpt><trkpt lat="47.677966" lon="11.932135"><ele>1315.2</ele></trkpt><trkpt lat="47.677763" lon="11.932164"><ele>1313.4</ele></trkpt><trkpt lat="47.677672" lon="11.932051"><ele>1312.9</ele></trkpt><trkpt lat="47.677516" lon="11.932011"><ele>1343</ele></trkpt><trkpt lat="47.67742" lon="11.931688"><ele>1366.7</ele></trkpt><trkpt lat="47.677434" lon="11.931654"><ele>1366.4</ele></trkpt><trkpt lat="47.677497" lon="11.931639"><ele>1363.6</ele></trkpt><trkpt lat="47.677538" lon="11.931606"><ele>1360.4</ele></trkpt><trkpt lat="47.677655" lon="11.931601"><ele>1358</ele></trkpt><trkpt lat="47.677971" lon="11.930952"><ele>1373.9</ele></trkpt><trkpt lat="47.678026" lon="11.930753"><ele>1376.4</ele></trkpt><trkpt lat="47.678005" lon="11.930733"><ele>1376.9</ele></trkpt><trkpt lat="47.677961" lon="11.930487"><ele>1382</ele></trkpt><trkpt lat="47.677904" lon="11.93034"><ele>1385.4</ele></trkpt><trkpt lat="47.677898" lon="11.930008"><ele>1387.4</ele></trkpt><trkpt lat="47.677921" lon="11.929942"><ele>1388.1</ele></trkpt><trkpt lat="47.67792" lon="11.92981"><ele>1388</ele></trkpt><trkpt lat="47.677971" lon="11.929627"><ele>1388.9</ele></trkpt><trkpt lat="47.677945" lon="11.929392"><ele>1389.5</ele></trkpt><trkpt lat="47.677866" lon="11.929204"><ele>1389.6</ele></trkpt><trkpt lat="47.67779" lon="11.928909"><ele>1390.7</ele></trkpt><trkpt lat="47.677753" lon="11.928682"><ele>1391.8</ele></trkpt><trkpt lat="47.677649" lon="11.92849"><ele>1391.3</ele></trkpt><trkpt lat="47.677626" lon="11.928388"><ele>1419</ele></trkpt><trkpt lat="47.677618" lon="11.928313"><ele>1456.1</ele></trkpt><trkpt lat="47.677585" lon="11.928253"><ele>1455.4</ele></trkpt><trkpt lat="47.677427" lon="11.928206"><ele>1455.4</ele></trkpt><trkpt lat="47.677264" lon="11.928085"><ele>1459.2</ele></trkpt><trkpt lat="47.677087" lon="11.928056"><ele>1460</ele></trkpt><trkpt lat="47.677024" lon="11.928017"><ele>1460</ele></trkpt><trkpt lat="47.677012" lon="11.927952"><ele>1460</ele></trkpt><trkpt lat="47.676874" lon="11.927955"><ele>1461.3</ele></trkpt><trkpt lat="47.676666" lon="11.927912"><ele>1464.9</ele></trkpt><trkpt lat="47.676468" lon="11.927791"><ele>1467.4</ele></trkpt><trkpt lat="47.676375" lon="11.927688"><ele>1469</ele></trkpt><trkpt lat="47.676361" lon="11.927625"><ele>1471.3</ele></trkpt><trkpt lat="47.676299" lon="11.927522"><ele>1473.1</ele></trkpt><trkpt lat="47.676141" lon="11.927402"><ele>1474.7</ele></trkpt><trkpt lat="47.676036" lon="11.927278"><ele>1473.9</ele></trkpt><trkpt lat="47.675939" lon="11.927095"><ele>1474.4</ele></trkpt><trkpt lat="47.675776" lon="11.926982"><ele>1476.7</ele></trkpt><trkpt lat="47.675628" lon="11.926955"><ele>1476.1</ele></trkpt><trkpt lat="47.675444" lon="11.926987"><ele>1505</ele></trkpt><trkpt lat="47.675341" lon="11.926989"><ele>1525.5</ele></trkpt><trkpt lat="47.675357" lon="11.926863"><ele>1527</ele></trkpt><trkpt lat="47.675242" lon="11.926836"><ele>1528.6</ele></trkpt><trkpt lat="47.675198" lon="11.926864"><ele>1531.2</ele></trkpt><trkpt lat="47.675181" lon="11.926851"><ele>1532.1</ele></trkpt><trkpt lat="47.675169" lon="11.92671"><ele>1534.1</ele></trkpt><trkpt lat="47.675107" lon="11.926704"><ele>1536.2</ele></trkpt><trkpt lat="47.675136" lon="11.926492"><ele>1537.3</ele></trkpt><trkpt lat="47.67523" lon="11.926303"><ele>1537</ele></trkpt><trkpt lat="47.675258" lon="11.926277"><ele>1536.7</ele></trkpt><trkpt lat="47.675263" lon="11.926236"><ele>1536.4</ele></trkpt><trkpt lat="47.675221" lon="11.926244"><ele>1535.7</ele></trkpt><trkpt lat="47.675205" lon="11.926223"><ele>1535.3</ele></trkpt><trkpt lat="47.675215" lon="11.926163"><ele>1534.5</ele></trkpt><trkpt lat="47.675193" lon="11.926149"><ele>1534.1</ele></trkpt><trkpt lat="47.675152" lon="11.92617"><ele>1533.7</ele></trkpt><trkpt lat="47.675121" lon="11.92615"><ele>1533.3</ele></trkpt><trkpt lat="47.67519" lon="11.925944"><ele>1546</ele></trkpt><trkpt lat="47.675259" lon="11.925897"><ele>1564</ele></trkpt><trkpt lat="47.67541" lon="11.925676"><ele>1568.8</ele></trkpt><trkpt lat="47.675422" lon="11.925588"><ele>1584</ele></trkpt><trkpt lat="47.675411" lon="11.925553"><ele>1587.2</ele></trkpt><trkpt lat="47.675426" lon="11.925513"><ele>1587.4</ele></trkpt><trkpt lat="47.67551" lon="11.925376"><ele>1587.8</ele></trkpt><trkpt lat="47.675478" lon="11.925338"><ele>1588.2</ele></trkpt><trkpt lat="47.67554" lon="11.925156"><ele>1588.7</ele></trkpt><trkpt lat="47.675587" lon="11.925081"><ele>1589</ele></trkpt><trkpt lat="47.67561" lon="11.924953"><ele>1589.4</ele></trkpt><trkpt lat="47.675635" lon="11.924941"><ele>1589.2</ele></trkpt><trkpt lat="47.675655" lon="11.92489"><ele>1588.8</ele></trkpt><trkpt lat="47.675683" lon="11.924879"><ele>1593</ele></trkpt><trkpt lat="47.675634" lon="11.924781"><ele>1593</ele></trkpt><trkpt lat="47.675584" lon="11.924846"><ele>1620.7</ele></trkpt><trkpt lat="47.675551" lon="11.924848"><ele>1621.4</ele></trkpt><trkpt lat="47.675542" lon="11.924876"><ele>1622.1</ele></trkpt><trkpt lat="47.675453" lon="11.924878"><ele>1623.5</ele></trkpt><trkpt lat="47.675406" lon="11.924857"><ele>1624.3</ele></trkpt><trkpt lat="47.67536" lon="11.92488"><ele>1625.1</ele></trkpt><trkpt lat="47.6753" lon="11.924821"><ele>1626.7</ele></trkpt><trkpt lat="47.67527" lon="11.924815"><ele>1627.6</ele></trkpt><trkpt lat="47.675262" lon="11.924761"><ele>1629.3</ele></trkpt><trkpt lat="47.67521" lon="11.924741"><ele>1630.2</ele></trkpt><trkpt lat="47.675189" lon="11.924757"><ele>1631.2</ele></trkpt><trkpt lat="47.675177" lon="11.924733"><ele>1632.1</ele></trkpt><trkpt lat="47.675146" lon="11.924777"><ele>1633.1</ele></trkpt><trkpt lat="47.675082" lon="11.924765"><ele>1634.1</ele></trkpt><trkpt lat="47.675056" lon="11.924794"><ele>1635.1</ele></trkpt><trkpt lat="47.674986" lon="11.924792"><ele>1636.2</ele></trkpt><trkpt lat="47.674985" lon="11.924844"><ele>1635.9</ele></trkpt><trkpt lat="47.674827" lon="11.924861"><ele>1635.3</ele></trkpt><trkpt lat="47.674767" lon="11.924763"><ele>1634.7</ele></trkpt><trkpt lat="47.674675" lon="11.924734"><ele>1634.4</ele></trkpt><trkpt lat="47.67466" lon="11.924693"><ele>1634.1</ele></trkpt><trkpt lat="47.674619" lon="11.924694"><ele>1633.1</ele></trkpt><trkpt lat="47.674623" lon="11.924722"><ele>1632.8</ele></trkpt><trkpt lat="47.6746" lon="11.924744"><ele>1632.4</ele></trkpt><trkpt lat="47.674567" lon="11.924742"><ele>1631.7</ele></trkpt><trkpt lat="47.674403" lon="11.924612"><ele>1647</ele></trkpt><trkpt lat="47.674394" lon="11.924661"><ele>1690.8</ele></trkpt><trkpt lat="47.674371" lon="11.924607"><ele>1691.6</ele></trkpt><trkpt lat="47.674354" lon="11.924618"><ele>1692.3</ele></trkpt><trkpt lat="47.674349" lon="11.924673"><ele>1693.1</ele></trkpt><trkpt lat="47.674321" lon="11.924679"><ele>1693.9</ele></trkpt><trkpt lat="47.674286" lon="11.924613"><ele>1696.3</ele></trkpt><trkpt lat="47.674218" lon="11.924652"><ele>1698.9</ele></trkpt><trkpt lat="47.674195" lon="11.924617"><ele>1700.6</ele></trkpt><trkpt lat="47.674119" lon="11.924625"><ele>1702.2</ele></trkpt><trkpt lat="47.674076" lon="11.924664"><ele>1702</ele></trkpt><trkpt lat="47.67403" lon="11.924639"><ele>1701.5</ele></trkpt><trkpt lat="47.673983" lon="11.924651"><ele>1701.3</ele></trkpt><trkpt lat="47.673944" lon="11.924616"><ele>1701</ele></trkpt><trkpt lat="47.673838" lon="11.924668"><ele>1700.2</ele></trkpt><trkpt lat="47.673814" lon="11.924635"><ele>1700</ele></trkpt><trkpt lat="47.673774" lon="11.924632"><ele>1699.4</ele></trkpt><trkpt lat="47.673759" lon="11.924663"><ele>1699.2</ele></trkpt><trkpt lat="47.673737" lon="11.924661"><ele>1698.9</ele></trkpt><trkpt lat="47.673699" lon="11.924473"><ele>1698</ele></trkpt><trkpt lat="47.673605" lon="11.924328"><ele>1696.7</ele></trkpt><trkpt lat="47.673586" lon="11.924232"><ele>1696.1</ele></trkpt><trkpt lat="47.673516" lon="11.92418"><ele>1695</ele></trkpt><trkpt lat="47.673485" lon="11.924119"><ele>1694.7</ele></trkpt><trkpt lat="47.673473" lon="11.92404"><ele>1694.8</ele></trkpt><trkpt lat="47.673405" lon="11.923903"><ele>1695.2</ele></trkpt><trkpt lat="47.673377" lon="11.923968"><ele>1695.5</ele></trkpt><trkpt lat="47.673337" lon="11.924006"><ele>1695.6</ele></trkpt><trkpt lat="47.673246" lon="11.924032"><ele>1695.9</ele></trkpt><trkpt lat="47.673197" lon="11.923862"><ele>1696.1</ele></trkpt><trkpt lat="47.673158" lon="11.923844"><ele>1692</ele></trkpt><trkpt lat="47.673156" lon="11.923745"><ele>1687.5</ele></trkpt><trkpt lat="47.673172" lon="11.923695"><ele>1687.1</ele></trkpt><trkpt lat="47.673053" lon="11.923656"><ele>1680.6</ele></trkpt><trkpt lat="47.672846" lon="11.923526"><ele>1676</ele></trkpt><trkpt lat="47.6727" lon="11.923346"><ele>1674.8</ele></trkpt><trkpt lat="47.672385" lon="11.922665"><ele>1673.1</ele></trkpt><trkpt lat="47.672307" lon="11.922529"><ele>1673.9</ele></trkpt><trkpt lat="47.672242" lon="11.922355"><ele>1673.8</ele></trkpt><trkpt lat="47.672115" lon="11.922183"><ele>1671.9</ele></trkpt><trkpt lat="47.6721" lon="11.921979"><ele>1672.3</ele></trkpt><trkpt lat="47.672135" lon="11.921828"><ele>1672.7</ele></trkpt><trkpt lat="47.672055" lon="11.921483"><ele>1672.9</ele></trkpt><trkpt lat="47.671932" lon="11.921143"><ele>1672.7</ele></trkpt><trkpt lat="47.671937" lon="11.921003"><ele>1672.6</ele></trkpt><trkpt lat="47.671967" lon="11.920886"><ele>1672.5</ele></trkpt><trkpt lat="47.671989" lon="11.920663"><ele>1672.4</ele></trkpt><trkpt lat="47.671993" lon="11.92039"><ele>1672.5</ele></trkpt><trkpt lat="47.671788" lon="11.920116"><ele>1671</ele></trkpt><trkpt lat="47.67162" lon="11.919986"><ele>1661</ele></trkpt><trkpt lat="47.671487" lon="11.919991"><ele>1660.4</ele></trkpt><trkpt lat="47.671258" lon="11.91984"><ele>1659.4</ele></trkpt><trkpt lat="47.671132" lon="11.919697"><ele>1658.9</ele></trkpt><trkpt lat="47.671059" lon="11.919689"><ele>1658.6</ele></trkpt><trkpt lat="47.670974" lon="11.919608"><ele>1655</ele></trkpt><trkpt lat="47.671048" lon="11.919585"><ele>1651.5</ele></trkpt><trkpt lat="47.671106" lon="11.9195"><ele>1651.8</ele></trkpt><trkpt lat="47.671119" lon="11.919436"><ele>1652</ele></trkpt><trkpt lat="47.67117" lon="11.9194"><ele>1652.3</ele></trkpt><trkpt lat="47.671191" lon="11.919319"><ele>1652.5</ele></trkpt><trkpt lat="47.67141" lon="11.918971"><ele>1650.7</ele></trkpt><trkpt lat="47.671483" lon="11.918752"><ele>1649.7</ele></trkpt><trkpt lat="47.671494" lon="11.918617"><ele>1648</ele></trkpt><trkpt lat="47.671553" lon="11.918396"><ele>1647.3</ele></trkpt><trkpt lat="47.671505" lon="11.917286"><ele>1640.6</ele></trkpt><trkpt lat="47.671153" lon="11.91638"><ele>1648</ele></trkpt><trkpt lat="47.671019" lon="11.91586"><ele>1651</ele></trkpt><trkpt lat="47.670884" lon="11.91556"><ele>1652</ele></trkpt><trkpt lat="47.670874" lon="11.915458"><ele>1656</ele></trkpt><trkpt lat="47.67082" lon="11.914909"><ele>1627</ele></trkpt><trkpt lat="47.671055" lon="11.914118"><ele>1627.3</ele></trkpt><trkpt lat="47.671151" lon="11.913871"><ele>1626.5</ele></trkpt><trkpt lat="47.671156" lon="11.913848"><ele>1626</ele></trkpt><trkpt lat="47.671197" lon="11.913642"><ele>1625.5</ele></trkpt><trkpt lat="47.671325" lon="11.913356"><ele>1624.5</ele></trkpt><trkpt lat="47.671422" lon="11.913044"><ele>1622.6</ele></trkpt><trkpt lat="47.6715" lon="11.912715"><ele>1616</ele></trkpt><trkpt lat="47.671789" lon="11.912101"><ele>1634</ele></trkpt><trkpt lat="47.672187" lon="11.910804"><ele>1637.1</ele></trkpt><trkpt lat="47.672263" lon="11.910686"><ele>1644.1</ele></trkpt><trkpt lat="47.672404" lon="11.910053"><ele>1656.3</ele></trkpt><trkpt lat="47.672807" lon="11.90897"><ele>1662.8</ele></trkpt><trkpt lat="47.672911" lon="11.908602"><ele>1666.9</ele></trkpt><trkpt lat="47.673018" lon="11.908425"><ele>1678</ele></trkpt><trkpt lat="47.673129" lon="11.908028"><ele>1669.8</ele></trkpt><trkpt lat="47.67317" lon="11.907954"><ele>1666</ele></trkpt><trkpt lat="47.673237" lon="11.907521"><ele>1707.4</ele></trkpt><trkpt lat="47.673361" lon="11.907285"><ele>1712</ele></trkpt><trkpt lat="47.673402" lon="11.906971"><ele>1710.4</ele></trkpt><trkpt lat="47.67339" lon="11.906868"><ele>1709.5</ele></trkpt><trkpt lat="47.673523" lon="11.906494"><ele>1720</ele></trkpt><trkpt lat="47.673521" lon="11.90626"><ele>1720</ele></trkpt><trkpt lat="47.67354" lon="11.906051"><ele>1720</ele></trkpt><trkpt lat="47.673521" lon="11.90626"><ele>1720</ele></trkpt><trkpt lat="47.673523" lon="11.906494"><ele>1720</ele></trkpt><trkpt lat="47.67339" lon="11.906868"><ele>1709.5</ele></trkpt><trkpt lat="47.673402" lon="11.906971"><ele>1710.4</ele></trkpt><trkpt lat="47.673361" lon="11.907285"><ele>1712</ele></trkpt><trkpt lat="47.673237" lon="11.907521"><ele>1707.4</ele></trkpt><trkpt lat="47.67317" lon="11.907954"><ele>1666</ele></trkpt><trkpt lat="47.673129" lon="11.908028"><ele>1669.8</ele></trkpt><trkpt lat="47.673018" lon="11.908425"><ele>1678</ele></trkpt><trkpt lat="47.672911" lon="11.908602"><ele>1666.9</ele></trkpt><trkpt lat="47.672807" lon="11.90897"><ele>1662.8</ele></trkpt><trkpt lat="47.672404" lon="11.910053"><ele>1656.3</ele></trkpt><trkpt lat="47.672263" lon="11.910686"><ele>1644.1</ele></trkpt><trkpt lat="47.672187" lon="11.910804"><ele>1637.1</ele></trkpt><trkpt lat="47.671789" lon="11.912101"><ele>1634</ele></trkpt><trkpt lat="47.6715" lon="11.912715"><ele>1616</ele></trkpt><trkpt lat="47.671305" lon="11.912956"><ele>1612.3</ele></trkpt><trkpt lat="47.671099" lon="11.913267"><ele>1612.8</ele></trkpt><trkpt lat="47.670824" lon="11.913524"><ele>1611.8</ele></trkpt><trkpt lat="47.670644" lon="11.913535"><ele>1611</ele></trkpt><trkpt lat="47.670483" lon="11.913573"><ele>1606</ele></trkpt><trkpt lat="47.670432" lon="11.913429"><ele>1570.1</ele></trkpt><trkpt lat="47.670549" lon="11.913153"><ele>1570.6</ele></trkpt><trkpt lat="47.670482" lon="11.912871"><ele>1567.1</ele></trkpt><trkpt lat="47.670518" lon="11.912708"><ele>1567.7</ele></trkpt><trkpt lat="47.67048" lon="11.912535"><ele>1568.3</ele></trkpt><trkpt lat="47.670465" lon="11.912362"><ele>1566.3</ele></trkpt><trkpt lat="47.670373" lon="11.912374"><ele>1566</ele></trkpt><trkpt lat="47.670367" lon="11.912147"><ele>1565.7</ele></trkpt><trkpt lat="47.670309" lon="11.912186"><ele>1565.4</ele></trkpt><trkpt lat="47.670293" lon="11.91204"><ele>1565.2</ele></trkpt><trkpt lat="47.670177" lon="11.912126"><ele>1564.9</ele></trkpt><trkpt lat="47.670172" lon="11.912054"><ele>1564.7</ele></trkpt><trkpt lat="47.670061" lon="11.912082"><ele>1564.5</ele></trkpt><trkpt lat="47.670138" lon="11.911798"><ele>1561.9</ele></trkpt><trkpt lat="47.670192" lon="11.911076"><ele>1543.6</ele></trkpt><trkpt lat="47.670231" lon="11.910994"><ele>1543.2</ele></trkpt><trkpt lat="47.670241" lon="11.910545"><ele>1533.6</ele></trkpt><trkpt lat="47.670366" lon="11.909965"><ele>1513</ele></trkpt><trkpt lat="47.670331" lon="11.909752"><ele>1508.2</ele></trkpt><trkpt lat="47.670174" lon="11.909995"><ele>1510.6</ele></trkpt><trkpt lat="47.669758" lon="11.910384"><ele>1520.8</ele></trkpt><trkpt lat="47.669561" lon="11.910191"><ele>1500.5</ele></trkpt><trkpt lat="47.669392" lon="11.909693"><ele>1492</ele></trkpt><trkpt lat="47.66922" lon="11.909609"><ele>1479.4</ele></trkpt><trkpt lat="47.669157" lon="11.909504"><ele>1477.1</ele></trkpt><trkpt lat="47.669087" lon="11.909387"><ele>1474.9</ele></trkpt><trkpt lat="47.668777" lon="11.909147"><ele>1465</ele></trkpt><trkpt lat="47.668719" lon="11.909032"><ele>1450</ele></trkpt><trkpt lat="47.668687" lon="11.908874"><ele>1447.3</ele></trkpt><trkpt lat="47.668573" lon="11.908545"><ele>1447</ele></trkpt><trkpt lat="47.668436" lon="11.908241"><ele>1446.4</ele></trkpt><trkpt lat="47.668361" lon="11.907836"><ele>1446.4</ele></trkpt><trkpt lat="47.668175" lon="11.907251"><ele>1445.9</ele></trkpt><trkpt lat="47.668001" lon="11.906911"><ele>1444.6</ele></trkpt><trkpt lat="47.667827" lon="11.906774"><ele>1441</ele></trkpt><trkpt lat="47.667587" lon="11.906638"><ele>1449.3</ele></trkpt><trkpt lat="47.667433" lon="11.90664"><ele>1448</ele></trkpt><trkpt lat="47.667286" lon="11.906609"><ele>1443</ele></trkpt><trkpt lat="47.666876" lon="11.906372"><ele>1435.3</ele></trkpt><trkpt lat="47.666706" lon="11.90624"><ele>1436.3</ele></trkpt><trkpt lat="47.666625" lon="11.906226"><ele>1434.4</ele></trkpt><trkpt lat="47.66648" lon="11.9062"><ele>1432.5</ele></trkpt><trkpt lat="47.666303" lon="11.906106"><ele>1432.2</ele></trkpt><trkpt lat="47.66615" lon="11.906098"><ele>1431.8</ele></trkpt><trkpt lat="47.665761" lon="11.905977"><ele>1428.4</ele></trkpt><trkpt lat="47.665291" lon="11.90595"><ele>1410</ele></trkpt><trkpt lat="47.665132" lon="11.905929"><ele>1408.9</ele></trkpt><trkpt lat="47.665088" lon="11.905882"><ele>1409.3</ele></trkpt><trkpt lat="47.665021" lon="11.905871"><ele>1409.6</ele></trkpt><trkpt lat="47.664984" lon="11.905793"><ele>1409.4</ele></trkpt><trkpt lat="47.664912" lon="11.905783"><ele>1409.1</ele></trkpt><trkpt lat="47.664777" lon="11.905542"><ele>1408.9</ele></trkpt><trkpt lat="47.664506" lon="11.905394"><ele>1408.6</ele></trkpt><trkpt lat="47.664389" lon="11.905205"><ele>1408.2</ele></trkpt><trkpt lat="47.664366" lon="11.905075"><ele>1408.2</ele></trkpt><trkpt lat="47.664335" lon="11.905002"><ele>1408.1</ele></trkpt><trkpt lat="47.664327" lon="11.904883"><ele>1408.2</ele></trkpt><trkpt lat="47.6643" lon="11.904818"><ele>1408.2</ele></trkpt><trkpt lat="47.664307" lon="11.904564"><ele>1407.4</ele></trkpt><trkpt lat="47.66433" lon="11.904489"><ele>1407.5</ele></trkpt><trkpt lat="47.664312" lon="11.904403"><ele>1407.5</ele></trkpt><trkpt lat="47.66433" lon="11.904342"><ele>1407.6</ele></trkpt><trkpt lat="47.664305" lon="11.904232"><ele>1406.9</ele></trkpt><trkpt lat="47.6643" lon="11.904027"><ele>1406.1</ele></trkpt><trkpt lat="47.664313" lon="11.903983"><ele>1405.8</ele></trkpt><trkpt lat="47.664267" lon="11.903454"><ele>1405.5</ele></trkpt><trkpt lat="47.664294" lon="11.903357"><ele>1405.1</ele></trkpt><trkpt lat="47.664376" lon="11.90261"><ele>1390</ele></trkpt><trkpt lat="47.6644" lon="11.902171"><ele>1368.9</ele></trkpt><trkpt lat="47.664543" lon="11.901659"><ele>1365.3</ele></trkpt><trkpt lat="47.664645" lon="11.901072"><ele>1363.9</ele></trkpt><trkpt lat="47.664647" lon="11.901064"><ele>1362.5</ele></trkpt><trkpt lat="47.66463" lon="11.90095"><ele>1362.4</ele></trkpt><trkpt lat="47.664748" lon="11.900283"><ele>1353.3</ele></trkpt><trkpt lat="47.664976" lon="11.899771"><ele>1346.7</ele></trkpt><trkpt lat="47.665132" lon="11.899577"><ele>1343.3</ele></trkpt><trkpt lat="47.66551" lon="11.899371"><ele>1337.4</ele></trkpt><trkpt lat="47.665552" lon="11.899226"><ele>1337.9</ele></trkpt><trkpt lat="47.66591" lon="11.898656"><ele>1334.1</ele></trkpt><trkpt lat="47.666075" lon="11.898193"><ele>1332.5</ele></trkpt><trkpt lat="47.66606" lon="11.898087"><ele>1328.6</ele></trkpt><trkpt lat="47.666207" lon="11.897421"><ele>1324.2</ele></trkpt><trkpt lat="47.666205" lon="11.897305"><ele>1323.3</ele></trkpt><trkpt lat="47.666308" lon="11.896901"><ele>1322.5</ele></trkpt><trkpt lat="47.666364" lon="11.896351"><ele>1316</ele></trkpt><trkpt lat="47.666341" lon="11.896217"><ele>1298</ele></trkpt><trkpt lat="47.666289" lon="11.896306"><ele>1305.7</ele></trkpt><trkpt lat="47.666143" lon="11.896853"><ele>1304.9</ele></trkpt><trkpt lat="47.665999" lon="11.897304"><ele>1305.3</ele></trkpt><trkpt lat="47.665902" lon="11.897489"><ele>1306.6</ele></trkpt><trkpt lat="47.665797" lon="11.897578"><ele>1305.8</ele></trkpt><trkpt lat="47.665732" lon="11.897682"><ele>1307.9</ele></trkpt><trkpt lat="47.665579" lon="11.898046"><ele>1310.8</ele></trkpt><trkpt lat="47.665495" lon="11.898201"><ele>1312.1</ele></trkpt><trkpt lat="47.66522" lon="11.898487"><ele>1313</ele></trkpt><trkpt lat="47.665025" lon="11.898719"><ele>1313</ele></trkpt><trkpt lat="47.664985" lon="11.898741"><ele>1312.5</ele></trkpt><trkpt lat="47.664649" lon="11.898741"><ele>1312.9</ele></trkpt><trkpt lat="47.664532" lon="11.898779"><ele>1313</ele></trkpt><trkpt lat="47.664352" lon="11.898774"><ele>1312.6</ele></trkpt><trkpt lat="47.664297" lon="11.898794"><ele>1312.4</ele></trkpt><trkpt lat="47.664211" lon="11.898886"><ele>1312</ele></trkpt><trkpt lat="47.66409" lon="11.899065"><ele>1300</ele></trkpt><trkpt lat="47.663942" lon="11.898679"><ele>1296.2</ele></trkpt><trkpt lat="47.663954" lon="11.898622"><ele>1295.6</ele></trkpt><trkpt lat="47.664061" lon="11.898411"><ele>1296.2</ele></trkpt><trkpt lat="47.664185" lon="11.898017"><ele>1295.9</ele></trkpt><trkpt lat="47.664239" lon="11.897846"><ele>1295.6</ele></trkpt><trkpt lat="47.664401" lon="11.897564"><ele>1296</ele></trkpt><trkpt lat="47.664522" lon="11.897394"><ele>1295.2</ele></trkpt><trkpt lat="47.664713" lon="11.897297"><ele>1293.8</ele></trkpt><trkpt lat="47.664791" lon="11.897239"><ele>1292.6</ele></trkpt><trkpt lat="47.66484" lon="11.897169"><ele>1284</ele></trkpt><trkpt lat="47.664895" lon="11.897072"><ele>1270.9</ele></trkpt><trkpt lat="47.664909" lon="11.897009"><ele>1271.6</ele></trkpt><trkpt lat="47.664911" lon="11.896842"><ele>1272.2</ele></trkpt><trkpt lat="47.664939" lon="11.896734"><ele>1273.2</ele></trkpt><trkpt lat="47.664946" lon="11.896578"><ele>1272.8</ele></trkpt><trkpt lat="47.664989" lon="11.896451"><ele>1272.2</ele></trkpt><trkpt lat="47.665016" lon="11.896305"><ele>1271.9</ele></trkpt><trkpt lat="47.66501" lon="11.896212"><ele>1271.6</ele></trkpt><trkpt lat="47.665036" lon="11.896168"><ele>1271.5</ele></trkpt><trkpt lat="47.665026" lon="11.896117"><ele>1271.3</ele></trkpt><trkpt lat="47.665071" lon="11.895964"><ele>1271.1</ele></trkpt><trkpt lat="47.665061" lon="11.895831"><ele>1270.1</ele></trkpt><trkpt lat="47.665009" lon="11.895769"><ele>1268.5</ele></trkpt><trkpt lat="47.665" lon="11.895638"><ele>1266.9</ele></trkpt><trkpt lat="47.664972" lon="11.895631"><ele>1266.2</ele></trkpt><trkpt lat="47.664973" lon="11.895544"><ele>1265.5</ele></trkpt><trkpt lat="47.664932" lon="11.895514"><ele>1240</ele></trkpt><trkpt lat="47.664719" lon="11.895206"><ele>1212.8</ele></trkpt><trkpt lat="47.664496" lon="11.895098"><ele>1212.9</ele></trkpt><trkpt lat="47.664144" lon="11.894839"><ele>1212.6</ele></trkpt><trkpt lat="47.664146" lon="11.894777"><ele>1212.7</ele></trkpt><trkpt lat="47.664053" lon="11.894593"><ele>1212.2</ele></trkpt><trkpt lat="47.664061" lon="11.894483"><ele>1211.6</ele></trkpt><trkpt lat="47.664208" lon="11.894425"><ele>1211.1</ele></trkpt><trkpt lat="47.664243" lon="11.894324"><ele>1209.9</ele></trkpt><trkpt lat="47.664223" lon="11.894228"><ele>1210.1</ele></trkpt><trkpt lat="47.664264" lon="11.894181"><ele>1209.5</ele></trkpt><trkpt lat="47.664319" lon="11.893838"><ele>1207.1</ele></trkpt><trkpt lat="47.664286" lon="11.893753"><ele>1205.7</ele></trkpt><trkpt lat="47.664351" lon="11.893697"><ele>1205.4</ele></trkpt><trkpt lat="47.664365" lon="11.893508"><ele>1203.9</ele></trkpt><trkpt lat="47.664408" lon="11.893451"><ele>1203.6</ele></trkpt><trkpt lat="47.664389" lon="11.893385"><ele>1203.3</ele></trkpt><trkpt lat="47.66445" lon="11.893285"><ele>1202.6</ele></trkpt><trkpt lat="47.664442" lon="11.893201"><ele>1200.7</ele></trkpt><trkpt lat="47.664499" lon="11.893122"><ele>1200</ele></trkpt><trkpt lat="47.664523" lon="11.893029"><ele>1198</ele></trkpt><trkpt lat="47.66461" lon="11.892857"><ele>1195.3</ele></trkpt><trkpt lat="47.664613" lon="11.892753"><ele>1193.9</ele></trkpt><trkpt lat="47.664692" lon="11.892636"><ele>1192.4</ele></trkpt><trkpt lat="47.664724" lon="11.89253"><ele>1190.9</ele></trkpt><trkpt lat="47.664815" lon="11.892536"><ele>1190.5</ele></trkpt><trkpt lat="47.664899" lon="11.892473"><ele>1187.2</ele></trkpt><trkpt lat="47.664927" lon="11.892386"><ele>1170</ele></trkpt><trkpt lat="47.665044" lon="11.892071"><ele>1152.2</ele></trkpt><trkpt lat="47.665087" lon="11.891834"><ele>1151.9</ele></trkpt><trkpt lat="47.665134" lon="11.891683"><ele>1151.7</ele></trkpt><trkpt lat="47.665173" lon="11.891663"><ele>1150.2</ele></trkpt><trkpt lat="47.665331" lon="11.891391"><ele>1147.8</ele></trkpt><trkpt lat="47.665453" lon="11.891031"><ele>1136</ele></trkpt><trkpt lat="47.665524" lon="11.890442"><ele>1126.7</ele></trkpt><trkpt lat="47.665622" lon="11.890288"><ele>1126.2</ele></trkpt><trkpt lat="47.665659" lon="11.890171"><ele>1121.1</ele></trkpt><trkpt lat="47.665785" lon="11.889776"><ele>1116</ele></trkpt><trkpt lat="47.666048" lon="11.888944"><ele>1087</ele></trkpt><trkpt lat="47.666125" lon="11.888906"><ele>1087</ele></trkpt><trkpt lat="47.666299" lon="11.889094"><ele>1087</ele></trkpt><trkpt lat="47.666502" lon="11.88929"><ele>1095</ele></trkpt><trkpt lat="47.666361" lon="11.88947"><ele>1095</ele></trkpt><trkpt lat="47.66627" lon="11.889357"><ele>1095</ele></trkpt><trkpt lat="47.666361" lon="11.88947"><ele>1095</ele></trkpt><trkpt lat="47.666502" lon="11.88929"><ele>1095</ele></trkpt><trkpt lat="47.666299" lon="11.889094"><ele>1087</ele></trkpt><trkpt lat="47.666125" lon="11.888906"><ele>1087</ele></trkpt><trkpt lat="47.666048" lon="11.888944"><ele>1087</ele></trkpt><trkpt lat="47.665902" lon="11.888967"><ele>1094.3</ele></trkpt><trkpt lat="47.665748" lon="11.88909"><ele>1109</ele></trkpt><trkpt lat="47.665599" lon="11.888856"><ele>1109</ele></trkpt><trkpt lat="47.665533" lon="11.888819"><ele>1109</ele></trkpt><trkpt lat="47.665459" lon="11.88867"><ele>1109</ele></trkpt><trkpt lat="47.665259" lon="11.888692"><ele>1109</ele></trkpt><trkpt lat="47.665254" lon="11.888608"><ele>1109</ele></trkpt><trkpt lat="47.66519" lon="11.888619"><ele>1109</ele></trkpt><trkpt lat="47.665128" lon="11.888706"><ele>1109</ele></trkpt><trkpt lat="47.66501" lon="11.888719"><ele>1109</ele></trkpt><trkpt lat="47.664594" lon="11.888765"><ele>1101</ele></trkpt><trkpt lat="47.664141" lon="11.888815"><ele>1093</ele></trkpt><trkpt lat="47.663921" lon="11.888823"><ele>1093</ele></trkpt><trkpt lat="47.663549" lon="11.888798"><ele>1093</ele></trkpt><trkpt lat="47.663417" lon="11.88876"><ele>1093</ele></trkpt><trkpt lat="47.663265" lon="11.88871"><ele>1096</ele></trkpt><trkpt lat="47.663172" lon="11.888678"><ele>1096</ele></trkpt><trkpt lat="47.663008" lon="11.888598"><ele>1096</ele></trkpt><trkpt lat="47.662677" lon="11.8884"><ele>1096</ele></trkpt><trkpt lat="47.66266" lon="11.888388"><ele>1096</ele></trkpt><trkpt lat="47.662312" lon="11.888143"><ele>1092.5</ele></trkpt><trkpt lat="47.662249" lon="11.888099"><ele>1089</ele></trkpt><trkpt lat="47.662037" lon="11.887951"><ele>1089</ele></trkpt><trkpt lat="47.662001" lon="11.887923"><ele>1089</ele></trkpt><trkpt lat="47.661636" lon="11.887658"><ele>1104.8</ele></trkpt><trkpt lat="47.661549" lon="11.88755"><ele>1111</ele></trkpt><trkpt lat="47.661516" lon="11.887335"><ele>1096</ele></trkpt><trkpt lat="47.661621" lon="11.887197"><ele>1092.7</ele></trkpt><trkpt lat="47.661625" lon="11.887176"><ele>1089.3</ele></trkpt><trkpt lat="47.661723" lon="11.886691"><ele>1086</ele></trkpt><trkpt lat="47.662148" lon="11.886935"><ele>1086</ele></trkpt></trkseg></trk></gpx>