<gpx xmlns="http://www.topografix.com/GPX/1/1" xmlns:xsi="http://www.w3.org/2001/XMLSchema-instance" xsi:schemaLocation="http://www.topografix.com/GPX/1/1 http://www.topografix.com/GPX/1/1/gpx.xsd" version="1.1" creator="togpx"><metadata/><wpt lat="47.6619190330728" lon="11.887823939323427"><name></name><desc>label=Spitzingstraße, Schliersee,BY,Germany</desc></wpt><wpt lat="47.639803055084634" lon="11.896444559097292"><name></name><desc>label=Valepper Straße, Schliersee,BY,Germany</desc></wpt><wpt lat="47.645730477586746" lon="11.943640708923342"><name></name><desc>label=Sebaldstein, Bayrischzell,BY,Germany</desc></wpt><wpt lat="47.643762575610324" lon="11.945287585258486"><name></name><desc>label=Schnittlauchrinne, Bayrischzell,BY,Germany</desc></wpt><wpt lat="47.67103733944023" lon="11.966471672058107"><name></name><desc>label=Mieseben, Bayrischzell,BY,Germany</desc></wpt><wpt lat="47.693871270977915" lon="11.966393887996674"><name></name><desc>label=Geitau, Bayrischzell,BY,Germany</desc></wpt><trk><name></name><desc>ascent=1031.4
descent=1355.3
opacity=0.9</desc><trkseg><trkpt lat="47.661909" lon="11.887856"><ele>1096.9</ele></trkpt><trkpt lat="47.661636" lon="11.887658"><ele>1104.8</ele></trkpt><trkpt lat="47.661549" lon="11.88755"><ele>1111</ele></trkpt><trkpt lat="47.661516" lon="11.887335"><ele>1096</ele></trkpt><trkpt lat="47.661473" lon="11.886826"><ele>1094.2</ele></trkpt><trkpt lat="47.661395" lon="11.886593"><ele>1088</ele></trkpt><trkpt lat="47.661338" lon="11.886517"><ele>1088</ele></trkpt><trkpt lat="47.661002" lon="11.886282"><ele>1088</ele></trkpt><trkpt lat="47.66093" lon="11.886168"><ele>1088</ele></trkpt><trkpt lat="47.660787" lon="11.886176"><ele>1094</ele></trkpt><trkpt lat="47.660432" lon="11.886144"><ele>1094</ele></trkpt><trkpt lat="47.660348" lon="11.886115"><ele>1094</ele></trkpt><trkpt lat="47.660151" lon="11.885874"><ele>1094</ele></trkpt><trkpt lat="47.659939" lon="11.885695"><ele>1097.1</ele></trkpt><trkpt lat="47.659745" lon="11.885666"><ele>1098</ele></trkpt><trkpt lat="47.659523" lon="11.885733"><ele>1086</ele></trkpt><trkpt lat="47.65933" lon="11.885713"><ele>1081.7</ele></trkpt><trkpt lat="47.658914" lon="11.885568"><ele>1077.8</ele></trkpt><trkpt lat="47.658809" lon="11.885567"><ele>1075.6</ele></trkpt><trkpt lat="47.65855" lon="11.88577"><ele>1071.6</ele></trkpt><trkpt lat="47.658461" lon="11.885809"><ele>1069.1</ele></trkpt><trkpt lat="47.658186" lon="11.885802"><ele>1064.6</ele></trkpt><trkpt lat="47.658074" lon="11.885857"><ele>1063.1</ele></trkpt><trkpt lat="47.657815" lon="11.886178"><ele>1060.3</ele></trkpt><trkpt lat="47.657623" lon="11.886292"><ele>1058.7</ele></trkpt><trkpt lat="47.657537" lon="11.88641"><ele>1057.2</ele></trkpt><trkpt lat="47.657452" lon="11.886713"><ele>1055.2</ele></trkpt><trkpt lat="47.657371" lon="11.8869"><ele>1053.1</ele></trkpt><trkpt lat="47.657268" lon="11.887215"><ele>1051.8</ele></trkpt><trkpt lat="47.657148" lon="11.887425"><ele>1050.4</ele></trkpt><trkpt lat="47.657063" lon="11.887618"><ele>1050.6</ele></trkpt><trkpt lat="47.65692" lon="11.887809"><ele>1049.6</ele></trkpt><trkpt lat="47.656754" lon="11.887972"><ele>1048.6</ele></trkpt><trkpt lat="47.656611" lon="11.88806"><ele>1047.4</ele></trkpt><trkpt lat="47.656522" lon="11.88807"><ele>1047.9</ele></trkpt><trkpt lat="47.656413" lon="11.888013"><ele>1047.8</ele></trkpt><trkpt lat="47.656315" lon="11.887991"><ele>1048.3</ele></trkpt><trkpt lat="47.656163" lon="11.888045"><ele>1042</ele></trkpt><trkpt lat="47.656059" lon="11.888069"><ele>1042</ele></trkpt><trkpt lat="47.655957" lon="11.888033"><ele>1042</ele></trkpt><trkpt lat="47.655767" lon="11.887893"><ele>1042.8</ele></trkpt><trkpt lat="47.65562" lon="11.887865"><ele>1042.8</ele></trkpt><trkpt lat="47.655492" lon="11.887915"><ele>1042.7</ele></trkpt><trkpt lat="47.655197" lon="11.88812"><ele>1043</ele></trkpt><trkpt lat="47.655058" lon="11.888236"><ele>1034.7</ele></trkpt><trkpt lat="47.654952" lon="11.888404"><ele>1033.5</ele></trkpt><trkpt lat="47.654799" lon="11.888755"><ele>1033.9</ele></trkpt><trkpt lat="47.654712" lon="11.889098"><ele>1034.3</ele></trkpt><trkpt lat="47.654614" lon="11.889288"><ele>1034.8</ele></trkpt><trkpt lat="47.654374" lon="11.889603"><ele>1032</ele></trkpt><trkpt lat="47.65407" lon="11.890059"><ele>1029</ele></trkpt><trkpt lat="47.653937" lon="11.890356"><ele>1029.3</ele></trkpt><trkpt lat="47.653796" lon="11.890729"><ele>1030.1</ele></trkpt><trkpt lat="47.652797" lon="11.892617"><ele>1031</ele></trkpt><trkpt lat="47.652566" lon="11.892985"><ele>1031</ele></trkpt><trkpt lat="47.652316" lon="11.893438"><ele>1031</ele></trkpt><trkpt lat="47.652225" lon="11.893554"><ele>1031</ele></trkpt><trkpt lat="47.652025" lon="11.893606"><ele>1031</ele></trkpt><trkpt lat="47.651614" lon="11.893686"><ele>1034.4</ele></trkpt><trkpt lat="47.651178" lon="11.893811"><ele>1034.5</ele></trkpt><trkpt lat="47.650872" lon="11.89396"><ele>1034.6</ele></trkpt><trkpt lat="47.65077" lon="11.893969"><ele>1039</ele></trkpt><trkpt lat="47.650709" lon="11.893977"><ele>1036.8</ele></trkpt><trkpt lat="47.650484" lon="11.89389"><ele>1036.2</ele></trkpt><trkpt lat="47.650192" lon="11.89365"><ele>1035.8</ele></trkpt><trkpt lat="47.650121" lon="11.893638"><ele>1035.4</ele></trkpt><trkpt lat="47.650029" lon="11.893658"><ele>1034.9</ele></trkpt><trkpt lat="47.649951" lon="11.893704"><ele>1021</ele></trkpt><trkpt lat="47.64985" lon="11.893796"><ele>1022.9</ele></trkpt><trkpt lat="47.649798" lon="11.893915"><ele>1023.1</ele></trkpt><trkpt lat="47.649742" lon="11.894233"><ele>1022.6</ele></trkpt><trkpt lat="47.649668" lon="11.89454"><ele>1022.5</ele></trkpt><trkpt lat="47.649575" lon="11.894733"><ele>1022.3</ele></trkpt><trkpt lat="47.64949" lon="11.894852"><ele>1022.2</ele></trkpt><trkpt lat="47.649248" lon="11.895058"><ele>1021.7</ele></trkpt><trkpt lat="47.649179" lon="11.89518"><ele>1021.4</ele></trkpt><trkpt lat="47.64905" lon="11.895602"><ele>1015</ele></trkpt><trkpt lat="47.649002" lon="11.895749"><ele>1015</ele></trkpt><trkpt lat="47.64894" lon="11.895752"><ele>1013.7</ele></trkpt><trkpt lat="47.64887" lon="11.895718"><ele>1013.5</ele></trkpt><trkpt lat="47.648729" lon="11.895539"><ele>1013.4</ele></trkpt><trkpt lat="47.648639" lon="11.895462"><ele>1011.1</ele></trkpt><trkpt lat="47.648536" lon="11.895407"><ele>1010.7</ele></trkpt><trkpt lat="47.648404" lon="11.895387"><ele>1010.5</ele></trkpt><trkpt lat="47.647972" lon="11.895433"><ele>1010.3</ele></trkpt><trkpt lat="47.647633" lon="11.895618"><ele>1003.5</ele></trkpt><trkpt lat="47.647328" lon="11.895826"><ele>997.1</ele></trkpt><trkpt lat="47.647207" lon="11.895866"><ele>993.4</ele></trkpt><trkpt lat="47.646931" lon="11.895863"><ele>988</ele></trkpt><trkpt lat="47.646409" lon="11.8957"><ele>983.3</ele></trkpt><trkpt lat="47.646348" lon="11.89571"><ele>984.8</ele></trkpt><trkpt lat="47.646276" lon="11.895758"><ele>984.6</ele></trkpt><trkpt lat="47.645977" lon="11.896146"><ele>985.2</ele></trkpt><trkpt lat="47.645897" lon="11.896227"><ele>984.8</ele></trkpt><trkpt lat="47.645728" lon="11.89635"><ele>971</ele></trkpt><trkpt lat="47.645089" lon="11.896685"><ele>979.8</ele></trkpt><trkpt lat="47.644863" lon="11.896764"><ele>975.5</ele></trkpt><trkpt lat="47.643883" lon="11.896943"><ele>970.2</ele></trkpt><trkpt lat="47.643678" lon="11.896926"><ele>967.4</ele></trkpt><trkpt lat="47.643136" lon="11.896941"><ele>964</ele></trkpt><trkpt lat="47.64287" lon="11.896891"><ele>964.6</ele></trkpt><trkpt lat="47.642675" lon="11.896908"><ele>964.6</ele></trkpt><trkpt lat="47.642493" lon="11.896953"><ele>964.2</ele></trkpt><trkpt lat="47.642322" lon="11.897024"><ele>964</ele></trkpt><trkpt lat="47.642145" lon="11.897025"><ele>962.5</ele></trkpt><trkpt lat="47.641991" lon="11.897004"><ele>962.6</ele></trkpt><trkpt lat="47.641903" lon="11.896964"><ele>962.7</ele></trkpt><trkpt lat="47.641595" lon="11.896737"><ele>961</ele></trkpt><trkpt lat="47.640885" lon="11.896389"><ele>957.1</ele></trkpt><trkpt lat="47.640605" lon="11.896221"><ele>947</ele></trkpt><trkpt lat="47.640556" lon="11.896238"><ele>947</ele></trkpt><trkpt lat="47.640482" lon="11.896288"><ele>951</ele></trkpt><trkpt lat="47.640366" lon="11.896266"><ele>950.6</ele></trkpt><trkpt lat="47.640274" lon="11.896305"><ele>950.3</ele></trkpt><trkpt lat="47.640101" lon="11.896323"><ele>950</ele></trkpt><trkpt lat="47.640015" lon="11.896426"><ele>949.7</ele></trkpt><trkpt lat="47.639856" lon="11.896435"><ele>949.4</ele></trkpt><trkpt lat="47.639804" lon="11.896453"><ele>949.2</ele></trkpt><trkpt lat="47.639743" lon="11.896474"><ele>949.1</ele></trkpt><trkpt lat="47.639597" lon="11.896568"><ele>948.8</ele></trkpt><trkpt lat="47.639454" lon="11.896699"><ele>968</ele></trkpt><trkpt lat="47.639372" lon="11.896792"><ele>968.1</ele></trkpt><trkpt lat="47.63932" lon="11.896777"><ele>968.1</ele></trkpt><trkpt lat="47.639246" lon="11.896687"><ele>968.1</ele></trkpt><trkpt lat="47.638989" lon="11.896596"><ele>967.3</ele></trkpt><trkpt lat="47.638779" lon="11.896585"><ele>966.5</ele></trkpt><trkpt lat="47.638654" lon="11.896653"><ele>965.6</ele></trkpt><trkpt lat="47.638556" lon="11.896772"><ele>966.6</ele></trkpt><trkpt lat="47.638477" lon="11.896807"><ele>966.7</ele></trkpt><trkpt lat="47.638416" lon="11.89686"><ele>966.8</ele></trkpt><trkpt lat="47.63837" lon="11.896966"><ele>967.3</ele></trkpt><trkpt lat="47.638445" lon="11.897122"><ele>967.8</ele></trkpt><trkpt lat="47.638508" lon="11.897322"><ele>968.3</ele></trkpt><trkpt lat="47.638537" lon="11.897811"><ele>969.6</ele></trkpt><trkpt lat="47.638599" lon="11.897996"><ele>969.8</ele></trkpt><trkpt lat="47.638604" lon="11.898084"><ele>970.1</ele></trkpt><trkpt lat="47.638571" lon="11.898171"><ele>970.3</ele></trkpt><trkpt lat="47.638643" lon="11.898677"><ele>975.3</ele></trkpt><trkpt lat="47.638572" lon="11.898773"><ele>975.5</ele></trkpt><trkpt lat="47.638526" lon="11.898906"><ele>976.9</ele></trkpt><trkpt lat="47.638558" lon="11.899058"><ele>978.2</ele></trkpt><trkpt lat="47.638528" lon="11.899212"><ele>979.4</ele></trkpt><trkpt lat="47.638618" lon="11.899334"><ele>988</ele></trkpt><trkpt lat="47.638633" lon="11.899451"><ele>1005.3</ele></trkpt><trkpt lat="47.638583" lon="11.899538"><ele>1004.2</ele></trkpt><trkpt lat="47.638455" lon="11.899606"><ele>1003.4</ele></trkpt><trkpt lat="47.638368" lon="11.899815"><ele>1004.2</ele></trkpt><trkpt lat="47.638326" lon="11.900135"><ele>1007.6</ele></trkpt><trkpt lat="47.638098" lon="11.900416"><ele>1010.6</ele></trkpt><trkpt lat="47.638044" lon="11.90053"><ele>1011.9</ele></trkpt><trkpt lat="47.63794" lon="11.900595"><ele>1013.1</ele></trkpt><trkpt lat="47.637852" lon="11.90069"><ele>1014.3</ele></trkpt><trkpt lat="47.637725" lon="11.900831"><ele>1014.4</ele></trkpt><trkpt lat="47.637586" lon="11.901034"><ele>1020.6</ele></trkpt><trkpt lat="47.637497" lon="11.901184"><ele>1026.3</ele></trkpt><trkpt lat="47.637499" lon="11.901458"><ele>1029.8</ele></trkpt><trkpt lat="47.637475" lon="11.901533"><ele>1032.5</ele></trkpt><trkpt lat="47.63741" lon="11.901557"><ele>1034.7</ele></trkpt><trkpt lat="47.637259" lon="11.901811"><ele>1036.9</ele></trkpt><trkpt lat="47.637155" lon="11.90194"><ele>1038.1</ele></trkpt><trkpt lat="47.637067" lon="11.902089"><ele>1039.4</ele></trkpt><trkpt lat="47.636774" lon="11.902325"><ele>1043.8</ele></trkpt><trkpt lat="47.636762" lon="11.902461"><ele>1043.6</ele></trkpt><trkpt lat="47.636639" lon="11.902655"><ele>1068</ele></trkpt><trkpt lat="47.636594" lon="11.902706"><ele>1068</ele></trkpt><trkpt lat="47.63646" lon="11.90282"><ele>1071.4</ele></trkpt><trkpt lat="47.636426" lon="11.902948"><ele>1071.2</ele></trkpt><trkpt lat="47.636353" lon="11.903031"><ele>1071</ele></trkpt><trkpt lat="47.636238" lon="11.903021"><ele>1070.7</ele></trkpt><trkpt lat="47.636111" lon="11.90293"><ele>1070.5</ele></trkpt><trkpt lat="47.635968" lon="11.903063"><ele>1070.3</ele></trkpt><trkpt lat="47.635838" lon="11.903288"><ele>1070.2</ele></trkpt><trkpt lat="47.635715" lon="11.903414"><ele>1071.3</ele></trkpt><trkpt lat="47.635622" lon="11.903598"><ele>1072.3</ele></trkpt><trkpt lat="47.635649" lon="11.903768"><ele>1073.3</ele></trkpt><trkpt lat="47.635657" lon="11.903946"><ele>1074.2</ele></trkpt><trkpt lat="47.635617" lon="11.904152"><ele>1075.6</ele></trkpt><trkpt lat="47.635647" lon="11.904294"><ele>1074</ele></trkpt><trkpt lat="47.635679" lon="11.904763"><ele>1069.5</ele></trkpt><trkpt lat="47.635578" lon="11.905103"><ele>1069.2</ele></trkpt><trkpt lat="47.635578" lon="11.905209"><ele>1068.8</ele></trkpt><trkpt lat="47.635854" lon="11.90558"><ele>1066.2</ele></trkpt><trkpt lat="47.636225" lon="11.906536"><ele>1064.9</ele></trkpt><trkpt lat="47.636443" lon="11.906865"><ele>1065.7</ele></trkpt><trkpt lat="47.636703" lon="11.907741"><ele>1070.5</ele></trkpt><trkpt lat="47.63662" lon="11.908824"><ele>1078</ele></trkpt><trkpt lat="47.636497" lon="11.909347"><ele>1081.2</ele></trkpt><trkpt lat="47.636467" lon="11.910531"><ele>1082.9</ele></trkpt><trkpt lat="47.63605" lon="11.911478"><ele>1080</ele></trkpt><trkpt lat="47.63605" lon="11.911738"><ele>1079.8</ele></trkpt><trkpt lat="47.63585" lon="11.91227"><ele>1079.4</ele></trkpt><trkpt lat="47.635844" lon="11.912515"><ele>1079.3</ele></trkpt><trkpt lat="47.635723" lon="11.912707"><ele>1079.8</ele></trkpt><trkpt lat="47.635562" lon="11.912702"><ele>1080.5</ele></trkpt><trkpt lat="47.635471" lon="11.912926"><ele>1081.1</ele></trkpt><trkpt lat="47.635281" lon="11.913209"><ele>1082.2</ele></trkpt><trkpt lat="47.635424" lon="11.9134"><ele>1081.8</ele></trkpt><trkpt lat="47.635573" lon="11.913421"><ele>1081.5</ele></trkpt><trkpt lat="47.635689" lon="11.913575"><ele>1078</ele></trkpt><trkpt lat="47.635776" lon="11.91367"><ele>1078</ele></trkpt><trkpt lat="47.635811" lon="11.913708"><ele>1078</ele></trkpt><trkpt lat="47.635762" lon="11.913759"><ele>1078</ele></trkpt><trkpt lat="47.635684" lon="11.91384"><ele>1087</ele></trkpt><trkpt lat="47.635498" lon="11.913771"><ele>1085.9</ele></trkpt><trkpt lat="47.635347" lon="11.913926"><ele>1086.8</ele></trkpt><trkpt lat="47.635226" lon="11.91489"><ele>1092</ele></trkpt><trkpt lat="47.63527" lon="11.915049"><ele>1092.5</ele></trkpt><trkpt lat="47.635156" lon="11.915549"><ele>1095.9</ele></trkpt><trkpt lat="47.635194" lon="11.915906"><ele>1101.8</ele></trkpt><trkpt lat="47.6351" lon="11.916351"><ele>1104.4</ele></trkpt><trkpt lat="47.635112" lon="11.916702"><ele>1106.8</ele></trkpt><trkpt lat="47.634876" lon="11.916824"><ele>1108.4</ele></trkpt><trkpt lat="47.634757" lon="11.917122"><ele>1113.4</ele></trkpt><trkpt lat="47.634522" lon="11.917459"><ele>1116.7</ele></trkpt><trkpt lat="47.634242" lon="11.918101"><ele>1120.3</ele></trkpt><trkpt lat="47.634012" lon="11.918114"><ele>1121.1</ele></trkpt><trkpt lat="47.6339" lon="11.918284"><ele>1122.1</ele></trkpt><trkpt lat="47.633778" lon="11.918374"><ele>1121.7</ele></trkpt><trkpt lat="47.633621" lon="11.918811"><ele>1122.6</ele></trkpt><trkpt lat="47.633666" lon="11.918892"><ele>1123</ele></trkpt><trkpt lat="47.63381" lon="11.918894"><ele>1122.5</ele></trkpt><trkpt lat="47.633896" lon="11.919077"><ele>1122.1</ele></trkpt><trkpt lat="47.633858" lon="11.919329"><ele>1123</ele></trkpt><trkpt lat="47.633662" lon="11.91967"><ele>1123.2</ele></trkpt><trkpt lat="47.633665" lon="11.919826"><ele>1126.7</ele></trkpt><trkpt lat="47.633828" lon="11.919903"><ele>1126.7</ele></trkpt><trkpt lat="47.633872" lon="11.920023"><ele>1128</ele></trkpt><trkpt lat="47.633803" lon="11.920438"><ele>1133.7</ele></trkpt><trkpt lat="47.633669" lon="11.920856"><ele>1136.5</ele></trkpt><trkpt lat="47.6336" lon="11.921671"><ele>1152.4</ele></trkpt><trkpt lat="47.633482" lon="11.921739"><ele>1152.8</ele></trkpt><trkpt lat="47.633372" lon="11.922056"><ele>1162.6</ele></trkpt><trkpt lat="47.633295" lon="11.922886"><ele>1171.5</ele></trkpt><trkpt lat="47.633237" lon="11.923158"><ele>1173.5</ele></trkpt><trkpt lat="47.633246" lon="11.923983"><ele>1184</ele></trkpt><trkpt lat="47.633503" lon="11.924527"><ele>1188.4</ele></trkpt><trkpt lat="47.633743" lon="11.925087"><ele>1188.7</ele></trkpt><trkpt lat="47.634052" lon="11.925435"><ele>1188.6</ele></trkpt><trkpt lat="47.633953" lon="11.92589"><ele>1190.6</ele></trkpt><trkpt lat="47.633964" lon="11.926331"><ele>1195.2</ele></trkpt><trkpt lat="47.634309" lon="11.927839"><ele>1209</ele></trkpt><trkpt lat="47.635032" lon="11.928411"><ele>1229</ele></trkpt><trkpt lat="47.635069" lon="11.928436"><ele>1229</ele></trkpt><trkpt lat="47.635035" lon="11.928488"><ele>1229</ele></trkpt><trkpt lat="47.634665" lon="11.928911"><ele>1228.2</ele></trkpt><trkpt lat="47.634755" lon="11.929532"><ele>1229.9</ele></trkpt><trkpt lat="47.634659" lon="11.929548"><ele>1229</ele></trkpt><trkpt lat="47.634569" lon="11.929524"><ele>1228.2</ele></trkpt><trkpt lat="47.63454" lon="11.929622"><ele>1227.4</ele></trkpt><trkpt lat="47.634628" lon="11.929845"><ele>1231.3</ele></trkpt><trkpt lat="47.634612" lon="11.930137"><ele>1231.6</ele></trkpt><trkpt lat="47.634226" lon="11.930035"><ele>1231.9</ele></trkpt><trkpt lat="47.634193" lon="11.930467"><ele>1235</ele></trkpt><trkpt lat="47.634105" lon="11.930794"><ele>1240.2</ele></trkpt><trkpt lat="47.634728" lon="11.931146"><ele>1248.6</ele></trkpt><trkpt lat="47.634628" lon="11.931692"><ele>1261</ele></trkpt><trkpt lat="47.634771" lon="11.931788"><ele>1261.4</ele></trkpt><trkpt lat="47.63476" lon="11.932138"><ele>1272.2</ele></trkpt><trkpt lat="47.635005" lon="11.932239"><ele>1280</ele></trkpt><trkpt lat="47.635079" lon="11.932409"><ele>1284.3</ele></trkpt><trkpt lat="47.63545" lon="11.932552"><ele>1286</ele></trkpt><trkpt lat="47.635381" lon="11.932823"><ele>1287.6</ele></trkpt><trkpt lat="47.635525" lon="11.932908"><ele>1292.1</ele></trkpt><trkpt lat="47.635679" lon="11.933534"><ele>1300.4</ele></trkpt><trkpt lat="47.635657" lon="11.933794"><ele>1318</ele></trkpt><trkpt lat="47.635821" lon="11.934689"><ele>1356.9</ele></trkpt><trkpt lat="47.635864" lon="11.934819"><ele>1357.1</ele></trkpt><trkpt lat="47.63594" lon="11.934861"><ele>1357.3</ele></trkpt><trkpt lat="47.6361" lon="11.93489"><ele>1357.6</ele></trkpt><trkpt lat="47.636166" lon="11.934929"><ele>1357.9</ele></trkpt><trkpt lat="47.636206" lon="11.935"><ele>1358.5</ele></trkpt><trkpt lat="47.636198" lon="11.935108"><ele>1359</ele></trkpt><trkpt lat="47.636165" lon="11.935211"><ele>1359</ele></trkpt><trkpt lat="47.636187" lon="11.935344"><ele>1359</ele></trkpt><trkpt lat="47.636212" lon="11.935383"><ele>1359</ele></trkpt><trkpt lat="47.636312" lon="11.935382"><ele>1359.5</ele></trkpt><trkpt lat="47.636404" lon="11.935515"><ele>1361.9</ele></trkpt><trkpt lat="47.636474" lon="11.93566"><ele>1362.3</ele></trkpt><trkpt lat="47.636538" lon="11.935728"><ele>1362.7</ele></trkpt><trkpt lat="47.636625" lon="11.935741"><ele>1362.6</ele></trkpt><trkpt lat="47.636668" lon="11.93577"><ele>1363.1</ele></trkpt><trkpt lat="47.636739" lon="11.935899"><ele>1364.9</ele></trkpt><trkpt lat="47.636859" lon="11.936003"><ele>1366.6</ele></trkpt><trkpt lat="47.637049" lon="11.936253"><ele>1370.2</ele></trkpt><trkpt lat="47.637162" lon="11.936501"><ele>1372.9</ele></trkpt><trkpt lat="47.637342" lon="11.936576"><ele>1375.4</ele></trkpt><trkpt lat="47.637388" lon="11.936625"><ele>1376.3</ele></trkpt><trkpt lat="47.637484" lon="11.936954"><ele>1379.3</ele></trkpt><trkpt lat="47.637532" lon="11.937055"><ele>1382.7</ele></trkpt><trkpt lat="47.637674" lon="11.937219"><ele>1387</ele></trkpt><trkpt lat="47.637899" lon="11.937332"><ele>1389.4</ele></trkpt><trkpt lat="47.638045" lon="11.937446"><ele>1405</ele></trkpt><trkpt lat="47.638442" lon="11.937804"><ele>1435.2</ele></trkpt><trkpt lat="47.638594" lon="11.93787"><ele>1437.2</ele></trkpt><trkpt lat="47.638712" lon="11.938001"><ele>1439</ele></trkpt><trkpt lat="47.638888" lon="11.938136"><ele>1440.7</ele></trkpt><trkpt lat="47.639184" lon="11.938453"><ele>1448.5</ele></trkpt><trkpt lat="47.639286" lon="11.938469"><ele>1454.7</ele></trkpt><trkpt lat="47.639443" lon="11.938428"><ele>1454.7</ele></trkpt><trkpt lat="47.63974" lon="11.938404"><ele>1460.5</ele></trkpt><trkpt lat="47.639906" lon="11.938479"><ele>1463.7</ele></trkpt><trkpt lat="47.640103" lon="11.938516"><ele>1468</ele></trkpt><trkpt lat="47.640289" lon="11.938503"><ele>1470.1</ele></trkpt><trkpt lat="47.640417" lon="11.938458"><ele>1470.2</ele></trkpt><trkpt lat="47.640442" lon="11.938413"><ele>1470.3</ele></trkpt><trkpt lat="47.640493" lon="11.938457"><ele>1470.4</ele></trkpt><trkpt lat="47.640807" lon="11.938505"><ele>1473.3</ele></trkpt><trkpt lat="47.640899" lon="11.938583"><ele>1474.4</ele></trkpt><trkpt lat="47.640931" lon="11.938731"><ele>1475.5</ele></trkpt><trkpt lat="47.641009" lon="11.938767"><ele>1476.4</ele></trkpt><trkpt lat="47.641096" lon="11.938763"><ele>1478.8</ele></trkpt><trkpt lat="47.64119" lon="11.93873"><ele>1479.7</ele></trkpt><trkpt lat="47.64142" lon="11.938747"><ele>1482.2</ele></trkpt><trkpt lat="47.641425" lon="11.938841"><ele>1491</ele></trkpt><trkpt lat="47.641582" lon="11.938748"><ele>1491</ele></trkpt><trkpt lat="47.641683" lon="11.939199"><ele>1528.3</ele></trkpt><trkpt lat="47.641863" lon="11.939488"><ele>1530.1</ele></trkpt><trkpt lat="47.642059" lon="11.93966"><ele>1531.7</ele></trkpt><trkpt lat="47.642304" lon="11.939735"><ele>1533</ele></trkpt><trkpt lat="47.642716" lon="11.939724"><ele>1543.1</ele></trkpt><trkpt lat="47.643699" lon="11.939542"><ele>1575.3</ele></trkpt><trkpt lat="47.643849" lon="11.93943"><ele>1574.1</ele></trkpt><trkpt lat="47.644437" lon="11.938781"><ele>1587.5</ele></trkpt><trkpt lat="47.644601" lon="11.938467"><ele>1607</ele></trkpt><trkpt lat="47.644833" lon="11.938973"><ele>1607</ele></trkpt><trkpt lat="47.644866" lon="11.939012"><ele>1635.6</ele></trkpt><trkpt lat="47.645036" lon="11.9389"><ele>1636.4</ele></trkpt><trkpt lat="47.645101" lon="11.938928"><ele>1637.7</ele></trkpt><trkpt lat="47.645296" lon="11.939085"><ele>1640.6</ele></trkpt><trkpt lat="47.645624" lon="11.939175"><ele>1643.5</ele></trkpt><trkpt lat="47.645667" lon="11.939165"><ele>1643.3</ele></trkpt><trkpt lat="47.645775" lon="11.939077"><ele>1643</ele></trkpt><trkpt lat="47.645895" lon="11.938919"><ele>1643.8</ele></trkpt><trkpt lat="47.646175" lon="11.938672"><ele>1647.3</ele></trkpt><trkpt lat="47.646277" lon="11.938672"><ele>1652.8</ele></trkpt><trkpt lat="47.646398" lon="11.938899"><ele>1654.4</ele></trkpt><trkpt lat="47.646466" lon="11.938887"><ele>1655.7</ele></trkpt><trkpt lat="47.646564" lon="11.938696"><ele>1656.1</ele></trkpt><trkpt lat="47.646797" lon="11.938603"><ele>1688</ele></trkpt><trkpt lat="47.646803" lon="11.938809"><ele>1686.9</ele></trkpt><trkpt lat="47.646701" lon="11.939307"><ele>1688.2</ele></trkpt><trkpt lat="47.646656" lon="11.93935"><ele>1683</ele></trkpt><trkpt lat="47.646618" lon="11.939688"><ele>1704.5</ele></trkpt><trkpt lat="47.646518" lon="11.939865"><ele>1702.6</ele></trkpt><trkpt lat="47.646464" lon="11.940089"><ele>1703.1</ele></trkpt><trkpt lat="47.646421" lon="11.940466"><ele>1703.7</ele></trkpt><trkpt lat="47.646274" lon="11.940615"><ele>1704.2</ele></trkpt><trkpt lat="47.646339" lon="11.940807"><ele>1704.6</ele></trkpt><trkpt lat="47.646338" lon="11.941298"><ele>1710.1</ele></trkpt><trkpt lat="47.646303" lon="11.941446"><ele>1738</ele></trkpt><trkpt lat="47.646369" lon="11.942411"><ele>1752.6</ele></trkpt><trkpt lat="47.646133" lon="11.942838"><ele>1753.7</ele></trkpt><trkpt lat="47.645962" lon="11.943041"><ele>1753.1</ele></trkpt><trkpt lat="47.64594" lon="11.943184"><ele>1752.5</ele></trkpt><trkpt lat="47.645692" lon="11.943467"><ele>1754.7</ele></trkpt><trkpt lat="47.645709" lon="11.943614"><ele>1755.5</ele></trkpt><trkpt lat="47.645705" lon="11.943628"><ele>1755.9</ele></trkpt><trkpt lat="47.645661" lon="11.943816"><ele>1756.3</ele></trkpt><trkpt lat="47.645623" lon="11.944343"><ele>1757.8</ele></trkpt><trkpt lat="47.64563" lon="11.944553"><ele>1763</ele></trkpt><trkpt lat="47.645538" lon="11.944669"><ele>1778.5</ele></trkpt><trkpt lat="47.645464" lon="11.944677"><ele>1778.3</ele></trkpt><trkpt lat="47.645149" lon="11.944881"><ele>1777.7</ele></trkpt><trkpt lat="47.644887" lon="11.945151"><ele>1777.9</ele></trkpt><trkpt lat="47.644835" lon="11.94518"><ele>1778.3</ele></trkpt><trkpt lat="47.644802" lon="11.945269"><ele>1778.6</ele></trkpt><trkpt lat="47.644741" lon="11.94535"><ele>1779.1</ele></trkpt><trkpt lat="47.644639" lon="11.94544"><ele>1779.7</ele></trkpt><trkpt lat="47.644622" lon="11.945439"><ele>1779.9</ele></trkpt><trkpt lat="47.644559" lon="11.945274"><ele>1780.7</ele></trkpt><trkpt lat="47.644537" lon="11.945266"><ele>1780.9</ele></trkpt><trkpt lat="47.64451" lon="11.945123"><ele>1781.5</ele></trkpt><trkpt lat="47.644438" lon="11.945098"><ele>1781.8</ele></trkpt><trkpt lat="47.644407" lon="11.945119"><ele>1782</ele></trkpt><trkpt lat="47.644337" lon="11.945075"><ele>1782.2</ele></trkpt><trkpt lat="47.644275" lon="11.945114"><ele>1782.9</ele></trkpt><trkpt lat="47.644153" lon="11.945144"><ele>1783.4</ele></trkpt><trkpt lat="47.644127" lon="11.945092"><ele>1783.7</ele></trkpt><trkpt lat="47.644073" lon="11.945156"><ele>1783.4</ele></trkpt><trkpt lat="47.643856" lon="11.945271"><ele>1774</ele></trkpt><trkpt lat="47.643839" lon="11.945318"><ele>1774</ele></trkpt><trkpt lat="47.643822" lon="11.945313"><ele>1774</ele></trkpt><trkpt lat="47.643812" lon="11.945259"><ele>1774</ele></trkpt><trkpt lat="47.643791" lon="11.945251"><ele>1774</ele></trkpt><trkpt lat="47.643761" lon="11.945254"><ele>1761.4</ele></trkpt><trkpt lat="47.643791" lon="11.945251"><ele>1774</ele></trkpt><trkpt lat="47.643812" lon="11.945259"><ele>1774</ele></trkpt><trkpt lat="47.643822" lon="11.945313"><ele>1774</ele></trkpt><trkpt lat="47.643839" lon="11.945318"><ele>1774</ele></trkpt><trkpt lat="47.643856" lon="11.945271"><ele>1774</ele></trkpt><trkpt lat="47.644073" lon="11.945156"><ele>1783.4</ele></trkpt><trkpt lat="47.644127" lon="11.945092"><ele>1783.7</ele></trkpt><trkpt lat="47.644153" lon="11.945144"><ele>1783.4</ele></trkpt><trkpt lat="47.644275" lon="11.945114"><ele>1782.9</ele></trkpt><trkpt lat="47.644337" lon="11.945075"><ele>1782.2</ele></trkpt><trkpt lat="47.644407" lon="11.945119"><ele>1782</ele></trkpt><trkpt lat="47.644438" lon="11.945098"><ele>1781.8</ele></trkpt><trkpt lat="47.64451" lon="11.945123"><ele>1781.5</ele></trkpt><trkpt lat="47.644537" lon="11.945266"><ele>1780.9</ele></trkpt><trkpt lat="47.644559" lon="11.945274"><ele>1780.7</ele></trkpt><trkpt lat="47.644622" lon="11.945439"><ele>1779.9</ele></trkpt><trkpt lat="47.644639" lon="11.94544"><ele>1779.7</ele></trkpt><trkpt lat="47.644741" lon="11.94535"><ele>1779.1</ele></trkpt><trkpt lat="47.644802" lon="11.945269"><ele>1778.6</ele></trkpt><trkpt lat="47.644835" lon="11.94518"><ele>1778.3</ele></trkpt><trkpt lat="47.644887" lon="11.945151"><ele>1777.9</ele></trkpt><trkpt lat="47.645149" lon="11.944881"><ele>1777.7</ele></trkpt><trkpt lat="47.645464" lon="11.944677"><ele>1778.3</ele></trkpt><trkpt lat="47.645538" lon="11.944669"><ele>1778.5</ele></trkpt><trkpt lat="47.64563" lon="11.944553"><ele>1763</ele></trkpt><trkpt lat="47.645641" lon="11.944699"><ele>1743.5</ele></trkpt><trkpt lat="47.645717" lon="11.944829"><ele>1741.6</ele></trkpt><trkpt lat="47.645743" lon="11.944977"><ele>1737.3</ele></trkpt><trkpt lat="47.645794" lon="11.945102"><ele>1734.9</ele></trkpt><trkpt lat="47.646056" lon="11.945271"><ele>1734</ele></trkpt><trkpt lat="47.646273" lon="11.945481"><ele>1734.7</ele></trkpt><trkpt lat="47.64646" lon="11.945614"><ele>1735.5</ele></trkpt><trkpt lat="47.646651" lon="11.94581"><ele>1736.3</ele></trkpt><trkpt lat="47.646813" lon="11.946026"><ele>1716</ele></trkpt><trkpt lat="47.646855" lon="11.94617"><ele>1716</ele></trkpt><trkpt lat="47.646903" lon="11.946215"><ele>1716</ele></trkpt><trkpt lat="47.646777" lon="11.946245"><ele>1703.9</ele></trkpt><trkpt lat="47.646767" lon="11.946338"><ele>1703.3</ele></trkpt><trkpt lat="47.646715" lon="11.946422"><ele>1702.8</ele></trkpt><trkpt lat="47.646719" lon="11.946494"><ele>1702.2</ele></trkpt><trkpt lat="47.646665" lon="11.946531"><ele>1701</ele></trkpt><trkpt lat="47.646679" lon="11.946592"><ele>1700.4</ele></trkpt><trkpt lat="47.646631" lon="11.946612"><ele>1699.8</ele></trkpt><trkpt lat="47.646644" lon="11.946655"><ele>1699.1</ele></trkpt><trkpt lat="47.646602" lon="11.946694"><ele>1698.5</ele></trkpt><trkpt lat="47.646623" lon="11.946785"><ele>1699</ele></trkpt><trkpt lat="47.646576" lon="11.946812"><ele>1699.1</ele></trkpt><trkpt lat="47.646574" lon="11.946929"><ele>1699.7</ele></trkpt><trkpt lat="47.646522" lon="11.946949"><ele>1699.9</ele></trkpt><trkpt lat="47.646481" lon="11.947007"><ele>1700.1</ele></trkpt><trkpt lat="47.646188" lon="11.947104"><ele>1700.3</ele></trkpt><trkpt lat="47.646102" lon="11.947192"><ele>1700.6</ele></trkpt><trkpt lat="47.646057" lon="11.947341"><ele>1695</ele></trkpt><trkpt lat="47.646124" lon="11.947683"><ele>1685.3</ele></trkpt><trkpt lat="47.646256" lon="11.948105"><ele>1676.5</ele></trkpt><trkpt lat="47.646326" lon="11.948228"><ele>1672</ele></trkpt><trkpt lat="47.646383" lon="11.948396"><ele>1670.6</ele></trkpt><trkpt lat="47.646636" lon="11.949245"><ele>1665</ele></trkpt><trkpt lat="47.646698" lon="11.949551"><ele>1660.8</ele></trkpt><trkpt lat="47.646744" lon="11.949951"><ele>1662.6</ele></trkpt><trkpt lat="47.646787" lon="11.950033"><ele>1641</ele></trkpt><trkpt lat="47.646813" lon="11.950197"><ele>1632.3</ele></trkpt><trkpt lat="47.646825" lon="11.950424"><ele>1630.1</ele></trkpt><trkpt lat="47.64697" lon="11.951136"><ele>1622.3</ele></trkpt><trkpt lat="47.64712" lon="11.951487"><ele>1620.7</ele></trkpt><trkpt lat="47.647079" lon="11.951651"><ele>1620.3</ele></trkpt><trkpt lat="47.647116" lon="11.952133"><ele>1615.1</ele></trkpt><trkpt lat="47.647154" lon="11.952193"><ele>1613.7</ele></trkpt><trkpt lat="47.647152" lon="11.952528"><ele>1612.1</ele></trkpt><trkpt lat="47.647148" lon="11.952739"><ele>1609</ele></trkpt><trkpt lat="47.647101" lon="11.953046"><ele>1607</ele></trkpt><trkpt lat="47.647255" lon="11.953812"><ele>1587.9</ele></trkpt><trkpt lat="47.647346" lon="11.954601"><ele>1578.1</ele></trkpt><trkpt lat="47.647465" lon="11.954872"><ele>1567.7</ele></trkpt><trkpt lat="47.647471" lon="11.955013"><ele>1563.3</ele></trkpt><trkpt lat="47.647521" lon="11.955147"><ele>1556</ele></trkpt><trkpt lat="47.647642" lon="11.95537"><ele>1552.8</ele></trkpt><trkpt lat="47.647675" lon="11.955658"><ele>1548.9</ele></trkpt><trkpt lat="47.647836" lon="11.956043"><ele>1544.9</ele></trkpt><trkpt lat="47.647948" lon="11.95641"><ele>1542.9</ele></trkpt><trkpt lat="47.648155" lon="11.95698"><ele>1538.6</ele></trkpt><trkpt lat="47.648172" lon="11.957072"><ele>1538.9</ele></trkpt><trkpt lat="47.648217" lon="11.957181"><ele>1539.2</ele></trkpt><trkpt lat="47.648328" lon="11.957354"><ele>1538.7</ele></trkpt><trkpt lat="47.648348" lon="11.957478"><ele>1516</ele></trkpt><trkpt lat="47.648485" lon="11.957479"><ele>1516</ele></trkpt><trkpt lat="47.648669" lon="11.957368"><ele>1516</ele></trkpt><trkpt lat="47.648732" lon="11.957428"><ele>1516</ele></trkpt><trkpt lat="47.648939" lon="11.957358"><ele>1516</ele></trkpt><trkpt lat="47.648916" lon="11.957493"><ele>1516</ele></trkpt><trkpt lat="47.649021" lon="11.957419"><ele>1505.7</ele></trkpt><trkpt lat="47.649118" lon="11.9574"><ele>1507</ele></trkpt><trkpt lat="47.649181" lon="11.957365"><ele>1506</ele></trkpt><trkpt lat="47.649164" lon="11.957457"><ele>1506.7</ele></trkpt><trkpt lat="47.649222" lon="11.957537"><ele>1505.9</ele></trkpt><trkpt lat="47.649332" lon="11.95743"><ele>1505</ele></trkpt><trkpt lat="47.649398" lon="11.957618"><ele>1504.3</ele></trkpt><trkpt lat="47.6495" lon="11.957522"><ele>1503.7</ele></trkpt><trkpt lat="47.649594" lon="11.957665"><ele>1503.1</ele></trkpt><trkpt lat="47.649737" lon="11.957749"><ele>1502.6</ele></trkpt><trkpt lat="47.649836" lon="11.957747"><ele>1502.1</ele></trkpt><trkpt lat="47.649917" lon="11.957772"><ele>1495</ele></trkpt><trkpt lat="47.650007" lon="11.957831"><ele>1469</ele></trkpt><trkpt lat="47.650076" lon="11.957916"><ele>1469</ele></trkpt><trkpt lat="47.650566" lon="11.958065"><ele>1469</ele></trkpt><trkpt lat="47.650672" lon="11.958037"><ele>1469</ele></trkpt><trkpt lat="47.650801" lon="11.957908"><ele>1469</ele></trkpt><trkpt lat="47.650817" lon="11.957826"><ele>1469</ele></trkpt><trkpt lat="47.651139" lon="11.957743"><ele>1464.4</ele></trkpt><trkpt lat="47.651304" lon="11.957852"><ele>1463.1</ele></trkpt><trkpt lat="47.65145" lon="11.957831"><ele>1461.8</ele></trkpt><trkpt lat="47.651658" lon="11.957779"><ele>1460.7</ele></trkpt><trkpt lat="47.651914" lon="11.957556"><ele>1459.7</ele></trkpt><trkpt lat="47.652154" lon="11.957569"><ele>1460.1</ele></trkpt><trkpt lat="47.652674" lon="11.957449"><ele>1446.6</ele></trkpt><trkpt lat="47.65278" lon="11.957339"><ele>1441.6</ele></trkpt><trkpt lat="47.65332" lon="11.957387"><ele>1421.3</ele></trkpt><trkpt lat="47.653504" lon="11.957241"><ele>1416.5</ele></trkpt><trkpt lat="47.653606" lon="11.957208"><ele>1415.4</ele></trkpt><trkpt lat="47.653686" lon="11.957243"><ele>1412</ele></trkpt><trkpt lat="47.653781" lon="11.957389"><ele>1409.2</ele></trkpt><trkpt lat="47.654017" lon="11.958222"><ele>1393.1</ele></trkpt><trkpt lat="47.654046" lon="11.958384"><ele>1392.8</ele></trkpt><trkpt lat="47.654116" lon="11.958529"><ele>1384</ele></trkpt><trkpt lat="47.654229" lon="11.958679"><ele>1385.2</ele></trkpt><trkpt lat="47.654338" lon="11.958908"><ele>1378.9</ele></trkpt><trkpt lat="47.654509" lon="11.959375"><ele>1370.4</ele></trkpt><trkpt lat="47.654752" lon="11.959743"><ele>1366.4</ele></trkpt><trkpt lat="47.654848" lon="11.960016"><ele>1361.6</ele></trkpt><trkpt lat="47.654931" lon="11.960121"><ele>1323</ele></trkpt><trkpt lat="47.655" lon="11.960207"><ele>1331.8</ele></trkpt><trkpt lat="47.65504" lon="11.96037"><ele>1330.2</ele></trkpt><trkpt lat="47.654965" lon="11.960484"><ele>1328.8</ele></trkpt><trkpt lat="47.654837" lon="11.960445"><ele>1330</ele></trkpt><trkpt lat="47.654467" lon="11.960158"><ele>1335.5</ele></trkpt><trkpt lat="47.654179" lon="11.959892"><ele>1337.6</ele></trkpt><trkpt lat="47.65371" lon="11.959729"><ele>1326.5</ele></trkpt><trkpt lat="47.653589" lon="11.959617"><ele>1326.1</ele></trkpt><trkpt lat="47.65348" lon="11.959636"><ele>1325.8</ele></trkpt><trkpt lat="47.653377" lon="11.959872"><ele>1323.6</ele></trkpt><trkpt lat="47.65331" lon="11.959942"><ele>1322.9</ele></trkpt><trkpt lat="47.652945" lon="11.959962"><ele>1321.8</ele></trkpt><trkpt lat="47.652644" lon="11.960062"><ele>1319.8</ele></trkpt><trkpt lat="47.652513" lon="11.960217"><ele>1319</ele></trkpt><trkpt lat="47.65248" lon="11.960367"><ele>1318.8</ele></trkpt><trkpt lat="47.652496" lon="11.960538"><ele>1316.7</ele></trkpt><trkpt lat="47.652565" lon="11.960664"><ele>1314.4</ele></trkpt><trkpt lat="47.652633" lon="11.960684"><ele>1312.3</ele></trkpt><trkpt lat="47.652833" lon="11.960575"><ele>1312.4</ele></trkpt><trkpt lat="47.652931" lon="11.960592"><ele>1311.5</ele></trkpt><trkpt lat="47.653026" lon="11.960706"><ele>1309.7</ele></trkpt><trkpt lat="47.653109" lon="11.96087"><ele>1309.2</ele></trkpt><trkpt lat="47.653144" lon="11.961001"><ele>1308.3</ele></trkpt><trkpt lat="47.653296" lon="11.961118"><ele>1308.7</ele></trkpt><trkpt lat="47.653383" lon="11.961258"><ele>1308.3</ele></trkpt><trkpt lat="47.653561" lon="11.961433"><ele>1309.6</ele></trkpt><trkpt lat="47.65403" lon="11.962335"><ele>1278.5</ele></trkpt><trkpt lat="47.654341" lon="11.96334"><ele>1261.5</ele></trkpt><trkpt lat="47.65436" lon="11.963479"><ele>1261.8</ele></trkpt><trkpt lat="47.654438" lon="11.963774"><ele>1260.6</ele></trkpt><trkpt lat="47.65452" lon="11.963854"><ele>1251.9</ele></trkpt><trkpt lat="47.654616" lon="11.963801"><ele>1250.3</ele></trkpt><trkpt lat="47.654864" lon="11.963546"><ele>1248.2</ele></trkpt><trkpt lat="47.655344" lon="11.963415"><ele>1242.4</ele></trkpt><trkpt lat="47.655517" lon="11.963153"><ele>1240.8</ele></trkpt><trkpt lat="47.655589" lon="11.963121"><ele>1240</ele></trkpt><trkpt lat="47.655669" lon="11.963137"><ele>1239.1</ele></trkpt><trkpt lat="47.655736" lon="11.963193"><ele>1235</ele></trkpt><trkpt lat="47.655773" lon="11.963353"><ele>1233.8</ele></trkpt><trkpt lat="47.655712" lon="11.963722"><ele>1232.9</ele></trkpt><trkpt lat="47.655716" lon="11.964155"><ele>1232.8</ele></trkpt><trkpt lat="47.655684" lon="11.964485"><ele>1232.7</ele></trkpt><trkpt lat="47.65572" lon="11.964641"><ele>1232.3</ele></trkpt><trkpt lat="47.655796" lon="11.964749"><ele>1232.2</ele></trkpt><trkpt lat="47.65589" lon="11.96482"><ele>1231.3</ele></trkpt><trkpt lat="47.655989" lon="11.964963"><ele>1231.3</ele></trkpt><trkpt lat="47.656176" lon="11.965513"><ele>1188</ele></trkpt><trkpt lat="47.656269" lon="11.965637"><ele>1188</ele></trkpt><trkpt lat="47.656396" lon="11.966118"><ele>1165</ele></trkpt><trkpt lat="47.656589" lon="11.966482"><ele>1162.5</ele></trkpt><trkpt lat="47.656663" lon="11.966696"><ele>1160.7</ele></trkpt><trkpt lat="47.65682" lon="11.96691"><ele>1158.7</ele></trkpt><trkpt lat="47.656998" lon="11.967217"><ele>1157.1</ele></trkpt><trkpt lat="47.657043" lon="11.967329"><ele>1154.2</ele></trkpt><trkpt lat="47.657125" lon="11.967755"><ele>1150.4</ele></trkpt><trkpt lat="47.657329" lon="11.968286"><ele>1145.9</ele></trkpt><trkpt lat="47.657382" lon="11.968455"><ele>1144.1</ele></trkpt><trkpt lat="47.657487" lon="11.968911"><ele>1139.6</ele></trkpt><trkpt lat="47.657546" lon="11.969104"><ele>1137.5</ele></trkpt><trkpt lat="47.657643" lon="11.969326"><ele>1134.9</ele></trkpt><trkpt lat="47.657847" lon="11.969687"><ele>1131.8</ele></trkpt><trkpt lat="47.658122" lon="11.969912"><ele>1127.5</ele></trkpt><trkpt lat="47.658287" lon="11.970087"><ele>1124.5</ele></trkpt><trkpt lat="47.658464" lon="11.970405"><ele>1122.2</ele></trkpt><trkpt lat="47.658621" lon="11.97056"><ele>1119.4</ele></trkpt><trkpt lat="47.65871" lon="11.97075"><ele>1116.6</ele></trkpt><trkpt lat="47.658734" lon="11.971009"><ele>1113.6</ele></trkpt><trkpt lat="47.658799" lon="11.971217"><ele>1112.8</ele></trkpt><trkpt lat="47.659056" lon="11.971494"><ele>1110.7</ele></trkpt><trkpt lat="47.659204" lon="11.971816"><ele>1109.9</ele></trkpt><trkpt lat="47.65933" lon="11.971966"><ele>1109.5</ele></trkpt><trkpt lat="47.659413" lon="11.97222"><ele>1109.4</ele></trkpt><trkpt lat="47.659538" lon="11.972493"><ele>1101</ele></trkpt><trkpt lat="47.659599" lon="11.972641"><ele>1083.8</ele></trkpt><trkpt lat="47.659668" lon="11.972737"><ele>1082</ele></trkpt><trkpt lat="47.659768" lon="11.972824"><ele>1080.3</ele></trkpt><trkpt lat="47.660034" lon="11.972885"><ele>1081.1</ele></trkpt><trkpt lat="47.660235" lon="11.973071"><ele>1080.7</ele></trkpt><trkpt lat="47.660401" lon="11.973264"><ele>1079.7</ele></trkpt><trkpt lat="47.660563" lon="11.97333"><ele>1079.2</ele></trkpt><trkpt lat="47.66082" lon="11.973371"><ele>1077.3</ele></trkpt><trkpt lat="47.660942" lon="11.973374"><ele>1077.7</ele></trkpt><trkpt lat="47.661035" lon="11.973351"><ele>1078.9</ele></trkpt><trkpt lat="47.661668" lon="11.973043"><ele>1070</ele></trkpt><trkpt lat="47.662035" lon="11.972851"><ele>1061.9</ele></trkpt><trkpt lat="47.662179" lon="11.972818"><ele>1060.7</ele></trkpt><trkpt lat="47.662535" lon="11.97278"><ele>1059.4</ele></trkpt><trkpt lat="47.662957" lon="11.972782"><ele>1062.7</ele></trkpt><trkpt lat="47.663299" lon="11.972692"><ele>1062.8</ele></trkpt><trkpt lat="47.66458" lon="11.971774"><ele>1033.6</ele></trkpt><trkpt lat="47.665375" lon="11.970925"><ele>1021.9</ele></trkpt><trkpt lat="47.665696" lon="11.970572"><ele>1020.2</ele></trkpt><trkpt lat="47.666284" lon="11.969524"><ele>1015</ele></trkpt><trkpt lat="47.666464" lon="11.969129"><ele>1016.8</ele></trkpt><trkpt lat="47.666633" lon="11.96864"><ele>1007.7</ele></trkpt><trkpt lat="47.667079" lon="11.967225"><ele>983</ele></trkpt><trkpt lat="47.667508" lon="11.966454"><ele>938.1</ele></trkpt><trkpt lat="47.667646" lon="11.966063"><ele>939.8</ele></trkpt><trkpt lat="47.667744" lon="11.965905"><ele>940.7</ele></trkpt><trkpt lat="47.668276" lon="11.965245"><ele>935.2</ele></trkpt><trkpt lat="47.668404" lon="11.965126"><ele>900</ele></trkpt><trkpt lat="47.668512" lon="11.965069"><ele>909.3</ele></trkpt><trkpt lat="47.668522" lon="11.964981"><ele>909.9</ele></trkpt><trkpt lat="47.668456" lon="11.964711"><ele>910.5</ele></trkpt><trkpt lat="47.668445" lon="11.964494"><ele>911</ele></trkpt><trkpt lat="47.668482" lon="11.964377"><ele>911.4</ele></trkpt><trkpt lat="47.668701" lon="11.964143"><ele>912.6</ele></trkpt><trkpt lat="47.668966" lon="11.963928"><ele>913.6</ele></trkpt><trkpt lat="47.669065" lon="11.963796"><ele>924</ele></trkpt><trkpt lat="47.669217" lon="11.963501"><ele>906</ele></trkpt><trkpt lat="47.669275" lon="11.963446"><ele>888</ele></trkpt><trkpt lat="47.669331" lon="11.963771"><ele>888</ele></trkpt><trkpt lat="47.669409" lon="11.963798"><ele>888</ele></trkpt><trkpt lat="47.669783" lon="11.964093"><ele>888</ele></trkpt><trkpt lat="47.670012" lon="11.964331"><ele>868.3</ele></trkpt><trkpt lat="47.67041" lon="11.964807"><ele>867.6</ele></trkpt><trkpt lat="47.67065" lon="11.965182"><ele>867.4</ele></trkpt><trkpt lat="47.670716" lon="11.96537"><ele>867.8</ele></trkpt><trkpt lat="47.670727" lon="11.965575"><ele>866.3</ele></trkpt><trkpt lat="47.670714" lon="11.965641"><ele>866.4</ele></trkpt><trkpt lat="47.670656" lon="11.965778"><ele>866.5</ele></trkpt><trkpt lat="47.670628" lon="11.96591"><ele>860</ele></trkpt><trkpt lat="47.670602" lon="11.966091"><ele>860</ele></trkpt><trkpt lat="47.670566" lon="11.96623"><ele>860</ele></trkpt><trkpt lat="47.670775" lon="11.966335"><ele>858.7</ele></trkpt><trkpt lat="47.670962" lon="11.966393"><ele>858.4</ele></trkpt><trkpt lat="47.671045" lon="11.966443"><ele>858.3</ele></trkpt><trkpt lat="47.671139" lon="11.9665"><ele>858.2</ele></trkpt><trkpt lat="47.671318" lon="11.966488"><ele>857</ele></trkpt><trkpt lat="47.671594" lon="11.966336"><ele>857</ele></trkpt><trkpt lat="47.672059" lon="11.966132"><ele>853</ele></trkpt><trkpt lat="47.672382" lon="11.965983"><ele>851.3</ele></trkpt><trkpt lat="47.672859" lon="11.965917"><ele>848</ele></trkpt><trkpt lat="47.673665" lon="11.966113"><ele>843</ele></trkpt><trkpt lat="47.673821" lon="11.965985"><ele>843</ele></trkpt><trkpt lat="47.674102" lon="11.965852"><ele>843</ele></trkpt><trkpt lat="47.674105" lon="11.965683"><ele>839.3</ele></trkpt><trkpt lat="47.674184" lon="11.965479"><ele>838.9</ele></trkpt><trkpt lat="47.674486" lon="11.965036"><ele>838.6</ele></trkpt><trkpt lat="47.675002" lon="11.964383"><ele>834</ele></trkpt><trkpt lat="47.675851" lon="11.963962"><ele>836.5</ele></trkpt><trkpt lat="47.675953" lon="11.963936"><ele>836.5</ele></trkpt><trkpt lat="47.676114" lon="11.963812"><ele>836.4</ele></trkpt><trkpt lat="47.67655" lon="11.963316"><ele>837.2</ele></trkpt><trkpt lat="47.676925" lon="11.962985"><ele>836.9</ele></trkpt><trkpt lat="47.67706" lon="11.962835"><ele>836.4</ele></trkpt><trkpt lat="47.677192" lon="11.962642"><ele>835.9</ele></trkpt><trkpt lat="47.6775" lon="11.962096"><ele>832.4</ele></trkpt><trkpt lat="47.677885" lon="11.961539"><ele>826.6</ele></trkpt><trkpt lat="47.678039" lon="11.961345"><ele>825.1</ele></trkpt><trkpt lat="47.678224" lon="11.961188"><ele>823.8</ele></trkpt><trkpt lat="47.67842" lon="11.961054"><ele>822.8</ele></trkpt><trkpt lat="47.678642" lon="11.960965"><ele>822.5</ele></trkpt><trkpt lat="47.67887" lon="11.96091"><ele>821.7</ele></trkpt><trkpt lat="47.679189" lon="11.960909"><ele>819.9</ele></trkpt><trkpt lat="47.679378" lon="11.960824"><ele>818.3</ele></trkpt><trkpt lat="47.679465" lon="11.960748"><ele>818.6</ele></trkpt><trkpt lat="47.679809" lon="11.960293"><ele>818.6</ele></trkpt><trkpt lat="47.679978" lon="11.960134"><ele>819.3</ele></trkpt><trkpt lat="47.680079" lon="11.960083"><ele>818.8</ele></trkpt><trkpt lat="47.680315" lon="11.960044"><ele>817.9</ele></trkpt><trkpt lat="47.680416" lon="11.960007"><ele>812</ele></trkpt><trkpt lat="47.680691" lon="11.95992"><ele>812.6</ele></trkpt><trkpt lat="47.681322" lon="11.959891"><ele>808.2</ele></trkpt><trkpt lat="47.681781" lon="11.959902"><ele>804.6</ele></trkpt><trkpt lat="47.68225" lon="11.959828"><ele>801.2</ele></trkpt><trkpt lat="47.682441" lon="11.959819"><ele>800.7</ele></trkpt><trkpt lat="47.682573" lon="11.959826"><ele>800.4</ele></trkpt><trkpt lat="47.682837" lon="11.959884"><ele>798.6</ele></trkpt><trkpt lat="47.683628" lon="11.960203"><ele>795.4</ele></trkpt><trkpt lat="47.683953" lon="11.960286"><ele>793.7</ele></trkpt><trkpt lat="47.6842" lon="11.960292"><ele>792.3</ele></trkpt><trkpt lat="47.684441" lon="11.960271"><ele>791.5</ele></trkpt><trkpt lat="47.684857" lon="11.9603"><ele>791</ele></trkpt><trkpt lat="47.685454" lon="11.960185"><ele>790.3</ele></trkpt><trkpt lat="47.685817" lon="11.960087"><ele>789.4</ele></trkpt><trkpt lat="47.686385" lon="11.960198"><ele>788.4</ele></trkpt><trkpt lat="47.686907" lon="11.96022"><ele>788</ele></trkpt><trkpt lat="47.687225" lon="11.960318"><ele>788</ele></trkpt><trkpt lat="47.687545" lon="11.96091"><ele>785</ele></trkpt><trkpt lat="47.687615" lon="11.960982"><ele>785.2</ele></trkpt><trkpt lat="47.687813" lon="11.961039"><ele>784</ele></trkpt><trkpt lat="47.687868" lon="11.961047"><ele>784</ele></trkpt><trkpt lat="47.688112" lon="11.961049"><ele>783.3</ele></trkpt><trkpt lat="47.68846" lon="11.960924"><ele>782</ele></trkpt><trkpt lat="47.688498" lon="11.961017"><ele>781.8</ele></trkpt><trkpt lat="47.688569" lon="11.961115"><ele>781.8</ele></trkpt><trkpt lat="47.688653" lon="11.961317"><ele>781.7</ele></trkpt><trkpt lat="47.688745" lon="11.961358"><ele>781.7</ele></trkpt><trkpt lat="47.688842" lon="11.961464"><ele>781.6</ele></trkpt><trkpt lat="47.688944" lon="11.961717"><ele>781.6</ele></trkpt><trkpt lat="47.689009" lon="11.961761"><ele>781</ele></trkpt><trkpt lat="47.689162" lon="11.961643"><ele>780.7</ele></trkpt><trkpt lat="47.689211" lon="11.961657"><ele>779</ele></trkpt><trkpt lat="47.689208" lon="11.961695"><ele>779</ele></trkpt><trkpt lat="47.689244" lon="11.961775"><ele>779</ele></trkpt><trkpt lat="47.689561" lon="11.962485"><ele>777.6</ele></trkpt><trkpt lat="47.68985" lon="11.962936"><ele>777.5</ele></trkpt><trkpt lat="47.689981" lon="11.96317"><ele>777.4</ele></trkpt><trkpt lat="47.690076" lon="11.963412"><ele>775</ele></trkpt><trkpt lat="47.690367" lon="11.964114"><ele>775</ele></trkpt><trkpt lat="47.690916" lon="11.964869"><ele>770</ele></trkpt><trkpt lat="47.691037" lon="11.96509"><ele>771</ele></trkpt><trkpt lat="47.691089" lon="11.965184"><ele>771</ele></trkpt><trkpt lat="47.691138" lon="11.965267"><ele>771</ele></trkpt><trkpt lat="47.691555" lon="11.965888"><ele>770.7</ele></trkpt><trkpt lat="47.691919" lon="11.966395"><ele>771</ele></trkpt><trkpt lat="47.692142" lon="11.966561"><ele>771</ele></trkpt><trkpt lat="47.692319" lon="11.966788"><ele>772.3</ele></trkpt><trkpt lat="47.692401" lon="11.966974"><ele>773</ele></trkpt><trkpt lat="47.692603" lon="11.967149"><ele>772.9</ele></trkpt><trkpt lat="47.692949" lon="11.96738"><ele>772.6</ele></trkpt><trkpt lat="47.693322" lon="11.967609"><ele>772.8</ele></trkpt><trkpt lat="47.693554" lon="11.9677"><ele>775</ele></trkpt><trkpt lat="47.693606" lon="11.967721"><ele>775</ele></trkpt><trkpt lat="47.693677" lon="11.967495"><ele>773.7</ele></trkpt><trkpt lat="47.693727" lon="11.966497"><ele>773</ele></trkpt><trkpt lat="47.693814" lon="11.966504"><ele>773</ele></trkpt><trkpt lat="47.693823" lon="11.966401"><ele>773</ele></trkpt><trkpt lat="47.693846" lon="11.966404"><ele>773</ele></trkpt><trkpt lat="47.693872" lon="11.966407"><ele>773</ele></trkpt><trkpt lat="47.693873" lon="11.966394"><ele>773</ele></trkpt></trkseg></trk></gpx>