<gpx xmlns="http://www.topografix.com/GPX/1/1" xmlns:xsi="http://www.w3.org/2001/XMLSchema-instance" xsi:schemaLocation="http://www.topografix.com/GPX/1/1 http://www.topografix.com/GPX/1/1/gpx.xsd" version="1.1" creator="togpx"><metadata/><wpt lat="47.714370854759856" lon="11.756907999515535"><name></name><desc>label=Pöttingerstraße, Tegernsee,BY,Germany</desc></wpt><wpt lat="47.71446830644852" lon="11.78337335586548"><name></name><desc>label=Seitengraben, Tegernsee,BY,Germany</desc></wpt><wpt lat="47.72350525604567" lon="11.80008888244629"><name></name><desc>label=684, Schliersee,BY,Germany</desc></wpt><wpt lat="47.73236023454988" lon="11.826331615448"><name></name><desc>label=682a, Hausham,BY,Germany</desc></wpt><wpt lat="47.737615136403754" lon="11.834273636341097"><name></name><desc>label=Huberspitz, Hausham,BY,Germany</desc></wpt><wpt lat="47.73943158915101" lon="11.834796667099"><name></name><desc>label=Zur Bergmannsruh, Hausham,BY,Germany</desc></wpt><wpt lat="47.74786003850519" lon="11.842035949230196"><name></name><desc>label=Schlierseer Straße, Hausham,BY,Germany</desc></wpt><wpt lat="47.75052554689134" lon="11.84017449617386"><name></name><desc>label=Hausham, BY,Germany</desc></wpt><trk><name></name><desc>ascent=689.8
descent=689.6
opacity=0.9</desc><trkseg><trkpt lat="47.714381" lon="11.756934"><ele>761.8</ele></trkpt><trkpt lat="47.71422" lon="11.757068"><ele>762</ele></trkpt><trkpt lat="47.714313" lon="11.757289"><ele>762</ele></trkpt><trkpt lat="47.714364" lon="11.757415"><ele>762</ele></trkpt><trkpt lat="47.714381" lon="11.757453"><ele>762</ele></trkpt><trkpt lat="47.714397" lon="11.757488"><ele>762</ele></trkpt><trkpt lat="47.714069" lon="11.75768"><ele>762</ele></trkpt><trkpt lat="47.713766" lon="11.757763"><ele>761</ele></trkpt><trkpt lat="47.713385" lon="11.757951"><ele>761</ele></trkpt><trkpt lat="47.71302" lon="11.758106"><ele>759</ele></trkpt><trkpt lat="47.712846" lon="11.758117"><ele>759</ele></trkpt><trkpt lat="47.71258" lon="11.758246"><ele>759</ele></trkpt><trkpt lat="47.712824" lon="11.759303"><ele>761.3</ele></trkpt><trkpt lat="47.712952" lon="11.760151"><ele>765</ele></trkpt><trkpt lat="47.712963" lon="11.760655"><ele>767.3</ele></trkpt><trkpt lat="47.712909" lon="11.761095"><ele>772</ele></trkpt><trkpt lat="47.712913" lon="11.761876"><ele>775</ele></trkpt><trkpt lat="47.712934" lon="11.76255"><ele>777.4</ele></trkpt><trkpt lat="47.712917" lon="11.762722"><ele>777.3</ele></trkpt><trkpt lat="47.712872" lon="11.76286"><ele>777.2</ele></trkpt><trkpt lat="47.712662" lon="11.763273"><ele>778</ele></trkpt><trkpt lat="47.712619" lon="11.763413"><ele>781.2</ele></trkpt><trkpt lat="47.712602" lon="11.763625"><ele>781</ele></trkpt><trkpt lat="47.712623" lon="11.763816"><ele>780.8</ele></trkpt><trkpt lat="47.712676" lon="11.764008"><ele>782</ele></trkpt><trkpt lat="47.712722" lon="11.764288"><ele>784</ele></trkpt><trkpt lat="47.712733" lon="11.764469"><ele>784</ele></trkpt><trkpt lat="47.712741" lon="11.764595"><ele>784</ele></trkpt><trkpt lat="47.712744" lon="11.764645"><ele>784</ele></trkpt><trkpt lat="47.712855" lon="11.764892"><ele>796.5</ele></trkpt><trkpt lat="47.71307" lon="11.765561"><ele>798.6</ele></trkpt><trkpt lat="47.713117" lon="11.765861"><ele>799.5</ele></trkpt><trkpt lat="47.713132" lon="11.766339"><ele>806</ele></trkpt><trkpt lat="47.713102" lon="11.76663"><ele>810</ele></trkpt><trkpt lat="47.71297" lon="11.767251"><ele>810.4</ele></trkpt><trkpt lat="47.712992" lon="11.767771"><ele>810.2</ele></trkpt><trkpt lat="47.713031" lon="11.767983"><ele>812</ele></trkpt><trkpt lat="47.713123" lon="11.768146"><ele>812</ele></trkpt><trkpt lat="47.713203" lon="11.768307"><ele>812</ele></trkpt><trkpt lat="47.713222" lon="11.768355"><ele>823</ele></trkpt><trkpt lat="47.713242" lon="11.768451"><ele>823</ele></trkpt><trkpt lat="47.713256" lon="11.768685"><ele>823</ele></trkpt><trkpt lat="47.713228" lon="11.768933"><ele>823</ele></trkpt><trkpt lat="47.713196" lon="11.769186"><ele>833.3</ele></trkpt><trkpt lat="47.713224" lon="11.769644"><ele>834.2</ele></trkpt><trkpt lat="47.713233" lon="11.770164"><ele>834.9</ele></trkpt><trkpt lat="47.713191" lon="11.770376"><ele>835.9</ele></trkpt><trkpt lat="47.713104" lon="11.770614"><ele>841</ele></trkpt><trkpt lat="47.712846" lon="11.77115"><ele>841.6</ele></trkpt><trkpt lat="47.712784" lon="11.771339"><ele>841.5</ele></trkpt><trkpt lat="47.712779" lon="11.771497"><ele>841.4</ele></trkpt><trkpt lat="47.712793" lon="11.771571"><ele>841.4</ele></trkpt><trkpt lat="47.712984" lon="11.772198"><ele>844</ele></trkpt><trkpt lat="47.713005" lon="11.772335"><ele>864.9</ele></trkpt><trkpt lat="47.713026" lon="11.772968"><ele>868.3</ele></trkpt><trkpt lat="47.71313" lon="11.773621"><ele>867.4</ele></trkpt><trkpt lat="47.713187" lon="11.773867"><ele>866.4</ele></trkpt><trkpt lat="47.71327" lon="11.774092"><ele>866.5</ele></trkpt><trkpt lat="47.713331" lon="11.774333"><ele>867.8</ele></trkpt><trkpt lat="47.713412" lon="11.774789"><ele>866.1</ele></trkpt><trkpt lat="47.713591" lon="11.775307"><ele>867.4</ele></trkpt><trkpt lat="47.713675" lon="11.775895"><ele>877</ele></trkpt><trkpt lat="47.713735" lon="11.776471"><ele>877</ele></trkpt><trkpt lat="47.713744" lon="11.776615"><ele>877</ele></trkpt><trkpt lat="47.713742" lon="11.777089"><ele>889</ele></trkpt><trkpt lat="47.713847" lon="11.777553"><ele>883.7</ele></trkpt><trkpt lat="47.713946" lon="11.777782"><ele>881.7</ele></trkpt><trkpt lat="47.714223" lon="11.778257"><ele>879.3</ele></trkpt><trkpt lat="47.714676" lon="11.778422"><ele>882.4</ele></trkpt><trkpt lat="47.715029" lon="11.778453"><ele>883.2</ele></trkpt><trkpt lat="47.715267" lon="11.778815"><ele>884.2</ele></trkpt><trkpt lat="47.715724" lon="11.779437"><ele>897</ele></trkpt><trkpt lat="47.71581" lon="11.77956"><ele>897</ele></trkpt><trkpt lat="47.715862" lon="11.779634"><ele>899</ele></trkpt><trkpt lat="47.715815" lon="11.779811"><ele>897</ele></trkpt><trkpt lat="47.714408" lon="11.780061"><ele>907.7</ele></trkpt><trkpt lat="47.714041" lon="11.780688"><ele>903.2</ele></trkpt><trkpt lat="47.714149" lon="11.781735"><ele>905.4</ele></trkpt><trkpt lat="47.71447" lon="11.783372"><ele>943.5</ele></trkpt><trkpt lat="47.714655" lon="11.784311"><ele>981.5</ele></trkpt><trkpt lat="47.714015" lon="11.784716"><ele>987.2</ele></trkpt><trkpt lat="47.713567" lon="11.78629"><ele>1008.7</ele></trkpt><trkpt lat="47.713314" lon="11.787546"><ele>1022.2</ele></trkpt><trkpt lat="47.713291" lon="11.7884"><ele>1037</ele></trkpt><trkpt lat="47.713396" lon="11.789064"><ele>1064.3</ele></trkpt><trkpt lat="47.713484" lon="11.789341"><ele>1079</ele></trkpt><trkpt lat="47.713559" lon="11.789576"><ele>1079</ele></trkpt><trkpt lat="47.713775" lon="11.790097"><ele>1078</ele></trkpt><trkpt lat="47.714047" lon="11.790755"><ele>1091.3</ele></trkpt><trkpt lat="47.714188" lon="11.791819"><ele>1102.1</ele></trkpt><trkpt lat="47.71464" lon="11.792822"><ele>1132.3</ele></trkpt><trkpt lat="47.715393" lon="11.793652"><ele>1146.1</ele></trkpt><trkpt lat="47.715523" lon="11.793903"><ele>1153</ele></trkpt><trkpt lat="47.715982" lon="11.794811"><ele>1183.8</ele></trkpt><trkpt lat="47.716433" lon="11.795453"><ele>1192.8</ele></trkpt><trkpt lat="47.71669" lon="11.795581"><ele>1195.8</ele></trkpt><trkpt lat="47.716888" lon="11.795804"><ele>1194.2</ele></trkpt><trkpt lat="47.717174" lon="11.795995"><ele>1194.2</ele></trkpt><trkpt lat="47.717422" lon="11.795986"><ele>1194</ele></trkpt><trkpt lat="47.717478" lon="11.795861"><ele>1205.3</ele></trkpt><trkpt lat="47.717522" lon="11.795695"><ele>1228</ele></trkpt><trkpt lat="47.717581" lon="11.795313"><ele>1237.4</ele></trkpt><trkpt lat="47.717574" lon="11.794819"><ele>1238.8</ele></trkpt><trkpt lat="47.717603" lon="11.794476"><ele>1238.9</ele></trkpt><trkpt lat="47.717737" lon="11.793979"><ele>1239</ele></trkpt><trkpt lat="47.717819" lon="11.793961"><ele>1238</ele></trkpt><trkpt lat="47.717914" lon="11.794174"><ele>1238</ele></trkpt><trkpt lat="47.717993" lon="11.794089"><ele>1244</ele></trkpt><trkpt lat="47.71807" lon="11.793801"><ele>1243.6</ele></trkpt><trkpt lat="47.718136" lon="11.793457"><ele>1243.1</ele></trkpt><trkpt lat="47.718221" lon="11.793243"><ele>1244</ele></trkpt><trkpt lat="47.718239" lon="11.792968"><ele>1258</ele></trkpt><trkpt lat="47.718377" lon="11.793046"><ele>1262.8</ele></trkpt><trkpt lat="47.718509" lon="11.793241"><ele>1263.1</ele></trkpt><trkpt lat="47.718636" lon="11.793225"><ele>1263.5</ele></trkpt><trkpt lat="47.719018" lon="11.793899"><ele>1263.3</ele></trkpt><trkpt lat="47.719482" lon="11.793922"><ele>1282</ele></trkpt><trkpt lat="47.719943" lon="11.793896"><ele>1282</ele></trkpt><trkpt lat="47.720085" lon="11.793935"><ele>1285</ele></trkpt><trkpt lat="47.720198" lon="11.793953"><ele>1285.6</ele></trkpt><trkpt lat="47.72038" lon="11.793894"><ele>1285.9</ele></trkpt><trkpt lat="47.721299" lon="11.794146"><ele>1293.8</ele></trkpt><trkpt lat="47.721955" lon="11.794493"><ele>1307</ele></trkpt><trkpt lat="47.722141" lon="11.794487"><ele>1307.1</ele></trkpt><trkpt lat="47.722534" lon="11.794741"><ele>1317.8</ele></trkpt><trkpt lat="47.723103" lon="11.795237"><ele>1324.8</ele></trkpt><trkpt lat="47.723293" lon="11.79557"><ele>1329.7</ele></trkpt><trkpt lat="47.723624" lon="11.795737"><ele>1329.9</ele></trkpt><trkpt lat="47.723729" lon="11.795982"><ele>1331.1</ele></trkpt><trkpt lat="47.723902" lon="11.796477"><ele>1336</ele></trkpt><trkpt lat="47.723845" lon="11.796675"><ele>1332.7</ele></trkpt><trkpt lat="47.723781" lon="11.797538"><ele>1332.3</ele></trkpt><trkpt lat="47.723703" lon="11.798041"><ele>1332</ele></trkpt><trkpt lat="47.723696" lon="11.79828"><ele>1330</ele></trkpt><trkpt lat="47.723594" lon="11.798544"><ele>1331.7</ele></trkpt><trkpt lat="47.723345" lon="11.799354"><ele>1332</ele></trkpt><trkpt lat="47.723176" lon="11.79995"><ele>1325.7</ele></trkpt><trkpt lat="47.722941" lon="11.800519"><ele>1328</ele></trkpt><trkpt lat="47.723127" lon="11.800512"><ele>1319.4</ele></trkpt><trkpt lat="47.723342" lon="11.800338"><ele>1319.6</ele></trkpt><trkpt lat="47.7235" lon="11.800082"><ele>1319.8</ele></trkpt><trkpt lat="47.72353" lon="11.800033"><ele>1319.9</ele></trkpt><trkpt lat="47.72367" lon="11.800097"><ele>1320.1</ele></trkpt><trkpt lat="47.723778" lon="11.800076"><ele>1320.4</ele></trkpt><trkpt lat="47.723943" lon="11.80016"><ele>1320.8</ele></trkpt><trkpt lat="47.724088" lon="11.800267"><ele>1321.1</ele></trkpt><trkpt lat="47.724263" lon="11.800461"><ele>1294</ele></trkpt><trkpt lat="47.724437" lon="11.800584"><ele>1291.9</ele></trkpt><trkpt lat="47.724731" lon="11.800865"><ele>1283</ele></trkpt><trkpt lat="47.72488" lon="11.801036"><ele>1272.8</ele></trkpt><trkpt lat="47.724968" lon="11.801228"><ele>1274.3</ele></trkpt><trkpt lat="47.725128" lon="11.801474"><ele>1272.3</ele></trkpt><trkpt lat="47.72525" lon="11.801544"><ele>1270.5</ele></trkpt><trkpt lat="47.725379" lon="11.801703"><ele>1254</ele></trkpt><trkpt lat="47.725503" lon="11.801904"><ele>1250.7</ele></trkpt><trkpt lat="47.725767" lon="11.802186"><ele>1251.4</ele></trkpt><trkpt lat="47.72587" lon="11.802177"><ele>1250.7</ele></trkpt><trkpt lat="47.726147" lon="11.802285"><ele>1249.5</ele></trkpt><trkpt lat="47.726363" lon="11.80231"><ele>1245</ele></trkpt><trkpt lat="47.726437" lon="11.802483"><ele>1246.5</ele></trkpt><trkpt lat="47.726596" lon="11.802634"><ele>1246.7</ele></trkpt><trkpt lat="47.726852" lon="11.803222"><ele>1247.7</ele></trkpt><trkpt lat="47.727042" lon="11.803549"><ele>1247.2</ele></trkpt><trkpt lat="47.727152" lon="11.803609"><ele>1248</ele></trkpt><trkpt lat="47.727733" lon="11.803878"><ele>1267.3</ele></trkpt><trkpt lat="47.728035" lon="11.804151"><ele>1265.8</ele></trkpt><trkpt lat="47.728259" lon="11.80429"><ele>1265.1</ele></trkpt><trkpt lat="47.728555" lon="11.804429"><ele>1266.4</ele></trkpt><trkpt lat="47.7287" lon="11.804596"><ele>1264.8</ele></trkpt><trkpt lat="47.728912" lon="11.805054"><ele>1263</ele></trkpt><trkpt lat="47.728979" lon="11.805324"><ele>1263.7</ele></trkpt><trkpt lat="47.729038" lon="11.805995"><ele>1264</ele></trkpt><trkpt lat="47.729128" lon="11.806358"><ele>1264.5</ele></trkpt><trkpt lat="47.729583" lon="11.807027"><ele>1265.2</ele></trkpt><trkpt lat="47.729862" lon="11.807474"><ele>1264.7</ele></trkpt><trkpt lat="47.730048" lon="11.807919"><ele>1264</ele></trkpt><trkpt lat="47.730303" lon="11.808769"><ele>1264</ele></trkpt><trkpt lat="47.730578" lon="11.809345"><ele>1259.6</ele></trkpt><trkpt lat="47.730567" lon="11.810234"><ele>1258.8</ele></trkpt><trkpt lat="47.730578" lon="11.810498"><ele>1258.9</ele></trkpt><trkpt lat="47.730635" lon="11.810648"><ele>1259</ele></trkpt><trkpt lat="47.730754" lon="11.811083"><ele>1258.2</ele></trkpt><trkpt lat="47.730768" lon="11.811935"><ele>1255</ele></trkpt><trkpt lat="47.73082" lon="11.812077"><ele>1251</ele></trkpt><trkpt lat="47.730859" lon="11.812456"><ele>1250.5</ele></trkpt><trkpt lat="47.731171" lon="11.81287"><ele>1250.3</ele></trkpt><trkpt lat="47.731246" lon="11.813115"><ele>1250.5</ele></trkpt><trkpt lat="47.731327" lon="11.813284"><ele>1250.7</ele></trkpt><trkpt lat="47.731467" lon="11.813302"><ele>1249</ele></trkpt><trkpt lat="47.731635" lon="11.813854"><ele>1228</ele></trkpt><trkpt lat="47.731744" lon="11.814351"><ele>1226.5</ele></trkpt><trkpt lat="47.731842" lon="11.815176"><ele>1219.6</ele></trkpt><trkpt lat="47.731793" lon="11.816562"><ele>1208.4</ele></trkpt><trkpt lat="47.731707" lon="11.817099"><ele>1204.8</ele></trkpt><trkpt lat="47.731698" lon="11.817932"><ele>1196.2</ele></trkpt><trkpt lat="47.731751" lon="11.81854"><ele>1195.6</ele></trkpt><trkpt lat="47.731966" lon="11.81944"><ele>1191.5</ele></trkpt><trkpt lat="47.732096" lon="11.819539"><ele>1186</ele></trkpt><trkpt lat="47.73227" lon="11.820203"><ele>1180</ele></trkpt><trkpt lat="47.73225" lon="11.820493"><ele>1176.5</ele></trkpt><trkpt lat="47.732239" lon="11.821059"><ele>1175.6</ele></trkpt><trkpt lat="47.732196" lon="11.821462"><ele>1173</ele></trkpt><trkpt lat="47.732354" lon="11.821852"><ele>1171.4</ele></trkpt><trkpt lat="47.732583" lon="11.822255"><ele>1171.9</ele></trkpt><trkpt lat="47.732578" lon="11.823156"><ele>1171.8</ele></trkpt><trkpt lat="47.732481" lon="11.823862"><ele>1170.8</ele></trkpt><trkpt lat="47.732616" lon="11.825313"><ele>1174</ele></trkpt><trkpt lat="47.732792" lon="11.82552"><ele>1169.1</ele></trkpt><trkpt lat="47.733142" lon="11.825931"><ele>1164.3</ele></trkpt><trkpt lat="47.733391" lon="11.826493"><ele>1163.4</ele></trkpt><trkpt lat="47.733839" lon="11.827055"><ele>1159</ele></trkpt><trkpt lat="47.734029" lon="11.827114"><ele>1152</ele></trkpt><trkpt lat="47.734074" lon="11.827149"><ele>1152</ele></trkpt><trkpt lat="47.734129" lon="11.827184"><ele>1147</ele></trkpt><trkpt lat="47.73417" lon="11.827161"><ele>1137</ele></trkpt><trkpt lat="47.734216" lon="11.827054"><ele>1137</ele></trkpt><trkpt lat="47.734318" lon="11.826968"><ele>1137</ele></trkpt><trkpt lat="47.734391" lon="11.826979"><ele>1137</ele></trkpt><trkpt lat="47.734494" lon="11.827103"><ele>1135.3</ele></trkpt><trkpt lat="47.734653" lon="11.827574"><ele>1134.8</ele></trkpt><trkpt lat="47.734907" lon="11.828581"><ele>1129.2</ele></trkpt><trkpt lat="47.735071" lon="11.830444"><ele>1108</ele></trkpt><trkpt lat="47.735105" lon="11.830806"><ele>1108</ele></trkpt><trkpt lat="47.73524" lon="11.830996"><ele>1089</ele></trkpt><trkpt lat="47.735442" lon="11.831382"><ele>1089.5</ele></trkpt><trkpt lat="47.735976" lon="11.832144"><ele>1085.3</ele></trkpt><trkpt lat="47.736123" lon="11.832468"><ele>1070</ele></trkpt><trkpt lat="47.736284" lon="11.832482"><ele>1070</ele></trkpt><trkpt lat="47.736423" lon="11.832762"><ele>1061</ele></trkpt><trkpt lat="47.736559" lon="11.832849"><ele>1056.3</ele></trkpt><trkpt lat="47.736882" lon="11.833295"><ele>1055.1</ele></trkpt><trkpt lat="47.736903" lon="11.833495"><ele>1051</ele></trkpt><trkpt lat="47.737279" lon="11.834007"><ele>1051</ele></trkpt><trkpt lat="47.737493" lon="11.834247"><ele>1048</ele></trkpt><trkpt lat="47.737565" lon="11.834288"><ele>1052.7</ele></trkpt><trkpt lat="47.737614" lon="11.83427"><ele>1053.8</ele></trkpt><trkpt lat="47.737835" lon="11.834188"><ele>1055</ele></trkpt><trkpt lat="47.738051" lon="11.834282"><ele>1053.7</ele></trkpt><trkpt lat="47.738132" lon="11.833337"><ele>1051</ele></trkpt><trkpt lat="47.738369" lon="11.833932"><ele>1023.8</ele></trkpt><trkpt lat="47.738478" lon="11.835371"><ele>1035</ele></trkpt><trkpt lat="47.738692" lon="11.835037"><ele>1037.1</ele></trkpt><trkpt lat="47.738824" lon="11.834754"><ele>1008.7</ele></trkpt><trkpt lat="47.73892" lon="11.834041"><ele>1004.9</ele></trkpt><trkpt lat="47.738975" lon="11.833467"><ele>1011</ele></trkpt><trkpt lat="47.738996" lon="11.832895"><ele>1004.6</ele></trkpt><trkpt lat="47.739125" lon="11.833156"><ele>1006</ele></trkpt><trkpt lat="47.739396" lon="11.833973"><ele>995</ele></trkpt><trkpt lat="47.739436" lon="11.834737"><ele>999.4</ele></trkpt><trkpt lat="47.739436" lon="11.834797"><ele>994.7</ele></trkpt><trkpt lat="47.73943" lon="11.835655"><ele>990.1</ele></trkpt><trkpt lat="47.739552" lon="11.835432"><ele>991.4</ele></trkpt><trkpt lat="47.739632" lon="11.83496"><ele>991.6</ele></trkpt><trkpt lat="47.739885" lon="11.834286"><ele>994</ele></trkpt><trkpt lat="47.73985" lon="11.834066"><ele>990.8</ele></trkpt><trkpt lat="47.739864" lon="11.833823"><ele>985.6</ele></trkpt><trkpt lat="47.739928" lon="11.833721"><ele>972.7</ele></trkpt><trkpt lat="47.739971" lon="11.833468"><ele>965.3</ele></trkpt><trkpt lat="47.740006" lon="11.832674"><ele>959.6</ele></trkpt><trkpt lat="47.740047" lon="11.832249"><ele>955.6</ele></trkpt><trkpt lat="47.740054" lon="11.831505"><ele>917</ele></trkpt><trkpt lat="47.740216" lon="11.831594"><ele>911.5</ele></trkpt><trkpt lat="47.740311" lon="11.831408"><ele>910.8</ele></trkpt><trkpt lat="47.740273" lon="11.83126"><ele>910</ele></trkpt><trkpt lat="47.740198" lon="11.831089"><ele>909.2</ele></trkpt><trkpt lat="47.740354" lon="11.830934"><ele>908.2</ele></trkpt><trkpt lat="47.740596" lon="11.830906"><ele>907.1</ele></trkpt><trkpt lat="47.740843" lon="11.831043"><ele>873</ele></trkpt><trkpt lat="47.740977" lon="11.830903"><ele>867.2</ele></trkpt><trkpt lat="47.7413" lon="11.830793"><ele>866</ele></trkpt><trkpt lat="47.741473" lon="11.83076"><ele>865.6</ele></trkpt><trkpt lat="47.741693" lon="11.830614"><ele>854</ele></trkpt><trkpt lat="47.741952" lon="11.830614"><ele>841.4</ele></trkpt><trkpt lat="47.742101" lon="11.830547"><ele>838.4</ele></trkpt><trkpt lat="47.742278" lon="11.830497"><ele>837.5</ele></trkpt><trkpt lat="47.742501" lon="11.830477"><ele>836.6</ele></trkpt><trkpt lat="47.742558" lon="11.830492"><ele>836.4</ele></trkpt><trkpt lat="47.742605" lon="11.830546"><ele>836.3</ele></trkpt><trkpt lat="47.742778" lon="11.830846"><ele>836.1</ele></trkpt><trkpt lat="47.742934" lon="11.831043"><ele>836.1</ele></trkpt><trkpt lat="47.743002" lon="11.831074"><ele>836.2</ele></trkpt><trkpt lat="47.743052" lon="11.831065"><ele>835.1</ele></trkpt><trkpt lat="47.74322" lon="11.830948"><ele>835</ele></trkpt><trkpt lat="47.743297" lon="11.830925"><ele>834.5</ele></trkpt><trkpt lat="47.74334" lon="11.830928"><ele>834.4</ele></trkpt><trkpt lat="47.743378" lon="11.830975"><ele>823</ele></trkpt><trkpt lat="47.743793" lon="11.83159"><ele>823</ele></trkpt><trkpt lat="47.743871" lon="11.831681"><ele>820</ele></trkpt><trkpt lat="47.744019" lon="11.831904"><ele>804.7</ele></trkpt><trkpt lat="47.744327" lon="11.832062"><ele>802.1</ele></trkpt><trkpt lat="47.744625" lon="11.832178"><ele>802.6</ele></trkpt><trkpt lat="47.744965" lon="11.8324"><ele>803.2</ele></trkpt><trkpt lat="47.745223" lon="11.832456"><ele>791</ele></trkpt><trkpt lat="47.745222" lon="11.832615"><ele>785</ele></trkpt><trkpt lat="47.74523" lon="11.832732"><ele>785</ele></trkpt><trkpt lat="47.745304" lon="11.833066"><ele>785</ele></trkpt><trkpt lat="47.745467" lon="11.833672"><ele>788</ele></trkpt><trkpt lat="47.745593" lon="11.834786"><ele>778</ele></trkpt><trkpt lat="47.745672" lon="11.835361"><ele>771</ele></trkpt><trkpt lat="47.745734" lon="11.835919"><ele>766</ele></trkpt><trkpt lat="47.745722" lon="11.836223"><ele>766</ele></trkpt><trkpt lat="47.745677" lon="11.836317"><ele>766</ele></trkpt><trkpt lat="47.745672" lon="11.836413"><ele>765.7</ele></trkpt><trkpt lat="47.745685" lon="11.836496"><ele>765.8</ele></trkpt><trkpt lat="47.745795" lon="11.83687"><ele>765</ele></trkpt><trkpt lat="47.745908" lon="11.837314"><ele>766</ele></trkpt><trkpt lat="47.74595" lon="11.837474"><ele>766</ele></trkpt><trkpt lat="47.746079" lon="11.83797"><ele>768</ele></trkpt><trkpt lat="47.746193" lon="11.838438"><ele>769</ele></trkpt><trkpt lat="47.746239" lon="11.838633"><ele>769</ele></trkpt><trkpt lat="47.746384" lon="11.839241"><ele>768</ele></trkpt><trkpt lat="47.746647" lon="11.839731"><ele>768</ele></trkpt><trkpt lat="47.746813" lon="11.840019"><ele>770</ele></trkpt><trkpt lat="47.746867" lon="11.840099"><ele>770</ele></trkpt><trkpt lat="47.747094" lon="11.84051"><ele>770</ele></trkpt><trkpt lat="47.747261" lon="11.840835"><ele>770.5</ele></trkpt><trkpt lat="47.747335" lon="11.841093"><ele>771</ele></trkpt><trkpt lat="47.747518" lon="11.841915"><ele>769</ele></trkpt><trkpt lat="47.747564" lon="11.842108"><ele>769</ele></trkpt><trkpt lat="47.747599" lon="11.842165"><ele>769</ele></trkpt><trkpt lat="47.74765" lon="11.842161"><ele>769</ele></trkpt><trkpt lat="47.747837" lon="11.842034"><ele>769</ele></trkpt><trkpt lat="47.747856" lon="11.842022"><ele>769</ele></trkpt><trkpt lat="47.748216" lon="11.841795"><ele>769</ele></trkpt><trkpt lat="47.748307" lon="11.841727"><ele>769</ele></trkpt><trkpt lat="47.748412" lon="11.841648"><ele>768</ele></trkpt><trkpt lat="47.748779" lon="11.84138"><ele>768</ele></trkpt><trkpt lat="47.748799" lon="11.841365"><ele>768</ele></trkpt><trkpt lat="47.748875" lon="11.841307"><ele>768</ele></trkpt><trkpt lat="47.749205" lon="11.840998"><ele>765</ele></trkpt><trkpt lat="47.749639" lon="11.840541"><ele>765</ele></trkpt><trkpt lat="47.749664" lon="11.840598"><ele>764.1</ele></trkpt><trkpt lat="47.749759" lon="11.840559"><ele>764.3</ele></trkpt><trkpt lat="47.750186" lon="11.840173"><ele>762</ele></trkpt><trkpt lat="47.750201" lon="11.84022"><ele>762</ele></trkpt><trkpt lat="47.750181" lon="11.840234"><ele>762</ele></trkpt><trkpt lat="47.750197" lon="11.840282"><ele>762</ele></trkpt><trkpt lat="47.750205" lon="11.840306"><ele>762</ele></trkpt><trkpt lat="47.750212" lon="11.840328"><ele>762</ele></trkpt><trkpt lat="47.750365" lon="11.840219"><ele>762</ele></trkpt><trkpt lat="47.750389" lon="11.840183"><ele>762</ele></trkpt><trkpt lat="47.750536" lon="11.840078"><ele>762</ele></trkpt><trkpt lat="47.750543" lon="11.840098"><ele>762</ele></trkpt><trkpt lat="47.750555" lon="11.840137"><ele>762</ele></trkpt><trkpt lat="47.750521" lon="11.840162"><ele>762</ele></trkpt></trkseg></trk></gpx>