<gpx xmlns="http://www.topografix.com/GPX/1/1" xmlns:xsi="http://www.w3.org/2001/XMLSchema-instance" xsi:schemaLocation="http://www.topografix.com/GPX/1/1 http://www.topografix.com/GPX/1/1/gpx.xsd" version="1.1" creator="togpx"><metadata/><wpt lat="47.680320190621" lon="11.574053764343263"><name></name><desc>label=Lenggries Bahnhof, Lenggries,BY,Germany</desc></wpt><wpt lat="47.684675698568405" lon="11.566286087036135"><name></name><desc>label=Gebirgsjägerstraße 1, Lenggries,BY,Germany</desc></wpt><wpt lat="47.68315889627395" lon="11.553969383239748"><name></name><desc>label=Fuchsarena TV Lenggries, Lenggries,BY,Germany</desc></wpt><wpt lat="47.68219100890237" lon="11.550546884536743"><name></name><desc>label=451, Lenggries,BY,Germany</desc></wpt><wpt lat="47.681930976398924" lon="11.550697088241579"><name></name><desc>label=451, Lenggries,BY,Germany</desc></wpt><wpt lat="47.68025518028539" lon="11.529335975646974"><name></name><desc>label=469, Lenggries,BY,Germany</desc></wpt><wpt lat="47.67707679841996" lon="11.520237922668457"><name></name><desc>label=Gabrielalpe, Lenggries,BY,Germany</desc></wpt><wpt lat="47.67646999441685" lon="11.513382196426392"><name></name><desc>label=Jägersteig, Lenggries,BY,Germany</desc></wpt><wpt lat="47.674851815908106" lon="11.513596773147583"><name></name><desc>label=Jägersteig, Lenggries,BY,Germany</desc></wpt><wpt lat="47.671636982052" lon="11.516300439834597"><name></name><desc>label=Jägersteig, Lenggries,BY,Germany</desc></wpt><wpt lat="47.668270224642285" lon="11.516010761260988"><name></name><desc>label=Loghamalpe, Lenggries,BY,Germany</desc></wpt><wpt lat="47.66642780836732" lon="11.513607501983643"><name></name><desc>label=Längentalkopf, Lenggries,BY,Germany</desc></wpt><wpt lat="47.66321245556353" lon="11.51344656944275"><name></name><desc>label=Zustieg, Lenggries,BY,Germany</desc></wpt><wpt lat="47.661846773887945" lon="11.515184640884401"><name></name><desc>label=Zustieg, Lenggries,BY,Germany</desc></wpt><wpt lat="47.660827908733964" lon="11.515753269195558"><name></name><desc>label=Zustieg, Lenggries,BY,Germany</desc></wpt><wpt lat="47.66121811475937" lon="11.511182785034181"><name></name><desc>label=Zustieg, Lenggries,BY,Germany</desc></wpt><wpt lat="47.65902858766438" lon="11.501441001892092"><name></name><desc>label=Vorderer Kirchstein, Lenggries,BY,Germany</desc></wpt><wpt lat="47.6543603329898" lon="11.493674181329878"><name></name><desc>label=Hintere Krottenalm, Lenggries,BY,Germany</desc></wpt><wpt lat="47.65306653860319" lon="11.475981473922731"><name></name><desc>label=Altweibersteig, Jachenau,BY,Germany</desc></wpt><wpt lat="47.65307376574142" lon="11.465649604797365"><name></name><desc>label=Maximiliansweg, Benediktbeuern,BY,Germany</desc></wpt><wpt lat="47.65331948784562" lon="11.454169750213625"><name></name><desc>label=Schafsteig, Benediktbeuern,BY,Germany</desc></wpt><wpt lat="47.65619579590381" lon="11.461572647094728"><name></name><desc>label=Untere Hausstattalm, Benediktbeuern,BY,Germany</desc></wpt><wpt lat="47.65771338203197" lon="11.46229147911072"><name></name><desc>label=Maximiliansweg, Benediktbeuern,BY,Germany</desc></wpt><wpt lat="47.66131205281139" lon="11.4632248878479"><name></name><desc>label=Telefonsteig, Benediktbeuern,BY,Germany</desc></wpt><wpt lat="47.67220771982475" lon="11.447453498840334"><name></name><desc>label=Schmiedlaine, Benediktbeuern,BY,Germany</desc></wpt><wpt lat="47.663104069434205" lon="11.423109769821169"><name></name><desc>label=Rosengarten, Kochel,BY,Germany</desc></wpt><wpt lat="47.66953459033751" lon="11.411404609680176"><name></name><desc>label=KR, Kochel,BY,Germany</desc></wpt><wpt lat="47.669455116824516" lon="11.411093473434448"><name></name><desc>label=KR, Kochel,BY,Germany</desc></wpt><wpt lat="47.67062553269216" lon="11.407606601715088"><name></name><desc>label=KR, Kochel,BY,Germany</desc></wpt><wpt lat="47.67290849057818" lon="11.40205979347229"><name></name><desc>label=Seillift III, Kochel,BY,Germany</desc></wpt><wpt lat="47.67455562601571" lon="11.396577358245851"><name></name><desc>label=Ötzschlößl, Kochel,BY,Germany</desc></wpt><wpt lat="47.669953630495634" lon="11.39059066772461"><name></name><desc>label=Orterer Straße 4, Kochel,BY,Germany</desc></wpt><wpt lat="47.66693357617371" lon="11.3858699798584"><name></name><desc>label=Steingraben, Kochel,BY,Germany</desc></wpt><wpt lat="47.6660195779208" lon="11.382994651794434"><name></name><desc>label=Allwetterweg, Kochel,BY,Germany</desc></wpt><wpt lat="47.665401807191365" lon="11.382039785385132"><name></name><desc>label=Allwetterweg, Kochel,BY,Germany</desc></wpt><wpt lat="47.6603582124278" lon="11.37064576148987"><name></name><desc>label=Bahnhofstraße 21, Kochel,BY,Germany</desc></wpt><wpt lat="47.660748421963824" lon="11.371187567710878"><name></name><desc>label=Unteranger, Kochel,BY,Germany</desc></wpt><trk><name></name><desc>ascent=1950.9
descent=2023.1
opacity=0.9</desc><trkseg><trkpt lat="47.68032" lon="11.574056"><ele>681</ele></trkpt><trkpt lat="47.680433" lon="11.574042"><ele>681</ele></trkpt><trkpt lat="47.681137" lon="11.573965"><ele>681</ele></trkpt><trkpt lat="47.681958" lon="11.573798"><ele>680</ele></trkpt><trkpt lat="47.682167" lon="11.573724"><ele>680</ele></trkpt><trkpt lat="47.682363" lon="11.57366"><ele>680</ele></trkpt><trkpt lat="47.682413" lon="11.573625"><ele>680</ele></trkpt><trkpt lat="47.682442" lon="11.573542"><ele>680</ele></trkpt><trkpt lat="47.682437" lon="11.573326"><ele>677</ele></trkpt><trkpt lat="47.682425" lon="11.573086"><ele>677</ele></trkpt><trkpt lat="47.682441" lon="11.572904"><ele>677</ele></trkpt><trkpt lat="47.682482" lon="11.572707"><ele>677</ele></trkpt><trkpt lat="47.682505" lon="11.57263"><ele>677</ele></trkpt><trkpt lat="47.682541" lon="11.572516"><ele>676.6</ele></trkpt><trkpt lat="47.682544" lon="11.57238"><ele>676</ele></trkpt><trkpt lat="47.682533" lon="11.57228"><ele>676</ele></trkpt><trkpt lat="47.682528" lon="11.572199"><ele>676</ele></trkpt><trkpt lat="47.682386" lon="11.571271"><ele>679</ele></trkpt><trkpt lat="47.682371" lon="11.571167"><ele>679</ele></trkpt><trkpt lat="47.682357" lon="11.57107"><ele>679</ele></trkpt><trkpt lat="47.682353" lon="11.570844"><ele>679.5</ele></trkpt><trkpt lat="47.682395" lon="11.570635"><ele>680</ele></trkpt><trkpt lat="47.682416" lon="11.570522"><ele>680</ele></trkpt><trkpt lat="47.682524" lon="11.570347"><ele>680</ele></trkpt><trkpt lat="47.682621" lon="11.570131"><ele>680</ele></trkpt><trkpt lat="47.682736" lon="11.569916"><ele>680</ele></trkpt><trkpt lat="47.683005" lon="11.569285"><ele>680</ele></trkpt><trkpt lat="47.683368" lon="11.568442"><ele>678</ele></trkpt><trkpt lat="47.683752" lon="11.56785"><ele>678</ele></trkpt><trkpt lat="47.684053" lon="11.567513"><ele>678</ele></trkpt><trkpt lat="47.684305" lon="11.567225"><ele>679</ele></trkpt><trkpt lat="47.684449" lon="11.56706"><ele>679</ele></trkpt><trkpt lat="47.684611" lon="11.566875"><ele>679</ele></trkpt><trkpt lat="47.684743" lon="11.566725"><ele>679</ele></trkpt><trkpt lat="47.684683" lon="11.566443"><ele>682.6</ele></trkpt><trkpt lat="47.684664" lon="11.566289"><ele>682.6</ele></trkpt><trkpt lat="47.684646" lon="11.566137"><ele>682.5</ele></trkpt><trkpt lat="47.684626" lon="11.565856"><ele>682.4</ele></trkpt><trkpt lat="47.68464" lon="11.565714"><ele>685</ele></trkpt><trkpt lat="47.684649" lon="11.565618"><ele>685</ele></trkpt><trkpt lat="47.684682" lon="11.565502"><ele>685</ele></trkpt><trkpt lat="47.684706" lon="11.565415"><ele>685.3</ele></trkpt><trkpt lat="47.684964" lon="11.564966"><ele>685.4</ele></trkpt><trkpt lat="47.68502" lon="11.564802"><ele>685.1</ele></trkpt><trkpt lat="47.68506" lon="11.5646"><ele>685.2</ele></trkpt><trkpt lat="47.685081" lon="11.564346"><ele>685</ele></trkpt><trkpt lat="47.685135" lon="11.563615"><ele>696.8</ele></trkpt><trkpt lat="47.685204" lon="11.563346"><ele>697.1</ele></trkpt><trkpt lat="47.685301" lon="11.56312"><ele>697.4</ele></trkpt><trkpt lat="47.685602" lon="11.562714"><ele>696.7</ele></trkpt><trkpt lat="47.685846" lon="11.56244"><ele>697.4</ele></trkpt><trkpt lat="47.686093" lon="11.562217"><ele>699</ele></trkpt><trkpt lat="47.686093" lon="11.562084"><ele>699</ele></trkpt><trkpt lat="47.686053" lon="11.561918"><ele>699</ele></trkpt><trkpt lat="47.685995" lon="11.561825"><ele>698.7</ele></trkpt><trkpt lat="47.685787" lon="11.561767"><ele>698</ele></trkpt><trkpt lat="47.685616" lon="11.5618"><ele>698</ele></trkpt><trkpt lat="47.685512" lon="11.561861"><ele>698</ele></trkpt><trkpt lat="47.685369" lon="11.561348"><ele>696</ele></trkpt><trkpt lat="47.68523" lon="11.560852"><ele>696</ele></trkpt><trkpt lat="47.685141" lon="11.560536"><ele>697</ele></trkpt><trkpt lat="47.685015" lon="11.560057"><ele>697</ele></trkpt><trkpt lat="47.684839" lon="11.559465"><ele>695</ele></trkpt><trkpt lat="47.684815" lon="11.559385"><ele>695</ele></trkpt><trkpt lat="47.684754" lon="11.559172"><ele>694.6</ele></trkpt><trkpt lat="47.684778" lon="11.558811"><ele>694</ele></trkpt><trkpt lat="47.684783" lon="11.558706"><ele>694</ele></trkpt><trkpt lat="47.684732" lon="11.558506"><ele>694</ele></trkpt><trkpt lat="47.684711" lon="11.558424"><ele>694</ele></trkpt><trkpt lat="47.684519" lon="11.557706"><ele>695</ele></trkpt><trkpt lat="47.684465" lon="11.557452"><ele>698</ele></trkpt><trkpt lat="47.684441" lon="11.55733"><ele>698</ele></trkpt><trkpt lat="47.684404" lon="11.557181"><ele>698</ele></trkpt><trkpt lat="47.684422" lon="11.557093"><ele>698</ele></trkpt><trkpt lat="47.684252" lon="11.556936"><ele>701.3</ele></trkpt><trkpt lat="47.68418" lon="11.556823"><ele>701.7</ele></trkpt><trkpt lat="47.683843" lon="11.555339"><ele>702</ele></trkpt><trkpt lat="47.68374" lon="11.555147"><ele>701.9</ele></trkpt><trkpt lat="47.683561" lon="11.555001"><ele>701.3</ele></trkpt><trkpt lat="47.683347" lon="11.55478"><ele>700.9</ele></trkpt><trkpt lat="47.683246" lon="11.554536"><ele>700.9</ele></trkpt><trkpt lat="47.6831" lon="11.554005"><ele>700.5</ele></trkpt><trkpt lat="47.682987" lon="11.553592"><ele>700</ele></trkpt><trkpt lat="47.682888" lon="11.553284"><ele>697</ele></trkpt><trkpt lat="47.682848" lon="11.55316"><ele>697</ele></trkpt><trkpt lat="47.682286" lon="11.551361"><ele>701.9</ele></trkpt><trkpt lat="47.682203" lon="11.550862"><ele>702.6</ele></trkpt><trkpt lat="47.682175" lon="11.55055"><ele>702.8</ele></trkpt><trkpt lat="47.681931" lon="11.550697"><ele>702.8</ele></trkpt><trkpt lat="47.681909" lon="11.550361"><ele>703.8</ele></trkpt><trkpt lat="47.681874" lon="11.55014"><ele>703.8</ele></trkpt><trkpt lat="47.681664" lon="11.549605"><ele>705.2</ele></trkpt><trkpt lat="47.68158" lon="11.549312"><ele>706.2</ele></trkpt><trkpt lat="47.681238" lon="11.54852"><ele>711.7</ele></trkpt><trkpt lat="47.681059" lon="11.547939"><ele>715.6</ele></trkpt><trkpt lat="47.680933" lon="11.547659"><ele>716.6</ele></trkpt><trkpt lat="47.68078" lon="11.547466"><ele>717.7</ele></trkpt><trkpt lat="47.680554" lon="11.547275"><ele>717.9</ele></trkpt><trkpt lat="47.680458" lon="11.547159"><ele>717.9</ele></trkpt><trkpt lat="47.680383" lon="11.547017"><ele>718</ele></trkpt><trkpt lat="47.680333" lon="11.546858"><ele>718.6</ele></trkpt><trkpt lat="47.680323" lon="11.546734"><ele>718.7</ele></trkpt><trkpt lat="47.680339" lon="11.546612"><ele>719.3</ele></trkpt><trkpt lat="47.680378" lon="11.546489"><ele>727</ele></trkpt><trkpt lat="47.680433" lon="11.546349"><ele>740.8</ele></trkpt><trkpt lat="47.680636" lon="11.545963"><ele>744.5</ele></trkpt><trkpt lat="47.680706" lon="11.545716"><ele>746.7</ele></trkpt><trkpt lat="47.680707" lon="11.545522"><ele>749.7</ele></trkpt><trkpt lat="47.68069" lon="11.545432"><ele>751.1</ele></trkpt><trkpt lat="47.680652" lon="11.545366"><ele>751.4</ele></trkpt><trkpt lat="47.68059" lon="11.545338"><ele>751.7</ele></trkpt><trkpt lat="47.680523" lon="11.545342"><ele>752.1</ele></trkpt><trkpt lat="47.680439" lon="11.545436"><ele>752.5</ele></trkpt><trkpt lat="47.680386" lon="11.545479"><ele>752.8</ele></trkpt><trkpt lat="47.680347" lon="11.545484"><ele>753.2</ele></trkpt><trkpt lat="47.680089" lon="11.545264"><ele>754.5</ele></trkpt><trkpt lat="47.680075" lon="11.545227"><ele>754.9</ele></trkpt><trkpt lat="47.680067" lon="11.545152"><ele>755.4</ele></trkpt><trkpt lat="47.680087" lon="11.544975"><ele>755.8</ele></trkpt><trkpt lat="47.680188" lon="11.544504"><ele>756.8</ele></trkpt><trkpt lat="47.680218" lon="11.544084"><ele>757.9</ele></trkpt><trkpt lat="47.680206" lon="11.54382"><ele>757.5</ele></trkpt><trkpt lat="47.680178" lon="11.543742"><ele>756.8</ele></trkpt><trkpt lat="47.680118" lon="11.543678"><ele>781</ele></trkpt><trkpt lat="47.680292" lon="11.543246"><ele>818.7</ele></trkpt><trkpt lat="47.680749" lon="11.542286"><ele>836.8</ele></trkpt><trkpt lat="47.68085" lon="11.542119"><ele>836.6</ele></trkpt><trkpt lat="47.680892" lon="11.541987"><ele>839.7</ele></trkpt><trkpt lat="47.680891" lon="11.541904"><ele>841.2</ele></trkpt><trkpt lat="47.68087" lon="11.541838"><ele>843.2</ele></trkpt><trkpt lat="47.680705" lon="11.541501"><ele>847.6</ele></trkpt><trkpt lat="47.680616" lon="11.541378"><ele>847.5</ele></trkpt><trkpt lat="47.680506" lon="11.541273"><ele>847.6</ele></trkpt><trkpt lat="47.680331" lon="11.54123"><ele>865.6</ele></trkpt><trkpt lat="47.680235" lon="11.541306"><ele>866.7</ele></trkpt><trkpt lat="47.680025" lon="11.541537"><ele>868</ele></trkpt><trkpt lat="47.679704" lon="11.541618"><ele>871.3</ele></trkpt><trkpt lat="47.679541" lon="11.541679"><ele>880</ele></trkpt><trkpt lat="47.679302" lon="11.541869"><ele>886.7</ele></trkpt><trkpt lat="47.679216" lon="11.541873"><ele>889.4</ele></trkpt><trkpt lat="47.679082" lon="11.541798"><ele>892.3</ele></trkpt><trkpt lat="47.679035" lon="11.541675"><ele>893</ele></trkpt><trkpt lat="47.679025" lon="11.5415"><ele>893.7</ele></trkpt><trkpt lat="47.679044" lon="11.541428"><ele>893.4</ele></trkpt><trkpt lat="47.67914" lon="11.541211"><ele>891.1</ele></trkpt><trkpt lat="47.679363" lon="11.540866"><ele>888.2</ele></trkpt><trkpt lat="47.679442" lon="11.54071"><ele>888.6</ele></trkpt><trkpt lat="47.679452" lon="11.540596"><ele>887.9</ele></trkpt><trkpt lat="47.67943" lon="11.540516"><ele>887.2</ele></trkpt><trkpt lat="47.679356" lon="11.540421"><ele>887.9</ele></trkpt><trkpt lat="47.679232" lon="11.540407"><ele>888.5</ele></trkpt><trkpt lat="47.678971" lon="11.540454"><ele>889.2</ele></trkpt><trkpt lat="47.678874" lon="11.540438"><ele>939</ele></trkpt><trkpt lat="47.679046" lon="11.540172"><ele>944.4</ele></trkpt><trkpt lat="47.679219" lon="11.539786"><ele>955.2</ele></trkpt><trkpt lat="47.679508" lon="11.539314"><ele>959.2</ele></trkpt><trkpt lat="47.679732" lon="11.538559"><ele>970</ele></trkpt><trkpt lat="47.679779" lon="11.538454"><ele>971.7</ele></trkpt><trkpt lat="47.680252" lon="11.537738"><ele>972.9</ele></trkpt><trkpt lat="47.680242" lon="11.537592"><ele>975.3</ele></trkpt><trkpt lat="47.680188" lon="11.537549"><ele>977</ele></trkpt><trkpt lat="47.68013" lon="11.537576"><ele>976.7</ele></trkpt><trkpt lat="47.679737" lon="11.537892"><ele>976.6</ele></trkpt><trkpt lat="47.679688" lon="11.537905"><ele>975.6</ele></trkpt><trkpt lat="47.679647" lon="11.53788"><ele>993</ele></trkpt><trkpt lat="47.679636" lon="11.537817"><ele>1008.9</ele></trkpt><trkpt lat="47.679664" lon="11.537443"><ele>1013.2</ele></trkpt><trkpt lat="47.679764" lon="11.5372"><ele>1011.8</ele></trkpt><trkpt lat="47.67994" lon="11.536953"><ele>1011.5</ele></trkpt><trkpt lat="47.680042" lon="11.536715"><ele>1010.4</ele></trkpt><trkpt lat="47.680203" lon="11.535986"><ele>1014.4</ele></trkpt><trkpt lat="47.680271" lon="11.535811"><ele>1015.2</ele></trkpt><trkpt lat="47.680401" lon="11.535645"><ele>1014.7</ele></trkpt><trkpt lat="47.680467" lon="11.535467"><ele>1022</ele></trkpt><trkpt lat="47.680511" lon="11.535269"><ele>1024.4</ele></trkpt><trkpt lat="47.680453" lon="11.534021"><ele>1023.5</ele></trkpt><trkpt lat="47.680404" lon="11.533757"><ele>1022.1</ele></trkpt><trkpt lat="47.680447" lon="11.533439"><ele>1021.6</ele></trkpt><trkpt lat="47.680715" lon="11.532935"><ele>1020.4</ele></trkpt><trkpt lat="47.6809" lon="11.53273"><ele>1019.4</ele></trkpt><trkpt lat="47.681009" lon="11.532104"><ele>1015</ele></trkpt><trkpt lat="47.680866" lon="11.531332"><ele>1013</ele></trkpt><trkpt lat="47.680491" lon="11.530688"><ele>1024.3</ele></trkpt><trkpt lat="47.680399" lon="11.530386"><ele>1030</ele></trkpt><trkpt lat="47.680231" lon="11.529916"><ele>1028</ele></trkpt><trkpt lat="47.680231" lon="11.529336"><ele>1026.5</ele></trkpt><trkpt lat="47.680231" lon="11.528608"><ele>1025</ele></trkpt><trkpt lat="47.68015" lon="11.527798"><ele>1033.8</ele></trkpt><trkpt lat="47.680028" lon="11.527152"><ele>1038.8</ele></trkpt><trkpt lat="47.679718" lon="11.526729"><ele>1045.9</ele></trkpt><trkpt lat="47.6797" lon="11.526209"><ele>1044.3</ele></trkpt><trkpt lat="47.679523" lon="11.525796"><ele>1048.4</ele></trkpt><trkpt lat="47.67919" lon="11.524766"><ele>1051.8</ele></trkpt><trkpt lat="47.679046" lon="11.524208"><ele>1054.8</ele></trkpt><trkpt lat="47.678902" lon="11.524122"><ele>1053.8</ele></trkpt><trkpt lat="47.67868" lon="11.524061"><ele>1057</ele></trkpt><trkpt lat="47.678355" lon="11.523732"><ele>1059</ele></trkpt><trkpt lat="47.678073" lon="11.522975"><ele>1068.3</ele></trkpt><trkpt lat="47.677601" lon="11.522422"><ele>1071.9</ele></trkpt><trkpt lat="47.677464" lon="11.521757"><ele>1078.1</ele></trkpt><trkpt lat="47.677358" lon="11.521383"><ele>1075</ele></trkpt><trkpt lat="47.677037" lon="11.520263"><ele>1064.8</ele></trkpt><trkpt lat="47.677023" lon="11.520217"><ele>1054.6</ele></trkpt><trkpt lat="47.676889" lon="11.520094"><ele>1054.9</ele></trkpt><trkpt lat="47.676768" lon="11.519891"><ele>1055.4</ele></trkpt><trkpt lat="47.676734" lon="11.519702"><ele>1056.6</ele></trkpt><trkpt lat="47.676824" lon="11.51886"><ele>1051</ele></trkpt><trkpt lat="47.676857" lon="11.51857"><ele>1047.5</ele></trkpt><trkpt lat="47.676775" lon="11.517958"><ele>1046.6</ele></trkpt><trkpt lat="47.676707" lon="11.517574"><ele>1044</ele></trkpt><trkpt lat="47.676523" lon="11.517058"><ele>1067.3</ele></trkpt><trkpt lat="47.67632" lon="11.516216"><ele>1064.7</ele></trkpt><trkpt lat="47.676117" lon="11.515616"><ele>1073</ele></trkpt><trkpt lat="47.676373" lon="11.515405"><ele>1071.4</ele></trkpt><trkpt lat="47.676507" lon="11.515186"><ele>1071.1</ele></trkpt><trkpt lat="47.676534" lon="11.514197"><ele>1068.7</ele></trkpt><trkpt lat="47.676433" lon="11.513519"><ele>1066.8</ele></trkpt><trkpt lat="47.676435" lon="11.513381"><ele>1062.9</ele></trkpt><trkpt lat="47.676445" lon="11.512677"><ele>1059</ele></trkpt><trkpt lat="47.676102" lon="11.512717"><ele>1065.3</ele></trkpt><trkpt lat="47.675839" lon="11.512449"><ele>1072.3</ele></trkpt><trkpt lat="47.675579" lon="11.51232"><ele>1074.6</ele></trkpt><trkpt lat="47.675383" lon="11.512343"><ele>1076.1</ele></trkpt><trkpt lat="47.674905" lon="11.512719"><ele>1080.4</ele></trkpt><trkpt lat="47.674769" lon="11.512921"><ele>1080.1</ele></trkpt><trkpt lat="47.674759" lon="11.513146"><ele>1081.3</ele></trkpt><trkpt lat="47.674827" lon="11.513565"><ele>1081</ele></trkpt><trkpt lat="47.674841" lon="11.513605"><ele>1080.1</ele></trkpt><trkpt lat="47.675001" lon="11.51408"><ele>1079.3</ele></trkpt><trkpt lat="47.67516" lon="11.514652"><ele>1085</ele></trkpt><trkpt lat="47.675088" lon="11.514836"><ele>1092.3</ele></trkpt><trkpt lat="47.674946" lon="11.514958"><ele>1107</ele></trkpt><trkpt lat="47.67481" lon="11.515085"><ele>1111</ele></trkpt><trkpt lat="47.674357" lon="11.51537"><ele>1111.2</ele></trkpt><trkpt lat="47.674079" lon="11.515729"><ele>1111.4</ele></trkpt><trkpt lat="47.67392" lon="11.515807"><ele>1114</ele></trkpt><trkpt lat="47.673516" lon="11.515753"><ele>1114</ele></trkpt><trkpt lat="47.673113" lon="11.515841"><ele>1117.2</ele></trkpt><trkpt lat="47.672832" lon="11.51581"><ele>1116</ele></trkpt><trkpt lat="47.672209" lon="11.515924"><ele>1119.7</ele></trkpt><trkpt lat="47.671794" lon="11.516225"><ele>1121</ele></trkpt><trkpt lat="47.671634" lon="11.516277"><ele>1127</ele></trkpt><trkpt lat="47.67138" lon="11.51636"><ele>1133</ele></trkpt><trkpt lat="47.671124" lon="11.516263"><ele>1137.7</ele></trkpt><trkpt lat="47.670754" lon="11.516238"><ele>1147</ele></trkpt><trkpt lat="47.670541" lon="11.516102"><ele>1160.7</ele></trkpt><trkpt lat="47.670446" lon="11.515935"><ele>1162</ele></trkpt><trkpt lat="47.670249" lon="11.515398"><ele>1163.3</ele></trkpt><trkpt lat="47.670006" lon="11.515213"><ele>1164.7</ele></trkpt><trkpt lat="47.669906" lon="11.51517"><ele>1166.3</ele></trkpt><trkpt lat="47.669785" lon="11.515213"><ele>1165.7</ele></trkpt><trkpt lat="47.669675" lon="11.515331"><ele>1165.2</ele></trkpt><trkpt lat="47.66957" lon="11.515538"><ele>1164.5</ele></trkpt><trkpt lat="47.669514" lon="11.515807"><ele>1163.9</ele></trkpt><trkpt lat="47.669381" lon="11.516047"><ele>1171</ele></trkpt><trkpt lat="47.669292" lon="11.516005"><ele>1200.2</ele></trkpt><trkpt lat="47.668978" lon="11.515722"><ele>1208</ele></trkpt><trkpt lat="47.668897" lon="11.515764"><ele>1208.4</ele></trkpt><trkpt lat="47.668595" lon="11.516566"><ele>1207.9</ele></trkpt><trkpt lat="47.668533" lon="11.516579"><ele>1207.4</ele></trkpt><trkpt lat="47.668233" lon="11.516059"><ele>1208.8</ele></trkpt><trkpt lat="47.668186" lon="11.515978"><ele>1210.1</ele></trkpt><trkpt lat="47.668049" lon="11.515648"><ele>1217.8</ele></trkpt><trkpt lat="47.667997" lon="11.515073"><ele>1226.4</ele></trkpt><trkpt lat="47.667959" lon="11.515025"><ele>1248</ele></trkpt><trkpt lat="47.66793" lon="11.515053"><ele>1257</ele></trkpt><trkpt lat="47.667732" lon="11.515564"><ele>1256</ele></trkpt><trkpt lat="47.667605" lon="11.515785"><ele>1255.1</ele></trkpt><trkpt lat="47.667307" lon="11.516086"><ele>1255.8</ele></trkpt><trkpt lat="47.667179" lon="11.516111"><ele>1256.4</ele></trkpt><trkpt lat="47.667099" lon="11.516026"><ele>1256.9</ele></trkpt><trkpt lat="47.667002" lon="11.515796"><ele>1280</ele></trkpt><trkpt lat="47.667259" lon="11.515198"><ele>1282.6</ele></trkpt><trkpt lat="47.667212" lon="11.514661"><ele>1283.5</ele></trkpt><trkpt lat="47.667122" lon="11.51417"><ele>1287</ele></trkpt><trkpt lat="47.666948" lon="11.513898"><ele>1333.2</ele></trkpt><trkpt lat="47.666744" lon="11.51368"><ele>1338.1</ele></trkpt><trkpt lat="47.666429" lon="11.513599"><ele>1346.1</ele></trkpt><trkpt lat="47.666144" lon="11.513526"><ele>1354.1</ele></trkpt><trkpt lat="47.665849" lon="11.513092"><ele>1359.3</ele></trkpt><trkpt lat="47.665722" lon="11.51325"><ele>1363.4</ele></trkpt><trkpt lat="47.66557" lon="11.513186"><ele>1373.1</ele></trkpt><trkpt lat="47.665421" lon="11.513379"><ele>1374.2</ele></trkpt><trkpt lat="47.665325" lon="11.513675"><ele>1382.4</ele></trkpt><trkpt lat="47.665142" lon="11.513772"><ele>1382.8</ele></trkpt><trkpt lat="47.665114" lon="11.514064"><ele>1383.2</ele></trkpt><trkpt lat="47.665035" lon="11.514284"><ele>1383.2</ele></trkpt><trkpt lat="47.664988" lon="11.514275"><ele>1384</ele></trkpt><trkpt lat="47.664744" lon="11.514232"><ele>1384.9</ele></trkpt><trkpt lat="47.664367" lon="11.514096"><ele>1387.5</ele></trkpt><trkpt lat="47.66418" lon="11.514473"><ele>1384</ele></trkpt><trkpt lat="47.663841" lon="11.513692"><ele>1409.8</ele></trkpt><trkpt lat="47.663392" lon="11.513495"><ele>1406.7</ele></trkpt><trkpt lat="47.663211" lon="11.51347"><ele>1413.1</ele></trkpt><trkpt lat="47.662627" lon="11.513389"><ele>1419.5</ele></trkpt><trkpt lat="47.662506" lon="11.51372"><ele>1448</ele></trkpt><trkpt lat="47.662626" lon="11.514193"><ele>1481.7</ele></trkpt><trkpt lat="47.662628" lon="11.514469"><ele>1482</ele></trkpt><trkpt lat="47.662482" lon="11.514457"><ele>1488.7</ele></trkpt><trkpt lat="47.662532" lon="11.514762"><ele>1486</ele></trkpt><trkpt lat="47.662308" lon="11.51473"><ele>1489.7</ele></trkpt><trkpt lat="47.662054" lon="11.51493"><ele>1499.4</ele></trkpt><trkpt lat="47.661867" lon="11.515214"><ele>1500.1</ele></trkpt><trkpt lat="47.661806" lon="11.515307"><ele>1500.8</ele></trkpt><trkpt lat="47.661735" lon="11.515743"><ele>1507.3</ele></trkpt><trkpt lat="47.661516" lon="11.515779"><ele>1512.1</ele></trkpt><trkpt lat="47.661185" lon="11.516081"><ele>1514.1</ele></trkpt><trkpt lat="47.661199" lon="11.516203"><ele>1513.8</ele></trkpt><trkpt lat="47.661111" lon="11.51615"><ele>1513.6</ele></trkpt><trkpt lat="47.661108" lon="11.516224"><ele>1513.4</ele></trkpt><trkpt lat="47.661038" lon="11.516222"><ele>1513.2</ele></trkpt><trkpt lat="47.661055" lon="11.516781"><ele>1511</ele></trkpt><trkpt lat="47.661005" lon="11.516746"><ele>1502</ele></trkpt><trkpt lat="47.660923" lon="11.516298"><ele>1500.2</ele></trkpt><trkpt lat="47.660819" lon="11.515945"><ele>1498</ele></trkpt><trkpt lat="47.660823" lon="11.515753"><ele>1496</ele></trkpt><trkpt lat="47.660826" lon="11.515651"><ele>1494</ele></trkpt><trkpt lat="47.660781" lon="11.515453"><ele>1494</ele></trkpt><trkpt lat="47.660771" lon="11.515314"><ele>1494</ele></trkpt><trkpt lat="47.660737" lon="11.515233"><ele>1494</ele></trkpt><trkpt lat="47.660854" lon="11.515245"><ele>1520.4</ele></trkpt><trkpt lat="47.660857" lon="11.515126"><ele>1518.9</ele></trkpt><trkpt lat="47.660785" lon="11.515043"><ele>1517.2</ele></trkpt><trkpt lat="47.660879" lon="11.514992"><ele>1520.5</ele></trkpt><trkpt lat="47.660929" lon="11.514778"><ele>1531</ele></trkpt><trkpt lat="47.66104" lon="11.514657"><ele>1536.9</ele></trkpt><trkpt lat="47.661145" lon="11.51433"><ele>1536.2</ele></trkpt><trkpt lat="47.661194" lon="11.51407"><ele>1538.6</ele></trkpt><trkpt lat="47.661173" lon="11.513767"><ele>1537.7</ele></trkpt><trkpt lat="47.661095" lon="11.513495"><ele>1541</ele></trkpt><trkpt lat="47.661054" lon="11.513118"><ele>1543</ele></trkpt><trkpt lat="47.661225" lon="11.512161"><ele>1562.8</ele></trkpt><trkpt lat="47.661124" lon="11.511742"><ele>1577.4</ele></trkpt><trkpt lat="47.6612" lon="11.511177"><ele>1588.2</ele></trkpt><trkpt lat="47.661256" lon="11.510766"><ele>1599</ele></trkpt><trkpt lat="47.661174" lon="11.510212"><ele>1602.1</ele></trkpt><trkpt lat="47.661074" lon="11.509907"><ele>1608.7</ele></trkpt><trkpt lat="47.660898" lon="11.509558"><ele>1615.2</ele></trkpt><trkpt lat="47.660682" lon="11.509195"><ele>1611.7</ele></trkpt><trkpt lat="47.660552" lon="11.508872"><ele>1611.2</ele></trkpt><trkpt lat="47.660384" lon="11.507355"><ele>1601.9</ele></trkpt><trkpt lat="47.660261" lon="11.505866"><ele>1599</ele></trkpt><trkpt lat="47.66022" lon="11.505762"><ele>1600.2</ele></trkpt><trkpt lat="47.660223" lon="11.505534"><ele>1601.3</ele></trkpt><trkpt lat="47.660088" lon="11.505113"><ele>1603.5</ele></trkpt><trkpt lat="47.65986" lon="11.504493"><ele>1598.2</ele></trkpt><trkpt lat="47.659804" lon="11.50429"><ele>1574</ele></trkpt><trkpt lat="47.659787" lon="11.504198"><ele>1592</ele></trkpt><trkpt lat="47.659697" lon="11.504047"><ele>1594.2</ele></trkpt><trkpt lat="47.659601" lon="11.503631"><ele>1596</ele></trkpt><trkpt lat="47.659474" lon="11.503274"><ele>1622</ele></trkpt><trkpt lat="47.659417" lon="11.503148"><ele>1633.6</ele></trkpt><trkpt lat="47.659379" lon="11.502779"><ele>1631.9</ele></trkpt><trkpt lat="47.65931" lon="11.502425"><ele>1634.9</ele></trkpt><trkpt lat="47.659404" lon="11.502067"><ele>1637.5</ele></trkpt><trkpt lat="47.659396" lon="11.502032"><ele>1653</ele></trkpt><trkpt lat="47.659324" lon="11.501936"><ele>1650.7</ele></trkpt><trkpt lat="47.659254" lon="11.501576"><ele>1646</ele></trkpt><trkpt lat="47.659175" lon="11.501524"><ele>1658.6</ele></trkpt><trkpt lat="47.659059" lon="11.501511"><ele>1659</ele></trkpt><trkpt lat="47.659019" lon="11.501494"><ele>1659.2</ele></trkpt><trkpt lat="47.658857" lon="11.50143"><ele>1659.3</ele></trkpt><trkpt lat="47.658821" lon="11.501339"><ele>1659.2</ele></trkpt><trkpt lat="47.658625" lon="11.501108"><ele>1660.1</ele></trkpt><trkpt lat="47.658443" lon="11.50094"><ele>1660.6</ele></trkpt><trkpt lat="47.65838" lon="11.500808"><ele>1660.3</ele></trkpt><trkpt lat="47.658301" lon="11.500731"><ele>1661.4</ele></trkpt><trkpt lat="47.658185" lon="11.500679"><ele>1662.4</ele></trkpt><trkpt lat="47.658134" lon="11.500603"><ele>1663.1</ele></trkpt><trkpt lat="47.658013" lon="11.500571"><ele>1664.4</ele></trkpt><trkpt lat="47.657949" lon="11.500506"><ele>1665.7</ele></trkpt><trkpt lat="47.65779" lon="11.500452"><ele>1666.3</ele></trkpt><trkpt lat="47.657632" lon="11.500366"><ele>1667.6</ele></trkpt><trkpt lat="47.657529" lon="11.50023"><ele>1668</ele></trkpt><trkpt lat="47.657297" lon="11.500192"><ele>1666.8</ele></trkpt><trkpt lat="47.657167" lon="11.499878"><ele>1666.3</ele></trkpt><trkpt lat="47.657031" lon="11.49975"><ele>1666.3</ele></trkpt><trkpt lat="47.656926" lon="11.499389"><ele>1664.9</ele></trkpt><trkpt lat="47.656861" lon="11.499319"><ele>1664.2</ele></trkpt><trkpt lat="47.656812" lon="11.499306"><ele>1664.8</ele></trkpt><trkpt lat="47.656786" lon="11.49935"><ele>1665.4</ele></trkpt><trkpt lat="47.656716" lon="11.499186"><ele>1664.9</ele></trkpt><trkpt lat="47.656617" lon="11.499047"><ele>1663.7</ele></trkpt><trkpt lat="47.656638" lon="11.498631"><ele>1661</ele></trkpt><trkpt lat="47.656611" lon="11.498518"><ele>1659.9</ele></trkpt><trkpt lat="47.656607" lon="11.498426"><ele>1659.4</ele></trkpt><trkpt lat="47.656516" lon="11.498277"><ele>1657.9</ele></trkpt><trkpt lat="47.656525" lon="11.498203"><ele>1657.7</ele></trkpt><trkpt lat="47.656483" lon="11.498139"><ele>1656.6</ele></trkpt><trkpt lat="47.656484" lon="11.498027"><ele>1656.5</ele></trkpt><trkpt lat="47.656429" lon="11.497925"><ele>1653.7</ele></trkpt><trkpt lat="47.656455" lon="11.497829"><ele>1653.6</ele></trkpt><trkpt lat="47.656565" lon="11.497693"><ele>1653.5</ele></trkpt><trkpt lat="47.656626" lon="11.497492"><ele>1652</ele></trkpt><trkpt lat="47.656706" lon="11.497383"><ele>1650.8</ele></trkpt><trkpt lat="47.656708" lon="11.497191"><ele>1646.6</ele></trkpt><trkpt lat="47.65667" lon="11.496994"><ele>1645.7</ele></trkpt><trkpt lat="47.656422" lon="11.496417"><ele>1647.4</ele></trkpt><trkpt lat="47.656348" lon="11.496338"><ele>1646.6</ele></trkpt><trkpt lat="47.6563" lon="11.496379"><ele>1645.2</ele></trkpt><trkpt lat="47.656184" lon="11.496039"><ele>1634</ele></trkpt><trkpt lat="47.656175" lon="11.496009"><ele>1629.6</ele></trkpt><trkpt lat="47.656046" lon="11.496251"><ele>1630</ele></trkpt><trkpt lat="47.655978" lon="11.496212"><ele>1630.3</ele></trkpt><trkpt lat="47.655955" lon="11.495945"><ele>1630.6</ele></trkpt><trkpt lat="47.655969" lon="11.495732"><ele>1631.3</ele></trkpt><trkpt lat="47.655884" lon="11.495449"><ele>1631.9</ele></trkpt><trkpt lat="47.655834" lon="11.495371"><ele>1632.5</ele></trkpt><trkpt lat="47.65571" lon="11.494996"><ele>1630.7</ele></trkpt><trkpt lat="47.655599" lon="11.49492"><ele>1629.1</ele></trkpt><trkpt lat="47.655472" lon="11.494896"><ele>1611</ele></trkpt><trkpt lat="47.655339" lon="11.494835"><ele>1589.6</ele></trkpt><trkpt lat="47.655075" lon="11.494767"><ele>1590.1</ele></trkpt><trkpt lat="47.654796" lon="11.494603"><ele>1586.2</ele></trkpt><trkpt lat="47.654581" lon="11.494413"><ele>1584.6</ele></trkpt><trkpt lat="47.654482" lon="11.493984"><ele>1581</ele></trkpt><trkpt lat="47.654336" lon="11.493744"><ele>1576.4</ele></trkpt><trkpt lat="47.654333" lon="11.493677"><ele>1576.4</ele></trkpt><trkpt lat="47.654326" lon="11.493533"><ele>1576.4</ele></trkpt><trkpt lat="47.654259" lon="11.493173"><ele>1573.5</ele></trkpt><trkpt lat="47.654152" lon="11.492892"><ele>1568.1</ele></trkpt><trkpt lat="47.653978" lon="11.492613"><ele>1566</ele></trkpt><trkpt lat="47.654089" lon="11.491864"><ele>1556</ele></trkpt><trkpt lat="47.654053" lon="11.491631"><ele>1562.3</ele></trkpt><trkpt lat="47.654095" lon="11.491485"><ele>1562.1</ele></trkpt><trkpt lat="47.653942" lon="11.49136"><ele>1562.3</ele></trkpt><trkpt lat="47.653896" lon="11.491058"><ele>1562.8</ele></trkpt><trkpt lat="47.653916" lon="11.490821"><ele>1562.9</ele></trkpt><trkpt lat="47.653806" lon="11.490352"><ele>1563.4</ele></trkpt><trkpt lat="47.653848" lon="11.490113"><ele>1563.6</ele></trkpt><trkpt lat="47.653775" lon="11.489924"><ele>1563.8</ele></trkpt><trkpt lat="47.65392" lon="11.489755"><ele>1564.5</ele></trkpt><trkpt lat="47.653842" lon="11.489431"><ele>1565.3</ele></trkpt><trkpt lat="47.653764" lon="11.489203"><ele>1566.7</ele></trkpt><trkpt lat="47.653674" lon="11.489113"><ele>1566.6</ele></trkpt><trkpt lat="47.653501" lon="11.488735"><ele>1568.3</ele></trkpt><trkpt lat="47.653399" lon="11.488043"><ele>1574.4</ele></trkpt><trkpt lat="47.653384" lon="11.487721"><ele>1578.2</ele></trkpt><trkpt lat="47.653347" lon="11.48754"><ele>1579.7</ele></trkpt><trkpt lat="47.653323" lon="11.487313"><ele>1582.6</ele></trkpt><trkpt lat="47.653356" lon="11.487051"><ele>1587.1</ele></trkpt><trkpt lat="47.65329" lon="11.486741"><ele>1593</ele></trkpt><trkpt lat="47.653312" lon="11.486442"><ele>1595.9</ele></trkpt><trkpt lat="47.653263" lon="11.486087"><ele>1595.4</ele></trkpt><trkpt lat="47.65315" lon="11.485777"><ele>1594</ele></trkpt><trkpt lat="47.653175" lon="11.485082"><ele>1590.6</ele></trkpt><trkpt lat="47.653137" lon="11.484885"><ele>1589</ele></trkpt><trkpt lat="47.653131" lon="11.484633"><ele>1585.2</ele></trkpt><trkpt lat="47.65319" lon="11.484338"><ele>1582.3</ele></trkpt><trkpt lat="47.653243" lon="11.484224"><ele>1581.8</ele></trkpt><trkpt lat="47.653256" lon="11.484096"><ele>1580.3</ele></trkpt><trkpt lat="47.653125" lon="11.484079"><ele>1576.6</ele></trkpt><trkpt lat="47.653112" lon="11.483924"><ele>1575.7</ele></trkpt><trkpt lat="47.653231" lon="11.483798"><ele>1574.6</ele></trkpt><trkpt lat="47.65327" lon="11.483662"><ele>1572.5</ele></trkpt><trkpt lat="47.653344" lon="11.483609"><ele>1575.8</ele></trkpt><trkpt lat="47.653351" lon="11.483266"><ele>1576.2</ele></trkpt><trkpt lat="47.653565" lon="11.482811"><ele>1577</ele></trkpt><trkpt lat="47.653531" lon="11.482551"><ele>1577.5</ele></trkpt><trkpt lat="47.653545" lon="11.482277"><ele>1578.7</ele></trkpt><trkpt lat="47.653528" lon="11.48203"><ele>1581.7</ele></trkpt><trkpt lat="47.653671" lon="11.481507"><ele>1588</ele></trkpt><trkpt lat="47.653683" lon="11.481276"><ele>1588.7</ele></trkpt><trkpt lat="47.653756" lon="11.481048"><ele>1588</ele></trkpt><trkpt lat="47.653782" lon="11.480691"><ele>1591.2</ele></trkpt><trkpt lat="47.653702" lon="11.480463"><ele>1594.9</ele></trkpt><trkpt lat="47.653903" lon="11.480248"><ele>1601.2</ele></trkpt><trkpt lat="47.653975" lon="11.480066"><ele>1605.8</ele></trkpt><trkpt lat="47.653989" lon="11.479801"><ele>1659</ele></trkpt><trkpt lat="47.654131" lon="11.479366"><ele>1659</ele></trkpt><trkpt lat="47.654" lon="11.479208"><ele>1661</ele></trkpt><trkpt lat="47.653973" lon="11.479029"><ele>1661.2</ele></trkpt><trkpt lat="47.653989" lon="11.478613"><ele>1660.8</ele></trkpt><trkpt lat="47.654032" lon="11.478444"><ele>1660.6</ele></trkpt><trkpt lat="47.65403" lon="11.477624"><ele>1665</ele></trkpt><trkpt lat="47.65398" lon="11.477639"><ele>1662.1</ele></trkpt><trkpt lat="47.653912" lon="11.477614"><ele>1662.7</ele></trkpt><trkpt lat="47.653843" lon="11.477661"><ele>1663.3</ele></trkpt><trkpt lat="47.653771" lon="11.477648"><ele>1664</ele></trkpt><trkpt lat="47.653773" lon="11.47757"><ele>1664.8</ele></trkpt><trkpt lat="47.65372" lon="11.477514"><ele>1665.7</ele></trkpt><trkpt lat="47.653773" lon="11.477351"><ele>1666.6</ele></trkpt><trkpt lat="47.653731" lon="11.477304"><ele>1676</ele></trkpt><trkpt lat="47.653544" lon="11.477147"><ele>1693.2</ele></trkpt><trkpt lat="47.653526" lon="11.477012"><ele>1696.5</ele></trkpt><trkpt lat="47.653381" lon="11.476842"><ele>1700.9</ele></trkpt><trkpt lat="47.653027" lon="11.476019"><ele>1704.1</ele></trkpt><trkpt lat="47.652962" lon="11.475867"><ele>1707.4</ele></trkpt><trkpt lat="47.653011" lon="11.475554"><ele>1709.6</ele></trkpt><trkpt lat="47.652894" lon="11.475065"><ele>1710.9</ele></trkpt><trkpt lat="47.652822" lon="11.475012"><ele>1711</ele></trkpt><trkpt lat="47.652858" lon="11.474894"><ele>1727</ele></trkpt><trkpt lat="47.652843" lon="11.474711"><ele>1716.8</ele></trkpt><trkpt lat="47.652755" lon="11.474387"><ele>1714</ele></trkpt><trkpt lat="47.652779" lon="11.474228"><ele>1708.5</ele></trkpt><trkpt lat="47.652737" lon="11.474149"><ele>1707.1</ele></trkpt><trkpt lat="47.652695" lon="11.473935"><ele>1703.5</ele></trkpt><trkpt lat="47.652784" lon="11.473236"><ele>1699.2</ele></trkpt><trkpt lat="47.652758" lon="11.47279"><ele>1697.4</ele></trkpt><trkpt lat="47.65287" lon="11.472525"><ele>1698.9</ele></trkpt><trkpt lat="47.652895" lon="11.472337"><ele>1701.4</ele></trkpt><trkpt lat="47.652949" lon="11.472266"><ele>1702.3</ele></trkpt><trkpt lat="47.652973" lon="11.472033"><ele>1702.6</ele></trkpt><trkpt lat="47.653028" lon="11.472022"><ele>1704.4</ele></trkpt><trkpt lat="47.653153" lon="11.471895"><ele>1705.8</ele></trkpt><trkpt lat="47.653171" lon="11.471393"><ele>1717.6</ele></trkpt><trkpt lat="47.653224" lon="11.471242"><ele>1720.8</ele></trkpt><trkpt lat="47.653143" lon="11.470763"><ele>1728.2</ele></trkpt><trkpt lat="47.653082" lon="11.470661"><ele>1728.5</ele></trkpt><trkpt lat="47.653067" lon="11.470528"><ele>1730.1</ele></trkpt><trkpt lat="47.653" lon="11.470386"><ele>1731.6</ele></trkpt><trkpt lat="47.653159" lon="11.470377"><ele>1732.1</ele></trkpt><trkpt lat="47.653265" lon="11.47007"><ele>1737.9</ele></trkpt><trkpt lat="47.653311" lon="11.469818"><ele>1742.9</ele></trkpt><trkpt lat="47.653255" lon="11.469766"><ele>1742.9</ele></trkpt><trkpt lat="47.653272" lon="11.46967"><ele>1742.8</ele></trkpt><trkpt lat="47.65323" lon="11.469599"><ele>1742.7</ele></trkpt><trkpt lat="47.65329" lon="11.469546"><ele>1742.5</ele></trkpt><trkpt lat="47.653249" lon="11.46946"><ele>1742.4</ele></trkpt><trkpt lat="47.653293" lon="11.469304"><ele>1744.4</ele></trkpt><trkpt lat="47.653255" lon="11.469188"><ele>1745.5</ele></trkpt><trkpt lat="47.653288" lon="11.469042"><ele>1746.4</ele></trkpt><trkpt lat="47.653263" lon="11.468903"><ele>1745.9</ele></trkpt><trkpt lat="47.653289" lon="11.46879"><ele>1746.2</ele></trkpt><trkpt lat="47.653194" lon="11.468531"><ele>1749.3</ele></trkpt><trkpt lat="47.653237" lon="11.46816"><ele>1750.7</ele></trkpt><trkpt lat="47.653106" lon="11.467885"><ele>1750.6</ele></trkpt><trkpt lat="47.653051" lon="11.467461"><ele>1753.4</ele></trkpt><trkpt lat="47.652988" lon="11.467159"><ele>1754.1</ele></trkpt><trkpt lat="47.652953" lon="11.466896"><ele>1754.8</ele></trkpt><trkpt lat="47.652888" lon="11.466623"><ele>1770</ele></trkpt><trkpt lat="47.652862" lon="11.466431"><ele>1770</ele></trkpt><trkpt lat="47.652937" lon="11.466403"><ele>1770</ele></trkpt><trkpt lat="47.652945" lon="11.466158"><ele>1770</ele></trkpt><trkpt lat="47.652863" lon="11.46585"><ele>1770</ele></trkpt><trkpt lat="47.65301" lon="11.465743"><ele>1755.6</ele></trkpt><trkpt lat="47.653074" lon="11.465649"><ele>1755.8</ele></trkpt><trkpt lat="47.653144" lon="11.465546"><ele>1755.9</ele></trkpt><trkpt lat="47.653012" lon="11.465433"><ele>1755.9</ele></trkpt><trkpt lat="47.652745" lon="11.465156"><ele>1754</ele></trkpt><trkpt lat="47.652655" lon="11.464802"><ele>1752.6</ele></trkpt><trkpt lat="47.652665" lon="11.464603"><ele>1752.1</ele></trkpt><trkpt lat="47.652587" lon="11.464496"><ele>1751.5</ele></trkpt><trkpt lat="47.652606" lon="11.464361"><ele>1751</ele></trkpt><trkpt lat="47.652559" lon="11.464266"><ele>1751.2</ele></trkpt><trkpt lat="47.652581" lon="11.463831"><ele>1746.1</ele></trkpt><trkpt lat="47.652547" lon="11.463591"><ele>1744.1</ele></trkpt><trkpt lat="47.652639" lon="11.463343"><ele>1742</ele></trkpt><trkpt lat="47.652632" lon="11.463244"><ele>1741.4</ele></trkpt><trkpt lat="47.652694" lon="11.463169"><ele>1740.8</ele></trkpt><trkpt lat="47.652724" lon="11.462981"><ele>1739.1</ele></trkpt><trkpt lat="47.652687" lon="11.462887"><ele>1738.6</ele></trkpt><trkpt lat="47.652697" lon="11.462713"><ele>1737.3</ele></trkpt><trkpt lat="47.652778" lon="11.462565"><ele>1735.9</ele></trkpt><trkpt lat="47.652758" lon="11.462388"><ele>1733.9</ele></trkpt><trkpt lat="47.65282" lon="11.462276"><ele>1730.4</ele></trkpt><trkpt lat="47.652799" lon="11.462101"><ele>1729</ele></trkpt><trkpt lat="47.652892" lon="11.461778"><ele>1727</ele></trkpt><trkpt lat="47.65304" lon="11.461696"><ele>1720</ele></trkpt><trkpt lat="47.653038" lon="11.461561"><ele>1720.2</ele></trkpt><trkpt lat="47.653113" lon="11.461429"><ele>1719.8</ele></trkpt><trkpt lat="47.653199" lon="11.461359"><ele>1719.4</ele></trkpt><trkpt lat="47.653255" lon="11.461246"><ele>1719.1</ele></trkpt><trkpt lat="47.653349" lon="11.461204"><ele>1720</ele></trkpt><trkpt lat="47.653399" lon="11.460883"><ele>1726</ele></trkpt><trkpt lat="47.653342" lon="11.460871"><ele>1719.7</ele></trkpt><trkpt lat="47.653203" lon="11.460551"><ele>1707</ele></trkpt><trkpt lat="47.65314" lon="11.460489"><ele>1691.2</ele></trkpt><trkpt lat="47.653086" lon="11.460258"><ele>1691.6</ele></trkpt><trkpt lat="47.652866" lon="11.459952"><ele>1690.9</ele></trkpt><trkpt lat="47.652859" lon="11.459862"><ele>1690.2</ele></trkpt><trkpt lat="47.652797" lon="11.459822"><ele>1690.2</ele></trkpt><trkpt lat="47.652798" lon="11.459718"><ele>1690.3</ele></trkpt><trkpt lat="47.652749" lon="11.459474"><ele>1689.5</ele></trkpt><trkpt lat="47.652805" lon="11.459332"><ele>1688.8</ele></trkpt><trkpt lat="47.65278" lon="11.459159"><ele>1687.8</ele></trkpt><trkpt lat="47.65301" lon="11.458785"><ele>1685.4</ele></trkpt><trkpt lat="47.653086" lon="11.458524"><ele>1683.6</ele></trkpt><trkpt lat="47.653229" lon="11.458523"><ele>1683</ele></trkpt><trkpt lat="47.653348" lon="11.458382"><ele>1682.3</ele></trkpt><trkpt lat="47.653395" lon="11.458203"><ele>1680.2</ele></trkpt><trkpt lat="47.653535" lon="11.458204"><ele>1678.9</ele></trkpt><trkpt lat="47.653601" lon="11.458021"><ele>1675.6</ele></trkpt><trkpt lat="47.653823" lon="11.457763"><ele>1672.2</ele></trkpt><trkpt lat="47.653829" lon="11.457656"><ele>1669</ele></trkpt><trkpt lat="47.653709" lon="11.457417"><ele>1634.2</ele></trkpt><trkpt lat="47.653636" lon="11.457384"><ele>1635.3</ele></trkpt><trkpt lat="47.653568" lon="11.45727"><ele>1636.4</ele></trkpt><trkpt lat="47.653493" lon="11.457079"><ele>1632.9</ele></trkpt><trkpt lat="47.653536" lon="11.456986"><ele>1633.9</ele></trkpt><trkpt lat="47.653534" lon="11.456849"><ele>1632.6</ele></trkpt><trkpt lat="47.6536" lon="11.456481"><ele>1630.1</ele></trkpt><trkpt lat="47.653556" lon="11.45634"><ele>1627.8</ele></trkpt><trkpt lat="47.653697" lon="11.455779"><ele>1618.1</ele></trkpt><trkpt lat="47.653642" lon="11.455425"><ele>1611.6</ele></trkpt><trkpt lat="47.653601" lon="11.455258"><ele>1605.7</ele></trkpt><trkpt lat="47.65349" lon="11.455084"><ele>1606.2</ele></trkpt><trkpt lat="47.653497" lon="11.454934"><ele>1599.7</ele></trkpt><trkpt lat="47.653394" lon="11.454604"><ele>1595.6</ele></trkpt><trkpt lat="47.653311" lon="11.454481"><ele>1590.6</ele></trkpt><trkpt lat="47.653333" lon="11.454328"><ele>1585.2</ele></trkpt><trkpt lat="47.653301" lon="11.454179"><ele>1583.3</ele></trkpt><trkpt lat="47.65329" lon="11.454128"><ele>1581.5</ele></trkpt><trkpt lat="47.653347" lon="11.453966"><ele>1579.4</ele></trkpt><trkpt lat="47.653244" lon="11.453953"><ele>1576.2</ele></trkpt><trkpt lat="47.653152" lon="11.453671"><ele>1537</ele></trkpt><trkpt lat="47.653293" lon="11.453169"><ele>1526.6</ele></trkpt><trkpt lat="47.653264" lon="11.453092"><ele>1525.3</ele></trkpt><trkpt lat="47.653476" lon="11.452878"><ele>1526.5</ele></trkpt><trkpt lat="47.65379" lon="11.452933"><ele>1527.6</ele></trkpt><trkpt lat="47.654169" lon="11.453282"><ele>1527</ele></trkpt><trkpt lat="47.654259" lon="11.453456"><ele>1527</ele></trkpt><trkpt lat="47.654308" lon="11.453618"><ele>1527</ele></trkpt><trkpt lat="47.654675" lon="11.454108"><ele>1528.1</ele></trkpt><trkpt lat="47.654719" lon="11.454438"><ele>1530</ele></trkpt><trkpt lat="47.654684" lon="11.454535"><ele>1532.5</ele></trkpt><trkpt lat="47.654747" lon="11.454661"><ele>1534.7</ele></trkpt><trkpt lat="47.654959" lon="11.454761"><ele>1530.2</ele></trkpt><trkpt lat="47.655403" lon="11.455083"><ele>1531.8</ele></trkpt><trkpt lat="47.655639" lon="11.455374"><ele>1530</ele></trkpt><trkpt lat="47.655985" lon="11.455731"><ele>1508.6</ele></trkpt><trkpt lat="47.656032" lon="11.455802"><ele>1480</ele></trkpt><trkpt lat="47.656312" lon="11.456222"><ele>1493.7</ele></trkpt><trkpt lat="47.656353" lon="11.456343"><ele>1493.7</ele></trkpt><trkpt lat="47.656362" lon="11.456498"><ele>1493.7</ele></trkpt><trkpt lat="47.656449" lon="11.457016"><ele>1495.1</ele></trkpt><trkpt lat="47.656414" lon="11.457133"><ele>1505</ele></trkpt><trkpt lat="47.656288" lon="11.457336"><ele>1497.2</ele></trkpt><trkpt lat="47.656245" lon="11.457453"><ele>1498.1</ele></trkpt><trkpt lat="47.656314" lon="11.457678"><ele>1494.5</ele></trkpt><trkpt lat="47.656219" lon="11.457863"><ele>1495.1</ele></trkpt><trkpt lat="47.656216" lon="11.458016"><ele>1495.7</ele></trkpt><trkpt lat="47.656415" lon="11.457949"><ele>1496.2</ele></trkpt><trkpt lat="47.656133" lon="11.45861"><ele>1488.3</ele></trkpt><trkpt lat="47.65574" lon="11.459419"><ele>1486.4</ele></trkpt><trkpt lat="47.656109" lon="11.459247"><ele>1483.3</ele></trkpt><trkpt lat="47.656238" lon="11.459225"><ele>1477.2</ele></trkpt><trkpt lat="47.655961" lon="11.460185"><ele>1449.9</ele></trkpt><trkpt lat="47.655587" lon="11.460862"><ele>1466.8</ele></trkpt><trkpt lat="47.655609" lon="11.461067"><ele>1486.4</ele></trkpt><trkpt lat="47.655721" lon="11.461582"><ele>1496.1</ele></trkpt><trkpt lat="47.655726" lon="11.46179"><ele>1504.6</ele></trkpt><trkpt lat="47.655873" lon="11.461993"><ele>1347</ele></trkpt><trkpt lat="47.655898" lon="11.461852"><ele>1348.7</ele></trkpt><trkpt lat="47.656009" lon="11.461683"><ele>1348.9</ele></trkpt><trkpt lat="47.656191" lon="11.461558"><ele>1348.3</ele></trkpt><trkpt lat="47.656271" lon="11.461503"><ele>1347.8</ele></trkpt><trkpt lat="47.656349" lon="11.461575"><ele>1346.5</ele></trkpt><trkpt lat="47.656422" lon="11.461803"><ele>1345.2</ele></trkpt><trkpt lat="47.656476" lon="11.462103"><ele>1345</ele></trkpt><trkpt lat="47.656593" lon="11.46223"><ele>1344.8</ele></trkpt><trkpt lat="47.656994" lon="11.462465"><ele>1344.6</ele></trkpt><trkpt lat="47.657292" lon="11.462424"><ele>1336</ele></trkpt><trkpt lat="47.657404" lon="11.46241"><ele>1335.7</ele></trkpt><trkpt lat="47.657531" lon="11.462279"><ele>1335</ele></trkpt><trkpt lat="47.657619" lon="11.46228"><ele>1335</ele></trkpt><trkpt lat="47.657713" lon="11.462299"><ele>1334.7</ele></trkpt><trkpt lat="47.657935" lon="11.462344"><ele>1334.3</ele></trkpt><trkpt lat="47.658172" lon="11.462535"><ele>1335.6</ele></trkpt><trkpt lat="47.658418" lon="11.461955"><ele>1337.1</ele></trkpt><trkpt lat="47.658579" lon="11.461864"><ele>1337.9</ele></trkpt><trkpt lat="47.658613" lon="11.461643"><ele>1338.7</ele></trkpt><trkpt lat="47.658822" lon="11.461274"><ele>1338.5</ele></trkpt><trkpt lat="47.658978" lon="11.461315"><ele>1338.3</ele></trkpt><trkpt lat="47.659151" lon="11.461312"><ele>1338.2</ele></trkpt><trkpt lat="47.65932" lon="11.461257"><ele>1338.4</ele></trkpt><trkpt lat="47.659583" lon="11.461507"><ele>1338.5</ele></trkpt><trkpt lat="47.6599" lon="11.461528"><ele>1338.9</ele></trkpt><trkpt lat="47.660154" lon="11.461636"><ele>1336.8</ele></trkpt><trkpt lat="47.66064" lon="11.461449"><ele>1317.8</ele></trkpt><trkpt lat="47.661346" lon="11.461655"><ele>1308.3</ele></trkpt><trkpt lat="47.660793" lon="11.462023"><ele>1302.5</ele></trkpt><trkpt lat="47.661516" lon="11.462206"><ele>1288.6</ele></trkpt><trkpt lat="47.661092" lon="11.462574"><ele>1290.7</ele></trkpt><trkpt lat="47.661577" lon="11.462584"><ele>1283.2</ele></trkpt><trkpt lat="47.661382" lon="11.4628"><ele>1282.8</ele></trkpt><trkpt lat="47.661279" lon="11.463071"><ele>1282.3</ele></trkpt><trkpt lat="47.661281" lon="11.463226"><ele>1276.1</ele></trkpt><trkpt lat="47.661288" lon="11.46375"><ele>1269.8</ele></trkpt><trkpt lat="47.661451" lon="11.463572"><ele>1272.4</ele></trkpt><trkpt lat="47.661631" lon="11.463474"><ele>1266.7</ele></trkpt><trkpt lat="47.661619" lon="11.46377"><ele>1260.3</ele></trkpt><trkpt lat="47.661519" lon="11.464105"><ele>1259.4</ele></trkpt><trkpt lat="47.661977" lon="11.464157"><ele>1252.8</ele></trkpt><trkpt lat="47.662501" lon="11.464506"><ele>1244.4</ele></trkpt><trkpt lat="47.662776" lon="11.464473"><ele>1187</ele></trkpt><trkpt lat="47.662783" lon="11.464116"><ele>1192</ele></trkpt><trkpt lat="47.663904" lon="11.463766"><ele>1156.5</ele></trkpt><trkpt lat="47.664079" lon="11.463731"><ele>1156.1</ele></trkpt><trkpt lat="47.664235" lon="11.463772"><ele>1148.3</ele></trkpt><trkpt lat="47.664399" lon="11.463852"><ele>1149.4</ele></trkpt><trkpt lat="47.664532" lon="11.46399"><ele>1143</ele></trkpt><trkpt lat="47.66481" lon="11.464253"><ele>1152</ele></trkpt><trkpt lat="47.665076" lon="11.464305"><ele>1139.2</ele></trkpt><trkpt lat="47.665808" lon="11.4642"><ele>1132.7</ele></trkpt><trkpt lat="47.666152" lon="11.464239"><ele>1131.8</ele></trkpt><trkpt lat="47.666762" lon="11.464369"><ele>1127.2</ele></trkpt><trkpt lat="47.667077" lon="11.464507"><ele>1118</ele></trkpt><trkpt lat="47.667216" lon="11.46459"><ele>1118</ele></trkpt><trkpt lat="47.668498" lon="11.465227"><ele>1102.7</ele></trkpt><trkpt lat="47.669177" lon="11.46565"><ele>1098.3</ele></trkpt><trkpt lat="47.669378" lon="11.465692"><ele>1098.5</ele></trkpt><trkpt lat="47.669559" lon="11.465672"><ele>1098.7</ele></trkpt><trkpt lat="47.669673" lon="11.465628"><ele>1097.8</ele></trkpt><trkpt lat="47.669891" lon="11.465436"><ele>1097.2</ele></trkpt><trkpt lat="47.670761" lon="11.464506"><ele>1084.7</ele></trkpt><trkpt lat="47.671595" lon="11.464073"><ele>1076.8</ele></trkpt><trkpt lat="47.671774" lon="11.464067"><ele>1076.9</ele></trkpt><trkpt lat="47.671965" lon="11.464134"><ele>1077.5</ele></trkpt><trkpt lat="47.672668" lon="11.464574"><ele>1071.6</ele></trkpt><trkpt lat="47.673083" lon="11.464996"><ele>1069.9</ele></trkpt><trkpt lat="47.673397" lon="11.46543"><ele>1068.5</ele></trkpt><trkpt lat="47.673496" lon="11.465491"><ele>1068.6</ele></trkpt><trkpt lat="47.673585" lon="11.465458"><ele>1068.6</ele></trkpt><trkpt lat="47.673635" lon="11.465357"><ele>1068.7</ele></trkpt><trkpt lat="47.673636" lon="11.465218"><ele>1068.7</ele></trkpt><trkpt lat="47.673576" lon="11.464999"><ele>1068.8</ele></trkpt><trkpt lat="47.673428" lon="11.464704"><ele>1069.4</ele></trkpt><trkpt lat="47.673093" lon="11.464243"><ele>1077</ele></trkpt><trkpt lat="47.67267" lon="11.463643"><ele>1064</ele></trkpt><trkpt lat="47.6724" lon="11.463268"><ele>1059</ele></trkpt><trkpt lat="47.672121" lon="11.462726"><ele>1061.5</ele></trkpt><trkpt lat="47.671706" lon="11.461706"><ele>1063.1</ele></trkpt><trkpt lat="47.671533" lon="11.461019"><ele>1063.1</ele></trkpt><trkpt lat="47.671478" lon="11.460537"><ele>1058.5</ele></trkpt><trkpt lat="47.671354" lon="11.460054"><ele>1057.5</ele></trkpt><trkpt lat="47.671191" lon="11.459725"><ele>1052.3</ele></trkpt><trkpt lat="47.670716" lon="11.459022"><ele>1046</ele></trkpt><trkpt lat="47.670452" lon="11.45853"><ele>1042.5</ele></trkpt><trkpt lat="47.670177" lon="11.457926"><ele>1040.6</ele></trkpt><trkpt lat="47.670105" lon="11.457719"><ele>1037</ele></trkpt><trkpt lat="47.669996" lon="11.457458"><ele>1040</ele></trkpt><trkpt lat="47.669927" lon="11.457158"><ele>1039.8</ele></trkpt><trkpt lat="47.669899" lon="11.456935"><ele>1041</ele></trkpt><trkpt lat="47.670247" lon="11.456157"><ele>1043.8</ele></trkpt><trkpt lat="47.670504" lon="11.455781"><ele>1045.2</ele></trkpt><trkpt lat="47.670685" lon="11.455457"><ele>1048</ele></trkpt><trkpt lat="47.670818" lon="11.455319"><ele>1044.1</ele></trkpt><trkpt lat="47.671042" lon="11.455118"><ele>1038</ele></trkpt><trkpt lat="47.671416" lon="11.454715"><ele>1039.4</ele></trkpt><trkpt lat="47.671654" lon="11.454316"><ele>1035.2</ele></trkpt><trkpt lat="47.671731" lon="11.453843"><ele>1032.6</ele></trkpt><trkpt lat="47.671813" lon="11.452744"><ele>1032.2</ele></trkpt><trkpt lat="47.67182" lon="11.452357"><ele>1033.3</ele></trkpt><trkpt lat="47.671864" lon="11.45203"><ele>1033.9</ele></trkpt><trkpt lat="47.671737" lon="11.451521"><ele>1035.7</ele></trkpt><trkpt lat="47.671628" lon="11.451251"><ele>1038</ele></trkpt><trkpt lat="47.671528" lon="11.449927"><ele>1023.8</ele></trkpt><trkpt lat="47.671557" lon="11.449723"><ele>1022.5</ele></trkpt><trkpt lat="47.671651" lon="11.449472"><ele>1016.7</ele></trkpt><trkpt lat="47.671716" lon="11.448849"><ele>1008.4</ele></trkpt><trkpt lat="47.671792" lon="11.448581"><ele>1007.6</ele></trkpt><trkpt lat="47.672099" lon="11.447879"><ele>997.5</ele></trkpt><trkpt lat="47.67217" lon="11.447626"><ele>995.3</ele></trkpt><trkpt lat="47.672177" lon="11.447451"><ele>993.3</ele></trkpt><trkpt lat="47.672179" lon="11.447409"><ele>991.4</ele></trkpt><trkpt lat="47.672101" lon="11.446846"><ele>986.4</ele></trkpt><trkpt lat="47.672113" lon="11.446146"><ele>985.8</ele></trkpt><trkpt lat="47.672079" lon="11.445716"><ele>983.2</ele></trkpt><trkpt lat="47.672103" lon="11.445474"><ele>983</ele></trkpt><trkpt lat="47.672222" lon="11.445072"><ele>982.4</ele></trkpt><trkpt lat="47.672424" lon="11.444826"><ele>983.1</ele></trkpt><trkpt lat="47.672759" lon="11.444228"><ele>970</ele></trkpt><trkpt lat="47.673057" lon="11.443687"><ele>986</ele></trkpt><trkpt lat="47.673093" lon="11.443545"><ele>986</ele></trkpt><trkpt lat="47.673427" lon="11.442892"><ele>977</ele></trkpt><trkpt lat="47.673497" lon="11.44266"><ele>991.3</ele></trkpt><trkpt lat="47.673503" lon="11.442567"><ele>993</ele></trkpt><trkpt lat="47.673449" lon="11.442277"><ele>996.5</ele></trkpt><trkpt lat="47.673197" lon="11.44182"><ele>1000.1</ele></trkpt><trkpt lat="47.673073" lon="11.441507"><ele>999.5</ele></trkpt><trkpt lat="47.673011" lon="11.441172"><ele>1000.7</ele></trkpt><trkpt lat="47.672987" lon="11.440904"><ele>1002.7</ele></trkpt><trkpt lat="47.673039" lon="11.440481"><ele>1007</ele></trkpt><trkpt lat="47.673165" lon="11.439876"><ele>1011.2</ele></trkpt><trkpt lat="47.673158" lon="11.439188"><ele>1014.2</ele></trkpt><trkpt lat="47.67301" lon="11.438516"><ele>1017.1</ele></trkpt><trkpt lat="47.672928" lon="11.438237"><ele>1018.6</ele></trkpt><trkpt lat="47.672946" lon="11.438128"><ele>1018.5</ele></trkpt><trkpt lat="47.672943" lon="11.437942"><ele>1018.5</ele></trkpt><trkpt lat="47.672789" lon="11.437623"><ele>1019.2</ele></trkpt><trkpt lat="47.672598" lon="11.437471"><ele>1020.6</ele></trkpt><trkpt lat="47.672421" lon="11.437048"><ele>1022.5</ele></trkpt><trkpt lat="47.672324" lon="11.436539"><ele>1023.3</ele></trkpt><trkpt lat="47.672016" lon="11.435728"><ele>1029.4</ele></trkpt><trkpt lat="47.671875" lon="11.435239"><ele>1030.5</ele></trkpt><trkpt lat="47.671768" lon="11.434691"><ele>1044</ele></trkpt><trkpt lat="47.671957" lon="11.434308"><ele>1046.1</ele></trkpt><trkpt lat="47.672075" lon="11.434156"><ele>1047.4</ele></trkpt><trkpt lat="47.672819" lon="11.433456"><ele>1047.1</ele></trkpt><trkpt lat="47.673062" lon="11.433102"><ele>1048.5</ele></trkpt><trkpt lat="47.673216" lon="11.432563"><ele>1044.9</ele></trkpt><trkpt lat="47.673342" lon="11.431869"><ele>1041.3</ele></trkpt><trkpt lat="47.673437" lon="11.431138"><ele>1035</ele></trkpt><trkpt lat="47.6735" lon="11.430803"><ele>1035</ele></trkpt><trkpt lat="47.673583" lon="11.430721"><ele>1035</ele></trkpt><trkpt lat="47.673759" lon="11.430605"><ele>1035</ele></trkpt><trkpt lat="47.673743" lon="11.430332"><ele>1041.8</ele></trkpt><trkpt lat="47.673571" lon="11.429133"><ele>1044.4</ele></trkpt><trkpt lat="47.673466" lon="11.42886"><ele>1051</ele></trkpt><trkpt lat="47.673335" lon="11.428799"><ele>1053</ele></trkpt><trkpt lat="47.67321" lon="11.428791"><ele>1057</ele></trkpt><trkpt lat="47.67303" lon="11.428804"><ele>1057</ele></trkpt><trkpt lat="47.672952" lon="11.428836"><ele>1057</ele></trkpt><trkpt lat="47.672879" lon="11.428895"><ele>1054.5</ele></trkpt><trkpt lat="47.672632" lon="11.429335"><ele>1052</ele></trkpt><trkpt lat="47.672406" lon="11.429764"><ele>1056.4</ele></trkpt><trkpt lat="47.672311" lon="11.429853"><ele>1055.9</ele></trkpt><trkpt lat="47.672063" lon="11.429923"><ele>1055.3</ele></trkpt><trkpt lat="47.671818" lon="11.429907"><ele>1054.6</ele></trkpt><trkpt lat="47.671451" lon="11.429946"><ele>1047</ele></trkpt><trkpt lat="47.670905" lon="11.429263"><ele>1035.5</ele></trkpt><trkpt lat="47.670445" lon="11.429268"><ele>1032.6</ele></trkpt><trkpt lat="47.670161" lon="11.4289"><ele>1027.7</ele></trkpt><trkpt lat="47.670154" lon="11.428288"><ele>1026.5</ele></trkpt><trkpt lat="47.670118" lon="11.428149"><ele>1028</ele></trkpt><trkpt lat="47.669612" lon="11.427784"><ele>1028.5</ele></trkpt><trkpt lat="47.669143" lon="11.426883"><ele>1020.1</ele></trkpt><trkpt lat="47.668463" lon="11.425756"><ele>1007</ele></trkpt><trkpt lat="47.668066" lon="11.425263"><ele>1008</ele></trkpt><trkpt lat="47.667705" lon="11.424716"><ele>1005.6</ele></trkpt><trkpt lat="47.666953" lon="11.424265"><ele>1020</ele></trkpt><trkpt lat="47.66678" lon="11.424179"><ele>1022.8</ele></trkpt><trkpt lat="47.666245" lon="11.42419"><ele>1027.5</ele></trkpt><trkpt lat="47.666057" lon="11.424115"><ele>1027.9</ele></trkpt><trkpt lat="47.665821" lon="11.424387"><ele>1032.3</ele></trkpt><trkpt lat="47.665624" lon="11.424414"><ele>1048</ele></trkpt><trkpt lat="47.665268" lon="11.42396"><ele>1029.5</ele></trkpt><trkpt lat="47.66508" lon="11.423616"><ele>1028.8</ele></trkpt><trkpt lat="47.665109" lon="11.423488"><ele>1028.1</ele></trkpt><trkpt lat="47.665001" lon="11.423413"><ele>1027.5</ele></trkpt><trkpt lat="47.664755" lon="11.423069"><ele>1027.4</ele></trkpt><trkpt lat="47.664531" lon="11.423016"><ele>1026</ele></trkpt><trkpt lat="47.664242" lon="11.422876"><ele>1028</ele></trkpt><trkpt lat="47.663982" lon="11.422704"><ele>1030.3</ele></trkpt><trkpt lat="47.663671" lon="11.422661"><ele>1034.7</ele></trkpt><trkpt lat="47.663389" lon="11.422801"><ele>1040.6</ele></trkpt><trkpt lat="47.663104" lon="11.423109"><ele>1041.3</ele></trkpt><trkpt lat="47.663389" lon="11.422801"><ele>1040.6</ele></trkpt><trkpt lat="47.663671" lon="11.422661"><ele>1034.7</ele></trkpt><trkpt lat="47.663982" lon="11.422704"><ele>1030.3</ele></trkpt><trkpt lat="47.664242" lon="11.422876"><ele>1028</ele></trkpt><trkpt lat="47.664531" lon="11.423016"><ele>1026</ele></trkpt><trkpt lat="47.664755" lon="11.423069"><ele>1027.4</ele></trkpt><trkpt lat="47.665001" lon="11.423413"><ele>1027.5</ele></trkpt><trkpt lat="47.665109" lon="11.423488"><ele>1028.1</ele></trkpt><trkpt lat="47.66508" lon="11.423616"><ele>1028.8</ele></trkpt><trkpt lat="47.665268" lon="11.42396"><ele>1029.5</ele></trkpt><trkpt lat="47.665624" lon="11.424414"><ele>1048</ele></trkpt><trkpt lat="47.665821" lon="11.424387"><ele>1032.3</ele></trkpt><trkpt lat="47.666057" lon="11.424115"><ele>1027.9</ele></trkpt><trkpt lat="47.666245" lon="11.42419"><ele>1027.5</ele></trkpt><trkpt lat="47.66678" lon="11.424179"><ele>1022.8</ele></trkpt><trkpt lat="47.666953" lon="11.424265"><ele>1020</ele></trkpt><trkpt lat="47.667705" lon="11.424716"><ele>1005.6</ele></trkpt><trkpt lat="47.668066" lon="11.425263"><ele>1008</ele></trkpt><trkpt lat="47.668463" lon="11.425756"><ele>1007</ele></trkpt><trkpt lat="47.669143" lon="11.426883"><ele>1020.1</ele></trkpt><trkpt lat="47.669612" lon="11.427784"><ele>1028.5</ele></trkpt><trkpt lat="47.670118" lon="11.428149"><ele>1028</ele></trkpt><trkpt lat="47.670154" lon="11.428288"><ele>1026.5</ele></trkpt><trkpt lat="47.670161" lon="11.4289"><ele>1027.7</ele></trkpt><trkpt lat="47.670445" lon="11.429268"><ele>1032.6</ele></trkpt><trkpt lat="47.670905" lon="11.429263"><ele>1035.5</ele></trkpt><trkpt lat="47.671451" lon="11.429946"><ele>1047</ele></trkpt><trkpt lat="47.670843" lon="11.428265"><ele>1033</ele></trkpt><trkpt lat="47.670754" lon="11.427778"><ele>1013.6</ele></trkpt><trkpt lat="47.670795" lon="11.426984"><ele>1012.7</ele></trkpt><trkpt lat="47.67101" lon="11.426645"><ele>1017.1</ele></trkpt><trkpt lat="47.67116" lon="11.426245"><ele>1013</ele></trkpt><trkpt lat="47.671165" lon="11.425855"><ele>1009.7</ele></trkpt><trkpt lat="47.671002" lon="11.425416"><ele>1000</ele></trkpt><trkpt lat="47.671006" lon="11.425167"><ele>998.1</ele></trkpt><trkpt lat="47.671082" lon="11.424887"><ele>996</ele></trkpt><trkpt lat="47.67093" lon="11.424822"><ele>995</ele></trkpt><trkpt lat="47.670676" lon="11.423699"><ele>945</ele></trkpt><trkpt lat="47.670713" lon="11.423483"><ele>945</ele></trkpt><trkpt lat="47.670958" lon="11.423222"><ele>967.5</ele></trkpt><trkpt lat="47.671363" lon="11.423261"><ele>975</ele></trkpt><trkpt lat="47.671433" lon="11.423206"><ele>966.8</ele></trkpt><trkpt lat="47.67142" lon="11.423004"><ele>967.9</ele></trkpt><trkpt lat="47.671448" lon="11.42226"><ele>965.8</ele></trkpt><trkpt lat="47.671528" lon="11.421905"><ele>960.5</ele></trkpt><trkpt lat="47.671818" lon="11.421769"><ele>961.9</ele></trkpt><trkpt lat="47.671875" lon="11.421609"><ele>962</ele></trkpt><trkpt lat="47.671499" lon="11.419267"><ele>909.9</ele></trkpt><trkpt lat="47.671232" lon="11.418852"><ele>908.7</ele></trkpt><trkpt lat="47.671089" lon="11.418421"><ele>907.3</ele></trkpt><trkpt lat="47.670992" lon="11.417635"><ele>902.8</ele></trkpt><trkpt lat="47.671055" lon="11.417187"><ele>894.9</ele></trkpt><trkpt lat="47.671437" lon="11.416688"><ele>890.2</ele></trkpt><trkpt lat="47.671858" lon="11.416595"><ele>889.9</ele></trkpt><trkpt lat="47.672006" lon="11.41651"><ele>890.1</ele></trkpt><trkpt lat="47.672069" lon="11.416291"><ele>887.1</ele></trkpt><trkpt lat="47.672029" lon="11.416054"><ele>887.6</ele></trkpt><trkpt lat="47.671903" lon="11.415919"><ele>888</ele></trkpt><trkpt lat="47.671437" lon="11.415944"><ele>886.6</ele></trkpt><trkpt lat="47.671317" lon="11.415868"><ele>883.8</ele></trkpt><trkpt lat="47.671374" lon="11.415073"><ele>877.5</ele></trkpt><trkpt lat="47.67134" lon="11.414709"><ele>871.6</ele></trkpt><trkpt lat="47.671112" lon="11.413949"><ele>857</ele></trkpt><trkpt lat="47.671146" lon="11.413754"><ele>848</ele></trkpt><trkpt lat="47.671044" lon="11.413888"><ele>844.6</ele></trkpt><trkpt lat="47.671015" lon="11.414378"><ele>842.9</ele></trkpt><trkpt lat="47.670953" lon="11.414544"><ele>841.4</ele></trkpt><trkpt lat="47.670578" lon="11.414801"><ele>839.1</ele></trkpt><trkpt lat="47.670429" lon="11.414875"><ele>838.9</ele></trkpt><trkpt lat="47.670338" lon="11.415003"><ele>839.1</ele></trkpt><trkpt lat="47.670293" lon="11.415346"><ele>838.8</ele></trkpt><trkpt lat="47.670048" lon="11.416145"><ele>837.4</ele></trkpt><trkpt lat="47.669952" lon="11.416357"><ele>836.9</ele></trkpt><trkpt lat="47.669788" lon="11.416403"><ele>837.3</ele></trkpt><trkpt lat="47.669711" lon="11.416374"><ele>834</ele></trkpt><trkpt lat="47.669709" lon="11.416126"><ele>834</ele></trkpt><trkpt lat="47.669658" lon="11.41591"><ele>834</ele></trkpt><trkpt lat="47.669649" lon="11.415679"><ele>822</ele></trkpt><trkpt lat="47.669757" lon="11.415416"><ele>822.1</ele></trkpt><trkpt lat="47.669746" lon="11.41523"><ele>821.8</ele></trkpt><trkpt lat="47.66963" lon="11.415044"><ele>821.9</ele></trkpt><trkpt lat="47.669469" lon="11.414942"><ele>822.1</ele></trkpt><trkpt lat="47.669363" lon="11.414793"><ele>821.3</ele></trkpt><trkpt lat="47.669336" lon="11.41462"><ele>821.4</ele></trkpt><trkpt lat="47.669315" lon="11.413817"><ele>817.6</ele></trkpt><trkpt lat="47.669364" lon="11.413426"><ele>816</ele></trkpt><trkpt lat="47.669315" lon="11.412919"><ele>812.4</ele></trkpt><trkpt lat="47.669354" lon="11.412466"><ele>810.3</ele></trkpt><trkpt lat="47.669261" lon="11.412125"><ele>810.5</ele></trkpt><trkpt lat="47.669278" lon="11.411938"><ele>810.9</ele></trkpt><trkpt lat="47.669406" lon="11.411639"><ele>810.3</ele></trkpt><trkpt lat="47.669535" lon="11.411406"><ele>808.1</ele></trkpt><trkpt lat="47.669455" lon="11.411093"><ele>808.1</ele></trkpt><trkpt lat="47.669682" lon="11.410559"><ele>809</ele></trkpt><trkpt lat="47.669856" lon="11.410323"><ele>809.1</ele></trkpt><trkpt lat="47.66982" lon="11.410098"><ele>809.3</ele></trkpt><trkpt lat="47.669742" lon="11.409937"><ele>815</ele></trkpt><trkpt lat="47.669831" lon="11.409788"><ele>808.4</ele></trkpt><trkpt lat="47.669886" lon="11.409446"><ele>809.8</ele></trkpt><trkpt lat="47.670017" lon="11.409212"><ele>794</ele></trkpt><trkpt lat="47.670218" lon="11.408785"><ele>794.8</ele></trkpt><trkpt lat="47.670582" lon="11.407657"><ele>794.3</ele></trkpt><trkpt lat="47.670617" lon="11.407596"><ele>789.6</ele></trkpt><trkpt lat="47.671148" lon="11.406647"><ele>785</ele></trkpt><trkpt lat="47.671433" lon="11.406177"><ele>773.7</ele></trkpt><trkpt lat="47.671748" lon="11.405123"><ele>765.6</ele></trkpt><trkpt lat="47.671988" lon="11.404642"><ele>759</ele></trkpt><trkpt lat="47.672207" lon="11.403713"><ele>756.3</ele></trkpt><trkpt lat="47.672424" lon="11.403283"><ele>753.3</ele></trkpt><trkpt lat="47.672591" lon="11.40291"><ele>745.8</ele></trkpt><trkpt lat="47.672711" lon="11.402474"><ele>738.9</ele></trkpt><trkpt lat="47.672889" lon="11.402042"><ele>734.3</ele></trkpt><trkpt lat="47.672948" lon="11.401898"><ele>729.8</ele></trkpt><trkpt lat="47.673156" lon="11.401524"><ele>723.8</ele></trkpt><trkpt lat="47.673264" lon="11.401252"><ele>722.5</ele></trkpt><trkpt lat="47.673298" lon="11.401111"><ele>715</ele></trkpt><trkpt lat="47.673373" lon="11.400801"><ele>684</ele></trkpt><trkpt lat="47.67354" lon="11.400649"><ele>679.2</ele></trkpt><trkpt lat="47.673717" lon="11.400531"><ele>679.9</ele></trkpt><trkpt lat="47.673827" lon="11.400415"><ele>680.5</ele></trkpt><trkpt lat="47.673964" lon="11.400128"><ele>681</ele></trkpt><trkpt lat="47.674117" lon="11.39975"><ele>666</ele></trkpt><trkpt lat="47.674177" lon="11.399628"><ele>664</ele></trkpt><trkpt lat="47.674354" lon="11.39887"><ele>651.5</ele></trkpt><trkpt lat="47.674371" lon="11.398736"><ele>651.1</ele></trkpt><trkpt lat="47.674374" lon="11.398248"><ele>650.2</ele></trkpt><trkpt lat="47.674402" lon="11.397877"><ele>650.4</ele></trkpt><trkpt lat="47.674468" lon="11.397353"><ele>649.6</ele></trkpt><trkpt lat="47.674464" lon="11.397146"><ele>645</ele></trkpt><trkpt lat="47.674475" lon="11.39688"><ele>644.2</ele></trkpt><trkpt lat="47.674545" lon="11.396572"><ele>643.6</ele></trkpt><trkpt lat="47.674595" lon="11.39635"><ele>643</ele></trkpt><trkpt lat="47.671404" lon="11.392425"><ele>620</ele></trkpt><trkpt lat="47.66993" lon="11.390633"><ele>614.9</ele></trkpt><trkpt lat="47.668693" lon="11.389128"><ele>609.8</ele></trkpt><trkpt lat="47.668088" lon="11.388331"><ele>609.3</ele></trkpt><trkpt lat="47.667726" lon="11.38773"><ele>609</ele></trkpt><trkpt lat="47.667443" lon="11.387221"><ele>606</ele></trkpt><trkpt lat="47.667281" lon="11.386897"><ele>605.5</ele></trkpt><trkpt lat="47.666942" lon="11.386097"><ele>605.4</ele></trkpt><trkpt lat="47.666883" lon="11.385905"><ele>605.2</ele></trkpt><trkpt lat="47.666774" lon="11.385556"><ele>605</ele></trkpt><trkpt lat="47.666685" lon="11.385239"><ele>605</ele></trkpt><trkpt lat="47.666501" lon="11.384489"><ele>603</ele></trkpt><trkpt lat="47.666394" lon="11.384066"><ele>604</ele></trkpt><trkpt lat="47.666342" lon="11.383878"><ele>604.8</ele></trkpt><trkpt lat="47.666157" lon="11.383359"><ele>604.6</ele></trkpt><trkpt lat="47.665999" lon="11.383016"><ele>604.3</ele></trkpt><trkpt lat="47.665945" lon="11.382898"><ele>604</ele></trkpt><trkpt lat="47.665793" lon="11.382628"><ele>608</ele></trkpt><trkpt lat="47.665499" lon="11.382159"><ele>605</ele></trkpt><trkpt lat="47.665468" lon="11.382117"><ele>605</ele></trkpt><trkpt lat="47.665404" lon="11.382036"><ele>605.3</ele></trkpt><trkpt lat="47.664953" lon="11.381474"><ele>605.6</ele></trkpt><trkpt lat="47.664663" lon="11.381163"><ele>605.7</ele></trkpt><trkpt lat="47.664158" lon="11.380667"><ele>607</ele></trkpt><trkpt lat="47.663397" lon="11.379928"><ele>603</ele></trkpt><trkpt lat="47.662938" lon="11.379496"><ele>608</ele></trkpt><trkpt lat="47.662778" lon="11.379346"><ele>608</ele></trkpt><trkpt lat="47.662477" lon="11.379027"><ele>608.5</ele></trkpt><trkpt lat="47.662325" lon="11.378816"><ele>608.6</ele></trkpt><trkpt lat="47.662261" lon="11.3787"><ele>609</ele></trkpt><trkpt lat="47.662094" lon="11.378372"><ele>607.8</ele></trkpt><trkpt lat="47.662006" lon="11.378124"><ele>604</ele></trkpt><trkpt lat="47.661859" lon="11.377623"><ele>604</ele></trkpt><trkpt lat="47.661755" lon="11.377048"><ele>604</ele></trkpt><trkpt lat="47.661693" lon="11.376681"><ele>604</ele></trkpt><trkpt lat="47.661521" lon="11.375595"><ele>609</ele></trkpt><trkpt lat="47.661421" lon="11.374926"><ele>608</ele></trkpt><trkpt lat="47.661351" lon="11.374447"><ele>608</ele></trkpt><trkpt lat="47.661296" lon="11.37415"><ele>609.8</ele></trkpt><trkpt lat="47.661221" lon="11.373883"><ele>609.8</ele></trkpt><trkpt lat="47.661034" lon="11.373418"><ele>609.9</ele></trkpt><trkpt lat="47.660796" lon="11.372952"><ele>613</ele></trkpt><trkpt lat="47.660615" lon="11.37254"><ele>612.7</ele></trkpt><trkpt lat="47.660427" lon="11.37194"><ele>612</ele></trkpt><trkpt lat="47.660533" lon="11.371792"><ele>611</ele></trkpt><trkpt lat="47.66046" lon="11.371488"><ele>609</ele></trkpt><trkpt lat="47.660395" lon="11.371212"><ele>609</ele></trkpt><trkpt lat="47.660347" lon="11.370999"><ele>609</ele></trkpt><trkpt lat="47.660312" lon="11.370802"><ele>607</ele></trkpt><trkpt lat="47.660379" lon="11.370771"><ele>607</ele></trkpt><trkpt lat="47.660352" lon="11.370649"><ele>607</ele></trkpt><trkpt lat="47.660379" lon="11.370771"><ele>607</ele></trkpt><trkpt lat="47.660456" lon="11.370736"><ele>607.7</ele></trkpt><trkpt lat="47.66053" lon="11.371046"><ele>609</ele></trkpt><trkpt lat="47.660687" lon="11.370972"><ele>609</ele></trkpt><trkpt lat="47.660733" lon="11.371178"><ele>609</ele></trkpt><trkpt lat="47.66075" lon="11.371169"><ele>609</ele></trkpt><trkpt lat="47.660754" lon="11.371185"><ele>609</ele></trkpt></trkseg></trk></gpx>