<gpx xmlns="http://www.topografix.com/GPX/1/1" xmlns:xsi="http://www.w3.org/2001/XMLSchema-instance" xsi:schemaLocation="http://www.topografix.com/GPX/1/1 http://www.topografix.com/GPX/1/1/gpx.xsd" version="1.1" creator="togpx"><metadata/><wpt lat="47.62304179797321" lon="11.734710037708284"><name></name><desc>label=B 307, Kreuth,BY,Germany</desc></wpt><wpt lat="47.617467981772144" lon="11.739492416381838"><name></name><desc>label=K 8, Kreuth,BY,Germany</desc></wpt><wpt lat="47.59642567504897" lon="11.74213171005249"><name></name><desc>label=615b, Kreuth,BY,Germany</desc></wpt><wpt lat="47.58910336907994" lon="11.735329627990723"><name></name><desc>label=Predigtstuhl, Kreuth,BY,Germany</desc></wpt><wpt lat="47.58803243213504" lon="11.748032569885256"><name></name><desc>label=Wichtlplatte, Achenkirch,TR,Austria</desc></wpt><wpt lat="47.58960988567753" lon="11.773567199707033"><name></name><desc>label=BB 2, Achenkirch,TR,Austria</desc></wpt><wpt lat="47.59117643812821" lon="11.781082749366762"><name></name><desc>label=615, Brandenberg,TR,Austria</desc></wpt><wpt lat="47.58874156850901" lon="11.779789924621584"><name></name><desc>label=Halserspitz, Brandenberg,TR,Austria</desc></wpt><wpt lat="47.58796007074034" lon="11.79611921310425"><name></name><desc>label=BB2, Kreuth,BY,Germany</desc></wpt><wpt lat="47.62160455873195" lon="11.77565932273865"><name></name><desc>label=Bayerische Staatsforsten Bike Trail Langenau, Kreuth,BY,Germany</desc></wpt><wpt lat="47.62603004439415" lon="11.746959686279299"><name></name><desc>label=K 5, Kreuth,BY,Germany</desc></wpt><trk><name></name><desc>ascent=1742
descent=1808.9
opacity=0.9</desc><trkseg><trkpt lat="47.622975" lon="11.734731"><ele>868.9</ele></trkpt><trkpt lat="47.62298" lon="11.734772"><ele>868</ele></trkpt><trkpt lat="47.622564" lon="11.734882"><ele>812</ele></trkpt><trkpt lat="47.622492" lon="11.734895"><ele>812</ele></trkpt><trkpt lat="47.622322" lon="11.734966"><ele>812</ele></trkpt><trkpt lat="47.622188" lon="11.735045"><ele>812</ele></trkpt><trkpt lat="47.622096" lon="11.735153"><ele>812</ele></trkpt><trkpt lat="47.622013" lon="11.73534"><ele>810.6</ele></trkpt><trkpt lat="47.621693" lon="11.736328"><ele>810.3</ele></trkpt><trkpt lat="47.621459" lon="11.736903"><ele>810.3</ele></trkpt><trkpt lat="47.621311" lon="11.737169"><ele>810</ele></trkpt><trkpt lat="47.621061" lon="11.73754"><ele>810</ele></trkpt><trkpt lat="47.620942" lon="11.737715"><ele>810</ele></trkpt><trkpt lat="47.620559" lon="11.738263"><ele>829</ele></trkpt><trkpt lat="47.620397" lon="11.738486"><ele>829</ele></trkpt><trkpt lat="47.620132" lon="11.738743"><ele>829</ele></trkpt><trkpt lat="47.620056" lon="11.738785"><ele>829</ele></trkpt><trkpt lat="47.619975" lon="11.738765"><ele>829</ele></trkpt><trkpt lat="47.619892" lon="11.738747"><ele>831.9</ele></trkpt><trkpt lat="47.619613" lon="11.73879"><ele>838.9</ele></trkpt><trkpt lat="47.61933" lon="11.738942"><ele>839.6</ele></trkpt><trkpt lat="47.619117" lon="11.739096"><ele>841</ele></trkpt><trkpt lat="47.618867" lon="11.739243"><ele>842.7</ele></trkpt><trkpt lat="47.618519" lon="11.739241"><ele>846.6</ele></trkpt><trkpt lat="47.618377" lon="11.739262"><ele>864</ele></trkpt><trkpt lat="47.61798" lon="11.739353"><ele>864</ele></trkpt><trkpt lat="47.61781" lon="11.73939"><ele>836.5</ele></trkpt><trkpt lat="47.617471" lon="11.739508"><ele>834.7</ele></trkpt><trkpt lat="47.617267" lon="11.73958"><ele>832.8</ele></trkpt><trkpt lat="47.61675" lon="11.739829"><ele>834.7</ele></trkpt><trkpt lat="47.6165" lon="11.73987"><ele>830</ele></trkpt><trkpt lat="47.616324" lon="11.739883"><ele>830</ele></trkpt><trkpt lat="47.616167" lon="11.739937"><ele>830</ele></trkpt><trkpt lat="47.615646" lon="11.739947"><ele>830</ele></trkpt><trkpt lat="47.615477" lon="11.739981"><ele>830</ele></trkpt><trkpt lat="47.615343" lon="11.740066"><ele>830</ele></trkpt><trkpt lat="47.615083" lon="11.740355"><ele>830</ele></trkpt><trkpt lat="47.614975" lon="11.740453"><ele>830</ele></trkpt><trkpt lat="47.614726" lon="11.740625"><ele>830</ele></trkpt><trkpt lat="47.614556" lon="11.740755"><ele>836.5</ele></trkpt><trkpt lat="47.614479" lon="11.740855"><ele>838.1</ele></trkpt><trkpt lat="47.6143" lon="11.741006"><ele>856</ele></trkpt><trkpt lat="47.614259" lon="11.741062"><ele>856</ele></trkpt><trkpt lat="47.614176" lon="11.741116"><ele>856</ele></trkpt><trkpt lat="47.614143" lon="11.741143"><ele>856</ele></trkpt><trkpt lat="47.613827" lon="11.74133"><ele>851.5</ele></trkpt><trkpt lat="47.613695" lon="11.741432"><ele>850.9</ele></trkpt><trkpt lat="47.613603" lon="11.74155"><ele>850.2</ele></trkpt><trkpt lat="47.613532" lon="11.74177"><ele>844</ele></trkpt><trkpt lat="47.61346" lon="11.741856"><ele>844</ele></trkpt><trkpt lat="47.613091" lon="11.742196"><ele>844</ele></trkpt><trkpt lat="47.612981" lon="11.742227"><ele>844</ele></trkpt><trkpt lat="47.612873" lon="11.742232"><ele>844</ele></trkpt><trkpt lat="47.612793" lon="11.742205"><ele>844</ele></trkpt><trkpt lat="47.612527" lon="11.742125"><ele>848</ele></trkpt><trkpt lat="47.612405" lon="11.742139"><ele>848.6</ele></trkpt><trkpt lat="47.612121" lon="11.742392"><ele>849.2</ele></trkpt><trkpt lat="47.61202" lon="11.74251"><ele>849</ele></trkpt><trkpt lat="47.611949" lon="11.742671"><ele>848.7</ele></trkpt><trkpt lat="47.611886" lon="11.743081"><ele>851</ele></trkpt><trkpt lat="47.611771" lon="11.743334"><ele>851</ele></trkpt><trkpt lat="47.611697" lon="11.743394"><ele>851</ele></trkpt><trkpt lat="47.611632" lon="11.743404"><ele>851</ele></trkpt><trkpt lat="47.61155" lon="11.743365"><ele>851</ele></trkpt><trkpt lat="47.61132" lon="11.742951"><ele>851</ele></trkpt><trkpt lat="47.611235" lon="11.742896"><ele>851</ele></trkpt><trkpt lat="47.611008" lon="11.742918"><ele>851</ele></trkpt><trkpt lat="47.610875" lon="11.742987"><ele>851</ele></trkpt><trkpt lat="47.610641" lon="11.743293"><ele>851</ele></trkpt><trkpt lat="47.610542" lon="11.743481"><ele>851</ele></trkpt><trkpt lat="47.610511" lon="11.7436"><ele>852</ele></trkpt><trkpt lat="47.610502" lon="11.743752"><ele>852.3</ele></trkpt><trkpt lat="47.610513" lon="11.74393"><ele>853</ele></trkpt><trkpt lat="47.610566" lon="11.744172"><ele>853</ele></trkpt><trkpt lat="47.610559" lon="11.744559"><ele>853</ele></trkpt><trkpt lat="47.610551" lon="11.745393"><ele>868.7</ele></trkpt><trkpt lat="47.610511" lon="11.745672"><ele>871.3</ele></trkpt><trkpt lat="47.610362" lon="11.74594"><ele>874.2</ele></trkpt><trkpt lat="47.610059" lon="11.746294"><ele>874.9</ele></trkpt><trkpt lat="47.609895" lon="11.746424"><ele>876.6</ele></trkpt><trkpt lat="47.609616" lon="11.746586"><ele>877.7</ele></trkpt><trkpt lat="47.609452" lon="11.746647"><ele>878.1</ele></trkpt><trkpt lat="47.609168" lon="11.746685"><ele>883.6</ele></trkpt><trkpt lat="47.609011" lon="11.746741"><ele>884.6</ele></trkpt><trkpt lat="47.608746" lon="11.74695"><ele>891.8</ele></trkpt><trkpt lat="47.608535" lon="11.74705"><ele>905</ele></trkpt><trkpt lat="47.608318" lon="11.747116"><ele>906.9</ele></trkpt><trkpt lat="47.608032" lon="11.747416"><ele>915.2</ele></trkpt><trkpt lat="47.607712" lon="11.747402"><ele>920.4</ele></trkpt><trkpt lat="47.607339" lon="11.747665"><ele>922.2</ele></trkpt><trkpt lat="47.607365" lon="11.747506"><ele>920.2</ele></trkpt><trkpt lat="47.607555" lon="11.747251"><ele>936</ele></trkpt><trkpt lat="47.607388" lon="11.747287"><ele>937.1</ele></trkpt><trkpt lat="47.607158" lon="11.747426"><ele>938.1</ele></trkpt><trkpt lat="47.607054" lon="11.747457"><ele>939</ele></trkpt><trkpt lat="47.606898" lon="11.747448"><ele>939.9</ele></trkpt><trkpt lat="47.606741" lon="11.747491"><ele>940.2</ele></trkpt><trkpt lat="47.606436" lon="11.747673"><ele>941.3</ele></trkpt><trkpt lat="47.606264" lon="11.747735"><ele>942.2</ele></trkpt><trkpt lat="47.606087" lon="11.747766"><ele>943.2</ele></trkpt><trkpt lat="47.605632" lon="11.74764"><ele>944.3</ele></trkpt><trkpt lat="47.605361" lon="11.74754"><ele>944.8</ele></trkpt><trkpt lat="47.605193" lon="11.747657"><ele>944.7</ele></trkpt><trkpt lat="47.605025" lon="11.747718"><ele>944.8</ele></trkpt><trkpt lat="47.604942" lon="11.747672"><ele>944.7</ele></trkpt><trkpt lat="47.604883" lon="11.747546"><ele>944.8</ele></trkpt><trkpt lat="47.604763" lon="11.747191"><ele>944.9</ele></trkpt><trkpt lat="47.604585" lon="11.746922"><ele>944.9</ele></trkpt><trkpt lat="47.604448" lon="11.746795"><ele>946</ele></trkpt><trkpt lat="47.604118" lon="11.746546"><ele>942.9</ele></trkpt><trkpt lat="47.603298" lon="11.745848"><ele>948.5</ele></trkpt><trkpt lat="47.603033" lon="11.745694"><ele>951.1</ele></trkpt><trkpt lat="47.602777" lon="11.745381"><ele>951.4</ele></trkpt><trkpt lat="47.602556" lon="11.745229"><ele>950.7</ele></trkpt><trkpt lat="47.602307" lon="11.744952"><ele>950.1</ele></trkpt><trkpt lat="47.602257" lon="11.744857"><ele>949.5</ele></trkpt><trkpt lat="47.60203" lon="11.744859"><ele>949</ele></trkpt><trkpt lat="47.601907" lon="11.744781"><ele>948.3</ele></trkpt><trkpt lat="47.601796" lon="11.744504"><ele>948.2</ele></trkpt><trkpt lat="47.60163" lon="11.744386"><ele>950.2</ele></trkpt><trkpt lat="47.601407" lon="11.744344"><ele>952.1</ele></trkpt><trkpt lat="47.601269" lon="11.74428"><ele>952.6</ele></trkpt><trkpt lat="47.60124" lon="11.744131"><ele>954.6</ele></trkpt><trkpt lat="47.601077" lon="11.744118"><ele>955.5</ele></trkpt><trkpt lat="47.600772" lon="11.743879"><ele>959.6</ele></trkpt><trkpt lat="47.600518" lon="11.74353"><ele>964.4</ele></trkpt><trkpt lat="47.600266" lon="11.743333"><ele>964.5</ele></trkpt><trkpt lat="47.600152" lon="11.743154"><ele>966.3</ele></trkpt><trkpt lat="47.599899" lon="11.742986"><ele>968.6</ele></trkpt><trkpt lat="47.59966" lon="11.742522"><ele>970.2</ele></trkpt><trkpt lat="47.59955" lon="11.742469"><ele>971.5</ele></trkpt><trkpt lat="47.599015" lon="11.741804"><ele>978.4</ele></trkpt><trkpt lat="47.59883" lon="11.741739"><ele>980.3</ele></trkpt><trkpt lat="47.598543" lon="11.741275"><ele>982</ele></trkpt><trkpt lat="47.598367" lon="11.741202"><ele>982.7</ele></trkpt><trkpt lat="47.598073" lon="11.74112"><ele>982.2</ele></trkpt><trkpt lat="47.597975" lon="11.741021"><ele>987</ele></trkpt><trkpt lat="47.597854" lon="11.741364"><ele>999</ele></trkpt><trkpt lat="47.59769" lon="11.741573"><ele>1000.4</ele></trkpt><trkpt lat="47.597464" lon="11.741783"><ele>1000</ele></trkpt><trkpt lat="47.597114" lon="11.742158"><ele>998.9</ele></trkpt><trkpt lat="47.596794" lon="11.74219"><ele>1004</ele></trkpt><trkpt lat="47.597114" lon="11.742158"><ele>998.9</ele></trkpt><trkpt lat="47.597464" lon="11.741783"><ele>1000</ele></trkpt><trkpt lat="47.59769" lon="11.741573"><ele>1000.4</ele></trkpt><trkpt lat="47.597854" lon="11.741364"><ele>999</ele></trkpt><trkpt lat="47.597975" lon="11.741021"><ele>987</ele></trkpt><trkpt lat="47.597854" lon="11.740945"><ele>994.3</ele></trkpt><trkpt lat="47.597665" lon="11.740673"><ele>996</ele></trkpt><trkpt lat="47.597326" lon="11.740361"><ele>996.2</ele></trkpt><trkpt lat="47.59708" lon="11.739834"><ele>997.1</ele></trkpt><trkpt lat="47.596815" lon="11.738769"><ele>1002.3</ele></trkpt><trkpt lat="47.596784" lon="11.738657"><ele>1002.5</ele></trkpt><trkpt lat="47.596737" lon="11.738557"><ele>1006.6</ele></trkpt><trkpt lat="47.596686" lon="11.738503"><ele>1007.1</ele></trkpt><trkpt lat="47.596478" lon="11.738463"><ele>1013</ele></trkpt><trkpt lat="47.596141" lon="11.73833"><ele>1017</ele></trkpt><trkpt lat="47.596006" lon="11.738251"><ele>1018.2</ele></trkpt><trkpt lat="47.595887" lon="11.738142"><ele>1019.5</ele></trkpt><trkpt lat="47.595634" lon="11.738124"><ele>1022.5</ele></trkpt><trkpt lat="47.595503" lon="11.737975"><ele>1023.5</ele></trkpt><trkpt lat="47.595319" lon="11.737672"><ele>1050</ele></trkpt><trkpt lat="47.595296" lon="11.737623"><ele>1050</ele></trkpt><trkpt lat="47.595207" lon="11.737529"><ele>1050</ele></trkpt><trkpt lat="47.595075" lon="11.737304"><ele>1057.7</ele></trkpt><trkpt lat="47.594962" lon="11.737349"><ele>1057.6</ele></trkpt><trkpt lat="47.594913" lon="11.73723"><ele>1063.8</ele></trkpt><trkpt lat="47.59483" lon="11.73713"><ele>1064</ele></trkpt><trkpt lat="47.594936" lon="11.736873"><ele>1078.6</ele></trkpt><trkpt lat="47.59477" lon="11.736942"><ele>1074.9</ele></trkpt><trkpt lat="47.594665" lon="11.736812"><ele>1079.6</ele></trkpt><trkpt lat="47.594836" lon="11.736589"><ele>1085.6</ele></trkpt><trkpt lat="47.594761" lon="11.736588"><ele>1086.3</ele></trkpt><trkpt lat="47.594804" lon="11.736411"><ele>1087</ele></trkpt><trkpt lat="47.594769" lon="11.736387"><ele>1087.8</ele></trkpt><trkpt lat="47.59479" lon="11.736311"><ele>1091.6</ele></trkpt><trkpt lat="47.594763" lon="11.736263"><ele>1092.4</ele></trkpt><trkpt lat="47.594774" lon="11.736198"><ele>1093.2</ele></trkpt><trkpt lat="47.594816" lon="11.736143"><ele>1095.4</ele></trkpt><trkpt lat="47.594791" lon="11.736072"><ele>1097.6</ele></trkpt><trkpt lat="47.594796" lon="11.736004"><ele>1098.5</ele></trkpt><trkpt lat="47.594824" lon="11.735972"><ele>1099.4</ele></trkpt><trkpt lat="47.594795" lon="11.735904"><ele>1102.6</ele></trkpt><trkpt lat="47.594819" lon="11.73584"><ele>1103.6</ele></trkpt><trkpt lat="47.594785" lon="11.735749"><ele>1106.6</ele></trkpt><trkpt lat="47.594789" lon="11.735689"><ele>1107.6</ele></trkpt><trkpt lat="47.594739" lon="11.735618"><ele>1110.8</ele></trkpt><trkpt lat="47.594775" lon="11.735574"><ele>1111</ele></trkpt><trkpt lat="47.594731" lon="11.735449"><ele>1115.4</ele></trkpt><trkpt lat="47.594809" lon="11.735334"><ele>1119.3</ele></trkpt><trkpt lat="47.594793" lon="11.735274"><ele>1120.7</ele></trkpt><trkpt lat="47.594742" lon="11.735257"><ele>1120</ele></trkpt><trkpt lat="47.594778" lon="11.735103"><ele>1121.9</ele></trkpt><trkpt lat="47.594716" lon="11.735123"><ele>1128.9</ele></trkpt><trkpt lat="47.594758" lon="11.734975"><ele>1128.3</ele></trkpt><trkpt lat="47.594701" lon="11.735006"><ele>1127.8</ele></trkpt><trkpt lat="47.594671" lon="11.734944"><ele>1136.9</ele></trkpt><trkpt lat="47.594564" lon="11.734975"><ele>1140.5</ele></trkpt><trkpt lat="47.594643" lon="11.734685"><ele>1144.4</ele></trkpt><trkpt lat="47.594464" lon="11.734744"><ele>1150.5</ele></trkpt><trkpt lat="47.594396" lon="11.734704"><ele>1150.4</ele></trkpt><trkpt lat="47.594339" lon="11.734434"><ele>1167.8</ele></trkpt><trkpt lat="47.594214" lon="11.73452"><ele>1176.1</ele></trkpt><trkpt lat="47.594105" lon="11.734446"><ele>1189.6</ele></trkpt><trkpt lat="47.594146" lon="11.734322"><ele>1192.4</ele></trkpt><trkpt lat="47.594004" lon="11.73437"><ele>1199.7</ele></trkpt><trkpt lat="47.593958" lon="11.734527"><ele>1194.2</ele></trkpt><trkpt lat="47.593788" lon="11.734438"><ele>1206.4</ele></trkpt><trkpt lat="47.593715" lon="11.734645"><ele>1207.6</ele></trkpt><trkpt lat="47.593622" lon="11.734526"><ele>1219.5</ele></trkpt><trkpt lat="47.59347" lon="11.734529"><ele>1247.2</ele></trkpt><trkpt lat="47.593512" lon="11.734351"><ele>1249.2</ele></trkpt><trkpt lat="47.593461" lon="11.734203"><ele>1258.7</ele></trkpt><trkpt lat="47.593505" lon="11.734089"><ele>1254</ele></trkpt><trkpt lat="47.59345" lon="11.733961"><ele>1260.2</ele></trkpt><trkpt lat="47.593505" lon="11.733825"><ele>1259.3</ele></trkpt><trkpt lat="47.593368" lon="11.733772"><ele>1265.8</ele></trkpt><trkpt lat="47.593472" lon="11.733616"><ele>1265</ele></trkpt><trkpt lat="47.593329" lon="11.733421"><ele>1272</ele></trkpt><trkpt lat="47.59343" lon="11.733362"><ele>1267.3</ele></trkpt><trkpt lat="47.593341" lon="11.733268"><ele>1270.6</ele></trkpt><trkpt lat="47.59337" lon="11.733205"><ele>1269.8</ele></trkpt><trkpt lat="47.593283" lon="11.733118"><ele>1272.7</ele></trkpt><trkpt lat="47.593396" lon="11.733077"><ele>1266</ele></trkpt><trkpt lat="47.593344" lon="11.732971"><ele>1269.3</ele></trkpt><trkpt lat="47.593407" lon="11.732936"><ele>1262.6</ele></trkpt><trkpt lat="47.593076" lon="11.732675"><ele>1283.3</ele></trkpt><trkpt lat="47.593192" lon="11.732622"><ele>1279.3</ele></trkpt><trkpt lat="47.593376" lon="11.732616"><ele>1272.4</ele></trkpt><trkpt lat="47.593467" lon="11.732525"><ele>1364</ele></trkpt><trkpt lat="47.59361" lon="11.732382"><ele>1364</ele></trkpt><trkpt lat="47.593701" lon="11.732423"><ele>1268</ele></trkpt><trkpt lat="47.593806" lon="11.732303"><ele>1269.3</ele></trkpt><trkpt lat="47.593848" lon="11.732224"><ele>1270.8</ele></trkpt><trkpt lat="47.593888" lon="11.732083"><ele>1272.5</ele></trkpt><trkpt lat="47.593837" lon="11.732"><ele>1274.3</ele></trkpt><trkpt lat="47.593841" lon="11.731865"><ele>1276.3</ele></trkpt><trkpt lat="47.593765" lon="11.731876"><ele>1278.6</ele></trkpt><trkpt lat="47.593674" lon="11.731746"><ele>1256</ele></trkpt><trkpt lat="47.593445" lon="11.731722"><ele>1382.1</ele></trkpt><trkpt lat="47.593288" lon="11.731766"><ele>1383.6</ele></trkpt><trkpt lat="47.593127" lon="11.731669"><ele>1386.8</ele></trkpt><trkpt lat="47.593074" lon="11.731533"><ele>1388.5</ele></trkpt><trkpt lat="47.592938" lon="11.731513"><ele>1386.9</ele></trkpt><trkpt lat="47.592798" lon="11.731182"><ele>1388.4</ele></trkpt><trkpt lat="47.59273" lon="11.730728"><ele>1389.9</ele></trkpt><trkpt lat="47.592558" lon="11.730776"><ele>1387.4</ele></trkpt><trkpt lat="47.592464" lon="11.730905"><ele>1389.5</ele></trkpt><trkpt lat="47.592447" lon="11.730984"><ele>1391.5</ele></trkpt><trkpt lat="47.592012" lon="11.7311"><ele>1405.1</ele></trkpt><trkpt lat="47.591658" lon="11.731803"><ele>1425.8</ele></trkpt><trkpt lat="47.591467" lon="11.732012"><ele>1441.8</ele></trkpt><trkpt lat="47.591063" lon="11.732568"><ele>1450.3</ele></trkpt><trkpt lat="47.590933" lon="11.732665"><ele>1449.4</ele></trkpt><trkpt lat="47.590714" lon="11.732675"><ele>1448.4</ele></trkpt><trkpt lat="47.590582" lon="11.732649"><ele>1449.9</ele></trkpt><trkpt lat="47.590504" lon="11.732583"><ele>1448.9</ele></trkpt><trkpt lat="47.590297" lon="11.732482"><ele>1451.7</ele></trkpt><trkpt lat="47.590182" lon="11.732363"><ele>1450.7</ele></trkpt><trkpt lat="47.590084" lon="11.732223"><ele>1464</ele></trkpt><trkpt lat="47.589907" lon="11.732209"><ele>1457.7</ele></trkpt><trkpt lat="47.589813" lon="11.732154"><ele>1456.6</ele></trkpt><trkpt lat="47.58955" lon="11.732141"><ele>1455.4</ele></trkpt><trkpt lat="47.589273" lon="11.7322"><ele>1445</ele></trkpt><trkpt lat="47.589298" lon="11.732328"><ele>1469.5</ele></trkpt><trkpt lat="47.589281" lon="11.732644"><ele>1472.5</ele></trkpt><trkpt lat="47.589568" lon="11.732985"><ele>1474.7</ele></trkpt><trkpt lat="47.589676" lon="11.733151"><ele>1475.4</ele></trkpt><trkpt lat="47.589838" lon="11.733219"><ele>1476.1</ele></trkpt><trkpt lat="47.589832" lon="11.733456"><ele>1476.1</ele></trkpt><trkpt lat="47.589883" lon="11.733597"><ele>1480.4</ele></trkpt><trkpt lat="47.589838" lon="11.733691"><ele>1480.4</ele></trkpt><trkpt lat="47.589698" lon="11.733718"><ele>1480.4</ele></trkpt><trkpt lat="47.589596" lon="11.733882"><ele>1484.5</ele></trkpt><trkpt lat="47.589639" lon="11.733984"><ele>1484.8</ele></trkpt><trkpt lat="47.589572" lon="11.734087"><ele>1488.7</ele></trkpt><trkpt lat="47.589644" lon="11.734305"><ele>1492.7</ele></trkpt><trkpt lat="47.589609" lon="11.734519"><ele>1493.4</ele></trkpt><trkpt lat="47.58946" lon="11.734714"><ele>1498.9</ele></trkpt><trkpt lat="47.589445" lon="11.735138"><ele>1508.1</ele></trkpt><trkpt lat="47.589184" lon="11.735287"><ele>1515</ele></trkpt><trkpt lat="47.589118" lon="11.73536"><ele>1518.7</ele></trkpt><trkpt lat="47.588963" lon="11.735532"><ele>1522.4</ele></trkpt><trkpt lat="47.588859" lon="11.735757"><ele>1528.2</ele></trkpt><trkpt lat="47.588775" lon="11.736322"><ele>1536.3</ele></trkpt><trkpt lat="47.588701" lon="11.73668"><ele>1538</ele></trkpt><trkpt lat="47.58847" lon="11.736822"><ele>1539.2</ele></trkpt><trkpt lat="47.588289" lon="11.73707"><ele>1540</ele></trkpt><trkpt lat="47.588185" lon="11.73717"><ele>1558</ele></trkpt><trkpt lat="47.588195" lon="11.73737"><ele>1588</ele></trkpt><trkpt lat="47.588207" lon="11.737248"><ele>1587.5</ele></trkpt><trkpt lat="47.588209" lon="11.737603"><ele>1590</ele></trkpt><trkpt lat="47.588179" lon="11.737719"><ele>1592</ele></trkpt><trkpt lat="47.588225" lon="11.737744"><ele>1591.8</ele></trkpt><trkpt lat="47.588173" lon="11.737939"><ele>1591.7</ele></trkpt><trkpt lat="47.588172" lon="11.738419"><ele>1595.3</ele></trkpt><trkpt lat="47.588095" lon="11.738798"><ele>1597</ele></trkpt><trkpt lat="47.588077" lon="11.739042"><ele>1598.5</ele></trkpt><trkpt lat="47.588116" lon="11.739104"><ele>1598.8</ele></trkpt><trkpt lat="47.588087" lon="11.739418"><ele>1603.3</ele></trkpt><trkpt lat="47.588042" lon="11.739667"><ele>1610.3</ele></trkpt><trkpt lat="47.588143" lon="11.740103"><ele>1622.2</ele></trkpt><trkpt lat="47.588095" lon="11.740305"><ele>1622.3</ele></trkpt><trkpt lat="47.588023" lon="11.740461"><ele>1627.7</ele></trkpt><trkpt lat="47.587996" lon="11.740873"><ele>1635.8</ele></trkpt><trkpt lat="47.58797" lon="11.741614"><ele>1653.6</ele></trkpt><trkpt lat="47.587951" lon="11.741696"><ele>1657.9</ele></trkpt><trkpt lat="47.587979" lon="11.742339"><ele>1670.7</ele></trkpt><trkpt lat="47.587915" lon="11.742656"><ele>1675.5</ele></trkpt><trkpt lat="47.587958" lon="11.742861"><ele>1676.9</ele></trkpt><trkpt lat="47.587882" lon="11.743041"><ele>1679.4</ele></trkpt><trkpt lat="47.587923" lon="11.743133"><ele>1680</ele></trkpt><trkpt lat="47.587857" lon="11.743283"><ele>1681.4</ele></trkpt><trkpt lat="47.587896" lon="11.743339"><ele>1682.1</ele></trkpt><trkpt lat="47.587871" lon="11.743527"><ele>1684</ele></trkpt><trkpt lat="47.587912" lon="11.74358"><ele>1684.8</ele></trkpt><trkpt lat="47.587833" lon="11.743637"><ele>1687</ele></trkpt><trkpt lat="47.587891" lon="11.743767"><ele>1687.8</ele></trkpt><trkpt lat="47.587839" lon="11.743796"><ele>1687.4</ele></trkpt><trkpt lat="47.5879" lon="11.743892"><ele>1687</ele></trkpt><trkpt lat="47.587795" lon="11.743993"><ele>1687.6</ele></trkpt><trkpt lat="47.587834" lon="11.74409"><ele>1687.2</ele></trkpt><trkpt lat="47.587762" lon="11.744337"><ele>1688.4</ele></trkpt><trkpt lat="47.587808" lon="11.744489"><ele>1688.8</ele></trkpt><trkpt lat="47.587732" lon="11.744779"><ele>1689.8</ele></trkpt><trkpt lat="47.587668" lon="11.745372"><ele>1692.7</ele></trkpt><trkpt lat="47.587788" lon="11.745509"><ele>1693.2</ele></trkpt><trkpt lat="47.587919" lon="11.746111"><ele>1702.5</ele></trkpt><trkpt lat="47.587947" lon="11.7464"><ele>1705.3</ele></trkpt><trkpt lat="47.58794" lon="11.746696"><ele>1708.4</ele></trkpt><trkpt lat="47.587891" lon="11.74716"><ele>1713.3</ele></trkpt><trkpt lat="47.58791" lon="11.747444"><ele>1717.8</ele></trkpt><trkpt lat="47.587906" lon="11.747791"><ele>1721.5</ele></trkpt><trkpt lat="47.587983" lon="11.748063"><ele>1721.5</ele></trkpt><trkpt lat="47.587986" lon="11.748072"><ele>1721.5</ele></trkpt><trkpt lat="47.588042" lon="11.748361"><ele>1723.6</ele></trkpt><trkpt lat="47.588132" lon="11.748642"><ele>1724.6</ele></trkpt><trkpt lat="47.588181" lon="11.748887"><ele>1726.7</ele></trkpt><trkpt lat="47.58831" lon="11.749354"><ele>1728.5</ele></trkpt><trkpt lat="47.588579" lon="11.750177"><ele>1733.3</ele></trkpt><trkpt lat="47.588666" lon="11.750636"><ele>1733.4</ele></trkpt><trkpt lat="47.5887" lon="11.751135"><ele>1732.2</ele></trkpt><trkpt lat="47.588698" lon="11.751391"><ele>1735.4</ele></trkpt><trkpt lat="47.588762" lon="11.751591"><ele>1734.5</ele></trkpt><trkpt lat="47.588792" lon="11.751933"><ele>1734.2</ele></trkpt><trkpt lat="47.588857" lon="11.752151"><ele>1732.9</ele></trkpt><trkpt lat="47.589068" lon="11.752569"><ele>1731</ele></trkpt><trkpt lat="47.589095" lon="11.752853"><ele>1729.3</ele></trkpt><trkpt lat="47.589081" lon="11.753103"><ele>1727.4</ele></trkpt><trkpt lat="47.589162" lon="11.753442"><ele>1720.4</ele></trkpt><trkpt lat="47.589082" lon="11.753936"><ele>1715.1</ele></trkpt><trkpt lat="47.589083" lon="11.754261"><ele>1711</ele></trkpt><trkpt lat="47.589111" lon="11.754596"><ele>1707</ele></trkpt><trkpt lat="47.58912" lon="11.754945"><ele>1704.5</ele></trkpt><trkpt lat="47.589071" lon="11.755477"><ele>1696.9</ele></trkpt><trkpt lat="47.588921" lon="11.756142"><ele>1693.5</ele></trkpt><trkpt lat="47.588759" lon="11.756507"><ele>1692.9</ele></trkpt><trkpt lat="47.588721" lon="11.756742"><ele>1692.2</ele></trkpt><trkpt lat="47.588709" lon="11.756944"><ele>1691.6</ele></trkpt><trkpt lat="47.588673" lon="11.757077"><ele>1691.8</ele></trkpt><trkpt lat="47.588689" lon="11.757361"><ele>1691.4</ele></trkpt><trkpt lat="47.588782" lon="11.758008"><ele>1691.4</ele></trkpt><trkpt lat="47.58881" lon="11.758585"><ele>1689.1</ele></trkpt><trkpt lat="47.588861" lon="11.759017"><ele>1686.6</ele></trkpt><trkpt lat="47.588849" lon="11.759346"><ele>1685.3</ele></trkpt><trkpt lat="47.588864" lon="11.759709"><ele>1683.4</ele></trkpt><trkpt lat="47.588897" lon="11.759903"><ele>1682.3</ele></trkpt><trkpt lat="47.588911" lon="11.76013"><ele>1680.5</ele></trkpt><trkpt lat="47.588882" lon="11.760569"><ele>1677.7</ele></trkpt><trkpt lat="47.588953" lon="11.760985"><ele>1675.9</ele></trkpt><trkpt lat="47.58901" lon="11.761201"><ele>1674.6</ele></trkpt><trkpt lat="47.589057" lon="11.76165"><ele>1672.2</ele></trkpt><trkpt lat="47.589153" lon="11.761943"><ele>1670.4</ele></trkpt><trkpt lat="47.589107" lon="11.762203"><ele>1669.2</ele></trkpt><trkpt lat="47.589101" lon="11.762359"><ele>1665.7</ele></trkpt><trkpt lat="47.589067" lon="11.762493"><ele>1663</ele></trkpt><trkpt lat="47.58907" lon="11.76275"><ele>1664.6</ele></trkpt><trkpt lat="47.589106" lon="11.763067"><ele>1665.9</ele></trkpt><trkpt lat="47.589209" lon="11.763436"><ele>1670.4</ele></trkpt><trkpt lat="47.589278" lon="11.763605"><ele>1670.8</ele></trkpt><trkpt lat="47.589369" lon="11.763742"><ele>1673.2</ele></trkpt><trkpt lat="47.589467" lon="11.76415"><ele>1678.6</ele></trkpt><trkpt lat="47.589488" lon="11.764338"><ele>1683.9</ele></trkpt><trkpt lat="47.589653" lon="11.764937"><ele>1693</ele></trkpt><trkpt lat="47.589797" lon="11.765665"><ele>1707.4</ele></trkpt><trkpt lat="47.589956" lon="11.766618"><ele>1721.9</ele></trkpt><trkpt lat="47.590071" lon="11.766937"><ele>1722</ele></trkpt><trkpt lat="47.590157" lon="11.7673"><ele>1720.3</ele></trkpt><trkpt lat="47.589983" lon="11.767794"><ele>1708.7</ele></trkpt><trkpt lat="47.589727" lon="11.768388"><ele>1697.9</ele></trkpt><trkpt lat="47.589402" lon="11.769247"><ele>1684.8</ele></trkpt><trkpt lat="47.589401" lon="11.769597"><ele>1679.6</ele></trkpt><trkpt lat="47.589362" lon="11.76969"><ele>1676.7</ele></trkpt><trkpt lat="47.589347" lon="11.770276"><ele>1669.6</ele></trkpt><trkpt lat="47.589314" lon="11.770468"><ele>1667.2</ele></trkpt><trkpt lat="47.589322" lon="11.770689"><ele>1663.9</ele></trkpt><trkpt lat="47.58938" lon="11.771144"><ele>1663.1</ele></trkpt><trkpt lat="47.589383" lon="11.771581"><ele>1666.2</ele></trkpt><trkpt lat="47.589403" lon="11.77168"><ele>1668.8</ele></trkpt><trkpt lat="47.589497" lon="11.77191"><ele>1671.7</ele></trkpt><trkpt lat="47.589523" lon="11.77213"><ele>1675.8</ele></trkpt><trkpt lat="47.589527" lon="11.772402"><ele>1681</ele></trkpt><trkpt lat="47.589661" lon="11.772707"><ele>1687</ele></trkpt><trkpt lat="47.589696" lon="11.773072"><ele>1690.5</ele></trkpt><trkpt lat="47.589752" lon="11.773237"><ele>1697.2</ele></trkpt><trkpt lat="47.589784" lon="11.773525"><ele>1699.7</ele></trkpt><trkpt lat="47.589785" lon="11.773531"><ele>1702.1</ele></trkpt><trkpt lat="47.589886" lon="11.773794"><ele>1707.3</ele></trkpt><trkpt lat="47.589917" lon="11.773995"><ele>1712.4</ele></trkpt><trkpt lat="47.589987" lon="11.774139"><ele>1716.2</ele></trkpt><trkpt lat="47.590055" lon="11.774365"><ele>1720.3</ele></trkpt><trkpt lat="47.590108" lon="11.774457"><ele>1722</ele></trkpt><trkpt lat="47.590188" lon="11.774509"><ele>1722.8</ele></trkpt><trkpt lat="47.590232" lon="11.774698"><ele>1726.2</ele></trkpt><trkpt lat="47.590232" lon="11.774922"><ele>1728.8</ele></trkpt><trkpt lat="47.590212" lon="11.775056"><ele>1728</ele></trkpt><trkpt lat="47.590311" lon="11.775423"><ele>1729.3</ele></trkpt><trkpt lat="47.590362" lon="11.775677"><ele>1728.7</ele></trkpt><trkpt lat="47.590413" lon="11.775809"><ele>1728.8</ele></trkpt><trkpt lat="47.590452" lon="11.776055"><ele>1729.7</ele></trkpt><trkpt lat="47.590511" lon="11.776306"><ele>1730.1</ele></trkpt><trkpt lat="47.59052" lon="11.776604"><ele>1745</ele></trkpt><trkpt lat="47.590524" lon="11.776777"><ele>1756.6</ele></trkpt><trkpt lat="47.59063" lon="11.777742"><ele>1757.2</ele></trkpt><trkpt lat="47.590692" lon="11.778034"><ele>1756.6</ele></trkpt><trkpt lat="47.590762" lon="11.778231"><ele>1756.3</ele></trkpt><trkpt lat="47.59077" lon="11.778378"><ele>1760</ele></trkpt><trkpt lat="47.590842" lon="11.779097"><ele>1789.1</ele></trkpt><trkpt lat="47.590863" lon="11.77945"><ele>1788.8</ele></trkpt><trkpt lat="47.591043" lon="11.780315"><ele>1788.2</ele></trkpt><trkpt lat="47.59107" lon="11.780595"><ele>1790.4</ele></trkpt><trkpt lat="47.591109" lon="11.780721"><ele>1790.2</ele></trkpt><trkpt lat="47.591167" lon="11.78108"><ele>1793</ele></trkpt><trkpt lat="47.591109" lon="11.780721"><ele>1790.2</ele></trkpt><trkpt lat="47.59107" lon="11.780595"><ele>1790.4</ele></trkpt><trkpt lat="47.591043" lon="11.780315"><ele>1788.2</ele></trkpt><trkpt lat="47.590863" lon="11.77945"><ele>1788.8</ele></trkpt><trkpt lat="47.590842" lon="11.779097"><ele>1789.1</ele></trkpt><trkpt lat="47.59077" lon="11.778378"><ele>1760</ele></trkpt><trkpt lat="47.590762" lon="11.778231"><ele>1756.3</ele></trkpt><trkpt lat="47.590692" lon="11.778034"><ele>1756.6</ele></trkpt><trkpt lat="47.59063" lon="11.777742"><ele>1757.2</ele></trkpt><trkpt lat="47.590524" lon="11.776777"><ele>1756.6</ele></trkpt><trkpt lat="47.59052" lon="11.776604"><ele>1745</ele></trkpt><trkpt lat="47.590475" lon="11.776555"><ele>1732.8</ele></trkpt><trkpt lat="47.590418" lon="11.776617"><ele>1732.7</ele></trkpt><trkpt lat="47.590373" lon="11.776483"><ele>1734</ele></trkpt><trkpt lat="47.59032" lon="11.776669"><ele>1732.9</ele></trkpt><trkpt lat="47.590259" lon="11.776724"><ele>1732.1</ele></trkpt><trkpt lat="47.590227" lon="11.776424"><ele>1734.1</ele></trkpt><trkpt lat="47.590067" lon="11.776679"><ele>1731.6</ele></trkpt><trkpt lat="47.589957" lon="11.776907"><ele>1730.6</ele></trkpt><trkpt lat="47.589834" lon="11.77707"><ele>1732.9</ele></trkpt><trkpt lat="47.58973" lon="11.777323"><ele>1729.1</ele></trkpt><trkpt lat="47.589689" lon="11.77762"><ele>1726.6</ele></trkpt><trkpt lat="47.589643" lon="11.777681"><ele>1725.4</ele></trkpt><trkpt lat="47.589581" lon="11.777715"><ele>1726.5</ele></trkpt><trkpt lat="47.589498" lon="11.777875"><ele>1725.2</ele></trkpt><trkpt lat="47.589422" lon="11.777941"><ele>1718.2</ele></trkpt><trkpt lat="47.589288" lon="11.778311"><ele>1697.1</ele></trkpt><trkpt lat="47.589231" lon="11.778552"><ele>1678.9</ele></trkpt><trkpt lat="47.589128" lon="11.778789"><ele>1670</ele></trkpt><trkpt lat="47.588918" lon="11.779058"><ele>1661.6</ele></trkpt><trkpt lat="47.588884" lon="11.779125"><ele>1661.4</ele></trkpt><trkpt lat="47.588795" lon="11.779398"><ele>1651</ele></trkpt><trkpt lat="47.588736" lon="11.779788"><ele>1649.6</ele></trkpt><trkpt lat="47.588723" lon="11.779874"><ele>1648.2</ele></trkpt><trkpt lat="47.588677" lon="11.77991"><ele>1648.1</ele></trkpt><trkpt lat="47.588466" lon="11.780174"><ele>1648</ele></trkpt><trkpt lat="47.58839" lon="11.779947"><ele>1648.3</ele></trkpt><trkpt lat="47.588292" lon="11.779496"><ele>1648.9</ele></trkpt><trkpt lat="47.588277" lon="11.779139"><ele>1649.2</ele></trkpt><trkpt lat="47.58818" lon="11.778813"><ele>1648.8</ele></trkpt><trkpt lat="47.588118" lon="11.778752"><ele>1648.8</ele></trkpt><trkpt lat="47.587818" lon="11.779069"><ele>1649.1</ele></trkpt><trkpt lat="47.587771" lon="11.779086"><ele>1649.5</ele></trkpt><trkpt lat="47.587701" lon="11.779193"><ele>1648.9</ele></trkpt><trkpt lat="47.587623" lon="11.779427"><ele>1649.3</ele></trkpt><trkpt lat="47.587564" lon="11.779697"><ele>1645.6</ele></trkpt><trkpt lat="47.587503" lon="11.780446"><ele>1645.6</ele></trkpt><trkpt lat="47.587465" lon="11.780648"><ele>1640.4</ele></trkpt><trkpt lat="47.587322" lon="11.781084"><ele>1629</ele></trkpt><trkpt lat="47.587162" lon="11.781311"><ele>1550</ele></trkpt><trkpt lat="47.587126" lon="11.781355"><ele>1549.5</ele></trkpt><trkpt lat="47.587126" lon="11.78152"><ele>1549.6</ele></trkpt><trkpt lat="47.587032" lon="11.781852"><ele>1549.6</ele></trkpt><trkpt lat="47.586884" lon="11.782198"><ele>1549.7</ele></trkpt><trkpt lat="47.586884" lon="11.782563"><ele>1549.7</ele></trkpt><trkpt lat="47.586975" lon="11.782642"><ele>1549.7</ele></trkpt><trkpt lat="47.587086" lon="11.783041"><ele>1547.9</ele></trkpt><trkpt lat="47.587189" lon="11.784753"><ele>1538.6</ele></trkpt><trkpt lat="47.587143" lon="11.784985"><ele>1540</ele></trkpt><trkpt lat="47.587135" lon="11.785543"><ele>1529.6</ele></trkpt><trkpt lat="47.587307" lon="11.786068"><ele>1526.4</ele></trkpt><trkpt lat="47.587425" lon="11.787325"><ele>1522.9</ele></trkpt><trkpt lat="47.587378" lon="11.787473"><ele>1521.1</ele></trkpt><trkpt lat="47.587421" lon="11.787739"><ele>1520.6</ele></trkpt><trkpt lat="47.587521" lon="11.78861"><ele>1510</ele></trkpt><trkpt lat="47.588068" lon="11.789519"><ele>1483.8</ele></trkpt><trkpt lat="47.588219" lon="11.790026"><ele>1485.9</ele></trkpt><trkpt lat="47.58821" lon="11.790765"><ele>1475</ele></trkpt><trkpt lat="47.588107" lon="11.790591"><ele>1465.7</ele></trkpt><trkpt lat="47.588179" lon="11.790986"><ele>1463.8</ele></trkpt><trkpt lat="47.588186" lon="11.791197"><ele>1462.6</ele></trkpt><trkpt lat="47.588279" lon="11.791464"><ele>1461.5</ele></trkpt><trkpt lat="47.588297" lon="11.791613"><ele>1460.4</ele></trkpt><trkpt lat="47.588293" lon="11.792281"><ele>1461.7</ele></trkpt><trkpt lat="47.588271" lon="11.792423"><ele>1462.2</ele></trkpt><trkpt lat="47.588273" lon="11.792544"><ele>1462.7</ele></trkpt><trkpt lat="47.588239" lon="11.792675"><ele>1462.1</ele></trkpt><trkpt lat="47.588239" lon="11.792753"><ele>1462.4</ele></trkpt><trkpt lat="47.588101" lon="11.79333"><ele>1463.9</ele></trkpt><trkpt lat="47.588058" lon="11.793979"><ele>1467.7</ele></trkpt><trkpt lat="47.587929" lon="11.794322"><ele>1474.4</ele></trkpt><trkpt lat="47.587933" lon="11.794394"><ele>1475.3</ele></trkpt><trkpt lat="47.58787" lon="11.79492"><ele>1476</ele></trkpt><trkpt lat="47.587832" lon="11.795119"><ele>1475.2</ele></trkpt><trkpt lat="47.58783" lon="11.795234"><ele>1474.6</ele></trkpt><trkpt lat="47.587797" lon="11.795301"><ele>1475.4</ele></trkpt><trkpt lat="47.587817" lon="11.795382"><ele>1474.9</ele></trkpt><trkpt lat="47.587644" lon="11.795784"><ele>1476</ele></trkpt><trkpt lat="47.587497" lon="11.795982"><ele>1473.7</ele></trkpt><trkpt lat="47.587441" lon="11.796173"><ele>1470.8</ele></trkpt><trkpt lat="47.587251" lon="11.79646"><ele>1468.5</ele></trkpt><trkpt lat="47.587171" lon="11.796537"><ele>1468.7</ele></trkpt><trkpt lat="47.587067" lon="11.796739"><ele>1469.9</ele></trkpt><trkpt lat="47.587007" lon="11.796801"><ele>1470.5</ele></trkpt><trkpt lat="47.58697" lon="11.796917"><ele>1456</ele></trkpt><trkpt lat="47.587425" lon="11.796429"><ele>1486.5</ele></trkpt><trkpt lat="47.58765" lon="11.796306"><ele>1483.5</ele></trkpt><trkpt lat="47.587832" lon="11.796144"><ele>1479.1</ele></trkpt><trkpt lat="47.587913" lon="11.796039"><ele>1476.9</ele></trkpt><trkpt lat="47.588024" lon="11.795895"><ele>1474.7</ele></trkpt><trkpt lat="47.588085" lon="11.795948"><ele>1472.9</ele></trkpt><trkpt lat="47.588326" lon="11.795673"><ele>1472.1</ele></trkpt><trkpt lat="47.588364" lon="11.795603"><ele>1472.3</ele></trkpt><trkpt lat="47.588447" lon="11.795534"><ele>1472.6</ele></trkpt><trkpt lat="47.588622" lon="11.795278"><ele>1472.3</ele></trkpt><trkpt lat="47.588728" lon="11.795074"><ele>1471.8</ele></trkpt><trkpt lat="47.588921" lon="11.794982"><ele>1472.4</ele></trkpt><trkpt lat="47.589016" lon="11.795039"><ele>1468</ele></trkpt><trkpt lat="47.589094" lon="11.795137"><ele>1486.8</ele></trkpt><trkpt lat="47.589198" lon="11.795174"><ele>1489.5</ele></trkpt><trkpt lat="47.589231" lon="11.795246"><ele>1490.7</ele></trkpt><trkpt lat="47.589722" lon="11.795056"><ele>1493.5</ele></trkpt><trkpt lat="47.589764" lon="11.794999"><ele>1493.4</ele></trkpt><trkpt lat="47.589797" lon="11.794871"><ele>1493.4</ele></trkpt><trkpt lat="47.589932" lon="11.794702"><ele>1493.4</ele></trkpt><trkpt lat="47.590088" lon="11.794631"><ele>1496.2</ele></trkpt><trkpt lat="47.590111" lon="11.794564"><ele>1496.2</ele></trkpt><trkpt lat="47.590069" lon="11.794446"><ele>1496.2</ele></trkpt><trkpt lat="47.590282" lon="11.794255"><ele>1498.7</ele></trkpt><trkpt lat="47.59026" lon="11.794205"><ele>1498.7</ele></trkpt><trkpt lat="47.590294" lon="11.79416"><ele>1500.6</ele></trkpt><trkpt lat="47.590408" lon="11.794217"><ele>1502.2</ele></trkpt><trkpt lat="47.590496" lon="11.79412"><ele>1502.5</ele></trkpt><trkpt lat="47.590649" lon="11.794071"><ele>1503.2</ele></trkpt><trkpt lat="47.590904" lon="11.793847"><ele>1505.8</ele></trkpt><trkpt lat="47.590988" lon="11.793673"><ele>1507.2</ele></trkpt><trkpt lat="47.591167" lon="11.793559"><ele>1508.8</ele></trkpt><trkpt lat="47.591171" lon="11.793452"><ele>1507.3</ele></trkpt><trkpt lat="47.591301" lon="11.793336"><ele>1508.1</ele></trkpt><trkpt lat="47.591473" lon="11.793307"><ele>1531</ele></trkpt><trkpt lat="47.591686" lon="11.793232"><ele>1466.6</ele></trkpt><trkpt lat="47.591709" lon="11.793113"><ele>1467.6</ele></trkpt><trkpt lat="47.591785" lon="11.793223"><ele>1467.9</ele></trkpt><trkpt lat="47.591839" lon="11.793183"><ele>1468.3</ele></trkpt><trkpt lat="47.59177" lon="11.792683"><ele>1470.6</ele></trkpt><trkpt lat="47.591717" lon="11.79255"><ele>1471.3</ele></trkpt><trkpt lat="47.591812" lon="11.792377"><ele>1472.3</ele></trkpt><trkpt lat="47.591736" lon="11.792361"><ele>1472.8</ele></trkpt><trkpt lat="47.591847" lon="11.792077"><ele>1473.4</ele></trkpt><trkpt lat="47.591942" lon="11.792034"><ele>1474.1</ele></trkpt><trkpt lat="47.592102" lon="11.791848"><ele>1474.7</ele></trkpt><trkpt lat="47.592117" lon="11.791712"><ele>1475.3</ele></trkpt><trkpt lat="47.592197" lon="11.791661"><ele>1475.8</ele></trkpt><trkpt lat="47.592186" lon="11.791573"><ele>1474.2</ele></trkpt><trkpt lat="47.592308" lon="11.791435"><ele>1475.1</ele></trkpt><trkpt lat="47.592297" lon="11.791254"><ele>1476.3</ele></trkpt><trkpt lat="47.592312" lon="11.79119"><ele>1474.2</ele></trkpt><trkpt lat="47.592358" lon="11.791189"><ele>1474.1</ele></trkpt><trkpt lat="47.59232" lon="11.790964"><ele>1474</ele></trkpt><trkpt lat="47.592381" lon="11.790845"><ele>1474</ele></trkpt><trkpt lat="47.592461" lon="11.790805"><ele>1471.9</ele></trkpt><trkpt lat="47.592476" lon="11.790697"><ele>1473.7</ele></trkpt><trkpt lat="47.592304" lon="11.790337"><ele>1475.9</ele></trkpt><trkpt lat="47.592419" lon="11.790205"><ele>1476</ele></trkpt><trkpt lat="47.59251" lon="11.790175"><ele>1473.4</ele></trkpt><trkpt lat="47.592583" lon="11.789964"><ele>1473.2</ele></trkpt><trkpt lat="47.592991" lon="11.789768"><ele>1472.6</ele></trkpt><trkpt lat="47.593102" lon="11.789817"><ele>1469.4</ele></trkpt><trkpt lat="47.593239" lon="11.790085"><ele>1452.7</ele></trkpt><trkpt lat="47.593243" lon="11.790373"><ele>1436.1</ele></trkpt><trkpt lat="47.593208" lon="11.790496"><ele>1430.9</ele></trkpt><trkpt lat="47.593239" lon="11.790748"><ele>1426.5</ele></trkpt><trkpt lat="47.593487" lon="11.791055"><ele>1418.3</ele></trkpt><trkpt lat="47.593643" lon="11.791122"><ele>1387.9</ele></trkpt><trkpt lat="47.593739" lon="11.791442"><ele>1374.2</ele></trkpt><trkpt lat="47.593712" lon="11.791753"><ele>1369.3</ele></trkpt><trkpt lat="47.593792" lon="11.791607"><ele>1370</ele></trkpt><trkpt lat="47.593918" lon="11.791522"><ele>1367.6</ele></trkpt><trkpt lat="47.593899" lon="11.791589"><ele>1366.2</ele></trkpt><trkpt lat="47.593941" lon="11.791808"><ele>1363.5</ele></trkpt><trkpt lat="47.593967" lon="11.791806"><ele>1363.2</ele></trkpt><trkpt lat="47.593964" lon="11.791932"><ele>1362.8</ele></trkpt><trkpt lat="47.594017" lon="11.79191"><ele>1363.1</ele></trkpt><trkpt lat="47.594032" lon="11.791963"><ele>1362.8</ele></trkpt><trkpt lat="47.594116" lon="11.791965"><ele>1360.9</ele></trkpt><trkpt lat="47.594216" lon="11.791726"><ele>1363.4</ele></trkpt><trkpt lat="47.594334" lon="11.791639"><ele>1360</ele></trkpt><trkpt lat="47.594433" lon="11.791603"><ele>1360</ele></trkpt><trkpt lat="47.594711" lon="11.791597"><ele>1358.2</ele></trkpt><trkpt lat="47.594715" lon="11.79173"><ele>1356.5</ele></trkpt><trkpt lat="47.594784" lon="11.791693"><ele>1355.1</ele></trkpt><trkpt lat="47.594845" lon="11.791816"><ele>1353.4</ele></trkpt><trkpt lat="47.594906" lon="11.791823"><ele>1353.4</ele></trkpt><trkpt lat="47.594913" lon="11.791892"><ele>1352.6</ele></trkpt><trkpt lat="47.595017" lon="11.791852"><ele>1352.7</ele></trkpt><trkpt lat="47.594994" lon="11.792078"><ele>1349.3</ele></trkpt><trkpt lat="47.5951" lon="11.792186"><ele>1345.8</ele></trkpt><trkpt lat="47.595051" lon="11.792409"><ele>1344.1</ele></trkpt><trkpt lat="47.595078" lon="11.792408"><ele>1343.9</ele></trkpt><trkpt lat="47.59507" lon="11.792532"><ele>1343.8</ele></trkpt><trkpt lat="47.595039" lon="11.792559"><ele>1343.6</ele></trkpt><trkpt lat="47.595165" lon="11.792547"><ele>1342.2</ele></trkpt><trkpt lat="47.595192" lon="11.79262"><ele>1341.4</ele></trkpt><trkpt lat="47.595089" lon="11.792801"><ele>1340.2</ele></trkpt><trkpt lat="47.595154" lon="11.792831"><ele>1337.1</ele></trkpt><trkpt lat="47.595051" lon="11.793034"><ele>1335.3</ele></trkpt><trkpt lat="47.595062" lon="11.793232"><ele>1332</ele></trkpt><trkpt lat="47.595017" lon="11.793239"><ele>1333.7</ele></trkpt><trkpt lat="47.595028" lon="11.793375"><ele>1327.4</ele></trkpt><trkpt lat="47.595108" lon="11.793407"><ele>1323.6</ele></trkpt><trkpt lat="47.59499" lon="11.793618"><ele>1321.7</ele></trkpt><trkpt lat="47.595089" lon="11.793734"><ele>1320.7</ele></trkpt><trkpt lat="47.595017" lon="11.793982"><ele>1315</ele></trkpt><trkpt lat="47.595089" lon="11.794053"><ele>1316.2</ele></trkpt><trkpt lat="47.595028" lon="11.794155"><ele>1316.2</ele></trkpt><trkpt lat="47.59502" lon="11.79426"><ele>1316.4</ele></trkpt><trkpt lat="47.595303" lon="11.794629"><ele>1304.7</ele></trkpt><trkpt lat="47.595284" lon="11.794797"><ele>1300.9</ele></trkpt><trkpt lat="47.595421" lon="11.79483"><ele>1294.2</ele></trkpt><trkpt lat="47.59556" lon="11.795071"><ele>1279.6</ele></trkpt><trkpt lat="47.595734" lon="11.795174"><ele>1277.3</ele></trkpt><trkpt lat="47.596119" lon="11.795643"><ele>1260.2</ele></trkpt><trkpt lat="47.596268" lon="11.795651"><ele>1260.3</ele></trkpt><trkpt lat="47.596325" lon="11.79596"><ele>1257.3</ele></trkpt><trkpt lat="47.596375" lon="11.796007"><ele>1255.6</ele></trkpt><trkpt lat="47.59652" lon="11.795968"><ele>1257</ele></trkpt><trkpt lat="47.596577" lon="11.795901"><ele>1255.5</ele></trkpt><trkpt lat="47.596607" lon="11.795991"><ele>1257.1</ele></trkpt><trkpt lat="47.596664" lon="11.795978"><ele>1258.8</ele></trkpt><trkpt lat="47.596693" lon="11.796022"><ele>1237</ele></trkpt><trkpt lat="47.59679" lon="11.796171"><ele>1237</ele></trkpt><trkpt lat="47.597534" lon="11.796671"><ele>1229</ele></trkpt><trkpt lat="47.598025" lon="11.797374"><ele>1213</ele></trkpt><trkpt lat="47.598173" lon="11.797302"><ele>1198.2</ele></trkpt><trkpt lat="47.598271" lon="11.797105"><ele>1199.8</ele></trkpt><trkpt lat="47.598567" lon="11.796944"><ele>1201.3</ele></trkpt><trkpt lat="47.598699" lon="11.796833"><ele>1202.6</ele></trkpt><trkpt lat="47.598858" lon="11.79701"><ele>1196.7</ele></trkpt><trkpt lat="47.599109" lon="11.7968"><ele>1189.8</ele></trkpt><trkpt lat="47.599485" lon="11.797235"><ele>1169.3</ele></trkpt><trkpt lat="47.600018" lon="11.797324"><ele>1133</ele></trkpt><trkpt lat="47.600321" lon="11.797503"><ele>1105.1</ele></trkpt><trkpt lat="47.600493" lon="11.796949"><ele>1116.5</ele></trkpt><trkpt lat="47.600603" lon="11.797444"><ele>1093.6</ele></trkpt><trkpt lat="47.600711" lon="11.797629"><ele>1092</ele></trkpt><trkpt lat="47.600882" lon="11.797708"><ele>1080.7</ele></trkpt><trkpt lat="47.60094" lon="11.798333"><ele>1078</ele></trkpt><trkpt lat="47.601154" lon="11.798838"><ele>1067.7</ele></trkpt><trkpt lat="47.60127" lon="11.798428"><ele>1069.3</ele></trkpt><trkpt lat="47.601392" lon="11.798507"><ele>1064.4</ele></trkpt><trkpt lat="47.601437" lon="11.798331"><ele>1068.4</ele></trkpt><trkpt lat="47.601508" lon="11.798437"><ele>1065</ele></trkpt><trkpt lat="47.601604" lon="11.798234"><ele>1065.2</ele></trkpt><trkpt lat="47.601665" lon="11.798392"><ele>1067.1</ele></trkpt><trkpt lat="47.60179" lon="11.79815"><ele>1066.9</ele></trkpt><trkpt lat="47.601872" lon="11.798381"><ele>1062.7</ele></trkpt><trkpt lat="47.601892" lon="11.79817"><ele>1062.4</ele></trkpt><trkpt lat="47.602008" lon="11.798268"><ele>1056.3</ele></trkpt><trkpt lat="47.602055" lon="11.798027"><ele>1052.3</ele></trkpt><trkpt lat="47.602121" lon="11.798106"><ele>1050.4</ele></trkpt><trkpt lat="47.602162" lon="11.798203"><ele>1048.6</ele></trkpt><trkpt lat="47.602208" lon="11.798234"><ele>1043</ele></trkpt><trkpt lat="47.602255" lon="11.798318"><ele>1041.4</ele></trkpt><trkpt lat="47.602267" lon="11.798418"><ele>1039.8</ele></trkpt><trkpt lat="47.602368" lon="11.798557"><ele>1034.3</ele></trkpt><trkpt lat="47.602412" lon="11.798478"><ele>1031.3</ele></trkpt><trkpt lat="47.602471" lon="11.798547"><ele>1030</ele></trkpt><trkpt lat="47.602508" lon="11.798551"><ele>1026</ele></trkpt><trkpt lat="47.602539" lon="11.798487"><ele>1024.8</ele></trkpt><trkpt lat="47.602576" lon="11.79859"><ele>1023.7</ele></trkpt><trkpt lat="47.602758" lon="11.798464"><ele>1012.9</ele></trkpt><trkpt lat="47.602797" lon="11.798526"><ele>1008.7</ele></trkpt><trkpt lat="47.602877" lon="11.798421"><ele>1004.3</ele></trkpt><trkpt lat="47.603033" lon="11.79845"><ele>994.5</ele></trkpt><trkpt lat="47.603163" lon="11.79829"><ele>989.8</ele></trkpt><trkpt lat="47.603203" lon="11.79829"><ele>988.3</ele></trkpt><trkpt lat="47.603225" lon="11.79838"><ele>983.7</ele></trkpt><trkpt lat="47.60337" lon="11.798371"><ele>977.5</ele></trkpt><trkpt lat="47.603513" lon="11.798463"><ele>977.1</ele></trkpt><trkpt lat="47.603704" lon="11.79794"><ele>972.1</ele></trkpt><trkpt lat="47.603922" lon="11.797832"><ele>966.9</ele></trkpt><trkpt lat="47.604191" lon="11.797935"><ele>956.7</ele></trkpt><trkpt lat="47.60452" lon="11.797925"><ele>947.8</ele></trkpt><trkpt lat="47.604677" lon="11.797981"><ele>935.1</ele></trkpt><trkpt lat="47.605048" lon="11.798061"><ele>922.9</ele></trkpt><trkpt lat="47.605169" lon="11.798149"><ele>917</ele></trkpt><trkpt lat="47.605507" lon="11.798095"><ele>910.5</ele></trkpt><trkpt lat="47.605654" lon="11.797995"><ele>910.1</ele></trkpt><trkpt lat="47.605937" lon="11.797864"><ele>910.1</ele></trkpt><trkpt lat="47.606327" lon="11.79753"><ele>908.1</ele></trkpt><trkpt lat="47.607185" lon="11.796937"><ele>902</ele></trkpt><trkpt lat="47.607432" lon="11.796022"><ele>905.3</ele></trkpt><trkpt lat="47.607616" lon="11.795448"><ele>906.1</ele></trkpt><trkpt lat="47.607775" lon="11.794762"><ele>907</ele></trkpt><trkpt lat="47.607883" lon="11.794432"><ele>907.1</ele></trkpt><trkpt lat="47.60805" lon="11.79414"><ele>907.2</ele></trkpt><trkpt lat="47.608161" lon="11.793995"><ele>907</ele></trkpt><trkpt lat="47.608384" lon="11.793782"><ele>912.3</ele></trkpt><trkpt lat="47.60848" lon="11.793655"><ele>913.8</ele></trkpt><trkpt lat="47.608525" lon="11.793565"><ele>906</ele></trkpt><trkpt lat="47.608576" lon="11.793393"><ele>906</ele></trkpt><trkpt lat="47.608592" lon="11.793287"><ele>906</ele></trkpt><trkpt lat="47.60862" lon="11.792905"><ele>903.7</ele></trkpt><trkpt lat="47.608632" lon="11.792471"><ele>903.8</ele></trkpt><trkpt lat="47.608563" lon="11.792107"><ele>903.6</ele></trkpt><trkpt lat="47.608528" lon="11.791802"><ele>903.3</ele></trkpt><trkpt lat="47.60855" lon="11.791542"><ele>903.3</ele></trkpt><trkpt lat="47.608588" lon="11.791414"><ele>903</ele></trkpt><trkpt lat="47.609221" lon="11.790359"><ele>900.2</ele></trkpt><trkpt lat="47.609266" lon="11.790267"><ele>900.1</ele></trkpt><trkpt lat="47.60941" lon="11.789827"><ele>899.6</ele></trkpt><trkpt lat="47.60951" lon="11.789584"><ele>899.8</ele></trkpt><trkpt lat="47.609661" lon="11.789343"><ele>900.4</ele></trkpt><trkpt lat="47.609917" lon="11.789027"><ele>901.4</ele></trkpt><trkpt lat="47.61018" lon="11.788772"><ele>903.1</ele></trkpt><trkpt lat="47.610716" lon="11.788392"><ele>902</ele></trkpt><trkpt lat="47.611087" lon="11.788016"><ele>902</ele></trkpt><trkpt lat="47.611303" lon="11.78782"><ele>903.3</ele></trkpt><trkpt lat="47.611689" lon="11.787587"><ele>903.2</ele></trkpt><trkpt lat="47.612095" lon="11.787518"><ele>903</ele></trkpt><trkpt lat="47.612212" lon="11.787482"><ele>902.8</ele></trkpt><trkpt lat="47.612425" lon="11.787376"><ele>906.1</ele></trkpt><trkpt lat="47.612592" lon="11.787214"><ele>905.6</ele></trkpt><trkpt lat="47.612886" lon="11.786828"><ele>903.5</ele></trkpt><trkpt lat="47.613139" lon="11.78654"><ele>901.6</ele></trkpt><trkpt lat="47.613398" lon="11.786316"><ele>900.5</ele></trkpt><trkpt lat="47.614014" lon="11.78595"><ele>895.6</ele></trkpt><trkpt lat="47.61414" lon="11.785827"><ele>895.7</ele></trkpt><trkpt lat="47.61428" lon="11.785588"><ele>895.4</ele></trkpt><trkpt lat="47.614478" lon="11.785155"><ele>894.2</ele></trkpt><trkpt lat="47.614652" lon="11.784669"><ele>892.9</ele></trkpt><trkpt lat="47.615039" lon="11.783443"><ele>888.4</ele></trkpt><trkpt lat="47.615267" lon="11.782826"><ele>891.1</ele></trkpt><trkpt lat="47.615336" lon="11.782689"><ele>901</ele></trkpt><trkpt lat="47.61541" lon="11.782612"><ele>897.1</ele></trkpt><trkpt lat="47.615664" lon="11.7825"><ele>897.7</ele></trkpt><trkpt lat="47.616266" lon="11.782382"><ele>895.7</ele></trkpt><trkpt lat="47.616535" lon="11.782365"><ele>895.2</ele></trkpt><trkpt lat="47.616688" lon="11.782299"><ele>893.3</ele></trkpt><trkpt lat="47.6173" lon="11.781938"><ele>883</ele></trkpt><trkpt lat="47.617364" lon="11.781887"><ele>884.5</ele></trkpt><trkpt lat="47.617408" lon="11.781809"><ele>884.4</ele></trkpt><trkpt lat="47.617535" lon="11.7815"><ele>884.7</ele></trkpt><trkpt lat="47.617676" lon="11.781235"><ele>885.4</ele></trkpt><trkpt lat="47.618121" lon="11.780534"><ele>886.4</ele></trkpt><trkpt lat="47.618464" lon="11.780049"><ele>889.5</ele></trkpt><trkpt lat="47.618512" lon="11.780003"><ele>889.7</ele></trkpt><trkpt lat="47.618629" lon="11.779941"><ele>889.3</ele></trkpt><trkpt lat="47.618808" lon="11.779881"><ele>888.1</ele></trkpt><trkpt lat="47.619462" lon="11.779544"><ele>885.8</ele></trkpt><trkpt lat="47.619967" lon="11.779212"><ele>884.6</ele></trkpt><trkpt lat="47.620143" lon="11.779063"><ele>884.8</ele></trkpt><trkpt lat="47.620249" lon="11.778946"><ele>886.4</ele></trkpt><trkpt lat="47.620385" lon="11.778765"><ele>887.5</ele></trkpt><trkpt lat="47.620452" lon="11.778635"><ele>888.5</ele></trkpt><trkpt lat="47.620501" lon="11.77851"><ele>890.1</ele></trkpt><trkpt lat="47.620559" lon="11.778243"><ele>892.8</ele></trkpt><trkpt lat="47.620738" lon="11.777584"><ele>894.8</ele></trkpt><trkpt lat="47.620809" lon="11.777405"><ele>895.5</ele></trkpt><trkpt lat="47.620954" lon="11.777165"><ele>893.8</ele></trkpt><trkpt lat="47.620987" lon="11.777078"><ele>869</ele></trkpt><trkpt lat="47.621191" lon="11.7764"><ele>874.7</ele></trkpt><trkpt lat="47.621347" lon="11.776041"><ele>874.6</ele></trkpt><trkpt lat="47.621462" lon="11.775847"><ele>876.7</ele></trkpt><trkpt lat="47.621604" lon="11.775658"><ele>876.6</ele></trkpt><trkpt lat="47.621616" lon="11.775642"><ele>876.5</ele></trkpt><trkpt lat="47.621851" lon="11.775441"><ele>876.5</ele></trkpt><trkpt lat="47.622085" lon="11.775308"><ele>876.5</ele></trkpt><trkpt lat="47.622179" lon="11.775227"><ele>876.5</ele></trkpt><trkpt lat="47.622385" lon="11.774983"><ele>876.9</ele></trkpt><trkpt lat="47.622544" lon="11.774759"><ele>908</ele></trkpt><trkpt lat="47.622666" lon="11.774595"><ele>908</ele></trkpt><trkpt lat="47.622722" lon="11.774513"><ele>908</ele></trkpt><trkpt lat="47.622763" lon="11.774453"><ele>908</ele></trkpt><trkpt lat="47.623168" lon="11.773899"><ele>863</ele></trkpt><trkpt lat="47.623491" lon="11.773667"><ele>863</ele></trkpt><trkpt lat="47.623728" lon="11.773384"><ele>869.3</ele></trkpt><trkpt lat="47.623836" lon="11.773192"><ele>870.7</ele></trkpt><trkpt lat="47.6245" lon="11.772203"><ele>875.4</ele></trkpt><trkpt lat="47.624697" lon="11.771981"><ele>881.2</ele></trkpt><trkpt lat="47.624958" lon="11.771752"><ele>881.6</ele></trkpt><trkpt lat="47.625149" lon="11.771543"><ele>857</ele></trkpt><trkpt lat="47.62545" lon="11.771074"><ele>857</ele></trkpt><trkpt lat="47.625578" lon="11.77094"><ele>857</ele></trkpt><trkpt lat="47.62572" lon="11.770876"><ele>857</ele></trkpt><trkpt lat="47.626032" lon="11.770759"><ele>862.5</ele></trkpt><trkpt lat="47.626261" lon="11.77072"><ele>861.4</ele></trkpt><trkpt lat="47.626364" lon="11.770677"><ele>863.5</ele></trkpt><trkpt lat="47.626498" lon="11.770563"><ele>882</ele></trkpt><trkpt lat="47.626721" lon="11.77037"><ele>874.8</ele></trkpt><trkpt lat="47.626872" lon="11.770213"><ele>875.5</ele></trkpt><trkpt lat="47.627044" lon="11.769916"><ele>873</ele></trkpt><trkpt lat="47.627205" lon="11.769583"><ele>871.9</ele></trkpt><trkpt lat="47.62732" lon="11.769258"><ele>862</ele></trkpt><trkpt lat="47.627343" lon="11.769146"><ele>862</ele></trkpt><trkpt lat="47.627368" lon="11.768655"><ele>858</ele></trkpt><trkpt lat="47.627363" lon="11.76817"><ele>857.3</ele></trkpt><trkpt lat="47.627391" lon="11.767846"><ele>856.7</ele></trkpt><trkpt lat="47.627517" lon="11.767362"><ele>856.2</ele></trkpt><trkpt lat="47.627701" lon="11.766792"><ele>854</ele></trkpt><trkpt lat="47.627738" lon="11.766686"><ele>854</ele></trkpt><trkpt lat="47.627906" lon="11.766239"><ele>844.1</ele></trkpt><trkpt lat="47.627997" lon="11.766085"><ele>844</ele></trkpt><trkpt lat="47.628142" lon="11.765892"><ele>843.8</ele></trkpt><trkpt lat="47.628192" lon="11.765788"><ele>843.8</ele></trkpt><trkpt lat="47.62826" lon="11.765526"><ele>843.6</ele></trkpt><trkpt lat="47.628366" lon="11.764957"><ele>843.5</ele></trkpt><trkpt lat="47.628453" lon="11.76464"><ele>843</ele></trkpt><trkpt lat="47.628516" lon="11.764289"><ele>842.5</ele></trkpt><trkpt lat="47.628531" lon="11.763987"><ele>842.1</ele></trkpt><trkpt lat="47.628502" lon="11.763489"><ele>841</ele></trkpt><trkpt lat="47.628366" lon="11.762625"><ele>839.6</ele></trkpt><trkpt lat="47.628134" lon="11.761674"><ele>839.1</ele></trkpt><trkpt lat="47.628097" lon="11.761457"><ele>839</ele></trkpt><trkpt lat="47.628109" lon="11.761176"><ele>838.9</ele></trkpt><trkpt lat="47.628186" lon="11.760684"><ele>838.9</ele></trkpt><trkpt lat="47.628195" lon="11.760548"><ele>838.8</ele></trkpt><trkpt lat="47.62818" lon="11.76021"><ele>835</ele></trkpt><trkpt lat="47.62835" lon="11.759584"><ele>835</ele></trkpt><trkpt lat="47.628383" lon="11.759383"><ele>835</ele></trkpt><trkpt lat="47.628385" lon="11.759282"><ele>835</ele></trkpt><trkpt lat="47.628372" lon="11.759201"><ele>835</ele></trkpt><trkpt lat="47.628186" lon="11.758852"><ele>835</ele></trkpt><trkpt lat="47.627936" lon="11.758313"><ele>835</ele></trkpt><trkpt lat="47.627816" lon="11.757889"><ele>838</ele></trkpt><trkpt lat="47.62779" lon="11.757812"><ele>838</ele></trkpt><trkpt lat="47.627752" lon="11.757682"><ele>838</ele></trkpt><trkpt lat="47.627743" lon="11.757634"><ele>838</ele></trkpt><trkpt lat="47.627722" lon="11.757527"><ele>840</ele></trkpt><trkpt lat="47.627708" lon="11.757314"><ele>840.4</ele></trkpt><trkpt lat="47.627704" lon="11.756074"><ele>839.8</ele></trkpt><trkpt lat="47.627692" lon="11.755967"><ele>840</ele></trkpt><trkpt lat="47.627647" lon="11.755787"><ele>840.4</ele></trkpt><trkpt lat="47.627568" lon="11.755624"><ele>840.9</ele></trkpt><trkpt lat="47.627478" lon="11.755526"><ele>841.4</ele></trkpt><trkpt lat="47.627349" lon="11.755526"><ele>841.7</ele></trkpt><trkpt lat="47.627201" lon="11.755585"><ele>842</ele></trkpt><trkpt lat="47.626995" lon="11.755519"><ele>842.8</ele></trkpt><trkpt lat="47.626845" lon="11.755495"><ele>828</ele></trkpt><trkpt lat="47.626744" lon="11.755458"><ele>826.4</ele></trkpt><trkpt lat="47.626686" lon="11.755417"><ele>826.5</ele></trkpt><trkpt lat="47.626645" lon="11.755354"><ele>826.6</ele></trkpt><trkpt lat="47.626608" lon="11.755258"><ele>826.7</ele></trkpt><trkpt lat="47.626502" lon="11.754756"><ele>827</ele></trkpt><trkpt lat="47.626329" lon="11.754319"><ele>827.2</ele></trkpt><trkpt lat="47.626324" lon="11.754101"><ele>827.2</ele></trkpt><trkpt lat="47.626385" lon="11.753726"><ele>815</ele></trkpt><trkpt lat="47.626489" lon="11.753295"><ele>815</ele></trkpt><trkpt lat="47.626525" lon="11.753182"><ele>815</ele></trkpt><trkpt lat="47.626554" lon="11.753094"><ele>815</ele></trkpt><trkpt lat="47.626698" lon="11.75276"><ele>820.3</ele></trkpt><trkpt lat="47.626786" lon="11.752461"><ele>819.8</ele></trkpt><trkpt lat="47.626866" lon="11.752101"><ele>819.3</ele></trkpt><trkpt lat="47.626965" lon="11.751411"><ele>820.1</ele></trkpt><trkpt lat="47.627055" lon="11.751001"><ele>838</ele></trkpt><trkpt lat="47.627091" lon="11.75083"><ele>838</ele></trkpt><trkpt lat="47.62707" lon="11.750799"><ele>838</ele></trkpt><trkpt lat="47.627095" lon="11.750683"><ele>838</ele></trkpt><trkpt lat="47.627496" lon="11.750031"><ele>838</ele></trkpt><trkpt lat="47.62748" lon="11.750016"><ele>838</ele></trkpt><trkpt lat="47.627411" lon="11.749959"><ele>838</ele></trkpt><trkpt lat="47.627309" lon="11.749974"><ele>838</ele></trkpt><trkpt lat="47.627122" lon="11.749881"><ele>810.6</ele></trkpt><trkpt lat="47.62637" lon="11.749305"><ele>808</ele></trkpt><trkpt lat="47.626119" lon="11.749063"><ele>808</ele></trkpt><trkpt lat="47.625875" lon="11.748782"><ele>804.7</ele></trkpt><trkpt lat="47.625525" lon="11.748116"><ele>804.2</ele></trkpt><trkpt lat="47.625143" lon="11.747266"><ele>802</ele></trkpt><trkpt lat="47.625191" lon="11.747225"><ele>802</ele></trkpt><trkpt lat="47.625226" lon="11.7472"><ele>802</ele></trkpt><trkpt lat="47.625446" lon="11.74703"><ele>802</ele></trkpt><trkpt lat="47.62549" lon="11.746996"><ele>802</ele></trkpt><trkpt lat="47.625562" lon="11.747043"><ele>802</ele></trkpt><trkpt lat="47.625668" lon="11.747056"><ele>802</ele></trkpt><trkpt lat="47.625756" lon="11.747037"><ele>802</ele></trkpt><trkpt lat="47.625809" lon="11.747152"><ele>802</ele></trkpt><trkpt lat="47.626032" lon="11.746965"><ele>802</ele></trkpt></trkseg></trk></gpx>