<gpx xmlns="http://www.topografix.com/GPX/1/1" xmlns:xsi="http://www.w3.org/2001/XMLSchema-instance" xsi:schemaLocation="http://www.topografix.com/GPX/1/1 http://www.topografix.com/GPX/1/1/gpx.xsd" version="1.1" creator="togpx"><metadata/><wpt lat="47.661902774764926" lon="11.887807846069338"><name></name><desc>label=47.64647497213607,11.94340467453003</desc></wpt><wpt lat="47.63986811581125" lon="11.895591616630554"><name></name><desc>label=Valepper Straße, Schliersee,BY,Germany</desc></wpt><wpt lat="47.641465692676874" lon="11.895854473114014"><name></name><desc>label=Valepper Straße, Schliersee,BY,Germany</desc></wpt><wpt lat="47.65043688478416" lon="11.893342561002822"><name></name><desc>label=K 24, Schliersee,BY,Germany</desc></wpt><wpt lat="47.648440964983116" lon="11.885533332824709"><name></name><desc>label=K 24, Schliersee,BY,Germany</desc></wpt><wpt lat="47.655523707954906" lon="11.879643201828005"><name></name><desc>label=K 23, Schliersee,BY,Germany</desc></wpt><wpt lat="47.66069422636932" lon="11.885286569595339"><name></name><desc>label=Roßkopfweg 3, Schliersee,BY,Germany</desc></wpt><wpt lat="47.661935291375634" lon="11.887708604335787"><name></name><desc>label=Spitzingstraße, Schliersee,BY,Germany</desc></wpt><wpt lat="47.66155051018431" lon="11.88299596309662"><name></name><desc>label=Lyraweg, Schliersee,BY,Germany</desc></wpt><wpt lat="47.66157580105392" lon="11.879632472991943"><name></name><desc>label=Lyraweg, Schliersee,BY,Germany</desc></wpt><wpt lat="47.666135183327064" lon="11.876853704452516"><name></name><desc>label=BLSV Haus Bergsee, Schliersee,BY,Germany</desc></wpt><wpt lat="47.667757244683045" lon="11.878216266632082"><name></name><desc>label=Stümpflingweg, Schliersee,BY,Germany</desc></wpt><wpt lat="47.680316578937806" lon="11.885450184345247"><name></name><desc>label=St 2077, Schliersee,BY,Germany</desc></wpt><wpt lat="47.68251965923988" lon="11.88300132751465"><name></name><desc>label=Bockerlbahn-Weg, Schliersee,BY,Germany</desc></wpt><wpt lat="47.692407093385576" lon="11.878988742828371"><name></name><desc>label=Bockerlbahn-Weg, Schliersee,BY,Germany</desc></wpt><wpt lat="47.69609363707556" lon="11.87470257282257"><name></name><desc>label=Waldschmidtstraße, Schliersee,BY,Germany</desc></wpt><wpt lat="47.70098214806642" lon="11.869515180587769"><name></name><desc>label=Krettenburgstraße, Schliersee,BY,Germany</desc></wpt><wpt lat="47.70462837552139" lon="11.869617104530336"><name></name><desc>label=Stolzenbergstraße, Schliersee,BY,Germany</desc></wpt><wpt lat="47.70611386932883" lon="11.874117851257326"><name></name><desc>label=Wendelsteinstraße, Schliersee,BY,Germany</desc></wpt><trk><name></name><desc>ascent=697.6
descent=988.5
opacity=0.9</desc><trkseg><trkpt lat="47.661891" lon="11.887843"><ele>1096.9</ele></trkpt><trkpt lat="47.661636" lon="11.887658"><ele>1104.8</ele></trkpt><trkpt lat="47.661549" lon="11.88755"><ele>1111</ele></trkpt><trkpt lat="47.661516" lon="11.887335"><ele>1096</ele></trkpt><trkpt lat="47.661473" lon="11.886826"><ele>1094.2</ele></trkpt><trkpt lat="47.661395" lon="11.886593"><ele>1088</ele></trkpt><trkpt lat="47.661338" lon="11.886517"><ele>1088</ele></trkpt><trkpt lat="47.661002" lon="11.886282"><ele>1088</ele></trkpt><trkpt lat="47.66093" lon="11.886168"><ele>1088</ele></trkpt><trkpt lat="47.660787" lon="11.886176"><ele>1094</ele></trkpt><trkpt lat="47.660432" lon="11.886144"><ele>1094</ele></trkpt><trkpt lat="47.660348" lon="11.886115"><ele>1094</ele></trkpt><trkpt lat="47.660151" lon="11.885874"><ele>1094</ele></trkpt><trkpt lat="47.659939" lon="11.885695"><ele>1097.1</ele></trkpt><trkpt lat="47.659745" lon="11.885666"><ele>1098</ele></trkpt><trkpt lat="47.659523" lon="11.885733"><ele>1086</ele></trkpt><trkpt lat="47.65933" lon="11.885713"><ele>1081.7</ele></trkpt><trkpt lat="47.658914" lon="11.885568"><ele>1077.8</ele></trkpt><trkpt lat="47.658809" lon="11.885567"><ele>1075.6</ele></trkpt><trkpt lat="47.65855" lon="11.88577"><ele>1071.6</ele></trkpt><trkpt lat="47.658461" lon="11.885809"><ele>1069.1</ele></trkpt><trkpt lat="47.658186" lon="11.885802"><ele>1064.6</ele></trkpt><trkpt lat="47.658074" lon="11.885857"><ele>1063.1</ele></trkpt><trkpt lat="47.657815" lon="11.886178"><ele>1060.3</ele></trkpt><trkpt lat="47.657623" lon="11.886292"><ele>1058.7</ele></trkpt><trkpt lat="47.657537" lon="11.88641"><ele>1057.2</ele></trkpt><trkpt lat="47.657452" lon="11.886713"><ele>1055.2</ele></trkpt><trkpt lat="47.657371" lon="11.8869"><ele>1053.1</ele></trkpt><trkpt lat="47.657268" lon="11.887215"><ele>1051.8</ele></trkpt><trkpt lat="47.657148" lon="11.887425"><ele>1050.4</ele></trkpt><trkpt lat="47.657063" lon="11.887618"><ele>1050.6</ele></trkpt><trkpt lat="47.65692" lon="11.887809"><ele>1049.6</ele></trkpt><trkpt lat="47.656754" lon="11.887972"><ele>1048.6</ele></trkpt><trkpt lat="47.656611" lon="11.88806"><ele>1047.4</ele></trkpt><trkpt lat="47.656522" lon="11.88807"><ele>1047.9</ele></trkpt><trkpt lat="47.656413" lon="11.888013"><ele>1047.8</ele></trkpt><trkpt lat="47.656315" lon="11.887991"><ele>1048.3</ele></trkpt><trkpt lat="47.656163" lon="11.888045"><ele>1042</ele></trkpt><trkpt lat="47.656059" lon="11.888069"><ele>1042</ele></trkpt><trkpt lat="47.655957" lon="11.888033"><ele>1042</ele></trkpt><trkpt lat="47.655767" lon="11.887893"><ele>1042.8</ele></trkpt><trkpt lat="47.65562" lon="11.887865"><ele>1042.8</ele></trkpt><trkpt lat="47.655492" lon="11.887915"><ele>1042.7</ele></trkpt><trkpt lat="47.655197" lon="11.88812"><ele>1043</ele></trkpt><trkpt lat="47.655058" lon="11.888236"><ele>1034.7</ele></trkpt><trkpt lat="47.654952" lon="11.888404"><ele>1033.5</ele></trkpt><trkpt lat="47.654799" lon="11.888755"><ele>1033.9</ele></trkpt><trkpt lat="47.654712" lon="11.889098"><ele>1034.3</ele></trkpt><trkpt lat="47.654614" lon="11.889288"><ele>1034.8</ele></trkpt><trkpt lat="47.654374" lon="11.889603"><ele>1032</ele></trkpt><trkpt lat="47.65407" lon="11.890059"><ele>1029</ele></trkpt><trkpt lat="47.653937" lon="11.890356"><ele>1029.3</ele></trkpt><trkpt lat="47.653796" lon="11.890729"><ele>1030.1</ele></trkpt><trkpt lat="47.652797" lon="11.892617"><ele>1031</ele></trkpt><trkpt lat="47.652566" lon="11.892985"><ele>1031</ele></trkpt><trkpt lat="47.652316" lon="11.893438"><ele>1031</ele></trkpt><trkpt lat="47.652225" lon="11.893554"><ele>1031</ele></trkpt><trkpt lat="47.652025" lon="11.893606"><ele>1031</ele></trkpt><trkpt lat="47.651614" lon="11.893686"><ele>1034.4</ele></trkpt><trkpt lat="47.651178" lon="11.893811"><ele>1034.5</ele></trkpt><trkpt lat="47.650872" lon="11.89396"><ele>1034.6</ele></trkpt><trkpt lat="47.65077" lon="11.893969"><ele>1039</ele></trkpt><trkpt lat="47.650709" lon="11.893977"><ele>1036.8</ele></trkpt><trkpt lat="47.650484" lon="11.89389"><ele>1036.2</ele></trkpt><trkpt lat="47.650192" lon="11.89365"><ele>1035.8</ele></trkpt><trkpt lat="47.650121" lon="11.893638"><ele>1035.4</ele></trkpt><trkpt lat="47.650029" lon="11.893658"><ele>1034.9</ele></trkpt><trkpt lat="47.649951" lon="11.893704"><ele>1021</ele></trkpt><trkpt lat="47.64985" lon="11.893796"><ele>1022.9</ele></trkpt><trkpt lat="47.649798" lon="11.893915"><ele>1023.1</ele></trkpt><trkpt lat="47.649742" lon="11.894233"><ele>1022.6</ele></trkpt><trkpt lat="47.649668" lon="11.89454"><ele>1022.5</ele></trkpt><trkpt lat="47.649575" lon="11.894733"><ele>1022.3</ele></trkpt><trkpt lat="47.64949" lon="11.894852"><ele>1022.2</ele></trkpt><trkpt lat="47.649248" lon="11.895058"><ele>1021.7</ele></trkpt><trkpt lat="47.649179" lon="11.89518"><ele>1021.4</ele></trkpt><trkpt lat="47.64905" lon="11.895602"><ele>1015</ele></trkpt><trkpt lat="47.649002" lon="11.895749"><ele>1015</ele></trkpt><trkpt lat="47.64894" lon="11.895752"><ele>1013.7</ele></trkpt><trkpt lat="47.64887" lon="11.895718"><ele>1013.5</ele></trkpt><trkpt lat="47.648729" lon="11.895539"><ele>1013.4</ele></trkpt><trkpt lat="47.648639" lon="11.895462"><ele>1011.1</ele></trkpt><trkpt lat="47.648536" lon="11.895407"><ele>1010.7</ele></trkpt><trkpt lat="47.648404" lon="11.895387"><ele>1010.5</ele></trkpt><trkpt lat="47.647972" lon="11.895433"><ele>1010.3</ele></trkpt><trkpt lat="47.647633" lon="11.895618"><ele>1003.5</ele></trkpt><trkpt lat="47.647328" lon="11.895826"><ele>997.1</ele></trkpt><trkpt lat="47.647207" lon="11.895866"><ele>993.4</ele></trkpt><trkpt lat="47.646931" lon="11.895863"><ele>988</ele></trkpt><trkpt lat="47.646409" lon="11.8957"><ele>983.3</ele></trkpt><trkpt lat="47.646348" lon="11.89571"><ele>984.8</ele></trkpt><trkpt lat="47.646276" lon="11.895758"><ele>984.6</ele></trkpt><trkpt lat="47.645977" lon="11.896146"><ele>985.2</ele></trkpt><trkpt lat="47.645897" lon="11.896227"><ele>984.8</ele></trkpt><trkpt lat="47.645728" lon="11.89635"><ele>971</ele></trkpt><trkpt lat="47.645089" lon="11.896685"><ele>979.8</ele></trkpt><trkpt lat="47.644863" lon="11.896764"><ele>975.5</ele></trkpt><trkpt lat="47.643883" lon="11.896943"><ele>970.2</ele></trkpt><trkpt lat="47.643678" lon="11.896926"><ele>967.4</ele></trkpt><trkpt lat="47.643136" lon="11.896941"><ele>964</ele></trkpt><trkpt lat="47.64287" lon="11.896891"><ele>964.6</ele></trkpt><trkpt lat="47.642675" lon="11.896908"><ele>964.6</ele></trkpt><trkpt lat="47.642493" lon="11.896953"><ele>964.2</ele></trkpt><trkpt lat="47.642322" lon="11.897024"><ele>964</ele></trkpt><trkpt lat="47.642145" lon="11.897025"><ele>962.5</ele></trkpt><trkpt lat="47.641991" lon="11.897004"><ele>962.6</ele></trkpt><trkpt lat="47.641903" lon="11.896964"><ele>962.7</ele></trkpt><trkpt lat="47.641595" lon="11.896737"><ele>961</ele></trkpt><trkpt lat="47.640885" lon="11.896389"><ele>957.1</ele></trkpt><trkpt lat="47.640605" lon="11.896221"><ele>947</ele></trkpt><trkpt lat="47.640401" lon="11.896046"><ele>951.4</ele></trkpt><trkpt lat="47.640208" lon="11.895794"><ele>951.9</ele></trkpt><trkpt lat="47.640085" lon="11.895664"><ele>951.6</ele></trkpt><trkpt lat="47.640006" lon="11.895626"><ele>951.2</ele></trkpt><trkpt lat="47.639933" lon="11.8956"><ele>950.8</ele></trkpt><trkpt lat="47.639868" lon="11.895596"><ele>950.8</ele></trkpt><trkpt lat="47.639802" lon="11.895592"><ele>950.8</ele></trkpt><trkpt lat="47.639587" lon="11.895661"><ele>950.8</ele></trkpt><trkpt lat="47.639435" lon="11.895736"><ele>951</ele></trkpt><trkpt lat="47.639402" lon="11.895744"><ele>951</ele></trkpt><trkpt lat="47.639386" lon="11.895682"><ele>951</ele></trkpt><trkpt lat="47.639356" lon="11.895573"><ele>951</ele></trkpt><trkpt lat="47.639334" lon="11.89545"><ele>951</ele></trkpt><trkpt lat="47.639738" lon="11.895318"><ele>952.2</ele></trkpt><trkpt lat="47.63999" lon="11.895305"><ele>952.2</ele></trkpt><trkpt lat="47.640345" lon="11.895511"><ele>952.8</ele></trkpt><trkpt lat="47.640897" lon="11.895977"><ele>953.3</ele></trkpt><trkpt lat="47.641267" lon="11.895856"><ele>953.7</ele></trkpt><trkpt lat="47.641422" lon="11.895858"><ele>952.8</ele></trkpt><trkpt lat="47.641459" lon="11.89588"><ele>952.5</ele></trkpt><trkpt lat="47.64159" lon="11.895956"><ele>952.1</ele></trkpt><trkpt lat="47.641889" lon="11.896202"><ele>954</ele></trkpt><trkpt lat="47.642036" lon="11.89628"><ele>957</ele></trkpt><trkpt lat="47.642206" lon="11.896289"><ele>958.3</ele></trkpt><trkpt lat="47.642513" lon="11.896233"><ele>961.8</ele></trkpt><trkpt lat="47.642991" lon="11.896044"><ele>968.5</ele></trkpt><trkpt lat="47.643224" lon="11.89591"><ele>970.9</ele></trkpt><trkpt lat="47.643339" lon="11.895865"><ele>971.3</ele></trkpt><trkpt lat="47.643754" lon="11.895785"><ele>975.8</ele></trkpt><trkpt lat="47.643842" lon="11.895691"><ele>976.9</ele></trkpt><trkpt lat="47.644278" lon="11.894987"><ele>979.6</ele></trkpt><trkpt lat="47.644379" lon="11.8949"><ele>980.4</ele></trkpt><trkpt lat="47.644499" lon="11.894851"><ele>982.3</ele></trkpt><trkpt lat="47.644637" lon="11.894848"><ele>984.4</ele></trkpt><trkpt lat="47.644903" lon="11.894957"><ele>987.2</ele></trkpt><trkpt lat="47.645142" lon="11.894978"><ele>987.9</ele></trkpt><trkpt lat="47.645533" lon="11.894598"><ele>980</ele></trkpt><trkpt lat="47.645582" lon="11.894426"><ele>998.3</ele></trkpt><trkpt lat="47.645749" lon="11.894001"><ele>999.1</ele></trkpt><trkpt lat="47.645902" lon="11.893677"><ele>1001.8</ele></trkpt><trkpt lat="47.646092" lon="11.89317"><ele>1009.5</ele></trkpt><trkpt lat="47.646231" lon="11.892965"><ele>1013.5</ele></trkpt><trkpt lat="47.646851" lon="11.892417"><ele>1029</ele></trkpt><trkpt lat="47.646967" lon="11.892125"><ele>1034.6</ele></trkpt><trkpt lat="47.647082" lon="11.891907"><ele>1038.6</ele></trkpt><trkpt lat="47.647209" lon="11.891732"><ele>1038.8</ele></trkpt><trkpt lat="47.647301" lon="11.891633"><ele>1041.8</ele></trkpt><trkpt lat="47.647416" lon="11.891558"><ele>1043.7</ele></trkpt><trkpt lat="47.647728" lon="11.891537"><ele>1043.1</ele></trkpt><trkpt lat="47.648005" lon="11.89128"><ele>1043.1</ele></trkpt><trkpt lat="47.648157" lon="11.891189"><ele>1042.6</ele></trkpt><trkpt lat="47.64848" lon="11.891225"><ele>1033</ele></trkpt><trkpt lat="47.648552" lon="11.891289"><ele>1033</ele></trkpt><trkpt lat="47.648642" lon="11.891337"><ele>1033</ele></trkpt><trkpt lat="47.648859" lon="11.891359"><ele>1033</ele></trkpt><trkpt lat="47.649085" lon="11.891368"><ele>1036.4</ele></trkpt><trkpt lat="47.649227" lon="11.891412"><ele>1044</ele></trkpt><trkpt lat="47.649271" lon="11.891474"><ele>1038.6</ele></trkpt><trkpt lat="47.649327" lon="11.891624"><ele>1039.1</ele></trkpt><trkpt lat="47.649399" lon="11.891915"><ele>1037.9</ele></trkpt><trkpt lat="47.649445" lon="11.892013"><ele>1036.8</ele></trkpt><trkpt lat="47.649517" lon="11.892057"><ele>1035.8</ele></trkpt><trkpt lat="47.650008" lon="11.892125"><ele>1036.1</ele></trkpt><trkpt lat="47.650083" lon="11.892183"><ele>1036.4</ele></trkpt><trkpt lat="47.650242" lon="11.892408"><ele>1039</ele></trkpt><trkpt lat="47.650314" lon="11.892881"><ele>1038.3</ele></trkpt><trkpt lat="47.650432" lon="11.893316"><ele>1038</ele></trkpt><trkpt lat="47.650437" lon="11.893342"><ele>1038.5</ele></trkpt><trkpt lat="47.650432" lon="11.893316"><ele>1038</ele></trkpt><trkpt lat="47.650314" lon="11.892881"><ele>1038.3</ele></trkpt><trkpt lat="47.650242" lon="11.892408"><ele>1039</ele></trkpt><trkpt lat="47.650208" lon="11.892223"><ele>1039</ele></trkpt><trkpt lat="47.650055" lon="11.892021"><ele>1039.8</ele></trkpt><trkpt lat="47.649642" lon="11.891668"><ele>1037</ele></trkpt><trkpt lat="47.649515" lon="11.891286"><ele>1044</ele></trkpt><trkpt lat="47.649354" lon="11.890706"><ele>1052</ele></trkpt><trkpt lat="47.649329" lon="11.890508"><ele>1050.7</ele></trkpt><trkpt lat="47.64931" lon="11.889926"><ele>1048</ele></trkpt><trkpt lat="47.64935" lon="11.889456"><ele>1051.2</ele></trkpt><trkpt lat="47.649513" lon="11.888617"><ele>1053.9</ele></trkpt><trkpt lat="47.649527" lon="11.888409"><ele>1052.9</ele></trkpt><trkpt lat="47.649391" lon="11.888162"><ele>1053</ele></trkpt><trkpt lat="47.649292" lon="11.887214"><ele>1056.8</ele></trkpt><trkpt lat="47.64917" lon="11.886813"><ele>1069</ele></trkpt><trkpt lat="47.649019" lon="11.886659"><ele>1074.5</ele></trkpt><trkpt lat="47.648695" lon="11.88619"><ele>1074.3</ele></trkpt><trkpt lat="47.648498" lon="11.885788"><ele>1075.4</ele></trkpt><trkpt lat="47.648434" lon="11.885537"><ele>1078.2</ele></trkpt><trkpt lat="47.648388" lon="11.885354"><ele>1081</ele></trkpt><trkpt lat="47.648769" lon="11.886019"><ele>1078.6</ele></trkpt><trkpt lat="47.648943" lon="11.886245"><ele>1077.5</ele></trkpt><trkpt lat="47.649304" lon="11.886422"><ele>1083</ele></trkpt><trkpt lat="47.649419" lon="11.886585"><ele>1081.7</ele></trkpt><trkpt lat="47.649513" lon="11.886794"><ele>1080.7</ele></trkpt><trkpt lat="47.649595" lon="11.886846"><ele>1079.7</ele></trkpt><trkpt lat="47.649735" lon="11.886853"><ele>1078.9</ele></trkpt><trkpt lat="47.649781" lon="11.886815"><ele>1078.1</ele></trkpt><trkpt lat="47.650042" lon="11.886347"><ele>1082.1</ele></trkpt><trkpt lat="47.650237" lon="11.886075"><ele>1082.3</ele></trkpt><trkpt lat="47.650461" lon="11.885803"><ele>1084.7</ele></trkpt><trkpt lat="47.650569" lon="11.885706"><ele>1086.7</ele></trkpt><trkpt lat="47.650694" lon="11.885631"><ele>1090.8</ele></trkpt><trkpt lat="47.65106" lon="11.885586"><ele>1096.4</ele></trkpt><trkpt lat="47.651163" lon="11.885493"><ele>1096.2</ele></trkpt><trkpt lat="47.651568" lon="11.884833"><ele>1099.4</ele></trkpt><trkpt lat="47.651675" lon="11.884577"><ele>1098</ele></trkpt><trkpt lat="47.651828" lon="11.884137"><ele>1096.7</ele></trkpt><trkpt lat="47.651917" lon="11.884029"><ele>1098.8</ele></trkpt><trkpt lat="47.652245" lon="11.883905"><ele>1100.3</ele></trkpt><trkpt lat="47.652414" lon="11.883656"><ele>1100.6</ele></trkpt><trkpt lat="47.652621" lon="11.883099"><ele>1090</ele></trkpt><trkpt lat="47.652813" lon="11.88263"><ele>1090</ele></trkpt><trkpt lat="47.652863" lon="11.882553"><ele>1090</ele></trkpt><trkpt lat="47.652964" lon="11.882314"><ele>1098.6</ele></trkpt><trkpt lat="47.653082" lon="11.882217"><ele>1098</ele></trkpt><trkpt lat="47.653322" lon="11.881875"><ele>1098.8</ele></trkpt><trkpt lat="47.653462" lon="11.881753"><ele>1098.8</ele></trkpt><trkpt lat="47.653614" lon="11.88169"><ele>1099.1</ele></trkpt><trkpt lat="47.653981" lon="11.881377"><ele>1107.3</ele></trkpt><trkpt lat="47.654236" lon="11.881047"><ele>1109.2</ele></trkpt><trkpt lat="47.654499" lon="11.880648"><ele>1112.6</ele></trkpt><trkpt lat="47.654606" lon="11.880554"><ele>1116.6</ele></trkpt><trkpt lat="47.654927" lon="11.880451"><ele>1120.5</ele></trkpt><trkpt lat="47.655042" lon="11.880324"><ele>1118.1</ele></trkpt><trkpt lat="47.655115" lon="11.880113"><ele>1113.3</ele></trkpt><trkpt lat="47.655277" lon="11.879772"><ele>1111.3</ele></trkpt><trkpt lat="47.6554" lon="11.879674"><ele>1112</ele></trkpt><trkpt lat="47.655521" lon="11.879629"><ele>1101.5</ele></trkpt><trkpt lat="47.656254" lon="11.879363"><ele>1090.9</ele></trkpt><trkpt lat="47.656849" lon="11.879287"><ele>1086.5</ele></trkpt><trkpt lat="47.656906" lon="11.879286"><ele>1086.2</ele></trkpt><trkpt lat="47.65701" lon="11.879331"><ele>1086</ele></trkpt><trkpt lat="47.657147" lon="11.879465"><ele>1085.8</ele></trkpt><trkpt lat="47.657192" lon="11.879485"><ele>1085.3</ele></trkpt><trkpt lat="47.657234" lon="11.879426"><ele>1085.1</ele></trkpt><trkpt lat="47.657287" lon="11.879199"><ele>1084.9</ele></trkpt><trkpt lat="47.657377" lon="11.879001"><ele>1085.6</ele></trkpt><trkpt lat="47.657429" lon="11.878963"><ele>1086.3</ele></trkpt><trkpt lat="47.657481" lon="11.87897"><ele>1086.9</ele></trkpt><trkpt lat="47.657585" lon="11.879148"><ele>1087.4</ele></trkpt><trkpt lat="47.657881" lon="11.879533"><ele>1083</ele></trkpt><trkpt lat="47.657932" lon="11.879665"><ele>1078.8</ele></trkpt><trkpt lat="47.658005" lon="11.880053"><ele>1078.7</ele></trkpt><trkpt lat="47.658056" lon="11.880526"><ele>1078.6</ele></trkpt><trkpt lat="47.658084" lon="11.881109"><ele>1077.9</ele></trkpt><trkpt lat="47.658128" lon="11.881321"><ele>1073</ele></trkpt><trkpt lat="47.658081" lon="11.881884"><ele>1073.1</ele></trkpt><trkpt lat="47.658084" lon="11.882051"><ele>1073.1</ele></trkpt><trkpt lat="47.658187" lon="11.88245"><ele>1073.1</ele></trkpt><trkpt lat="47.658205" lon="11.882843"><ele>1073.3</ele></trkpt><trkpt lat="47.658286" lon="11.883384"><ele>1073.6</ele></trkpt><trkpt lat="47.658339" lon="11.883948"><ele>1075</ele></trkpt><trkpt lat="47.658403" lon="11.884406"><ele>1076.8</ele></trkpt><trkpt lat="47.65843" lon="11.884506"><ele>1078.3</ele></trkpt><trkpt lat="47.658864" lon="11.884895"><ele>1085.6</ele></trkpt><trkpt lat="47.659417" lon="11.885113"><ele>1094.5</ele></trkpt><trkpt lat="47.659765" lon="11.885084"><ele>1098</ele></trkpt><trkpt lat="47.659942" lon="11.885051"><ele>1098.9</ele></trkpt><trkpt lat="47.660188" lon="11.885123"><ele>1099.1</ele></trkpt><trkpt lat="47.660403" lon="11.885313"><ele>1099.2</ele></trkpt><trkpt lat="47.660492" lon="11.885349"><ele>1099.3</ele></trkpt><trkpt lat="47.660696" lon="11.885312"><ele>1099.7</ele></trkpt><trkpt lat="47.660782" lon="11.885297"><ele>1100</ele></trkpt><trkpt lat="47.660822" lon="11.885485"><ele>1100</ele></trkpt><trkpt lat="47.660898" lon="11.885631"><ele>1100</ele></trkpt><trkpt lat="47.660918" lon="11.885764"><ele>1100</ele></trkpt><trkpt lat="47.660915" lon="11.885914"><ele>1088</ele></trkpt><trkpt lat="47.660917" lon="11.886066"><ele>1088</ele></trkpt><trkpt lat="47.66093" lon="11.886168"><ele>1088</ele></trkpt><trkpt lat="47.661002" lon="11.886282"><ele>1088</ele></trkpt><trkpt lat="47.661338" lon="11.886517"><ele>1088</ele></trkpt><trkpt lat="47.661395" lon="11.886593"><ele>1088</ele></trkpt><trkpt lat="47.661473" lon="11.886826"><ele>1094.2</ele></trkpt><trkpt lat="47.661516" lon="11.887335"><ele>1096</ele></trkpt><trkpt lat="47.661549" lon="11.88755"><ele>1111</ele></trkpt><trkpt lat="47.661636" lon="11.887658"><ele>1104.8</ele></trkpt><trkpt lat="47.661891" lon="11.887843"><ele>1096.9</ele></trkpt><trkpt lat="47.661636" lon="11.887658"><ele>1104.8</ele></trkpt><trkpt lat="47.661549" lon="11.88755"><ele>1111</ele></trkpt><trkpt lat="47.661516" lon="11.887335"><ele>1096</ele></trkpt><trkpt lat="47.661473" lon="11.886826"><ele>1094.2</ele></trkpt><trkpt lat="47.661395" lon="11.886593"><ele>1088</ele></trkpt><trkpt lat="47.661338" lon="11.886517"><ele>1088</ele></trkpt><trkpt lat="47.661002" lon="11.886282"><ele>1088</ele></trkpt><trkpt lat="47.66093" lon="11.886168"><ele>1088</ele></trkpt><trkpt lat="47.660917" lon="11.886066"><ele>1088</ele></trkpt><trkpt lat="47.660915" lon="11.885914"><ele>1088</ele></trkpt><trkpt lat="47.660918" lon="11.885764"><ele>1100</ele></trkpt><trkpt lat="47.660916" lon="11.885579"><ele>1100</ele></trkpt><trkpt lat="47.661029" lon="11.885498"><ele>1104.2</ele></trkpt><trkpt lat="47.661047" lon="11.885432"><ele>1103.9</ele></trkpt><trkpt lat="47.661015" lon="11.885101"><ele>1103.3</ele></trkpt><trkpt lat="47.661042" lon="11.88486"><ele>1105.4</ele></trkpt><trkpt lat="47.661092" lon="11.884712"><ele>1106.3</ele></trkpt><trkpt lat="47.661167" lon="11.884562"><ele>1117</ele></trkpt><trkpt lat="47.66122" lon="11.884452"><ele>1121.5</ele></trkpt><trkpt lat="47.661398" lon="11.884227"><ele>1121.5</ele></trkpt><trkpt lat="47.661586" lon="11.88395"><ele>1122.6</ele></trkpt><trkpt lat="47.661665" lon="11.883551"><ele>1123.1</ele></trkpt><trkpt lat="47.661585" lon="11.883084"><ele>1123.6</ele></trkpt><trkpt lat="47.661555" lon="11.882993"><ele>1124.1</ele></trkpt><trkpt lat="47.661459" lon="11.882707"><ele>1124.5</ele></trkpt><trkpt lat="47.661418" lon="11.882184"><ele>1126.6</ele></trkpt><trkpt lat="47.661427" lon="11.881993"><ele>1126.5</ele></trkpt><trkpt lat="47.661526" lon="11.88159"><ele>1126.3</ele></trkpt><trkpt lat="47.661504" lon="11.881278"><ele>1126.1</ele></trkpt><trkpt lat="47.661526" lon="11.88089"><ele>1125.4</ele></trkpt><trkpt lat="47.661549" lon="11.880733"><ele>1124</ele></trkpt><trkpt lat="47.661491" lon="11.880683"><ele>1124</ele></trkpt><trkpt lat="47.661448" lon="11.880566"><ele>1124</ele></trkpt><trkpt lat="47.661387" lon="11.880573"><ele>1124</ele></trkpt><trkpt lat="47.661381" lon="11.880369"><ele>1121.4</ele></trkpt><trkpt lat="47.661315" lon="11.880041"><ele>1121.7</ele></trkpt><trkpt lat="47.66132" lon="11.879907"><ele>1121.6</ele></trkpt><trkpt lat="47.661368" lon="11.879772"><ele>1121.4</ele></trkpt><trkpt lat="47.661439" lon="11.879702"><ele>1121.3</ele></trkpt><trkpt lat="47.661499" lon="11.879674"><ele>1121.2</ele></trkpt><trkpt lat="47.661578" lon="11.879654"><ele>1121</ele></trkpt><trkpt lat="47.661712" lon="11.87962"><ele>1120.7</ele></trkpt><trkpt lat="47.661821" lon="11.879659"><ele>1120.4</ele></trkpt><trkpt lat="47.661989" lon="11.879878"><ele>1115</ele></trkpt><trkpt lat="47.662178" lon="11.880247"><ele>1115</ele></trkpt><trkpt lat="47.662289" lon="11.880408"><ele>1113.7</ele></trkpt><trkpt lat="47.66242" lon="11.880469"><ele>1112.6</ele></trkpt><trkpt lat="47.662874" lon="11.880604"><ele>1118.3</ele></trkpt><trkpt lat="47.663456" lon="11.880572"><ele>1124.2</ele></trkpt><trkpt lat="47.663793" lon="11.880825"><ele>1131.5</ele></trkpt><trkpt lat="47.664263" lon="11.88129"><ele>1130.6</ele></trkpt><trkpt lat="47.664357" lon="11.881309"><ele>1129.9</ele></trkpt><trkpt lat="47.664447" lon="11.881283"><ele>1129.2</ele></trkpt><trkpt lat="47.664563" lon="11.881164"><ele>1124</ele></trkpt><trkpt lat="47.664616" lon="11.881032"><ele>1134</ele></trkpt><trkpt lat="47.66468" lon="11.88073"><ele>1135.8</ele></trkpt><trkpt lat="47.664706" lon="11.880223"><ele>1137.3</ele></trkpt><trkpt lat="47.664857" lon="11.879594"><ele>1138.9</ele></trkpt><trkpt lat="47.665013" lon="11.878848"><ele>1139.6</ele></trkpt><trkpt lat="47.665062" lon="11.878686"><ele>1138.9</ele></trkpt><trkpt lat="47.665123" lon="11.878575"><ele>1138.4</ele></trkpt><trkpt lat="47.665175" lon="11.878539"><ele>1138</ele></trkpt><trkpt lat="47.665532" lon="11.878513"><ele>1136.4</ele></trkpt><trkpt lat="47.665591" lon="11.878481"><ele>1136.1</ele></trkpt><trkpt lat="47.665651" lon="11.878425"><ele>1134.3</ele></trkpt><trkpt lat="47.665733" lon="11.87824"><ele>1133.5</ele></trkpt><trkpt lat="47.66575" lon="11.878154"><ele>1133.2</ele></trkpt><trkpt lat="47.665741" lon="11.877922"><ele>1130.9</ele></trkpt><trkpt lat="47.665653" lon="11.877522"><ele>1127</ele></trkpt><trkpt lat="47.665966" lon="11.877105"><ele>1117</ele></trkpt><trkpt lat="47.666045" lon="11.877007"><ele>1117</ele></trkpt><trkpt lat="47.666146" lon="11.876871"><ele>1118.5</ele></trkpt><trkpt lat="47.666562" lon="11.876313"><ele>1120</ele></trkpt><trkpt lat="47.666719" lon="11.876125"><ele>1117.4</ele></trkpt><trkpt lat="47.666869" lon="11.876081"><ele>1117.5</ele></trkpt><trkpt lat="47.666961" lon="11.876118"><ele>1117.5</ele></trkpt><trkpt lat="47.667079" lon="11.876221"><ele>1117.4</ele></trkpt><trkpt lat="47.667237" lon="11.876452"><ele>1117.3</ele></trkpt><trkpt lat="47.667646" lon="11.87734"><ele>1116.6</ele></trkpt><trkpt lat="47.667674" lon="11.877471"><ele>1116.3</ele></trkpt><trkpt lat="47.667702" lon="11.877815"><ele>1114.8</ele></trkpt><trkpt lat="47.66775" lon="11.878133"><ele>1114.5</ele></trkpt><trkpt lat="47.667771" lon="11.878207"><ele>1114.1</ele></trkpt><trkpt lat="47.6678" lon="11.878306"><ele>1113.7</ele></trkpt><trkpt lat="47.668066" lon="11.878871"><ele>1112.4</ele></trkpt><trkpt lat="47.668131" lon="11.879049"><ele>1111.7</ele></trkpt><trkpt lat="47.668157" lon="11.879515"><ele>1110.4</ele></trkpt><trkpt lat="47.6682" lon="11.879632"><ele>1110.2</ele></trkpt><trkpt lat="47.668398" lon="11.879974"><ele>1111</ele></trkpt><trkpt lat="47.668461" lon="11.88005"><ele>1111.1</ele></trkpt><trkpt lat="47.66854" lon="11.880106"><ele>1111.1</ele></trkpt><trkpt lat="47.668868" lon="11.880214"><ele>1111.5</ele></trkpt><trkpt lat="47.668999" lon="11.88029"><ele>1112.3</ele></trkpt><trkpt lat="47.66927" lon="11.880613"><ele>1117.6</ele></trkpt><trkpt lat="47.669422" lon="11.880965"><ele>1120.7</ele></trkpt><trkpt lat="47.669719" lon="11.881893"><ele>1124.9</ele></trkpt><trkpt lat="47.669925" lon="11.882275"><ele>1128.6</ele></trkpt><trkpt lat="47.669966" lon="11.882394"><ele>1123</ele></trkpt><trkpt lat="47.670026" lon="11.882723"><ele>1133.2</ele></trkpt><trkpt lat="47.670072" lon="11.88282"><ele>1133</ele></trkpt><trkpt lat="47.670154" lon="11.882906"><ele>1133.3</ele></trkpt><trkpt lat="47.670278" lon="11.882932"><ele>1133.6</ele></trkpt><trkpt lat="47.670689" lon="11.882844"><ele>1134.2</ele></trkpt><trkpt lat="47.67109" lon="11.882612"><ele>1135.2</ele></trkpt><trkpt lat="47.671226" lon="11.882586"><ele>1135.7</ele></trkpt><trkpt lat="47.671451" lon="11.882662"><ele>1138.6</ele></trkpt><trkpt lat="47.671551" lon="11.882797"><ele>1139.5</ele></trkpt><trkpt lat="47.671679" lon="11.883073"><ele>1141.4</ele></trkpt><trkpt lat="47.671796" lon="11.883533"><ele>1141.2</ele></trkpt><trkpt lat="47.671856" lon="11.884363"><ele>1140.3</ele></trkpt><trkpt lat="47.671983" lon="11.884979"><ele>1138.8</ele></trkpt><trkpt lat="47.672085" lon="11.885389"><ele>1135.1</ele></trkpt><trkpt lat="47.672165" lon="11.885914"><ele>1132.6</ele></trkpt><trkpt lat="47.672171" lon="11.886114"><ele>1129</ele></trkpt><trkpt lat="47.672323" lon="11.886448"><ele>1129</ele></trkpt><trkpt lat="47.672425" lon="11.886596"><ele>1131.2</ele></trkpt><trkpt lat="47.672574" lon="11.886693"><ele>1135</ele></trkpt><trkpt lat="47.672698" lon="11.886698"><ele>1136.9</ele></trkpt><trkpt lat="47.673083" lon="11.88659"><ele>1148</ele></trkpt><trkpt lat="47.673514" lon="11.886464"><ele>1136</ele></trkpt><trkpt lat="47.673502" lon="11.886363"><ele>1131.3</ele></trkpt><trkpt lat="47.673625" lon="11.886192"><ele>1129.8</ele></trkpt><trkpt lat="47.675576" lon="11.885155"><ele>1092</ele></trkpt><trkpt lat="47.675974" lon="11.885108"><ele>1086</ele></trkpt><trkpt lat="47.6761" lon="11.88515"><ele>1085.9</ele></trkpt><trkpt lat="47.676191" lon="11.885142"><ele>1085.7</ele></trkpt><trkpt lat="47.676391" lon="11.885014"><ele>1085.3</ele></trkpt><trkpt lat="47.676477" lon="11.88488"><ele>1075</ele></trkpt><trkpt lat="47.676397" lon="11.884553"><ele>1070.1</ele></trkpt><trkpt lat="47.676261" lon="11.884427"><ele>1069.7</ele></trkpt><trkpt lat="47.675955" lon="11.884221"><ele>1069.2</ele></trkpt><trkpt lat="47.675874" lon="11.884061"><ele>1068.7</ele></trkpt><trkpt lat="47.675865" lon="11.883916"><ele>1068.7</ele></trkpt><trkpt lat="47.67594" lon="11.88387"><ele>1068.6</ele></trkpt><trkpt lat="47.676562" lon="11.88387"><ele>1068.6</ele></trkpt><trkpt lat="47.677148" lon="11.884129"><ele>1056</ele></trkpt><trkpt lat="47.677425" lon="11.884249"><ele>1054</ele></trkpt><trkpt lat="47.677525" lon="11.884333"><ele>1045</ele></trkpt><trkpt lat="47.677621" lon="11.884511"><ele>1048.8</ele></trkpt><trkpt lat="47.677792" lon="11.885126"><ele>1050.3</ele></trkpt><trkpt lat="47.67783" lon="11.885223"><ele>1050.1</ele></trkpt><trkpt lat="47.677909" lon="11.885335"><ele>1049.9</ele></trkpt><trkpt lat="47.677975" lon="11.88538"><ele>1049.7</ele></trkpt><trkpt lat="47.678049" lon="11.885399"><ele>1052</ele></trkpt><trkpt lat="47.678257" lon="11.88545"><ele>1028.1</ele></trkpt><trkpt lat="47.678624" lon="11.885631"><ele>1027.1</ele></trkpt><trkpt lat="47.678789" lon="11.885657"><ele>1027.4</ele></trkpt><trkpt lat="47.678808" lon="11.88564"><ele>1027.6</ele></trkpt><trkpt lat="47.678812" lon="11.885584"><ele>1027.8</ele></trkpt><trkpt lat="47.678778" lon="11.885425"><ele>1028.1</ele></trkpt><trkpt lat="47.67876" lon="11.885116"><ele>1028.6</ele></trkpt><trkpt lat="47.678773" lon="11.885022"><ele>1028.8</ele></trkpt><trkpt lat="47.678812" lon="11.884935"><ele>1029</ele></trkpt><trkpt lat="47.678879" lon="11.884871"><ele>1027</ele></trkpt><trkpt lat="47.679016" lon="11.884817"><ele>999.3</ele></trkpt><trkpt lat="47.67914" lon="11.884836"><ele>997.2</ele></trkpt><trkpt lat="47.679199" lon="11.884866"><ele>996.2</ele></trkpt><trkpt lat="47.67927" lon="11.884945"><ele>996.3</ele></trkpt><trkpt lat="47.679386" lon="11.885025"><ele>996.5</ele></trkpt><trkpt lat="47.679621" lon="11.885086"><ele>995.6</ele></trkpt><trkpt lat="47.679695" lon="11.885373"><ele>994.6</ele></trkpt><trkpt lat="47.679783" lon="11.885463"><ele>994.2</ele></trkpt><trkpt lat="47.679895" lon="11.885504"><ele>993.7</ele></trkpt><trkpt lat="47.680041" lon="11.885517"><ele>993.4</ele></trkpt><trkpt lat="47.680067" lon="11.885499"><ele>995.1</ele></trkpt><trkpt lat="47.680074" lon="11.885454"><ele>970</ele></trkpt><trkpt lat="47.680263" lon="11.885464"><ele>970</ele></trkpt><trkpt lat="47.680306" lon="11.885486"><ele>970</ele></trkpt><trkpt lat="47.680317" lon="11.88545"><ele>970</ele></trkpt><trkpt lat="47.680323" lon="11.885432"><ele>970</ele></trkpt><trkpt lat="47.680339" lon="11.885372"><ele>970</ele></trkpt><trkpt lat="47.680398" lon="11.885233"><ele>970</ele></trkpt><trkpt lat="47.680461" lon="11.885142"><ele>969.6</ele></trkpt><trkpt lat="47.680498" lon="11.885025"><ele>969.4</ele></trkpt><trkpt lat="47.680493" lon="11.884623"><ele>969</ele></trkpt><trkpt lat="47.680522" lon="11.88455"><ele>971.3</ele></trkpt><trkpt lat="47.680594" lon="11.884469"><ele>971.7</ele></trkpt><trkpt lat="47.68069" lon="11.884049"><ele>972.7</ele></trkpt><trkpt lat="47.680803" lon="11.883787"><ele>976</ele></trkpt><trkpt lat="47.680834" lon="11.883699"><ele>971.7</ele></trkpt><trkpt lat="47.681015" lon="11.883421"><ele>973.6</ele></trkpt><trkpt lat="47.68124" lon="11.883184"><ele>975.2</ele></trkpt><trkpt lat="47.681338" lon="11.883132"><ele>974</ele></trkpt><trkpt lat="47.682116" lon="11.883053"><ele>967</ele></trkpt><trkpt lat="47.682519" lon="11.88299"><ele>963.8</ele></trkpt><trkpt lat="47.682756" lon="11.882952"><ele>960.5</ele></trkpt><trkpt lat="47.683057" lon="11.882831"><ele>960.2</ele></trkpt><trkpt lat="47.683247" lon="11.882831"><ele>959.8</ele></trkpt><trkpt lat="47.683502" lon="11.882889"><ele>958.5</ele></trkpt><trkpt lat="47.683612" lon="11.882884"><ele>958.7</ele></trkpt><trkpt lat="47.683712" lon="11.88282"><ele>958.9</ele></trkpt><trkpt lat="47.683887" lon="11.882625"><ele>959.1</ele></trkpt><trkpt lat="47.684034" lon="11.88252"><ele>957</ele></trkpt><trkpt lat="47.684139" lon="11.882492"><ele>944.1</ele></trkpt><trkpt lat="47.684448" lon="11.882609"><ele>940.5</ele></trkpt><trkpt lat="47.684524" lon="11.882588"><ele>940</ele></trkpt><trkpt lat="47.684544" lon="11.882633"><ele>939.4</ele></trkpt><trkpt lat="47.684524" lon="11.882718"><ele>938.8</ele></trkpt><trkpt lat="47.684717" lon="11.882743"><ele>938.2</ele></trkpt><trkpt lat="47.684896" lon="11.882799"><ele>937.6</ele></trkpt><trkpt lat="47.685003" lon="11.882975"><ele>936.9</ele></trkpt><trkpt lat="47.68501" lon="11.883062"><ele>936.4</ele></trkpt><trkpt lat="47.68505" lon="11.883156"><ele>935.8</ele></trkpt><trkpt lat="47.685068" lon="11.883263"><ele>935.3</ele></trkpt><trkpt lat="47.684827" lon="11.883942"><ele>922</ele></trkpt><trkpt lat="47.68504" lon="11.883824"><ele>931.6</ele></trkpt><trkpt lat="47.685165" lon="11.883648"><ele>931</ele></trkpt><trkpt lat="47.685232" lon="11.8834"><ele>930.7</ele></trkpt><trkpt lat="47.685276" lon="11.88317"><ele>933.8</ele></trkpt><trkpt lat="47.685365" lon="11.88297"><ele>934.6</ele></trkpt><trkpt lat="47.685573" lon="11.882825"><ele>935.4</ele></trkpt><trkpt lat="47.685692" lon="11.882783"><ele>936.1</ele></trkpt><trkpt lat="47.685758" lon="11.882721"><ele>936.7</ele></trkpt><trkpt lat="47.685955" lon="11.8826"><ele>936.8</ele></trkpt><trkpt lat="47.686218" lon="11.882298"><ele>943.4</ele></trkpt><trkpt lat="47.686319" lon="11.882143"><ele>962</ele></trkpt><trkpt lat="47.686376" lon="11.882015"><ele>962</ele></trkpt><trkpt lat="47.686436" lon="11.881938"><ele>962</ele></trkpt><trkpt lat="47.686597" lon="11.881761"><ele>944.1</ele></trkpt><trkpt lat="47.686898" lon="11.881726"><ele>941.9</ele></trkpt><trkpt lat="47.687031" lon="11.881633"><ele>943.1</ele></trkpt><trkpt lat="47.687089" lon="11.881529"><ele>944.2</ele></trkpt><trkpt lat="47.68727" lon="11.881707"><ele>942</ele></trkpt><trkpt lat="47.687372" lon="11.881726"><ele>940</ele></trkpt><trkpt lat="47.687684" lon="11.881686"><ele>900</ele></trkpt><trkpt lat="47.68787" lon="11.881645"><ele>928.3</ele></trkpt><trkpt lat="47.688146" lon="11.881512"><ele>926.8</ele></trkpt><trkpt lat="47.688477" lon="11.881466"><ele>924.6</ele></trkpt><trkpt lat="47.688755" lon="11.881512"><ele>922.2</ele></trkpt><trkpt lat="47.688992" lon="11.881512"><ele>918.7</ele></trkpt><trkpt lat="47.689206" lon="11.881547"><ele>919.1</ele></trkpt><trkpt lat="47.689526" lon="11.881478"><ele>915</ele></trkpt><trkpt lat="47.689796" lon="11.881332"><ele>913.8</ele></trkpt><trkpt lat="47.690039" lon="11.881409"><ele>911.6</ele></trkpt><trkpt lat="47.690193" lon="11.881382"><ele>911.6</ele></trkpt><trkpt lat="47.690316" lon="11.8813"><ele>912.4</ele></trkpt><trkpt lat="47.690545" lon="11.881087"><ele>912.3</ele></trkpt><trkpt lat="47.69086" lon="11.880494"><ele>911</ele></trkpt><trkpt lat="47.690914" lon="11.880462"><ele>910.9</ele></trkpt><trkpt lat="47.691044" lon="11.880434"><ele>910.9</ele></trkpt><trkpt lat="47.691247" lon="11.880454"><ele>911.4</ele></trkpt><trkpt lat="47.691506" lon="11.880432"><ele>913.4</ele></trkpt><trkpt lat="47.691654" lon="11.880396"><ele>915.3</ele></trkpt><trkpt lat="47.691767" lon="11.880293"><ele>915.6</ele></trkpt><trkpt lat="47.691977" lon="11.879591"><ele>915.3</ele></trkpt><trkpt lat="47.692057" lon="11.879455"><ele>915.7</ele></trkpt><trkpt lat="47.692204" lon="11.879271"><ele>916.7</ele></trkpt><trkpt lat="47.692325" lon="11.879063"><ele>917.2</ele></trkpt><trkpt lat="47.69241" lon="11.878997"><ele>915.7</ele></trkpt><trkpt lat="47.692486" lon="11.878938"><ele>914.2</ele></trkpt><trkpt lat="47.692731" lon="11.878806"><ele>911.5</ele></trkpt><trkpt lat="47.692836" lon="11.878692"><ele>911.6</ele></trkpt><trkpt lat="47.693024" lon="11.878277"><ele>911.1</ele></trkpt><trkpt lat="47.693197" lon="11.878125"><ele>909.4</ele></trkpt><trkpt lat="47.693303" lon="11.877978"><ele>905</ele></trkpt><trkpt lat="47.693384" lon="11.877605"><ele>902.4</ele></trkpt><trkpt lat="47.693461" lon="11.877335"><ele>902.3</ele></trkpt><trkpt lat="47.693557" lon="11.877199"><ele>901.6</ele></trkpt><trkpt lat="47.693707" lon="11.877098"><ele>900.6</ele></trkpt><trkpt lat="47.694189" lon="11.87669"><ele>898.5</ele></trkpt><trkpt lat="47.694266" lon="11.876649"><ele>900.4</ele></trkpt><trkpt lat="47.69453" lon="11.876631"><ele>900.2</ele></trkpt><trkpt lat="47.694913" lon="11.87666"><ele>899</ele></trkpt><trkpt lat="47.695144" lon="11.876626"><ele>884.4</ele></trkpt><trkpt lat="47.695621" lon="11.876623"><ele>885.2</ele></trkpt><trkpt lat="47.695696" lon="11.876545"><ele>885.6</ele></trkpt><trkpt lat="47.695752" lon="11.87644"><ele>886.1</ele></trkpt><trkpt lat="47.695787" lon="11.876325"><ele>882</ele></trkpt><trkpt lat="47.695807" lon="11.87621"><ele>886.7</ele></trkpt><trkpt lat="47.6958" lon="11.876014"><ele>887.4</ele></trkpt><trkpt lat="47.695777" lon="11.875835"><ele>888.2</ele></trkpt><trkpt lat="47.695595" lon="11.875069"><ele>893</ele></trkpt><trkpt lat="47.695605" lon="11.874978"><ele>896.6</ele></trkpt><trkpt lat="47.695678" lon="11.874909"><ele>898</ele></trkpt><trkpt lat="47.696092" lon="11.874697"><ele>892.3</ele></trkpt><trkpt lat="47.696359" lon="11.874561"><ele>886.5</ele></trkpt><trkpt lat="47.696628" lon="11.874301"><ele>886</ele></trkpt><trkpt lat="47.696767" lon="11.874234"><ele>885.5</ele></trkpt><trkpt lat="47.696987" lon="11.874191"><ele>887.8</ele></trkpt><trkpt lat="47.697215" lon="11.874091"><ele>892.5</ele></trkpt><trkpt lat="47.697404" lon="11.873998"><ele>892</ele></trkpt><trkpt lat="47.697588" lon="11.873858"><ele>890.8</ele></trkpt><trkpt lat="47.697945" lon="11.873429"><ele>894.3</ele></trkpt><trkpt lat="47.698151" lon="11.873035"><ele>896.6</ele></trkpt><trkpt lat="47.698266" lon="11.872856"><ele>907</ele></trkpt><trkpt lat="47.698341" lon="11.872746"><ele>861</ele></trkpt><trkpt lat="47.698943" lon="11.871976"><ele>876.9</ele></trkpt><trkpt lat="47.69905" lon="11.871792"><ele>875.2</ele></trkpt><trkpt lat="47.699226" lon="11.871422"><ele>873.3</ele></trkpt><trkpt lat="47.699396" lon="11.87097"><ele>870</ele></trkpt><trkpt lat="47.699474" lon="11.870765"><ele>886</ele></trkpt><trkpt lat="47.699572" lon="11.870636"><ele>885.2</ele></trkpt><trkpt lat="47.699657" lon="11.870588"><ele>884.2</ele></trkpt><trkpt lat="47.699736" lon="11.870585"><ele>890</ele></trkpt><trkpt lat="47.699881" lon="11.870646"><ele>864.5</ele></trkpt><trkpt lat="47.70035" lon="11.871068"><ele>839</ele></trkpt><trkpt lat="47.700386" lon="11.870939"><ele>842.4</ele></trkpt><trkpt lat="47.700411" lon="11.870499"><ele>843.5</ele></trkpt><trkpt lat="47.70051" lon="11.870077"><ele>848</ele></trkpt><trkpt lat="47.700497" lon="11.869691"><ele>856</ele></trkpt><trkpt lat="47.70051" lon="11.869582"><ele>856</ele></trkpt><trkpt lat="47.700579" lon="11.869502"><ele>856</ele></trkpt><trkpt lat="47.700775" lon="11.869487"><ele>856</ele></trkpt><trkpt lat="47.700869" lon="11.869481"><ele>845</ele></trkpt><trkpt lat="47.700982" lon="11.869513"><ele>845</ele></trkpt><trkpt lat="47.70099" lon="11.869515"><ele>845</ele></trkpt><trkpt lat="47.70119" lon="11.869418"><ele>845</ele></trkpt><trkpt lat="47.701406" lon="11.870139"><ele>839</ele></trkpt><trkpt lat="47.701639" lon="11.870926"><ele>837</ele></trkpt><trkpt lat="47.701762" lon="11.871325"><ele>838</ele></trkpt><trkpt lat="47.702304" lon="11.870994"><ele>836.6</ele></trkpt><trkpt lat="47.702657" lon="11.870849"><ele>833.8</ele></trkpt><trkpt lat="47.704164" lon="11.870014"><ele>825.4</ele></trkpt><trkpt lat="47.704414" lon="11.869673"><ele>824.5</ele></trkpt><trkpt lat="47.704486" lon="11.869622"><ele>821</ele></trkpt><trkpt lat="47.704628" lon="11.869626"><ele>821</ele></trkpt><trkpt lat="47.704643" lon="11.869626"><ele>821</ele></trkpt><trkpt lat="47.704757" lon="11.869588"><ele>821</ele></trkpt><trkpt lat="47.705027" lon="11.869804"><ele>817</ele></trkpt><trkpt lat="47.706093" lon="11.870461"><ele>811.1</ele></trkpt><trkpt lat="47.706136" lon="11.870556"><ele>810.7</ele></trkpt><trkpt lat="47.70616" lon="11.8707"><ele>810.4</ele></trkpt><trkpt lat="47.706161" lon="11.871095"><ele>805</ele></trkpt><trkpt lat="47.705945" lon="11.872769"><ele>806</ele></trkpt><trkpt lat="47.705855" lon="11.873733"><ele>806</ele></trkpt><trkpt lat="47.705807" lon="11.874252"><ele>815</ele></trkpt><trkpt lat="47.705989" lon="11.874278"><ele>811.7</ele></trkpt><trkpt lat="47.706028" lon="11.874229"><ele>810</ele></trkpt><trkpt lat="47.706051" lon="11.874098"><ele>806</ele></trkpt><trkpt lat="47.706114" lon="11.874117"><ele>806</ele></trkpt></trkseg></trk></gpx>