<gpx xmlns="http://www.topografix.com/GPX/1/1" xmlns:xsi="http://www.w3.org/2001/XMLSchema-instance" xsi:schemaLocation="http://www.topografix.com/GPX/1/1 http://www.topografix.com/GPX/1/1/gpx.xsd" version="1.1" creator="togpx"><metadata/><wpt lat="47.661947936718775" lon="11.88775420188904"><name></name><desc>label=Spitzingstraße, Schliersee,BY,Germany</desc></wpt><wpt lat="47.66164444763821" lon="11.879653930664064"><name></name><desc>label=Lyraweg, Schliersee,BY,Germany</desc></wpt><wpt lat="47.66630497830328" lon="11.876574754714966"><name></name><desc>label=Kratzerweg, Schliersee,BY,Germany</desc></wpt><wpt lat="47.66834969995955" lon="11.852177381515505"><name></name><desc>label=SB 5, SB 6,Schliersee,BY,Germany</desc></wpt><wpt lat="47.67092174489162" lon="11.854333877563477"><name></name><desc>label= SB 5, Schliersee,BY,Germany</desc></wpt><wpt lat="47.675046866870346" lon="11.865170001983644"><name></name><desc>label=Brecherspitz Vorgipfel, Schliersee,BY,Germany</desc></wpt><wpt lat="47.682689400911066" lon="11.873388290405273"><name></name><desc>label=Bockerlbahn-Weg, Schliersee,BY,Germany</desc></wpt><wpt lat="47.685665207721996" lon="11.869289875030518"><name></name><desc>label=Laubenriesbrücke, Schliersee,BY,Germany</desc></wpt><wpt lat="47.7062492402928" lon="11.873366832733156"><name></name><desc>label=Wendelsteinstraße, Schliersee,BY,Germany</desc></wpt><trk><name></name><desc>ascent=775
descent=1066
opacity=0.9</desc><trkseg><trkpt lat="47.661913" lon="11.887859"><ele>1096.9</ele></trkpt><trkpt lat="47.661636" lon="11.887658"><ele>1104.8</ele></trkpt><trkpt lat="47.661549" lon="11.88755"><ele>1111</ele></trkpt><trkpt lat="47.661516" lon="11.887335"><ele>1096</ele></trkpt><trkpt lat="47.661473" lon="11.886826"><ele>1094.2</ele></trkpt><trkpt lat="47.661395" lon="11.886593"><ele>1088</ele></trkpt><trkpt lat="47.661338" lon="11.886517"><ele>1088</ele></trkpt><trkpt lat="47.661002" lon="11.886282"><ele>1088</ele></trkpt><trkpt lat="47.66093" lon="11.886168"><ele>1088</ele></trkpt><trkpt lat="47.660917" lon="11.886066"><ele>1088</ele></trkpt><trkpt lat="47.660915" lon="11.885914"><ele>1088</ele></trkpt><trkpt lat="47.660918" lon="11.885764"><ele>1100</ele></trkpt><trkpt lat="47.660898" lon="11.885631"><ele>1100</ele></trkpt><trkpt lat="47.660822" lon="11.885485"><ele>1100</ele></trkpt><trkpt lat="47.660782" lon="11.885297"><ele>1100</ele></trkpt><trkpt lat="47.660787" lon="11.885223"><ele>1106.8</ele></trkpt><trkpt lat="47.66082" lon="11.885105"><ele>1108.2</ele></trkpt><trkpt lat="47.660922" lon="11.884907"><ele>1109.8</ele></trkpt><trkpt lat="47.661153" lon="11.884284"><ele>1117</ele></trkpt><trkpt lat="47.661367" lon="11.883942"><ele>1126.1</ele></trkpt><trkpt lat="47.661462" lon="11.883749"><ele>1126</ele></trkpt><trkpt lat="47.66149" lon="11.883619"><ele>1125.9</ele></trkpt><trkpt lat="47.661495" lon="11.883437"><ele>1125.8</ele></trkpt><trkpt lat="47.661472" lon="11.883158"><ele>1125.6</ele></trkpt><trkpt lat="47.661308" lon="11.8825"><ele>1125</ele></trkpt><trkpt lat="47.661288" lon="11.882364"><ele>1124.8</ele></trkpt><trkpt lat="47.66129" lon="11.882097"><ele>1125.2</ele></trkpt><trkpt lat="47.661393" lon="11.881103"><ele>1124.7</ele></trkpt><trkpt lat="47.661387" lon="11.880573"><ele>1124</ele></trkpt><trkpt lat="47.661381" lon="11.880369"><ele>1121.4</ele></trkpt><trkpt lat="47.661315" lon="11.880041"><ele>1121.7</ele></trkpt><trkpt lat="47.66132" lon="11.879907"><ele>1121.6</ele></trkpt><trkpt lat="47.661368" lon="11.879772"><ele>1121.4</ele></trkpt><trkpt lat="47.661439" lon="11.879702"><ele>1121.3</ele></trkpt><trkpt lat="47.661499" lon="11.879674"><ele>1121.2</ele></trkpt><trkpt lat="47.661643" lon="11.879638"><ele>1121</ele></trkpt><trkpt lat="47.661712" lon="11.87962"><ele>1120.7</ele></trkpt><trkpt lat="47.661821" lon="11.879659"><ele>1120.4</ele></trkpt><trkpt lat="47.661989" lon="11.879878"><ele>1115</ele></trkpt><trkpt lat="47.662178" lon="11.880247"><ele>1115</ele></trkpt><trkpt lat="47.662289" lon="11.880408"><ele>1113.7</ele></trkpt><trkpt lat="47.66242" lon="11.880469"><ele>1112.6</ele></trkpt><trkpt lat="47.662874" lon="11.880604"><ele>1118.3</ele></trkpt><trkpt lat="47.663456" lon="11.880572"><ele>1124.2</ele></trkpt><trkpt lat="47.663793" lon="11.880825"><ele>1131.5</ele></trkpt><trkpt lat="47.664263" lon="11.88129"><ele>1130.6</ele></trkpt><trkpt lat="47.664357" lon="11.881309"><ele>1129.9</ele></trkpt><trkpt lat="47.664447" lon="11.881283"><ele>1129.2</ele></trkpt><trkpt lat="47.664563" lon="11.881164"><ele>1124</ele></trkpt><trkpt lat="47.664616" lon="11.881032"><ele>1134</ele></trkpt><trkpt lat="47.66468" lon="11.88073"><ele>1135.8</ele></trkpt><trkpt lat="47.664706" lon="11.880223"><ele>1137.3</ele></trkpt><trkpt lat="47.664857" lon="11.879594"><ele>1138.9</ele></trkpt><trkpt lat="47.665013" lon="11.878848"><ele>1139.6</ele></trkpt><trkpt lat="47.665062" lon="11.878686"><ele>1138.9</ele></trkpt><trkpt lat="47.665123" lon="11.878575"><ele>1138.4</ele></trkpt><trkpt lat="47.665175" lon="11.878539"><ele>1138</ele></trkpt><trkpt lat="47.665532" lon="11.878513"><ele>1136.4</ele></trkpt><trkpt lat="47.665591" lon="11.878481"><ele>1136.1</ele></trkpt><trkpt lat="47.665651" lon="11.878425"><ele>1134.3</ele></trkpt><trkpt lat="47.665733" lon="11.87824"><ele>1133.5</ele></trkpt><trkpt lat="47.66575" lon="11.878154"><ele>1133.2</ele></trkpt><trkpt lat="47.665741" lon="11.877922"><ele>1130.9</ele></trkpt><trkpt lat="47.665653" lon="11.877522"><ele>1127</ele></trkpt><trkpt lat="47.665966" lon="11.877105"><ele>1117</ele></trkpt><trkpt lat="47.666045" lon="11.877007"><ele>1117</ele></trkpt><trkpt lat="47.666333" lon="11.87662"><ele>1118.5</ele></trkpt><trkpt lat="47.666562" lon="11.876313"><ele>1120</ele></trkpt><trkpt lat="47.666357" lon="11.875918"><ele>1123.3</ele></trkpt><trkpt lat="47.666103" lon="11.875779"><ele>1130</ele></trkpt><trkpt lat="47.665988" lon="11.875554"><ele>1130</ele></trkpt><trkpt lat="47.665988" lon="11.87546"><ele>1130</ele></trkpt><trkpt lat="47.666" lon="11.875214"><ele>1139.7</ele></trkpt><trkpt lat="47.666071" lon="11.874904"><ele>1142.8</ele></trkpt><trkpt lat="47.666238" lon="11.87461"><ele>1143.8</ele></trkpt><trkpt lat="47.66631" lon="11.874335"><ele>1145</ele></trkpt><trkpt lat="47.666308" lon="11.873914"><ele>1146.4</ele></trkpt><trkpt lat="47.666169" lon="11.873103"><ele>1151.3</ele></trkpt><trkpt lat="47.666173" lon="11.872945"><ele>1153.6</ele></trkpt><trkpt lat="47.666222" lon="11.872807"><ele>1154.2</ele></trkpt><trkpt lat="47.666473" lon="11.872402"><ele>1158.2</ele></trkpt><trkpt lat="47.666554" lon="11.872172"><ele>1161.4</ele></trkpt><trkpt lat="47.666612" lon="11.871171"><ele>1166.9</ele></trkpt><trkpt lat="47.666656" lon="11.871082"><ele>1167.9</ele></trkpt><trkpt lat="47.667168" lon="11.870605"><ele>1170.7</ele></trkpt><trkpt lat="47.667225" lon="11.870488"><ele>1170.6</ele></trkpt><trkpt lat="47.66727" lon="11.870359"><ele>1171.2</ele></trkpt><trkpt lat="47.667415" lon="11.869512"><ele>1178</ele></trkpt><trkpt lat="47.667372" lon="11.86922"><ele>1184.1</ele></trkpt><trkpt lat="47.667373" lon="11.869058"><ele>1184.7</ele></trkpt><trkpt lat="47.667455" lon="11.86879"><ele>1185.5</ele></trkpt><trkpt lat="47.667612" lon="11.86847"><ele>1186.7</ele></trkpt><trkpt lat="47.667623" lon="11.868379"><ele>1186.9</ele></trkpt><trkpt lat="47.667586" lon="11.868198"><ele>1186.9</ele></trkpt><trkpt lat="47.667578" lon="11.867894"><ele>1186.8</ele></trkpt><trkpt lat="47.667649" lon="11.867564"><ele>1186.9</ele></trkpt><trkpt lat="47.667728" lon="11.867331"><ele>1188.3</ele></trkpt><trkpt lat="47.667798" lon="11.867242"><ele>1189.4</ele></trkpt><trkpt lat="47.667831" lon="11.867171"><ele>1189.4</ele></trkpt><trkpt lat="47.667822" lon="11.867063"><ele>1189.3</ele></trkpt><trkpt lat="47.667756" lon="11.866917"><ele>1189.1</ele></trkpt><trkpt lat="47.667752" lon="11.866807"><ele>1189.1</ele></trkpt><trkpt lat="47.667781" lon="11.866549"><ele>1189.2</ele></trkpt><trkpt lat="47.667725" lon="11.86585"><ele>1189.9</ele></trkpt><trkpt lat="47.667842" lon="11.865269"><ele>1199</ele></trkpt><trkpt lat="47.668016" lon="11.864855"><ele>1209.2</ele></trkpt><trkpt lat="47.668153" lon="11.864437"><ele>1210.5</ele></trkpt><trkpt lat="47.66817" lon="11.86434"><ele>1210</ele></trkpt><trkpt lat="47.668166" lon="11.864112"><ele>1210.9</ele></trkpt><trkpt lat="47.668182" lon="11.863936"><ele>1210.7</ele></trkpt><trkpt lat="47.668224" lon="11.8638"><ele>1211.7</ele></trkpt><trkpt lat="47.668245" lon="11.863661"><ele>1211.5</ele></trkpt><trkpt lat="47.668271" lon="11.863239"><ele>1216.3</ele></trkpt><trkpt lat="47.668254" lon="11.862856"><ele>1220.4</ele></trkpt><trkpt lat="47.668181" lon="11.862206"><ele>1226.2</ele></trkpt><trkpt lat="47.6682" lon="11.861481"><ele>1232.9</ele></trkpt><trkpt lat="47.668151" lon="11.860989"><ele>1236.5</ele></trkpt><trkpt lat="47.668152" lon="11.860706"><ele>1237.8</ele></trkpt><trkpt lat="47.668081" lon="11.859849"><ele>1243.1</ele></trkpt><trkpt lat="47.667977" lon="11.859358"><ele>1245.5</ele></trkpt><trkpt lat="47.667952" lon="11.859045"><ele>1248.8</ele></trkpt><trkpt lat="47.667922" lon="11.85745"><ele>1261.2</ele></trkpt><trkpt lat="47.667894" lon="11.857065"><ele>1265.2</ele></trkpt><trkpt lat="47.667906" lon="11.855726"><ele>1276</ele></trkpt><trkpt lat="47.66784" lon="11.855161"><ele>1279.4</ele></trkpt><trkpt lat="47.667858" lon="11.854371"><ele>1283</ele></trkpt><trkpt lat="47.667897" lon="11.853841"><ele>1286.9</ele></trkpt><trkpt lat="47.667973" lon="11.853172"><ele>1293.6</ele></trkpt><trkpt lat="47.668067" lon="11.851931"><ele>1303.2</ele></trkpt><trkpt lat="47.668071" lon="11.851813"><ele>1306</ele></trkpt><trkpt lat="47.668042" lon="11.851656"><ele>1307.1</ele></trkpt><trkpt lat="47.667954" lon="11.851467"><ele>1316</ele></trkpt><trkpt lat="47.667987" lon="11.851447"><ele>1313.8</ele></trkpt><trkpt lat="47.668035" lon="11.851473"><ele>1314</ele></trkpt><trkpt lat="47.668164" lon="11.851772"><ele>1313.7</ele></trkpt><trkpt lat="47.66823" lon="11.851967"><ele>1313.4</ele></trkpt><trkpt lat="47.668333" lon="11.852187"><ele>1313.2</ele></trkpt><trkpt lat="47.668338" lon="11.852194"><ele>1313.2</ele></trkpt><trkpt lat="47.668333" lon="11.852187"><ele>1313.2</ele></trkpt><trkpt lat="47.66823" lon="11.851967"><ele>1313.4</ele></trkpt><trkpt lat="47.668164" lon="11.851772"><ele>1313.7</ele></trkpt><trkpt lat="47.668035" lon="11.851473"><ele>1314</ele></trkpt><trkpt lat="47.667987" lon="11.851447"><ele>1313.8</ele></trkpt><trkpt lat="47.667954" lon="11.851467"><ele>1316</ele></trkpt><trkpt lat="47.667907" lon="11.851405"><ele>1316</ele></trkpt><trkpt lat="47.668028" lon="11.851301"><ele>1318.1</ele></trkpt><trkpt lat="47.668114" lon="11.851352"><ele>1319.5</ele></trkpt><trkpt lat="47.668207" lon="11.851369"><ele>1321.8</ele></trkpt><trkpt lat="47.668231" lon="11.851385"><ele>1322.9</ele></trkpt><trkpt lat="47.668264" lon="11.85148"><ele>1324.4</ele></trkpt><trkpt lat="47.668297" lon="11.851525"><ele>1325.4</ele></trkpt><trkpt lat="47.668501" lon="11.851739"><ele>1328.3</ele></trkpt><trkpt lat="47.668596" lon="11.851796"><ele>1329</ele></trkpt><trkpt lat="47.668673" lon="11.851789"><ele>1329.7</ele></trkpt><trkpt lat="47.668757" lon="11.851812"><ele>1330.4</ele></trkpt><trkpt lat="47.668871" lon="11.851865"><ele>1331</ele></trkpt><trkpt lat="47.668992" lon="11.851962"><ele>1331.9</ele></trkpt><trkpt lat="47.669237" lon="11.852306"><ele>1334.6</ele></trkpt><trkpt lat="47.669334" lon="11.852381"><ele>1334.4</ele></trkpt><trkpt lat="47.669391" lon="11.852467"><ele>1334.4</ele></trkpt><trkpt lat="47.669467" lon="11.852533"><ele>1334.6</ele></trkpt><trkpt lat="47.669714" lon="11.853116"><ele>1334.9</ele></trkpt><trkpt lat="47.66976" lon="11.85319"><ele>1334.9</ele></trkpt><trkpt lat="47.669812" lon="11.853415"><ele>1334.8</ele></trkpt><trkpt lat="47.669891" lon="11.853582"><ele>1334.9</ele></trkpt><trkpt lat="47.669965" lon="11.853677"><ele>1334.9</ele></trkpt><trkpt lat="47.669978" lon="11.85376"><ele>1337</ele></trkpt><trkpt lat="47.670168" lon="11.853779"><ele>1366</ele></trkpt><trkpt lat="47.670213" lon="11.853984"><ele>1366</ele></trkpt><trkpt lat="47.670261" lon="11.854154"><ele>1366</ele></trkpt><trkpt lat="47.670454" lon="11.854366"><ele>1364</ele></trkpt><trkpt lat="47.67052" lon="11.854301"><ele>1368.6</ele></trkpt><trkpt lat="47.670663" lon="11.85427"><ele>1368.1</ele></trkpt><trkpt lat="47.670727" lon="11.854314"><ele>1367.6</ele></trkpt><trkpt lat="47.670921" lon="11.854304"><ele>1368.2</ele></trkpt><trkpt lat="47.671033" lon="11.854299"><ele>1368.9</ele></trkpt><trkpt lat="47.671231" lon="11.854218"><ele>1378</ele></trkpt><trkpt lat="47.671291" lon="11.854432"><ele>1376.4</ele></trkpt><trkpt lat="47.671316" lon="11.854696"><ele>1376.8</ele></trkpt><trkpt lat="47.671317" lon="11.855053"><ele>1373</ele></trkpt><trkpt lat="47.671528" lon="11.855508"><ele>1370.7</ele></trkpt><trkpt lat="47.671643" lon="11.856027"><ele>1366</ele></trkpt><trkpt lat="47.671717" lon="11.856128"><ele>1371.6</ele></trkpt><trkpt lat="47.671768" lon="11.856443"><ele>1372.3</ele></trkpt><trkpt lat="47.671911" lon="11.85668"><ele>1373</ele></trkpt><trkpt lat="47.672179" lon="11.85684"><ele>1373</ele></trkpt><trkpt lat="47.672257" lon="11.856927"><ele>1373</ele></trkpt><trkpt lat="47.672231" lon="11.857104"><ele>1396</ele></trkpt><trkpt lat="47.67217" lon="11.857285"><ele>1394.8</ele></trkpt><trkpt lat="47.672163" lon="11.857399"><ele>1395.7</ele></trkpt><trkpt lat="47.672136" lon="11.857507"><ele>1394.7</ele></trkpt><trkpt lat="47.672164" lon="11.857627"><ele>1393.8</ele></trkpt><trkpt lat="47.672265" lon="11.857695"><ele>1395.3</ele></trkpt><trkpt lat="47.672333" lon="11.85765"><ele>1395.7</ele></trkpt><trkpt lat="47.672407" lon="11.857647"><ele>1394.9</ele></trkpt><trkpt lat="47.672618" lon="11.857702"><ele>1397.6</ele></trkpt><trkpt lat="47.67257" lon="11.857951"><ele>1398.9</ele></trkpt><trkpt lat="47.672651" lon="11.857962"><ele>1398.8</ele></trkpt><trkpt lat="47.672671" lon="11.858153"><ele>1400.2</ele></trkpt><trkpt lat="47.672896" lon="11.85824"><ele>1405.6</ele></trkpt><trkpt lat="47.672904" lon="11.858356"><ele>1406</ele></trkpt><trkpt lat="47.673009" lon="11.858326"><ele>1407.1</ele></trkpt><trkpt lat="47.673002" lon="11.85857"><ele>1407.5</ele></trkpt><trkpt lat="47.673156" lon="11.858657"><ele>1415.1</ele></trkpt><trkpt lat="47.673114" lon="11.858811"><ele>1415.3</ele></trkpt><trkpt lat="47.673302" lon="11.858807"><ele>1419.7</ele></trkpt><trkpt lat="47.673328" lon="11.85898"><ele>1423.4</ele></trkpt><trkpt lat="47.673453" lon="11.858956"><ele>1428.1</ele></trkpt><trkpt lat="47.673485" lon="11.859189"><ele>1429.6</ele></trkpt><trkpt lat="47.673729" lon="11.859185"><ele>1439.2</ele></trkpt><trkpt lat="47.673858" lon="11.859153"><ele>1441.5</ele></trkpt><trkpt lat="47.673877" lon="11.859175"><ele>1442.6</ele></trkpt><trkpt lat="47.673852" lon="11.859325"><ele>1443.6</ele></trkpt><trkpt lat="47.673843" lon="11.859505"><ele>1444.6</ele></trkpt><trkpt lat="47.673894" lon="11.859802"><ele>1451.3</ele></trkpt><trkpt lat="47.673915" lon="11.860125"><ele>1467.8</ele></trkpt><trkpt lat="47.673993" lon="11.860197"><ele>1469.7</ele></trkpt><trkpt lat="47.673982" lon="11.860625"><ele>1480.4</ele></trkpt><trkpt lat="47.674072" lon="11.861034"><ele>1489</ele></trkpt><trkpt lat="47.674069" lon="11.861652"><ele>1496.6</ele></trkpt><trkpt lat="47.674129" lon="11.861838"><ele>1498.2</ele></trkpt><trkpt lat="47.674247" lon="11.861808"><ele>1500.9</ele></trkpt><trkpt lat="47.674286" lon="11.861838"><ele>1503.5</ele></trkpt><trkpt lat="47.674398" lon="11.861739"><ele>1505.9</ele></trkpt><trkpt lat="47.674464" lon="11.861755"><ele>1508.1</ele></trkpt><trkpt lat="47.67458" lon="11.861933"><ele>1514.8</ele></trkpt><trkpt lat="47.674845" lon="11.862043"><ele>1519.9</ele></trkpt><trkpt lat="47.674926" lon="11.862131"><ele>1539</ele></trkpt><trkpt lat="47.674992" lon="11.862318"><ele>1555</ele></trkpt><trkpt lat="47.674939" lon="11.86283"><ele>1559.7</ele></trkpt><trkpt lat="47.674915" lon="11.862906"><ele>1559.2</ele></trkpt><trkpt lat="47.674926" lon="11.862956"><ele>1558.8</ele></trkpt><trkpt lat="47.675002" lon="11.862909"><ele>1559.9</ele></trkpt><trkpt lat="47.675042" lon="11.862977"><ele>1560.9</ele></trkpt><trkpt lat="47.675004" lon="11.863769"><ele>1563.7</ele></trkpt><trkpt lat="47.675089" lon="11.864703"><ele>1614</ele></trkpt><trkpt lat="47.67509" lon="11.864938"><ele>1604.9</ele></trkpt><trkpt lat="47.675045" lon="11.865123"><ele>1606.4</ele></trkpt><trkpt lat="47.67504" lon="11.865168"><ele>1608.2</ele></trkpt><trkpt lat="47.675006" lon="11.865485"><ele>1610</ele></trkpt><trkpt lat="47.675006" lon="11.865644"><ele>1611</ele></trkpt><trkpt lat="47.674949" lon="11.86594"><ele>1602.4</ele></trkpt><trkpt lat="47.674951" lon="11.86609"><ele>1598.2</ele></trkpt><trkpt lat="47.675028" lon="11.866334"><ele>1575</ele></trkpt><trkpt lat="47.675073" lon="11.866531"><ele>1575</ele></trkpt><trkpt lat="47.675083" lon="11.866626"><ele>1575</ele></trkpt><trkpt lat="47.675238" lon="11.86732"><ele>1585</ele></trkpt><trkpt lat="47.675424" lon="11.867632"><ele>1590.6</ele></trkpt><trkpt lat="47.675486" lon="11.867777"><ele>1590.6</ele></trkpt><trkpt lat="47.675618" lon="11.868307"><ele>1591.2</ele></trkpt><trkpt lat="47.675768" lon="11.868604"><ele>1590.8</ele></trkpt><trkpt lat="47.675858" lon="11.86886"><ele>1592.1</ele></trkpt><trkpt lat="47.675889" lon="11.869173"><ele>1595</ele></trkpt><trkpt lat="47.675949" lon="11.869403"><ele>1595.2</ele></trkpt><trkpt lat="47.676093" lon="11.869632"><ele>1597.2</ele></trkpt><trkpt lat="47.676131" lon="11.869902"><ele>1597.2</ele></trkpt><trkpt lat="47.676247" lon="11.870212"><ele>1599.8</ele></trkpt><trkpt lat="47.676271" lon="11.870461"><ele>1601.2</ele></trkpt><trkpt lat="47.676352" lon="11.87068"><ele>1605.7</ele></trkpt><trkpt lat="47.676386" lon="11.870879"><ele>1623</ele></trkpt><trkpt lat="47.6765" lon="11.871038"><ele>1623</ele></trkpt><trkpt lat="47.676578" lon="11.870993"><ele>1608.8</ele></trkpt><trkpt lat="47.676625" lon="11.871027"><ele>1609.1</ele></trkpt><trkpt lat="47.676622" lon="11.870958"><ele>1610.8</ele></trkpt><trkpt lat="47.676661" lon="11.87094"><ele>1610.1</ele></trkpt><trkpt lat="47.677043" lon="11.871248"><ele>1607.9</ele></trkpt><trkpt lat="47.67714" lon="11.871218"><ele>1607.4</ele></trkpt><trkpt lat="47.677413" lon="11.871492"><ele>1604.9</ele></trkpt><trkpt lat="47.677442" lon="11.871444"><ele>1604</ele></trkpt><trkpt lat="47.677436" lon="11.871348"><ele>1607.1</ele></trkpt><trkpt lat="47.677714" lon="11.871528"><ele>1602.7</ele></trkpt><trkpt lat="47.677784" lon="11.87146"><ele>1602.6</ele></trkpt><trkpt lat="47.677852" lon="11.871559"><ele>1601.8</ele></trkpt><trkpt lat="47.677911" lon="11.871576"><ele>1599.3</ele></trkpt><trkpt lat="47.677947" lon="11.87148"><ele>1599.3</ele></trkpt><trkpt lat="47.678032" lon="11.871581"><ele>1598.4</ele></trkpt><trkpt lat="47.678053" lon="11.871679"><ele>1596.6</ele></trkpt><trkpt lat="47.678116" lon="11.871678"><ele>1596.6</ele></trkpt><trkpt lat="47.678176" lon="11.871635"><ele>1594.9</ele></trkpt><trkpt lat="47.678261" lon="11.871669"><ele>1593.1</ele></trkpt><trkpt lat="47.678378" lon="11.871651"><ele>1590.1</ele></trkpt><trkpt lat="47.678334" lon="11.871889"><ele>1589.3</ele></trkpt><trkpt lat="47.678462" lon="11.871816"><ele>1585</ele></trkpt><trkpt lat="47.678533" lon="11.871749"><ele>1584.3</ele></trkpt><trkpt lat="47.678531" lon="11.871598"><ele>1583.1</ele></trkpt><trkpt lat="47.678638" lon="11.871823"><ele>1582.5</ele></trkpt><trkpt lat="47.678749" lon="11.871846"><ele>1575.7</ele></trkpt><trkpt lat="47.678757" lon="11.871737"><ele>1579.7</ele></trkpt><trkpt lat="47.678866" lon="11.871839"><ele>1572.6</ele></trkpt><trkpt lat="47.678929" lon="11.871959"><ele>1572.4</ele></trkpt><trkpt lat="47.679365" lon="11.872137"><ele>1552.6</ele></trkpt><trkpt lat="47.679427" lon="11.872182"><ele>1546.8</ele></trkpt><trkpt lat="47.679494" lon="11.872185"><ele>1542.6</ele></trkpt><trkpt lat="47.679741" lon="11.87227"><ele>1536.1</ele></trkpt><trkpt lat="47.680092" lon="11.872544"><ele>1517.2</ele></trkpt><trkpt lat="47.680239" lon="11.872578"><ele>1503.8</ele></trkpt><trkpt lat="47.680288" lon="11.872665"><ele>1502.9</ele></trkpt><trkpt lat="47.680494" lon="11.872733"><ele>1471.6</ele></trkpt><trkpt lat="47.681757" lon="11.873351"><ele>1413</ele></trkpt><trkpt lat="47.681766" lon="11.873287"><ele>1412.7</ele></trkpt><trkpt lat="47.681661" lon="11.873047"><ele>1417.9</ele></trkpt><trkpt lat="47.68156" lon="11.872889"><ele>1426.5</ele></trkpt><trkpt lat="47.681712" lon="11.872927"><ele>1412.3</ele></trkpt><trkpt lat="47.682032" lon="11.873156"><ele>1405.8</ele></trkpt><trkpt lat="47.682135" lon="11.873192"><ele>1406.5</ele></trkpt><trkpt lat="47.682307" lon="11.873369"><ele>1407.7</ele></trkpt><trkpt lat="47.682367" lon="11.873552"><ele>1412.9</ele></trkpt><trkpt lat="47.682506" lon="11.87357"><ele>1412</ele></trkpt><trkpt lat="47.682596" lon="11.873551"><ele>1412.5</ele></trkpt><trkpt lat="47.682678" lon="11.873427"><ele>1410.1</ele></trkpt><trkpt lat="47.682673" lon="11.873394"><ele>1407.3</ele></trkpt><trkpt lat="47.682636" lon="11.873154"><ele>1404.5</ele></trkpt><trkpt lat="47.68265" lon="11.873084"><ele>1404.5</ele></trkpt><trkpt lat="47.682847" lon="11.873036"><ele>1403.1</ele></trkpt><trkpt lat="47.682865" lon="11.872869"><ele>1400.5</ele></trkpt><trkpt lat="47.682851" lon="11.872716"><ele>1400.5</ele></trkpt><trkpt lat="47.683001" lon="11.872714"><ele>1395</ele></trkpt><trkpt lat="47.682927" lon="11.872464"><ele>1391.7</ele></trkpt><trkpt lat="47.682892" lon="11.872102"><ele>1389.5</ele></trkpt><trkpt lat="47.682863" lon="11.872062"><ele>1387.7</ele></trkpt><trkpt lat="47.682871" lon="11.871992"><ele>1387.3</ele></trkpt><trkpt lat="47.682822" lon="11.871839"><ele>1385.6</ele></trkpt><trkpt lat="47.682813" lon="11.871681"><ele>1382.8</ele></trkpt><trkpt lat="47.682761" lon="11.871611"><ele>1373.1</ele></trkpt><trkpt lat="47.682804" lon="11.871563"><ele>1369.2</ele></trkpt><trkpt lat="47.682724" lon="11.871542"><ele>1368.6</ele></trkpt><trkpt lat="47.682845" lon="11.8714"><ele>1363.9</ele></trkpt><trkpt lat="47.682809" lon="11.871292"><ele>1363.6</ele></trkpt><trkpt lat="47.682827" lon="11.871247"><ele>1363.2</ele></trkpt><trkpt lat="47.682804" lon="11.871209"><ele>1362.8</ele></trkpt><trkpt lat="47.682844" lon="11.871075"><ele>1357.7</ele></trkpt><trkpt lat="47.682806" lon="11.871005"><ele>1354.7</ele></trkpt><trkpt lat="47.682827" lon="11.870925"><ele>1354.6</ele></trkpt><trkpt lat="47.682791" lon="11.87071"><ele>1347.6</ele></trkpt><trkpt lat="47.682688" lon="11.870614"><ele>1345.8</ele></trkpt><trkpt lat="47.68271" lon="11.870453"><ele>1344.3</ele></trkpt><trkpt lat="47.683012" lon="11.869994"><ele>1334.4</ele></trkpt><trkpt lat="47.682954" lon="11.869822"><ele>1332.2</ele></trkpt><trkpt lat="47.682919" lon="11.869648"><ele>1329.9</ele></trkpt><trkpt lat="47.682927" lon="11.86956"><ele>1326.6</ele></trkpt><trkpt lat="47.682892" lon="11.869407"><ele>1326</ele></trkpt><trkpt lat="47.682939" lon="11.869192"><ele>1320.4</ele></trkpt><trkpt lat="47.682927" lon="11.869077"><ele>1319.7</ele></trkpt><trkpt lat="47.682958" lon="11.868858"><ele>1313.8</ele></trkpt><trkpt lat="47.682965" lon="11.868444"><ele>1310</ele></trkpt><trkpt lat="47.683087" lon="11.868318"><ele>1309.8</ele></trkpt><trkpt lat="47.683181" lon="11.868331"><ele>1309.7</ele></trkpt><trkpt lat="47.683293" lon="11.868297"><ele>1308</ele></trkpt><trkpt lat="47.683398" lon="11.868404"><ele>1296</ele></trkpt><trkpt lat="47.683797" lon="11.86864"><ele>1296</ele></trkpt><trkpt lat="47.683969" lon="11.86874"><ele>1296</ele></trkpt><trkpt lat="47.684039" lon="11.868726"><ele>1293.6</ele></trkpt><trkpt lat="47.68433" lon="11.868549"><ele>1292.5</ele></trkpt><trkpt lat="47.684435" lon="11.868452"><ele>1291.5</ele></trkpt><trkpt lat="47.684915" lon="11.867721"><ele>1292.4</ele></trkpt><trkpt lat="47.685035" lon="11.867425"><ele>1292.9</ele></trkpt><trkpt lat="47.685152" lon="11.867356"><ele>1291.2</ele></trkpt><trkpt lat="47.685248" lon="11.867366"><ele>1290.6</ele></trkpt><trkpt lat="47.685436" lon="11.867428"><ele>1290</ele></trkpt><trkpt lat="47.685482" lon="11.867461"><ele>1283</ele></trkpt><trkpt lat="47.685512" lon="11.867527"><ele>1250.8</ele></trkpt><trkpt lat="47.685579" lon="11.867937"><ele>1249.3</ele></trkpt><trkpt lat="47.68557" lon="11.868012"><ele>1249.8</ele></trkpt><trkpt lat="47.685538" lon="11.86808"><ele>1250.2</ele></trkpt><trkpt lat="47.685432" lon="11.86821"><ele>1250.7</ele></trkpt><trkpt lat="47.685398" lon="11.868315"><ele>1250</ele></trkpt><trkpt lat="47.68537" lon="11.86845"><ele>1250.3</ele></trkpt><trkpt lat="47.685375" lon="11.86862"><ele>1249.4</ele></trkpt><trkpt lat="47.685411" lon="11.868777"><ele>1244.8</ele></trkpt><trkpt lat="47.685494" lon="11.868958"><ele>1242.9</ele></trkpt><trkpt lat="47.685645" lon="11.869173"><ele>1241.9</ele></trkpt><trkpt lat="47.685695" lon="11.869225"><ele>1239.9</ele></trkpt><trkpt lat="47.685912" lon="11.86945"><ele>1238</ele></trkpt><trkpt lat="47.685963" lon="11.869561"><ele>1236.5</ele></trkpt><trkpt lat="47.685992" lon="11.869724"><ele>1235.8</ele></trkpt><trkpt lat="47.68601" lon="11.870031"><ele>1231.1</ele></trkpt><trkpt lat="47.686051" lon="11.870317"><ele>1228.1</ele></trkpt><trkpt lat="47.686081" lon="11.870397"><ele>1226.4</ele></trkpt><trkpt lat="47.686132" lon="11.870411"><ele>1226.2</ele></trkpt><trkpt lat="47.686183" lon="11.870376"><ele>1225.9</ele></trkpt><trkpt lat="47.686236" lon="11.870294"><ele>1225.7</ele></trkpt><trkpt lat="47.686494" lon="11.869818"><ele>1221.7</ele></trkpt><trkpt lat="47.686774" lon="11.86924"><ele>1214.3</ele></trkpt><trkpt lat="47.686834" lon="11.869182"><ele>1213.5</ele></trkpt><trkpt lat="47.687395" lon="11.869045"><ele>1186.9</ele></trkpt><trkpt lat="47.687683" lon="11.868894"><ele>1186.1</ele></trkpt><trkpt lat="47.687767" lon="11.868879"><ele>1185.3</ele></trkpt><trkpt lat="47.687937" lon="11.868904"><ele>1184.3</ele></trkpt><trkpt lat="47.688058" lon="11.868889"><ele>1184</ele></trkpt><trkpt lat="47.688254" lon="11.868797"><ele>1182.2</ele></trkpt><trkpt lat="47.688381" lon="11.868776"><ele>1180.5</ele></trkpt><trkpt lat="47.688418" lon="11.868806"><ele>1180.3</ele></trkpt><trkpt lat="47.688517" lon="11.869056"><ele>1178.8</ele></trkpt><trkpt lat="47.688529" lon="11.869138"><ele>1178.7</ele></trkpt><trkpt lat="47.688505" lon="11.869545"><ele>1174.4</ele></trkpt><trkpt lat="47.688517" lon="11.869681"><ele>1173.9</ele></trkpt><trkpt lat="47.688602" lon="11.869982"><ele>1170.3</ele></trkpt><trkpt lat="47.688658" lon="11.870255"><ele>1168.6</ele></trkpt><trkpt lat="47.688705" lon="11.870361"><ele>1166</ele></trkpt><trkpt lat="47.688764" lon="11.8704"><ele>1164.4</ele></trkpt><trkpt lat="47.688858" lon="11.870394"><ele>1162.9</ele></trkpt><trkpt lat="47.688994" lon="11.870425"><ele>1159.9</ele></trkpt><trkpt lat="47.689476" lon="11.870584"><ele>1146.9</ele></trkpt><trkpt lat="47.689623" lon="11.870646"><ele>1141</ele></trkpt><trkpt lat="47.689751" lon="11.870751"><ele>1138.3</ele></trkpt><trkpt lat="47.689856" lon="11.870931"><ele>1134.4</ele></trkpt><trkpt lat="47.689967" lon="11.871272"><ele>1129.2</ele></trkpt><trkpt lat="47.690035" lon="11.871592"><ele>1123.9</ele></trkpt><trkpt lat="47.690052" lon="11.87226"><ele>1111.4</ele></trkpt><trkpt lat="47.69009" lon="11.872371"><ele>1109.9</ele></trkpt><trkpt lat="47.690178" lon="11.87246"><ele>1109.8</ele></trkpt><trkpt lat="47.690702" lon="11.872737"><ele>1079.4</ele></trkpt><trkpt lat="47.691023" lon="11.87299"><ele>1074.6</ele></trkpt><trkpt lat="47.691793" lon="11.873685"><ele>1066.6</ele></trkpt><trkpt lat="47.691829" lon="11.873685"><ele>1066</ele></trkpt><trkpt lat="47.691856" lon="11.873656"><ele>1065.5</ele></trkpt><trkpt lat="47.691868" lon="11.873605"><ele>1064.4</ele></trkpt><trkpt lat="47.691844" lon="11.873453"><ele>1063.7</ele></trkpt><trkpt lat="47.691552" lon="11.872502"><ele>1060.8</ele></trkpt><trkpt lat="47.691505" lon="11.872257"><ele>1063</ele></trkpt><trkpt lat="47.691526" lon="11.871683"><ele>1056.3</ele></trkpt><trkpt lat="47.691508" lon="11.871369"><ele>1056.3</ele></trkpt><trkpt lat="47.69146" lon="11.871052"><ele>1056.8</ele></trkpt><trkpt lat="47.691476" lon="11.870959"><ele>1061.1</ele></trkpt><trkpt lat="47.691551" lon="11.87092"><ele>1057.2</ele></trkpt><trkpt lat="47.691663" lon="11.870958"><ele>1057.6</ele></trkpt><trkpt lat="47.692125" lon="11.871313"><ele>1050.6</ele></trkpt><trkpt lat="47.69319" lon="11.872217"><ele>989.3</ele></trkpt><trkpt lat="47.693509" lon="11.872511"><ele>982.6</ele></trkpt><trkpt lat="47.693642" lon="11.872701"><ele>981.4</ele></trkpt><trkpt lat="47.693736" lon="11.872928"><ele>980.3</ele></trkpt><trkpt lat="47.693907" lon="11.873506"><ele>978</ele></trkpt><trkpt lat="47.69403" lon="11.873642"><ele>958.9</ele></trkpt><trkpt lat="47.694153" lon="11.87386"><ele>954.2</ele></trkpt><trkpt lat="47.694179" lon="11.874001"><ele>952.8</ele></trkpt><trkpt lat="47.694301" lon="11.874264"><ele>954.5</ele></trkpt><trkpt lat="47.694334" lon="11.874419"><ele>935</ele></trkpt><trkpt lat="47.694364" lon="11.874414"><ele>922.9</ele></trkpt><trkpt lat="47.694417" lon="11.874358"><ele>922.1</ele></trkpt><trkpt lat="47.694429" lon="11.874322"><ele>921.7</ele></trkpt><trkpt lat="47.694509" lon="11.874307"><ele>920.8</ele></trkpt><trkpt lat="47.694539" lon="11.874312"><ele>920.4</ele></trkpt><trkpt lat="47.694561" lon="11.874352"><ele>919.9</ele></trkpt><trkpt lat="47.694653" lon="11.874419"><ele>918.4</ele></trkpt><trkpt lat="47.694684" lon="11.874425"><ele>917.8</ele></trkpt><trkpt lat="47.694712" lon="11.874388"><ele>916.7</ele></trkpt><trkpt lat="47.694787" lon="11.874457"><ele>915.5</ele></trkpt><trkpt lat="47.694807" lon="11.874505"><ele>914.9</ele></trkpt><trkpt lat="47.69487" lon="11.87454"><ele>914.2</ele></trkpt><trkpt lat="47.694907" lon="11.874653"><ele>913.6</ele></trkpt><trkpt lat="47.694965" lon="11.874643"><ele>912.9</ele></trkpt><trkpt lat="47.695114" lon="11.874858"><ele>913.1</ele></trkpt><trkpt lat="47.69527" lon="11.875038"><ele>914.1</ele></trkpt><trkpt lat="47.695224" lon="11.874783"><ele>915.3</ele></trkpt><trkpt lat="47.695423" lon="11.874867"><ele>898</ele></trkpt><trkpt lat="47.695467" lon="11.874784"><ele>898</ele></trkpt><trkpt lat="47.695509" lon="11.874772"><ele>898</ele></trkpt><trkpt lat="47.695678" lon="11.874909"><ele>898</ele></trkpt><trkpt lat="47.696359" lon="11.874561"><ele>886.5</ele></trkpt><trkpt lat="47.696628" lon="11.874301"><ele>886</ele></trkpt><trkpt lat="47.696767" lon="11.874234"><ele>885.5</ele></trkpt><trkpt lat="47.696987" lon="11.874191"><ele>887.8</ele></trkpt><trkpt lat="47.697215" lon="11.874091"><ele>892.5</ele></trkpt><trkpt lat="47.697404" lon="11.873998"><ele>892</ele></trkpt><trkpt lat="47.697588" lon="11.873858"><ele>890.8</ele></trkpt><trkpt lat="47.697945" lon="11.873429"><ele>894.3</ele></trkpt><trkpt lat="47.698151" lon="11.873035"><ele>896.6</ele></trkpt><trkpt lat="47.698266" lon="11.872856"><ele>907</ele></trkpt><trkpt lat="47.698341" lon="11.872746"><ele>861</ele></trkpt><trkpt lat="47.698943" lon="11.871976"><ele>876.9</ele></trkpt><trkpt lat="47.69905" lon="11.871792"><ele>875.2</ele></trkpt><trkpt lat="47.699226" lon="11.871422"><ele>873.3</ele></trkpt><trkpt lat="47.699396" lon="11.87097"><ele>870</ele></trkpt><trkpt lat="47.699474" lon="11.870765"><ele>886</ele></trkpt><trkpt lat="47.699572" lon="11.870636"><ele>885.2</ele></trkpt><trkpt lat="47.699657" lon="11.870588"><ele>884.2</ele></trkpt><trkpt lat="47.699736" lon="11.870585"><ele>890</ele></trkpt><trkpt lat="47.699881" lon="11.870646"><ele>864.5</ele></trkpt><trkpt lat="47.70035" lon="11.871068"><ele>839</ele></trkpt><trkpt lat="47.700305" lon="11.871249"><ele>839</ele></trkpt><trkpt lat="47.700359" lon="11.871358"><ele>836</ele></trkpt><trkpt lat="47.700562" lon="11.872138"><ele>835.3</ele></trkpt><trkpt lat="47.70077" lon="11.872852"><ele>832</ele></trkpt><trkpt lat="47.701375" lon="11.875245"><ele>822</ele></trkpt><trkpt lat="47.70215" lon="11.875172"><ele>823</ele></trkpt><trkpt lat="47.702339" lon="11.875104"><ele>823</ele></trkpt><trkpt lat="47.702481" lon="11.875053"><ele>823</ele></trkpt><trkpt lat="47.70269" lon="11.875023"><ele>823</ele></trkpt><trkpt lat="47.703099" lon="11.874968"><ele>824</ele></trkpt><trkpt lat="47.703484" lon="11.874884"><ele>824</ele></trkpt><trkpt lat="47.703985" lon="11.874839"><ele>824</ele></trkpt><trkpt lat="47.704124" lon="11.874778"><ele>824</ele></trkpt><trkpt lat="47.704402" lon="11.87474"><ele>822.9</ele></trkpt><trkpt lat="47.704501" lon="11.874745"><ele>822.8</ele></trkpt><trkpt lat="47.704606" lon="11.874782"><ele>822.7</ele></trkpt><trkpt lat="47.704795" lon="11.87489"><ele>822</ele></trkpt><trkpt lat="47.705276" lon="11.875024"><ele>812</ele></trkpt><trkpt lat="47.705353" lon="11.875044"><ele>812</ele></trkpt><trkpt lat="47.705484" lon="11.875138"><ele>812</ele></trkpt><trkpt lat="47.705586" lon="11.875249"><ele>812</ele></trkpt><trkpt lat="47.705619" lon="11.875007"><ele>812</ele></trkpt><trkpt lat="47.705697" lon="11.874417"><ele>815</ele></trkpt><trkpt lat="47.705754" lon="11.874304"><ele>815</ele></trkpt><trkpt lat="47.705801" lon="11.874312"><ele>815</ele></trkpt><trkpt lat="47.705807" lon="11.874252"><ele>815</ele></trkpt><trkpt lat="47.705989" lon="11.874278"><ele>811.7</ele></trkpt><trkpt lat="47.706028" lon="11.874229"><ele>810</ele></trkpt><trkpt lat="47.706051" lon="11.874098"><ele>806</ele></trkpt><trkpt lat="47.706115" lon="11.874117"><ele>806</ele></trkpt><trkpt lat="47.706147" lon="11.873919"><ele>806</ele></trkpt><trkpt lat="47.706159" lon="11.873923"><ele>806</ele></trkpt><trkpt lat="47.70624" lon="11.873364"><ele>806</ele></trkpt></trkseg></trk></gpx>