<gpx xmlns="http://www.topografix.com/GPX/1/1" xmlns:xsi="http://www.w3.org/2001/XMLSchema-instance" xsi:schemaLocation="http://www.topografix.com/GPX/1/1 http://www.topografix.com/GPX/1/1/gpx.xsd" version="1.1" creator="togpx"><metadata/><wpt lat="47.70568067988155" lon="11.933362483978273"><name></name><desc>label=Kirchwandstraße, Fischbachau,BY,Germany</desc></wpt><wpt lat="47.705949618753806" lon="11.93330615758896"><name></name><desc>label=Bahnhofstraße, Fischbachau,BY,Germany</desc></wpt><wpt lat="47.71334038223299" lon="11.963805556297304"><name></name><desc>label=Kalvarienweg, Fischbachau,BY,Germany</desc></wpt><wpt lat="47.71468486510414" lon="11.971240639686584"><name></name><desc>label=Am Waldeck, Fischbachau,BY,Germany</desc></wpt><wpt lat="47.712468705675285" lon="11.978187561035158"><name></name><desc>label=Breitenstein – Kesselalm, Fischbachau,BY,Germany</desc></wpt><wpt lat="47.71245787730339" lon="11.978847384452822"><name></name><desc>label=Breitenstein – Kesselalm, Fischbachau,BY,Germany</desc></wpt><wpt lat="47.71266361598487" lon="11.979512572288515"><name></name><desc>label=Breitenstein – Kesselalm, Fischbachau,BY,Germany</desc></wpt><wpt lat="47.713154497979026" lon="11.97982370853424"><name></name><desc>label=Kesselalm, Fischbachau,BY,Germany</desc></wpt><wpt lat="47.7134721250406" lon="11.980231404304506"><name></name><desc>label=Kesselalm, Fischbachau,BY,Germany</desc></wpt><wpt lat="47.713746437763085" lon="11.980344057083132"><name></name><desc>label=Kesselalm, Fischbachau,BY,Germany</desc></wpt><wpt lat="47.71589757694368" lon="11.986309289932253"><name></name><desc>label=Materialseilbahn Hubertushütte, Fischbachau,BY,Germany</desc></wpt><wpt lat="47.72111263801574" lon="11.987771093845367"><name></name><desc>label=Breitenstein, Fischbachau,BY,Germany</desc></wpt><wpt lat="47.71350100013202" lon="11.991147994995119"><name></name><desc>label=Antrittalm, Fischbachau,BY,Germany</desc></wpt><wpt lat="47.707321365908825" lon="11.996340751647951"><name></name><desc>label=Elbachalm, Fischbachau,BY,Germany</desc></wpt><wpt lat="47.704830535125936" lon="12.003486156463625"><name></name><desc>label=Türkenköpfl, Fischbachau,BY,Germany</desc></wpt><wpt lat="47.70447314529289" lon="12.003480792045595"><name></name><desc>label=Türkenköpfl, Fischbachau,BY,Germany</desc></wpt><wpt lat="47.70552364781786" lon="11.99886739253998"><name></name><desc>label=Elbacher Kreuz, Fischbachau,BY,Germany</desc></wpt><wpt lat="47.70446592527102" lon="12.003486156463625"><name></name><desc>label=Türkenköpfl, Fischbachau,BY,Germany</desc></wpt><wpt lat="47.704826925139855" lon="12.003502249717714"><name></name><desc>label=Türkenköpfl, Fischbachau,BY,Germany</desc></wpt><wpt lat="47.7034695526606" lon="12.012208700180055"><name></name><desc>label=Wendelinkapelle, Brannenburg,BY,Germany</desc></wpt><wpt lat="47.69475047993709" lon="12.01260566711426"><name></name><desc>label=Siglhütte, Bayrischzell,BY,Germany</desc></wpt><wpt lat="47.691312995499956" lon="12.011489868164064"><name></name><desc>label=Materialseilbahn, Bayrischzell,BY,Germany</desc></wpt><wpt lat="47.67374831941931" lon="12.012066543102264"><name></name><desc>label=Krapfen, Bayrischzell,BY,Germany</desc></wpt><trk><name></name><desc>ascent=2005.5
descent=1963.5
opacity=0.9</desc><trkseg><trkpt lat="47.705682" lon="11.933363"><ele>758</ele></trkpt><trkpt lat="47.705723" lon="11.933194"><ele>760</ele></trkpt><trkpt lat="47.705737" lon="11.933201"><ele>756</ele></trkpt><trkpt lat="47.705797" lon="11.93323"><ele>757</ele></trkpt><trkpt lat="47.705828" lon="11.933113"><ele>760</ele></trkpt><trkpt lat="47.705887" lon="11.933079"><ele>760</ele></trkpt><trkpt lat="47.705906" lon="11.933005"><ele>760</ele></trkpt><trkpt lat="47.705991" lon="11.933044"><ele>760</ele></trkpt><trkpt lat="47.705929" lon="11.933241"><ele>756</ele></trkpt><trkpt lat="47.705951" lon="11.933305"><ele>756</ele></trkpt><trkpt lat="47.705964" lon="11.933345"><ele>756</ele></trkpt><trkpt lat="47.706088" lon="11.933411"><ele>756</ele></trkpt><trkpt lat="47.705594" lon="11.935242"><ele>756</ele></trkpt><trkpt lat="47.705876" lon="11.93559"><ele>763.7</ele></trkpt><trkpt lat="47.70621" lon="11.935923"><ele>779</ele></trkpt><trkpt lat="47.706337" lon="11.935931"><ele>779</ele></trkpt><trkpt lat="47.706415" lon="11.935872"><ele>779</ele></trkpt><trkpt lat="47.706583" lon="11.935901"><ele>779</ele></trkpt><trkpt lat="47.706782" lon="11.935946"><ele>779</ele></trkpt><trkpt lat="47.706816" lon="11.935954"><ele>779</ele></trkpt><trkpt lat="47.706849" lon="11.935962"><ele>779</ele></trkpt><trkpt lat="47.70691" lon="11.935589"><ele>764.6</ele></trkpt><trkpt lat="47.70699" lon="11.9353"><ele>762.8</ele></trkpt><trkpt lat="47.707063" lon="11.935152"><ele>760.8</ele></trkpt><trkpt lat="47.707188" lon="11.934999"><ele>761.4</ele></trkpt><trkpt lat="47.707344" lon="11.934861"><ele>762.1</ele></trkpt><trkpt lat="47.707559" lon="11.934727"><ele>762.8</ele></trkpt><trkpt lat="47.707785" lon="11.93462"><ele>756</ele></trkpt><trkpt lat="47.708158" lon="11.934448"><ele>757.5</ele></trkpt><trkpt lat="47.708543" lon="11.934099"><ele>757.6</ele></trkpt><trkpt lat="47.708622" lon="11.934049"><ele>757.6</ele></trkpt><trkpt lat="47.708709" lon="11.934038"><ele>757.6</ele></trkpt><trkpt lat="47.708921" lon="11.934091"><ele>758</ele></trkpt><trkpt lat="47.709174" lon="11.934173"><ele>758</ele></trkpt><trkpt lat="47.709207" lon="11.934172"><ele>758</ele></trkpt><trkpt lat="47.709257" lon="11.934122"><ele>758</ele></trkpt><trkpt lat="47.709252" lon="11.93424"><ele>758</ele></trkpt><trkpt lat="47.710306" lon="11.937076"><ele>753</ele></trkpt><trkpt lat="47.710607" lon="11.937851"><ele>753.8</ele></trkpt><trkpt lat="47.710747" lon="11.938164"><ele>753.7</ele></trkpt><trkpt lat="47.710825" lon="11.938263"><ele>754</ele></trkpt><trkpt lat="47.710923" lon="11.938459"><ele>754</ele></trkpt><trkpt lat="47.711048" lon="11.938657"><ele>754</ele></trkpt><trkpt lat="47.711301" lon="11.938931"><ele>754</ele></trkpt><trkpt lat="47.711754" lon="11.939261"><ele>754</ele></trkpt><trkpt lat="47.711811" lon="11.939449"><ele>754.8</ele></trkpt><trkpt lat="47.711992" lon="11.939593"><ele>755</ele></trkpt><trkpt lat="47.712369" lon="11.939816"><ele>763</ele></trkpt><trkpt lat="47.712583" lon="11.939976"><ele>763</ele></trkpt><trkpt lat="47.712658" lon="11.940102"><ele>763</ele></trkpt><trkpt lat="47.712734" lon="11.940299"><ele>763</ele></trkpt><trkpt lat="47.712757" lon="11.940615"><ele>763</ele></trkpt><trkpt lat="47.712668" lon="11.940947"><ele>772</ele></trkpt><trkpt lat="47.712215" lon="11.941568"><ele>776.5</ele></trkpt><trkpt lat="47.712072" lon="11.941854"><ele>775.8</ele></trkpt><trkpt lat="47.711706" lon="11.942967"><ele>781</ele></trkpt><trkpt lat="47.711614" lon="11.943238"><ele>788</ele></trkpt><trkpt lat="47.7115" lon="11.943772"><ele>802</ele></trkpt><trkpt lat="47.711462" lon="11.943993"><ele>802</ele></trkpt><trkpt lat="47.711356" lon="11.944438"><ele>802</ele></trkpt><trkpt lat="47.71135" lon="11.944509"><ele>802</ele></trkpt><trkpt lat="47.711335" lon="11.945034"><ele>796.6</ele></trkpt><trkpt lat="47.711311" lon="11.945321"><ele>795.2</ele></trkpt><trkpt lat="47.711189" lon="11.946203"><ele>792.7</ele></trkpt><trkpt lat="47.711166" lon="11.946532"><ele>791.9</ele></trkpt><trkpt lat="47.711046" lon="11.947335"><ele>789.3</ele></trkpt><trkpt lat="47.711033" lon="11.947805"><ele>788.4</ele></trkpt><trkpt lat="47.711056" lon="11.948108"><ele>788.9</ele></trkpt><trkpt lat="47.711065" lon="11.94856"><ele>785</ele></trkpt><trkpt lat="47.711064" lon="11.948871"><ele>786</ele></trkpt><trkpt lat="47.71093" lon="11.950399"><ele>786.3</ele></trkpt><trkpt lat="47.710966" lon="11.950469"><ele>787</ele></trkpt><trkpt lat="47.711003" lon="11.950516"><ele>787</ele></trkpt><trkpt lat="47.711038" lon="11.950583"><ele>787</ele></trkpt><trkpt lat="47.710773" lon="11.951413"><ele>786.2</ele></trkpt><trkpt lat="47.710678" lon="11.951779"><ele>785.9</ele></trkpt><trkpt lat="47.710619" lon="11.952181"><ele>786.4</ele></trkpt><trkpt lat="47.710516" lon="11.953064"><ele>786.6</ele></trkpt><trkpt lat="47.710493" lon="11.953735"><ele>787.6</ele></trkpt><trkpt lat="47.710511" lon="11.954137"><ele>788.9</ele></trkpt><trkpt lat="47.710488" lon="11.955135"><ele>823.1</ele></trkpt><trkpt lat="47.710398" lon="11.955775"><ele>843.6</ele></trkpt><trkpt lat="47.710292" lon="11.956168"><ele>866.8</ele></trkpt><trkpt lat="47.710266" lon="11.956409"><ele>875.6</ele></trkpt><trkpt lat="47.710117" lon="11.956915"><ele>876.6</ele></trkpt><trkpt lat="47.709961" lon="11.957969"><ele>868.8</ele></trkpt><trkpt lat="47.710064" lon="11.958539"><ele>863</ele></trkpt><trkpt lat="47.71035" lon="11.958959"><ele>851.4</ele></trkpt><trkpt lat="47.710407" lon="11.959218"><ele>828</ele></trkpt><trkpt lat="47.710415" lon="11.959283"><ele>828</ele></trkpt><trkpt lat="47.710582" lon="11.960222"><ele>828</ele></trkpt><trkpt lat="47.710635" lon="11.960555"><ele>838</ele></trkpt><trkpt lat="47.710613" lon="11.960979"><ele>839.7</ele></trkpt><trkpt lat="47.710662" lon="11.961425"><ele>841.2</ele></trkpt><trkpt lat="47.710759" lon="11.961825"><ele>842.5</ele></trkpt><trkpt lat="47.71087" lon="11.962189"><ele>845.5</ele></trkpt><trkpt lat="47.711093" lon="11.962717"><ele>848.1</ele></trkpt><trkpt lat="47.711179" lon="11.963129"><ele>853.2</ele></trkpt><trkpt lat="47.711241" lon="11.963597"><ele>857.8</ele></trkpt><trkpt lat="47.711311" lon="11.963897"><ele>859.7</ele></trkpt><trkpt lat="47.711437" lon="11.964203"><ele>861.9</ele></trkpt><trkpt lat="47.711543" lon="11.964404"><ele>862.9</ele></trkpt><trkpt lat="47.71172" lon="11.964632"><ele>865.7</ele></trkpt><trkpt lat="47.711945" lon="11.964654"><ele>864.8</ele></trkpt><trkpt lat="47.712245" lon="11.964573"><ele>865.1</ele></trkpt><trkpt lat="47.7123" lon="11.964541"><ele>874</ele></trkpt><trkpt lat="47.712374" lon="11.964563"><ele>870.3</ele></trkpt><trkpt lat="47.712458" lon="11.964547"><ele>871.1</ele></trkpt><trkpt lat="47.712593" lon="11.964472"><ele>872.6</ele></trkpt><trkpt lat="47.712675" lon="11.964372"><ele>868.9</ele></trkpt><trkpt lat="47.712708" lon="11.96436"><ele>855</ele></trkpt><trkpt lat="47.712828" lon="11.964388"><ele>855</ele></trkpt><trkpt lat="47.712967" lon="11.964365"><ele>855</ele></trkpt><trkpt lat="47.713085" lon="11.964119"><ele>855</ele></trkpt><trkpt lat="47.713175" lon="11.963962"><ele>855</ele></trkpt><trkpt lat="47.71334" lon="11.963819"><ele>855</ele></trkpt><trkpt lat="47.713344" lon="11.963816"><ele>855</ele></trkpt><trkpt lat="47.71334" lon="11.963819"><ele>855</ele></trkpt><trkpt lat="47.713175" lon="11.963962"><ele>855</ele></trkpt><trkpt lat="47.713085" lon="11.964119"><ele>855</ele></trkpt><trkpt lat="47.712967" lon="11.964365"><ele>855</ele></trkpt><trkpt lat="47.712863" lon="11.964624"><ele>872.3</ele></trkpt><trkpt lat="47.712739" lon="11.965043"><ele>878</ele></trkpt><trkpt lat="47.712814" lon="11.965302"><ele>878</ele></trkpt><trkpt lat="47.712963" lon="11.965805"><ele>878</ele></trkpt><trkpt lat="47.71298" lon="11.965942"><ele>878</ele></trkpt><trkpt lat="47.712972" lon="11.96613"><ele>878</ele></trkpt><trkpt lat="47.712932" lon="11.966322"><ele>878</ele></trkpt><trkpt lat="47.712694" lon="11.966969"><ele>912</ele></trkpt><trkpt lat="47.712643" lon="11.967256"><ele>899.8</ele></trkpt><trkpt lat="47.712593" lon="11.967674"><ele>899</ele></trkpt><trkpt lat="47.712561" lon="11.967772"><ele>897.3</ele></trkpt><trkpt lat="47.712533" lon="11.967798"><ele>896.4</ele></trkpt><trkpt lat="47.712278" lon="11.967811"><ele>894.8</ele></trkpt><trkpt lat="47.712203" lon="11.967886"><ele>895.1</ele></trkpt><trkpt lat="47.712172" lon="11.967989"><ele>895.5</ele></trkpt><trkpt lat="47.712166" lon="11.968128"><ele>895.9</ele></trkpt><trkpt lat="47.712174" lon="11.968212"><ele>896.3</ele></trkpt><trkpt lat="47.712225" lon="11.96836"><ele>889</ele></trkpt><trkpt lat="47.712316" lon="11.968524"><ele>931.4</ele></trkpt><trkpt lat="47.712534" lon="11.968692"><ele>934.7</ele></trkpt><trkpt lat="47.712646" lon="11.968818"><ele>934.3</ele></trkpt><trkpt lat="47.712723" lon="11.968951"><ele>933.7</ele></trkpt><trkpt lat="47.712839" lon="11.969091"><ele>933.1</ele></trkpt><trkpt lat="47.712991" lon="11.969323"><ele>932.4</ele></trkpt><trkpt lat="47.713103" lon="11.96942"><ele>931.7</ele></trkpt><trkpt lat="47.71324" lon="11.969414"><ele>939</ele></trkpt><trkpt lat="47.713359" lon="11.969373"><ele>939</ele></trkpt><trkpt lat="47.713464" lon="11.969066"><ele>939</ele></trkpt><trkpt lat="47.713518" lon="11.969013"><ele>939</ele></trkpt><trkpt lat="47.713566" lon="11.969007"><ele>939</ele></trkpt><trkpt lat="47.713589" lon="11.969053"><ele>939</ele></trkpt><trkpt lat="47.713811" lon="11.969501"><ele>939</ele></trkpt><trkpt lat="47.713879" lon="11.969695"><ele>939</ele></trkpt><trkpt lat="47.7139" lon="11.969793"><ele>939</ele></trkpt><trkpt lat="47.713973" lon="11.969959"><ele>939</ele></trkpt><trkpt lat="47.714138" lon="11.97023"><ele>939</ele></trkpt><trkpt lat="47.714307" lon="11.970572"><ele>984.5</ele></trkpt><trkpt lat="47.714359" lon="11.970765"><ele>988.9</ele></trkpt><trkpt lat="47.714489" lon="11.97098"><ele>1032</ele></trkpt><trkpt lat="47.71454" lon="11.970994"><ele>1032</ele></trkpt><trkpt lat="47.71456" lon="11.971061"><ele>1032</ele></trkpt><trkpt lat="47.714582" lon="11.971032"><ele>1032</ele></trkpt><trkpt lat="47.714605" lon="11.971085"><ele>1032</ele></trkpt><trkpt lat="47.714626" lon="11.971072"><ele>1032</ele></trkpt><trkpt lat="47.714655" lon="11.971193"><ele>1032</ele></trkpt><trkpt lat="47.714647" lon="11.971226"><ele>1032</ele></trkpt><trkpt lat="47.71468" lon="11.971254"><ele>1032</ele></trkpt><trkpt lat="47.714746" lon="11.97131"><ele>1032</ele></trkpt><trkpt lat="47.71475" lon="11.971336"><ele>1032</ele></trkpt><trkpt lat="47.714833" lon="11.971352"><ele>1032</ele></trkpt><trkpt lat="47.714821" lon="11.971398"><ele>1032</ele></trkpt><trkpt lat="47.714831" lon="11.971425"><ele>1032</ele></trkpt><trkpt lat="47.714864" lon="11.971378"><ele>1032</ele></trkpt><trkpt lat="47.714906" lon="11.971417"><ele>1032</ele></trkpt><trkpt lat="47.714904" lon="11.971451"><ele>1032</ele></trkpt><trkpt lat="47.714961" lon="11.971471"><ele>1032</ele></trkpt><trkpt lat="47.714956" lon="11.971492"><ele>1032</ele></trkpt><trkpt lat="47.715025" lon="11.971601"><ele>1032</ele></trkpt><trkpt lat="47.715045" lon="11.971687"><ele>1032</ele></trkpt><trkpt lat="47.715033" lon="11.971767"><ele>1032</ele></trkpt><trkpt lat="47.714996" lon="11.971836"><ele>1032</ele></trkpt><trkpt lat="47.714972" lon="11.971847"><ele>1032</ele></trkpt><trkpt lat="47.714982" lon="11.971875"><ele>1032</ele></trkpt><trkpt lat="47.714963" lon="11.971982"><ele>1032</ele></trkpt><trkpt lat="47.714985" lon="11.97197"><ele>1032</ele></trkpt><trkpt lat="47.714989" lon="11.971999"><ele>1032</ele></trkpt><trkpt lat="47.715011" lon="11.971988"><ele>1032</ele></trkpt><trkpt lat="47.715111" lon="11.971809"><ele>1032</ele></trkpt><trkpt lat="47.715176" lon="11.971745"><ele>1032</ele></trkpt><trkpt lat="47.71522" lon="11.971735"><ele>1032</ele></trkpt><trkpt lat="47.715249" lon="11.971797"><ele>1032</ele></trkpt><trkpt lat="47.715232" lon="11.972053"><ele>1064.3</ele></trkpt><trkpt lat="47.715241" lon="11.97228"><ele>1066.5</ele></trkpt><trkpt lat="47.715219" lon="11.972706"><ele>1071.5</ele></trkpt><trkpt lat="47.715226" lon="11.972805"><ele>1072.9</ele></trkpt><trkpt lat="47.715218" lon="11.972904"><ele>1072.7</ele></trkpt><trkpt lat="47.715187" lon="11.973002"><ele>1072.5</ele></trkpt><trkpt lat="47.715242" lon="11.973199"><ele>1072.1</ele></trkpt><trkpt lat="47.715288" lon="11.973448"><ele>1071.5</ele></trkpt><trkpt lat="47.715302" lon="11.973465"><ele>1071.3</ele></trkpt><trkpt lat="47.715351" lon="11.973405"><ele>1070.8</ele></trkpt><trkpt lat="47.715393" lon="11.973422"><ele>1070.3</ele></trkpt><trkpt lat="47.715423" lon="11.973511"><ele>1070.1</ele></trkpt><trkpt lat="47.715454" lon="11.973521"><ele>1069.8</ele></trkpt><trkpt lat="47.71551" lon="11.973675"><ele>1068.9</ele></trkpt><trkpt lat="47.715537" lon="11.973703"><ele>1078</ele></trkpt><trkpt lat="47.715518" lon="11.973996"><ele>1078</ele></trkpt><trkpt lat="47.715514" lon="11.974039"><ele>1078</ele></trkpt><trkpt lat="47.715466" lon="11.974289"><ele>1078</ele></trkpt><trkpt lat="47.715429" lon="11.974367"><ele>1078</ele></trkpt><trkpt lat="47.715372" lon="11.974398"><ele>1078</ele></trkpt><trkpt lat="47.715243" lon="11.974352"><ele>1071.8</ele></trkpt><trkpt lat="47.714731" lon="11.973946"><ele>1068.5</ele></trkpt><trkpt lat="47.714635" lon="11.973908"><ele>1071.8</ele></trkpt><trkpt lat="47.714532" lon="11.9739"><ele>1078.1</ele></trkpt><trkpt lat="47.714447" lon="11.973928"><ele>1078.1</ele></trkpt><trkpt lat="47.714033" lon="11.974446"><ele>1088</ele></trkpt><trkpt lat="47.713942" lon="11.974598"><ele>1092.8</ele></trkpt><trkpt lat="47.713818" lon="11.974747"><ele>1097.5</ele></trkpt><trkpt lat="47.713707" lon="11.974834"><ele>1099.4</ele></trkpt><trkpt lat="47.713456" lon="11.974958"><ele>1110.6</ele></trkpt><trkpt lat="47.713429" lon="11.975047"><ele>1110.6</ele></trkpt><trkpt lat="47.713427" lon="11.975433"><ele>1115.1</ele></trkpt><trkpt lat="47.713393" lon="11.975551"><ele>1114.2</ele></trkpt><trkpt lat="47.713091" lon="11.975948"><ele>1116.7</ele></trkpt><trkpt lat="47.712773" lon="11.976584"><ele>1118.4</ele></trkpt><trkpt lat="47.712721" lon="11.976662"><ele>1118.8</ele></trkpt><trkpt lat="47.712588" lon="11.976762"><ele>1131</ele></trkpt><trkpt lat="47.7124" lon="11.976926"><ele>1131</ele></trkpt><trkpt lat="47.712344" lon="11.976983"><ele>1233</ele></trkpt><trkpt lat="47.712294" lon="11.977081"><ele>1233</ele></trkpt><trkpt lat="47.712289" lon="11.977154"><ele>1233</ele></trkpt><trkpt lat="47.712299" lon="11.97722"><ele>1233</ele></trkpt><trkpt lat="47.712337" lon="11.977295"><ele>1233</ele></trkpt><trkpt lat="47.712402" lon="11.977359"><ele>1209</ele></trkpt><trkpt lat="47.71248" lon="11.977433"><ele>1209</ele></trkpt><trkpt lat="47.712642" lon="11.977623"><ele>1209</ele></trkpt><trkpt lat="47.71263" lon="11.977674"><ele>1209</ele></trkpt><trkpt lat="47.71247" lon="11.977772"><ele>1209</ele></trkpt><trkpt lat="47.712463" lon="11.977777"><ele>1209</ele></trkpt><trkpt lat="47.712378" lon="11.977841"><ele>1209</ele></trkpt><trkpt lat="47.712357" lon="11.977855"><ele>1223.4</ele></trkpt><trkpt lat="47.712348" lon="11.97789"><ele>1221.5</ele></trkpt><trkpt lat="47.712356" lon="11.97793"><ele>1219.2</ele></trkpt><trkpt lat="47.712384" lon="11.977956"><ele>1209</ele></trkpt><trkpt lat="47.712441" lon="11.977981"><ele>1209</ele></trkpt><trkpt lat="47.712483" lon="11.977997"><ele>1209</ele></trkpt><trkpt lat="47.712473" lon="11.978138"><ele>1209</ele></trkpt><trkpt lat="47.712477" lon="11.978186"><ele>1209</ele></trkpt><trkpt lat="47.712482" lon="11.978246"><ele>1209</ele></trkpt><trkpt lat="47.712527" lon="11.978355"><ele>1209</ele></trkpt><trkpt lat="47.712534" lon="11.978433"><ele>1213.6</ele></trkpt><trkpt lat="47.712502" lon="11.978634"><ele>1212.8</ele></trkpt><trkpt lat="47.712466" lon="11.978765"><ele>1212.1</ele></trkpt><trkpt lat="47.712468" lon="11.978847"><ele>1211.8</ele></trkpt><trkpt lat="47.712473" lon="11.978968"><ele>1211.4</ele></trkpt><trkpt lat="47.712499" lon="11.979069"><ele>1213.3</ele></trkpt><trkpt lat="47.712498" lon="11.979142"><ele>1241</ele></trkpt><trkpt lat="47.71252" lon="11.979195"><ele>1241</ele></trkpt><trkpt lat="47.712503" lon="11.979275"><ele>1241</ele></trkpt><trkpt lat="47.712514" lon="11.979305"><ele>1241</ele></trkpt><trkpt lat="47.7125" lon="11.979357"><ele>1241</ele></trkpt><trkpt lat="47.71255" lon="11.979457"><ele>1241</ele></trkpt><trkpt lat="47.712597" lon="11.979463"><ele>1241</ele></trkpt><trkpt lat="47.712666" lon="11.979506"><ele>1241</ele></trkpt><trkpt lat="47.712761" lon="11.979567"><ele>1241</ele></trkpt><trkpt lat="47.712843" lon="11.979718"><ele>1241</ele></trkpt><trkpt lat="47.712924" lon="11.979727"><ele>1241</ele></trkpt><trkpt lat="47.712981" lon="11.979866"><ele>1241</ele></trkpt><trkpt lat="47.713021" lon="11.979835"><ele>1241</ele></trkpt><trkpt lat="47.713037" lon="11.979865"><ele>1241</ele></trkpt><trkpt lat="47.71307" lon="11.979874"><ele>1241</ele></trkpt><trkpt lat="47.713123" lon="11.979842"><ele>1241</ele></trkpt><trkpt lat="47.713146" lon="11.97981"><ele>1241</ele></trkpt><trkpt lat="47.713156" lon="11.979796"><ele>1241</ele></trkpt><trkpt lat="47.713209" lon="11.979819"><ele>1241</ele></trkpt><trkpt lat="47.713259" lon="11.979892"><ele>1241</ele></trkpt><trkpt lat="47.713282" lon="11.979885"><ele>1241</ele></trkpt><trkpt lat="47.7133" lon="11.979932"><ele>1241</ele></trkpt><trkpt lat="47.713354" lon="11.979906"><ele>1241</ele></trkpt><trkpt lat="47.713376" lon="11.979943"><ele>1241</ele></trkpt><trkpt lat="47.7134" lon="11.980047"><ele>1241</ele></trkpt><trkpt lat="47.713471" lon="11.980233"><ele>1241</ele></trkpt><trkpt lat="47.713483" lon="11.980264"><ele>1241</ele></trkpt><trkpt lat="47.71349" lon="11.980333"><ele>1241</ele></trkpt><trkpt lat="47.71353" lon="11.980305"><ele>1241</ele></trkpt><trkpt lat="47.713564" lon="11.98025"><ele>1241</ele></trkpt><trkpt lat="47.713637" lon="11.98032"><ele>1241</ele></trkpt><trkpt lat="47.713746" lon="11.980349"><ele>1241</ele></trkpt><trkpt lat="47.713758" lon="11.980352"><ele>1241</ele></trkpt><trkpt lat="47.713865" lon="11.980296"><ele>1241</ele></trkpt><trkpt lat="47.713886" lon="11.980134"><ele>1241</ele></trkpt><trkpt lat="47.713927" lon="11.979918"><ele>1241</ele></trkpt><trkpt lat="47.714006" lon="11.980086"><ele>1241</ele></trkpt><trkpt lat="47.71426" lon="11.980348"><ele>1241</ele></trkpt><trkpt lat="47.714382" lon="11.980834"><ele>1241</ele></trkpt><trkpt lat="47.71444" lon="11.981118"><ele>1290</ele></trkpt><trkpt lat="47.714615" lon="11.981847"><ele>1278.2</ele></trkpt><trkpt lat="47.714969" lon="11.982476"><ele>1279.2</ele></trkpt><trkpt lat="47.715004" lon="11.982572"><ele>1276</ele></trkpt><trkpt lat="47.715101" lon="11.982828"><ele>1312.2</ele></trkpt><trkpt lat="47.715374" lon="11.983894"><ele>1319.1</ele></trkpt><trkpt lat="47.715431" lon="11.98427"><ele>1318.3</ele></trkpt><trkpt lat="47.715499" lon="11.984492"><ele>1321.5</ele></trkpt><trkpt lat="47.715528" lon="11.984681"><ele>1322.5</ele></trkpt><trkpt lat="47.715566" lon="11.985211"><ele>1328</ele></trkpt><trkpt lat="47.715583" lon="11.985336"><ele>1356</ele></trkpt><trkpt lat="47.715675" lon="11.98571"><ele>1354.9</ele></trkpt><trkpt lat="47.715689" lon="11.986269"><ele>1352.8</ele></trkpt><trkpt lat="47.715657" lon="11.98642"><ele>1360</ele></trkpt><trkpt lat="47.71565" lon="11.986444"><ele>1360</ele></trkpt><trkpt lat="47.715726" lon="11.986439"><ele>1360</ele></trkpt><trkpt lat="47.715785" lon="11.986379"><ele>1360</ele></trkpt><trkpt lat="47.715896" lon="11.986305"><ele>1360</ele></trkpt><trkpt lat="47.715987" lon="11.986244"><ele>1360</ele></trkpt><trkpt lat="47.716077" lon="11.986081"><ele>1360</ele></trkpt><trkpt lat="47.716157" lon="11.986016"><ele>1360</ele></trkpt><trkpt lat="47.716161" lon="11.985952"><ele>1360</ele></trkpt><trkpt lat="47.716186" lon="11.985882"><ele>1360</ele></trkpt><trkpt lat="47.71622" lon="11.985854"><ele>1360</ele></trkpt><trkpt lat="47.716293" lon="11.9857"><ele>1360</ele></trkpt><trkpt lat="47.716391" lon="11.985564"><ele>1360</ele></trkpt><trkpt lat="47.71644" lon="11.985534"><ele>1393.9</ele></trkpt><trkpt lat="47.716682" lon="11.985704"><ele>1396.8</ele></trkpt><trkpt lat="47.716786" lon="11.985831"><ele>1396.8</ele></trkpt><trkpt lat="47.716982" lon="11.985987"><ele>1396.3</ele></trkpt><trkpt lat="47.717277" lon="11.986491"><ele>1396</ele></trkpt><trkpt lat="47.71733" lon="11.98673"><ele>1395</ele></trkpt><trkpt lat="47.717393" lon="11.98692"><ele>1397.4</ele></trkpt><trkpt lat="47.717575" lon="11.987227"><ele>1397.1</ele></trkpt><trkpt lat="47.717649" lon="11.98727"><ele>1401</ele></trkpt><trkpt lat="47.717707" lon="11.987244"><ele>1410.9</ele></trkpt><trkpt lat="47.717882" lon="11.987025"><ele>1418.7</ele></trkpt><trkpt lat="47.71794" lon="11.986983"><ele>1423</ele></trkpt><trkpt lat="47.71795" lon="11.98699"><ele>1423.3</ele></trkpt><trkpt lat="47.71795" lon="11.987218"><ele>1418.6</ele></trkpt><trkpt lat="47.717974" lon="11.98731"><ele>1417.4</ele></trkpt><trkpt lat="47.717997" lon="11.987328"><ele>1417.6</ele></trkpt><trkpt lat="47.718005" lon="11.987366"><ele>1417.9</ele></trkpt><trkpt lat="47.718023" lon="11.987376"><ele>1418.9</ele></trkpt><trkpt lat="47.718063" lon="11.987235"><ele>1422.4</ele></trkpt><trkpt lat="47.718114" lon="11.987183"><ele>1424.5</ele></trkpt><trkpt lat="47.718166" lon="11.987414"><ele>1423.1</ele></trkpt><trkpt lat="47.718223" lon="11.987487"><ele>1423.5</ele></trkpt><trkpt lat="47.718253" lon="11.987423"><ele>1427.3</ele></trkpt><trkpt lat="47.718307" lon="11.987483"><ele>1429.9</ele></trkpt><trkpt lat="47.718367" lon="11.987337"><ele>1433.6</ele></trkpt><trkpt lat="47.718395" lon="11.987389"><ele>1435.6</ele></trkpt><trkpt lat="47.71842" lon="11.987402"><ele>1436.3</ele></trkpt><trkpt lat="47.718439" lon="11.987386"><ele>1437.1</ele></trkpt><trkpt lat="47.718458" lon="11.9873"><ele>1443.5</ele></trkpt><trkpt lat="47.718406" lon="11.987153"><ele>1446.1</ele></trkpt><trkpt lat="47.718418" lon="11.987141"><ele>1446.6</ele></trkpt><trkpt lat="47.718621" lon="11.987262"><ele>1448.9</ele></trkpt><trkpt lat="47.718568" lon="11.986981"><ele>1462.2</ele></trkpt><trkpt lat="47.71856" lon="11.986836"><ele>1486.4</ele></trkpt><trkpt lat="47.71852" lon="11.986673"><ele>1486.9</ele></trkpt><trkpt lat="47.718531" lon="11.986624"><ele>1488</ele></trkpt><trkpt lat="47.71862" lon="11.986545"><ele>1488.8</ele></trkpt><trkpt lat="47.71871" lon="11.986431"><ele>1488.5</ele></trkpt><trkpt lat="47.7188" lon="11.986199"><ele>1488.4</ele></trkpt><trkpt lat="47.718751" lon="11.986005"><ele>1487.7</ele></trkpt><trkpt lat="47.718779" lon="11.985842"><ele>1487.9</ele></trkpt><trkpt lat="47.71873" lon="11.985595"><ele>1500.4</ele></trkpt><trkpt lat="47.718724" lon="11.985395"><ele>1510.2</ele></trkpt><trkpt lat="47.718737" lon="11.985373"><ele>1510</ele></trkpt><trkpt lat="47.718766" lon="11.985387"><ele>1509.8</ele></trkpt><trkpt lat="47.718779" lon="11.985361"><ele>1510.3</ele></trkpt><trkpt lat="47.718759" lon="11.985242"><ele>1517.7</ele></trkpt><trkpt lat="47.718759" lon="11.985137"><ele>1518.3</ele></trkpt><trkpt lat="47.718772" lon="11.985074"><ele>1518.2</ele></trkpt><trkpt lat="47.718804" lon="11.985023"><ele>1517.9</ele></trkpt><trkpt lat="47.718865" lon="11.985072"><ele>1517.6</ele></trkpt><trkpt lat="47.718943" lon="11.985223"><ele>1516.4</ele></trkpt><trkpt lat="47.718959" lon="11.985214"><ele>1516.1</ele></trkpt><trkpt lat="47.718996" lon="11.985119"><ele>1516.5</ele></trkpt><trkpt lat="47.71904" lon="11.985094"><ele>1516.7</ele></trkpt><trkpt lat="47.719073" lon="11.985134"><ele>1515.7</ele></trkpt><trkpt lat="47.719093" lon="11.985233"><ele>1515.4</ele></trkpt><trkpt lat="47.719137" lon="11.985181"><ele>1515</ele></trkpt><trkpt lat="47.719158" lon="11.985282"><ele>1514.5</ele></trkpt><trkpt lat="47.719192" lon="11.985266"><ele>1514.2</ele></trkpt><trkpt lat="47.719214" lon="11.985303"><ele>1513.8</ele></trkpt><trkpt lat="47.71925" lon="11.98529"><ele>1513.5</ele></trkpt><trkpt lat="47.719284" lon="11.985393"><ele>1513.1</ele></trkpt><trkpt lat="47.719302" lon="11.98536"><ele>1512.9</ele></trkpt><trkpt lat="47.719325" lon="11.985357"><ele>1512.8</ele></trkpt><trkpt lat="47.719354" lon="11.9854"><ele>1512.5</ele></trkpt><trkpt lat="47.71938" lon="11.985359"><ele>1512.9</ele></trkpt><trkpt lat="47.71939" lon="11.985367"><ele>1512.8</ele></trkpt><trkpt lat="47.71939" lon="11.98549"><ele>1512</ele></trkpt><trkpt lat="47.719424" lon="11.985529"><ele>1511.8</ele></trkpt><trkpt lat="47.71944" lon="11.985626"><ele>1510.7</ele></trkpt><trkpt lat="47.719475" lon="11.98569"><ele>1510.6</ele></trkpt><trkpt lat="47.719483" lon="11.985836"><ele>1506.8</ele></trkpt><trkpt lat="47.719528" lon="11.985978"><ele>1505.6</ele></trkpt><trkpt lat="47.71954" lon="11.986124"><ele>1502.3</ele></trkpt><trkpt lat="47.719705" lon="11.986267"><ele>1504.3</ele></trkpt><trkpt lat="47.719803" lon="11.986182"><ele>1507.7</ele></trkpt><trkpt lat="47.719866" lon="11.986213"><ele>1525</ele></trkpt><trkpt lat="47.71989" lon="11.986396"><ele>1525</ele></trkpt><trkpt lat="47.719911" lon="11.986422"><ele>1520.4</ele></trkpt><trkpt lat="47.71992" lon="11.986497"><ele>1520.2</ele></trkpt><trkpt lat="47.720053" lon="11.986744"><ele>1519.9</ele></trkpt><trkpt lat="47.720139" lon="11.986974"><ele>1519.7</ele></trkpt><trkpt lat="47.720149" lon="11.987141"><ele>1519.4</ele></trkpt><trkpt lat="47.720198" lon="11.987287"><ele>1519.1</ele></trkpt><trkpt lat="47.720203" lon="11.987383"><ele>1518.8</ele></trkpt><trkpt lat="47.720222" lon="11.987383"><ele>1518.6</ele></trkpt><trkpt lat="47.720322" lon="11.987221"><ele>1518.4</ele></trkpt><trkpt lat="47.720478" lon="11.987106"><ele>1518.1</ele></trkpt><trkpt lat="47.720608" lon="11.986689"><ele>1517.7</ele></trkpt><trkpt lat="47.72065" lon="11.986681"><ele>1517.4</ele></trkpt><trkpt lat="47.7207" lon="11.986932"><ele>1517</ele></trkpt><trkpt lat="47.720762" lon="11.987119"><ele>1517.3</ele></trkpt><trkpt lat="47.720779" lon="11.987351"><ele>1517.9</ele></trkpt><trkpt lat="47.72076" lon="11.987441"><ele>1518.3</ele></trkpt><trkpt lat="47.720912" lon="11.987337"><ele>1518.1</ele></trkpt><trkpt lat="47.720987" lon="11.987332"><ele>1511</ele></trkpt><trkpt lat="47.721039" lon="11.9873"><ele>1517.7</ele></trkpt><trkpt lat="47.721064" lon="11.987309"><ele>1518.4</ele></trkpt><trkpt lat="47.721081" lon="11.987377"><ele>1519.2</ele></trkpt><trkpt lat="47.721044" lon="11.987598"><ele>1518.8</ele></trkpt><trkpt lat="47.721074" lon="11.987688"><ele>1518.6</ele></trkpt><trkpt lat="47.721118" lon="11.987712"><ele>1518.3</ele></trkpt><trkpt lat="47.721122" lon="11.987766"><ele>1521</ele></trkpt><trkpt lat="47.721118" lon="11.987712"><ele>1518.3</ele></trkpt><trkpt lat="47.721074" lon="11.987688"><ele>1518.6</ele></trkpt><trkpt lat="47.721044" lon="11.987598"><ele>1518.8</ele></trkpt><trkpt lat="47.721081" lon="11.987377"><ele>1519.2</ele></trkpt><trkpt lat="47.721064" lon="11.987309"><ele>1518.4</ele></trkpt><trkpt lat="47.721039" lon="11.9873"><ele>1517.7</ele></trkpt><trkpt lat="47.720987" lon="11.987332"><ele>1511</ele></trkpt><trkpt lat="47.720912" lon="11.987337"><ele>1518.1</ele></trkpt><trkpt lat="47.72076" lon="11.987441"><ele>1518.3</ele></trkpt><trkpt lat="47.720779" lon="11.987351"><ele>1517.9</ele></trkpt><trkpt lat="47.720762" lon="11.987119"><ele>1517.3</ele></trkpt><trkpt lat="47.7207" lon="11.986932"><ele>1517</ele></trkpt><trkpt lat="47.72065" lon="11.986681"><ele>1517.4</ele></trkpt><trkpt lat="47.720608" lon="11.986689"><ele>1517.7</ele></trkpt><trkpt lat="47.720478" lon="11.987106"><ele>1518.1</ele></trkpt><trkpt lat="47.720322" lon="11.987221"><ele>1518.4</ele></trkpt><trkpt lat="47.720222" lon="11.987383"><ele>1518.6</ele></trkpt><trkpt lat="47.720203" lon="11.987383"><ele>1518.8</ele></trkpt><trkpt lat="47.720198" lon="11.987287"><ele>1519.1</ele></trkpt><trkpt lat="47.720149" lon="11.987141"><ele>1519.4</ele></trkpt><trkpt lat="47.720139" lon="11.986974"><ele>1519.7</ele></trkpt><trkpt lat="47.720053" lon="11.986744"><ele>1519.9</ele></trkpt><trkpt lat="47.71992" lon="11.986497"><ele>1520.2</ele></trkpt><trkpt lat="47.719911" lon="11.986422"><ele>1520.4</ele></trkpt><trkpt lat="47.71989" lon="11.986396"><ele>1525</ele></trkpt><trkpt lat="47.719866" lon="11.986213"><ele>1525</ele></trkpt><trkpt lat="47.719803" lon="11.986182"><ele>1507.7</ele></trkpt><trkpt lat="47.719705" lon="11.986267"><ele>1504.3</ele></trkpt><trkpt lat="47.71954" lon="11.986124"><ele>1502.3</ele></trkpt><trkpt lat="47.719528" lon="11.985978"><ele>1505.6</ele></trkpt><trkpt lat="47.719483" lon="11.985836"><ele>1506.8</ele></trkpt><trkpt lat="47.719475" lon="11.98569"><ele>1510.6</ele></trkpt><trkpt lat="47.71944" lon="11.985626"><ele>1510.7</ele></trkpt><trkpt lat="47.719424" lon="11.985529"><ele>1511.8</ele></trkpt><trkpt lat="47.71939" lon="11.98549"><ele>1512</ele></trkpt><trkpt lat="47.71939" lon="11.985367"><ele>1512.8</ele></trkpt><trkpt lat="47.71938" lon="11.985359"><ele>1512.9</ele></trkpt><trkpt lat="47.719354" lon="11.9854"><ele>1512.5</ele></trkpt><trkpt lat="47.719325" lon="11.985357"><ele>1512.8</ele></trkpt><trkpt lat="47.719302" lon="11.98536"><ele>1512.9</ele></trkpt><trkpt lat="47.719284" lon="11.985393"><ele>1513.1</ele></trkpt><trkpt lat="47.71925" lon="11.98529"><ele>1513.5</ele></trkpt><trkpt lat="47.719214" lon="11.985303"><ele>1513.8</ele></trkpt><trkpt lat="47.719192" lon="11.985266"><ele>1514.2</ele></trkpt><trkpt lat="47.719158" lon="11.985282"><ele>1514.5</ele></trkpt><trkpt lat="47.719137" lon="11.985181"><ele>1515</ele></trkpt><trkpt lat="47.719093" lon="11.985233"><ele>1515.4</ele></trkpt><trkpt lat="47.719073" lon="11.985134"><ele>1515.7</ele></trkpt><trkpt lat="47.71904" lon="11.985094"><ele>1516.7</ele></trkpt><trkpt lat="47.718996" lon="11.985119"><ele>1516.5</ele></trkpt><trkpt lat="47.718959" lon="11.985214"><ele>1516.1</ele></trkpt><trkpt lat="47.718943" lon="11.985223"><ele>1516.4</ele></trkpt><trkpt lat="47.718865" lon="11.985072"><ele>1517.6</ele></trkpt><trkpt lat="47.718804" lon="11.985023"><ele>1517.9</ele></trkpt><trkpt lat="47.718772" lon="11.985074"><ele>1518.2</ele></trkpt><trkpt lat="47.718759" lon="11.985137"><ele>1518.3</ele></trkpt><trkpt lat="47.718759" lon="11.985242"><ele>1517.7</ele></trkpt><trkpt lat="47.718779" lon="11.985361"><ele>1510.3</ele></trkpt><trkpt lat="47.718766" lon="11.985387"><ele>1509.8</ele></trkpt><trkpt lat="47.718737" lon="11.985373"><ele>1510</ele></trkpt><trkpt lat="47.718724" lon="11.985395"><ele>1510.2</ele></trkpt><trkpt lat="47.71873" lon="11.985595"><ele>1500.4</ele></trkpt><trkpt lat="47.718779" lon="11.985842"><ele>1487.9</ele></trkpt><trkpt lat="47.718751" lon="11.986005"><ele>1487.7</ele></trkpt><trkpt lat="47.7188" lon="11.986199"><ele>1488.4</ele></trkpt><trkpt lat="47.71871" lon="11.986431"><ele>1488.5</ele></trkpt><trkpt lat="47.71862" lon="11.986545"><ele>1488.8</ele></trkpt><trkpt lat="47.718531" lon="11.986624"><ele>1488</ele></trkpt><trkpt lat="47.71852" lon="11.986673"><ele>1486.9</ele></trkpt><trkpt lat="47.71856" lon="11.986836"><ele>1486.4</ele></trkpt><trkpt lat="47.718568" lon="11.986981"><ele>1462.2</ele></trkpt><trkpt lat="47.718621" lon="11.987262"><ele>1448.9</ele></trkpt><trkpt lat="47.718418" lon="11.987141"><ele>1446.6</ele></trkpt><trkpt lat="47.718406" lon="11.987153"><ele>1446.1</ele></trkpt><trkpt lat="47.718458" lon="11.9873"><ele>1443.5</ele></trkpt><trkpt lat="47.718439" lon="11.987386"><ele>1437.1</ele></trkpt><trkpt lat="47.71842" lon="11.987402"><ele>1436.3</ele></trkpt><trkpt lat="47.718395" lon="11.987389"><ele>1435.6</ele></trkpt><trkpt lat="47.718367" lon="11.987337"><ele>1433.6</ele></trkpt><trkpt lat="47.718307" lon="11.987483"><ele>1429.9</ele></trkpt><trkpt lat="47.718253" lon="11.987423"><ele>1427.3</ele></trkpt><trkpt lat="47.718223" lon="11.987487"><ele>1423.5</ele></trkpt><trkpt lat="47.718166" lon="11.987414"><ele>1423.1</ele></trkpt><trkpt lat="47.718114" lon="11.987183"><ele>1424.5</ele></trkpt><trkpt lat="47.718063" lon="11.987235"><ele>1422.4</ele></trkpt><trkpt lat="47.718023" lon="11.987376"><ele>1418.9</ele></trkpt><trkpt lat="47.718005" lon="11.987366"><ele>1417.9</ele></trkpt><trkpt lat="47.717997" lon="11.987328"><ele>1417.6</ele></trkpt><trkpt lat="47.717974" lon="11.98731"><ele>1417.4</ele></trkpt><trkpt lat="47.71795" lon="11.987218"><ele>1418.6</ele></trkpt><trkpt lat="47.71795" lon="11.98699"><ele>1423.3</ele></trkpt><trkpt lat="47.71794" lon="11.986983"><ele>1423</ele></trkpt><trkpt lat="47.717882" lon="11.987025"><ele>1418.7</ele></trkpt><trkpt lat="47.717707" lon="11.987244"><ele>1410.9</ele></trkpt><trkpt lat="47.717649" lon="11.98727"><ele>1401</ele></trkpt><trkpt lat="47.717575" lon="11.987227"><ele>1397.1</ele></trkpt><trkpt lat="47.717393" lon="11.98692"><ele>1397.4</ele></trkpt><trkpt lat="47.71733" lon="11.98673"><ele>1395</ele></trkpt><trkpt lat="47.717277" lon="11.986491"><ele>1396</ele></trkpt><trkpt lat="47.716982" lon="11.985987"><ele>1396.3</ele></trkpt><trkpt lat="47.716786" lon="11.985831"><ele>1396.8</ele></trkpt><trkpt lat="47.716682" lon="11.985704"><ele>1396.8</ele></trkpt><trkpt lat="47.71644" lon="11.985534"><ele>1393.9</ele></trkpt><trkpt lat="47.716391" lon="11.985564"><ele>1360</ele></trkpt><trkpt lat="47.716302" lon="11.98556"><ele>1356</ele></trkpt><trkpt lat="47.716281" lon="11.985577"><ele>1355.8</ele></trkpt><trkpt lat="47.71625" lon="11.985528"><ele>1355.5</ele></trkpt><trkpt lat="47.716224" lon="11.985554"><ele>1355.2</ele></trkpt><trkpt lat="47.716203" lon="11.985504"><ele>1354.9</ele></trkpt><trkpt lat="47.716151" lon="11.985516"><ele>1354.6</ele></trkpt><trkpt lat="47.716062" lon="11.985613"><ele>1354.2</ele></trkpt><trkpt lat="47.716029" lon="11.98555"><ele>1353.5</ele></trkpt><trkpt lat="47.715971" lon="11.985528"><ele>1353.1</ele></trkpt><trkpt lat="47.715758" lon="11.985525"><ele>1352.2</ele></trkpt><trkpt lat="47.715636" lon="11.985435"><ele>1351.7</ele></trkpt><trkpt lat="47.715584" lon="11.985236"><ele>1351.2</ele></trkpt><trkpt lat="47.715566" lon="11.985211"><ele>1328</ele></trkpt><trkpt lat="47.715583" lon="11.985336"><ele>1356</ele></trkpt><trkpt lat="47.715675" lon="11.98571"><ele>1354.9</ele></trkpt><trkpt lat="47.715689" lon="11.986269"><ele>1352.8</ele></trkpt><trkpt lat="47.715657" lon="11.98642"><ele>1360</ele></trkpt><trkpt lat="47.71565" lon="11.986444"><ele>1360</ele></trkpt><trkpt lat="47.71564" lon="11.986591"><ele>1343.3</ele></trkpt><trkpt lat="47.715612" lon="11.986694"><ele>1341.9</ele></trkpt><trkpt lat="47.715577" lon="11.986741"><ele>1340.4</ele></trkpt><trkpt lat="47.715425" lon="11.986823"><ele>1338.8</ele></trkpt><trkpt lat="47.715353" lon="11.986915"><ele>1337</ele></trkpt><trkpt lat="47.715154" lon="11.987306"><ele>1335.1</ele></trkpt><trkpt lat="47.71499" lon="11.987568"><ele>1333.1</ele></trkpt><trkpt lat="47.714849" lon="11.98772"><ele>1334.1</ele></trkpt><trkpt lat="47.71475" lon="11.987981"><ele>1320</ele></trkpt><trkpt lat="47.714418" lon="11.988479"><ele>1396.6</ele></trkpt><trkpt lat="47.714333" lon="11.988664"><ele>1391.3</ele></trkpt><trkpt lat="47.714211" lon="11.988862"><ele>1388.4</ele></trkpt><trkpt lat="47.714034" lon="11.989277"><ele>1385.4</ele></trkpt><trkpt lat="47.713956" lon="11.989397"><ele>1382.8</ele></trkpt><trkpt lat="47.713909" lon="11.989589"><ele>1383.3</ele></trkpt><trkpt lat="47.713882" lon="11.989638"><ele>1383.5</ele></trkpt><trkpt lat="47.713743" lon="11.989713"><ele>1382.1</ele></trkpt><trkpt lat="47.713697" lon="11.989785"><ele>1381.6</ele></trkpt><trkpt lat="47.713654" lon="11.989897"><ele>1381.7</ele></trkpt><trkpt lat="47.713635" lon="11.990183"><ele>1379.6</ele></trkpt><trkpt lat="47.713535" lon="11.990433"><ele>1378.3</ele></trkpt><trkpt lat="47.713498" lon="11.990669"><ele>1377.7</ele></trkpt><trkpt lat="47.713484" lon="11.990915"><ele>1377.6</ele></trkpt><trkpt lat="47.713493" lon="11.991148"><ele>1377</ele></trkpt><trkpt lat="47.713495" lon="11.991153"><ele>1376.2</ele></trkpt><trkpt lat="47.713542" lon="11.991266"><ele>1375.3</ele></trkpt><trkpt lat="47.713556" lon="11.991343"><ele>1373.3</ele></trkpt><trkpt lat="47.713553" lon="11.991459"><ele>1372.5</ele></trkpt><trkpt lat="47.713594" lon="11.991702"><ele>1369.3</ele></trkpt><trkpt lat="47.713648" lon="11.993156"><ele>1361.1</ele></trkpt><trkpt lat="47.713597" lon="11.993307"><ele>1360.9</ele></trkpt><trkpt lat="47.713253" lon="11.993482"><ele>1360.7</ele></trkpt><trkpt lat="47.712487" lon="11.993279"><ele>1361.7</ele></trkpt><trkpt lat="47.712148" lon="11.99329"><ele>1363.4</ele></trkpt><trkpt lat="47.711913" lon="11.993483"><ele>1363.2</ele></trkpt><trkpt lat="47.711499" lon="11.993473"><ele>1363.4</ele></trkpt><trkpt lat="47.711411" lon="11.993508"><ele>1363.3</ele></trkpt><trkpt lat="47.711361" lon="11.993592"><ele>1364</ele></trkpt><trkpt lat="47.711296" lon="11.993635"><ele>1324.7</ele></trkpt><trkpt lat="47.711092" lon="11.993582"><ele>1327.9</ele></trkpt><trkpt lat="47.710918" lon="11.993679"><ele>1321.9</ele></trkpt><trkpt lat="47.710801" lon="11.993618"><ele>1324.8</ele></trkpt><trkpt lat="47.710367" lon="11.99388"><ele>1305</ele></trkpt><trkpt lat="47.710265" lon="11.993958"><ele>1334</ele></trkpt><trkpt lat="47.709804" lon="11.994366"><ele>1334</ele></trkpt><trkpt lat="47.709029" lon="11.994657"><ele>1365</ele></trkpt><trkpt lat="47.708772" lon="11.99454"><ele>1368.5</ele></trkpt><trkpt lat="47.708442" lon="11.994745"><ele>1381.4</ele></trkpt><trkpt lat="47.70812" lon="11.994766"><ele>1387</ele></trkpt><trkpt lat="47.707985" lon="11.994932"><ele>1390.3</ele></trkpt><trkpt lat="47.707926" lon="11.995121"><ele>1389.4</ele></trkpt><trkpt lat="47.707626" lon="11.995688"><ele>1392.8</ele></trkpt><trkpt lat="47.707453" lon="11.995945"><ele>1392.2</ele></trkpt><trkpt lat="47.707377" lon="11.996363"><ele>1392.6</ele></trkpt><trkpt lat="47.707326" lon="11.996641"><ele>1393</ele></trkpt><trkpt lat="47.707336" lon="11.996928"><ele>1393.5</ele></trkpt><trkpt lat="47.707305" lon="11.997284"><ele>1393.8</ele></trkpt><trkpt lat="47.707265" lon="11.997517"><ele>1396</ele></trkpt><trkpt lat="47.707227" lon="11.997544"><ele>1396</ele></trkpt><trkpt lat="47.707146" lon="11.997383"><ele>1396</ele></trkpt><trkpt lat="47.707122" lon="11.997387"><ele>1396</ele></trkpt><trkpt lat="47.707121" lon="11.997461"><ele>1396</ele></trkpt><trkpt lat="47.707097" lon="11.997472"><ele>1396</ele></trkpt><trkpt lat="47.706966" lon="11.997356"><ele>1396</ele></trkpt><trkpt lat="47.706731" lon="11.996818"><ele>1396</ele></trkpt><trkpt lat="47.706664" lon="11.996808"><ele>1396</ele></trkpt><trkpt lat="47.70655" lon="11.996848"><ele>1396</ele></trkpt><trkpt lat="47.706435" lon="11.997036"><ele>1396</ele></trkpt><trkpt lat="47.706444" lon="11.997316"><ele>1396</ele></trkpt><trkpt lat="47.706375" lon="11.997653"><ele>1396</ele></trkpt><trkpt lat="47.706146" lon="11.997764"><ele>1396</ele></trkpt><trkpt lat="47.706122" lon="11.998053"><ele>1447.3</ele></trkpt><trkpt lat="47.706001" lon="11.998804"><ele>1453.5</ele></trkpt><trkpt lat="47.706027" lon="11.998979"><ele>1454.3</ele></trkpt><trkpt lat="47.706029" lon="11.999109"><ele>1454.3</ele></trkpt><trkpt lat="47.705956" lon="11.999397"><ele>1455.1</ele></trkpt><trkpt lat="47.705957" lon="11.999505"><ele>1455.4</ele></trkpt><trkpt lat="47.705928" lon="11.999628"><ele>1455.8</ele></trkpt><trkpt lat="47.705923" lon="11.999732"><ele>1456.1</ele></trkpt><trkpt lat="47.705709" lon="12.00046"><ele>1461.2</ele></trkpt><trkpt lat="47.70563" lon="12.000602"><ele>1461.5</ele></trkpt><trkpt lat="47.705565" lon="12.000805"><ele>1463.1</ele></trkpt><trkpt lat="47.705563" lon="12.001185"><ele>1464.5</ele></trkpt><trkpt lat="47.705581" lon="12.001467"><ele>1465.4</ele></trkpt><trkpt lat="47.705562" lon="12.001561"><ele>1465.8</ele></trkpt><trkpt lat="47.705497" lon="12.001708"><ele>1466.8</ele></trkpt><trkpt lat="47.705478" lon="12.001796"><ele>1467.2</ele></trkpt><trkpt lat="47.705499" lon="12.002307"><ele>1467.5</ele></trkpt><trkpt lat="47.705463" lon="12.002703"><ele>1467.7</ele></trkpt><trkpt lat="47.705412" lon="12.002791"><ele>1467.3</ele></trkpt><trkpt lat="47.705339" lon="12.002802"><ele>1467.1</ele></trkpt><trkpt lat="47.705304" lon="12.002831"><ele>1472</ele></trkpt><trkpt lat="47.705138" lon="12.003044"><ele>1472</ele></trkpt><trkpt lat="47.704882" lon="12.003435"><ele>1472</ele></trkpt><trkpt lat="47.70484" lon="12.003455"><ele>1472</ele></trkpt><trkpt lat="47.704828" lon="12.003483"><ele>1472</ele></trkpt><trkpt lat="47.704473" lon="12.003481"><ele>1472</ele></trkpt><trkpt lat="47.704515" lon="12.003059"><ele>1470.6</ele></trkpt><trkpt lat="47.70458" lon="12.002838"><ele>1470.8</ele></trkpt><trkpt lat="47.704672" lon="12.002403"><ele>1471.1</ele></trkpt><trkpt lat="47.704919" lon="12.001857"><ele>1465</ele></trkpt><trkpt lat="47.70505" lon="12.001098"><ele>1461.8</ele></trkpt><trkpt lat="47.705075" lon="12.000535"><ele>1459.7</ele></trkpt><trkpt lat="47.705104" lon="12.000435"><ele>1459.4</ele></trkpt><trkpt lat="47.705143" lon="12.000051"><ele>1458.9</ele></trkpt><trkpt lat="47.705142" lon="11.99984"><ele>1458.3</ele></trkpt><trkpt lat="47.705171" lon="11.999658"><ele>1458.1</ele></trkpt><trkpt lat="47.705251" lon="11.99948"><ele>1458</ele></trkpt><trkpt lat="47.705316" lon="11.999227"><ele>1458.1</ele></trkpt><trkpt lat="47.705377" lon="11.999147"><ele>1458</ele></trkpt><trkpt lat="47.705428" lon="11.998996"><ele>1458.3</ele></trkpt><trkpt lat="47.705491" lon="11.998974"><ele>1455</ele></trkpt><trkpt lat="47.705509" lon="11.998863"><ele>1510</ele></trkpt><trkpt lat="47.705491" lon="11.998974"><ele>1455</ele></trkpt><trkpt lat="47.705428" lon="11.998996"><ele>1458.3</ele></trkpt><trkpt lat="47.705377" lon="11.999147"><ele>1458</ele></trkpt><trkpt lat="47.705316" lon="11.999227"><ele>1458.1</ele></trkpt><trkpt lat="47.705251" lon="11.99948"><ele>1458</ele></trkpt><trkpt lat="47.705171" lon="11.999658"><ele>1458.1</ele></trkpt><trkpt lat="47.705142" lon="11.99984"><ele>1458.3</ele></trkpt><trkpt lat="47.705143" lon="12.000051"><ele>1458.9</ele></trkpt><trkpt lat="47.705104" lon="12.000435"><ele>1459.4</ele></trkpt><trkpt lat="47.705075" lon="12.000535"><ele>1459.7</ele></trkpt><trkpt lat="47.70505" lon="12.001098"><ele>1461.8</ele></trkpt><trkpt lat="47.704919" lon="12.001857"><ele>1465</ele></trkpt><trkpt lat="47.704672" lon="12.002403"><ele>1471.1</ele></trkpt><trkpt lat="47.70458" lon="12.002838"><ele>1470.8</ele></trkpt><trkpt lat="47.704515" lon="12.003059"><ele>1470.6</ele></trkpt><trkpt lat="47.704462" lon="12.003485"><ele>1471.3</ele></trkpt><trkpt lat="47.704827" lon="12.003502"><ele>1472</ele></trkpt><trkpt lat="47.704815" lon="12.003512"><ele>1472</ele></trkpt><trkpt lat="47.704696" lon="12.003609"><ele>1472</ele></trkpt><trkpt lat="47.704669" lon="12.003728"><ele>1472</ele></trkpt><trkpt lat="47.704602" lon="12.003885"><ele>1472</ele></trkpt><trkpt lat="47.704549" lon="12.003948"><ele>1472</ele></trkpt><trkpt lat="47.704434" lon="12.003983"><ele>1488.1</ele></trkpt><trkpt lat="47.704206" lon="12.004169"><ele>1488</ele></trkpt><trkpt lat="47.704181" lon="12.00416"><ele>1487.3</ele></trkpt><trkpt lat="47.704159" lon="12.004057"><ele>1485.8</ele></trkpt><trkpt lat="47.70414" lon="12.004058"><ele>1485.2</ele></trkpt><trkpt lat="47.704099" lon="12.004212"><ele>1485.6</ele></trkpt><trkpt lat="47.704028" lon="12.004684"><ele>1486.7</ele></trkpt><trkpt lat="47.704012" lon="12.004721"><ele>1487.5</ele></trkpt><trkpt lat="47.703882" lon="12.004872"><ele>1489.8</ele></trkpt><trkpt lat="47.703787" lon="12.004896"><ele>1491.1</ele></trkpt><trkpt lat="47.703766" lon="12.00498"><ele>1492.6</ele></trkpt><trkpt lat="47.703709" lon="12.005058"><ele>1494.1</ele></trkpt><trkpt lat="47.70372" lon="12.005237"><ele>1496</ele></trkpt><trkpt lat="47.7037" lon="12.005336"><ele>1497.3</ele></trkpt><trkpt lat="47.703604" lon="12.005467"><ele>1499.4</ele></trkpt><trkpt lat="47.70355" lon="12.005507"><ele>1500.5</ele></trkpt><trkpt lat="47.703501" lon="12.005479"><ele>1501.1</ele></trkpt><trkpt lat="47.703467" lon="12.005548"><ele>1502.4</ele></trkpt><trkpt lat="47.703446" lon="12.005653"><ele>1505.7</ele></trkpt><trkpt lat="47.70347" lon="12.005923"><ele>1515.1</ele></trkpt><trkpt lat="47.703463" lon="12.006121"><ele>1519.1</ele></trkpt><trkpt lat="47.703476" lon="12.006266"><ele>1521.5</ele></trkpt><trkpt lat="47.703354" lon="12.006795"><ele>1529</ele></trkpt><trkpt lat="47.703289" lon="12.007239"><ele>1533.4</ele></trkpt><trkpt lat="47.703259" lon="12.007467"><ele>1540</ele></trkpt><trkpt lat="47.703263" lon="12.007884"><ele>1545.8</ele></trkpt><trkpt lat="47.703165" lon="12.008062"><ele>1548</ele></trkpt><trkpt lat="47.70306" lon="12.008155"><ele>1605.5</ele></trkpt><trkpt lat="47.702992" lon="12.008312"><ele>1606.6</ele></trkpt><trkpt lat="47.702855" lon="12.008352"><ele>1606.2</ele></trkpt><trkpt lat="47.702758" lon="12.008437"><ele>1606.6</ele></trkpt><trkpt lat="47.702634" lon="12.008448"><ele>1607.3</ele></trkpt><trkpt lat="47.70259" lon="12.008482"><ele>1607.6</ele></trkpt><trkpt lat="47.702553" lon="12.008542"><ele>1608</ele></trkpt><trkpt lat="47.702519" lon="12.008682"><ele>1608.6</ele></trkpt><trkpt lat="47.70246" lon="12.008788"><ele>1609.6</ele></trkpt><trkpt lat="47.702407" lon="12.00878"><ele>1610.4</ele></trkpt><trkpt lat="47.702393" lon="12.008801"><ele>1610.7</ele></trkpt><trkpt lat="47.702345" lon="12.009017"><ele>1611.2</ele></trkpt><trkpt lat="47.702246" lon="12.009085"><ele>1611.7</ele></trkpt><trkpt lat="47.702048" lon="12.009111"><ele>1612.1</ele></trkpt><trkpt lat="47.701952" lon="12.00914"><ele>1614.3</ele></trkpt><trkpt lat="47.701916" lon="12.009182"><ele>1612.5</ele></trkpt><trkpt lat="47.701878" lon="12.009152"><ele>1610.8</ele></trkpt><trkpt lat="47.701848" lon="12.009166"><ele>1609</ele></trkpt><trkpt lat="47.701826" lon="12.009238"><ele>1606.9</ele></trkpt><trkpt lat="47.701782" lon="12.009307"><ele>1550</ele></trkpt><trkpt lat="47.701754" lon="12.009354"><ele>1631.6</ele></trkpt><trkpt lat="47.701751" lon="12.009397"><ele>1632.8</ele></trkpt><trkpt lat="47.701768" lon="12.009445"><ele>1633.9</ele></trkpt><trkpt lat="47.70182" lon="12.009474"><ele>1636.4</ele></trkpt><trkpt lat="47.701878" lon="12.009604"><ele>1642.5</ele></trkpt><trkpt lat="47.701945" lon="12.009634"><ele>1646.1</ele></trkpt><trkpt lat="47.701904" lon="12.009657"><ele>1646.4</ele></trkpt><trkpt lat="47.701831" lon="12.00975"><ele>1649</ele></trkpt><trkpt lat="47.701779" lon="12.0099"><ele>1655.5</ele></trkpt><trkpt lat="47.701785" lon="12.009938"><ele>1656.9</ele></trkpt><trkpt lat="47.701841" lon="12.00991"><ele>1659.5</ele></trkpt><trkpt lat="47.701843" lon="12.00994"><ele>1660.9</ele></trkpt><trkpt lat="47.701818" lon="12.01"><ele>1662.3</ele></trkpt><trkpt lat="47.70182" lon="12.010039"><ele>1663.7</ele></trkpt><trkpt lat="47.701763" lon="12.010165"><ele>1666.6</ele></trkpt><trkpt lat="47.701727" lon="12.010213"><ele>1669.5</ele></trkpt><trkpt lat="47.701623" lon="12.010284"><ele>1672.5</ele></trkpt><trkpt lat="47.701624" lon="12.010306"><ele>1673.4</ele></trkpt><trkpt lat="47.701701" lon="12.01035"><ele>1676.3</ele></trkpt><trkpt lat="47.701681" lon="12.010373"><ele>1677.3</ele></trkpt><trkpt lat="47.701685" lon="12.010427"><ele>1678.3</ele></trkpt><trkpt lat="47.701711" lon="12.010418"><ele>1679.4</ele></trkpt><trkpt lat="47.701696" lon="12.010501"><ele>1681.4</ele></trkpt><trkpt lat="47.701706" lon="12.010523"><ele>1682.5</ele></trkpt><trkpt lat="47.701772" lon="12.010513"><ele>1684.6</ele></trkpt><trkpt lat="47.701737" lon="12.010611"><ele>1686.8</ele></trkpt><trkpt lat="47.701745" lon="12.010634"><ele>1688</ele></trkpt><trkpt lat="47.701893" lon="12.010567"><ele>1691.4</ele></trkpt><trkpt lat="47.702001" lon="12.010567"><ele>1692.1</ele></trkpt><trkpt lat="47.70205" lon="12.010516"><ele>1691.7</ele></trkpt><trkpt lat="47.702097" lon="12.010508"><ele>1691.2</ele></trkpt><trkpt lat="47.702127" lon="12.010473"><ele>1690.7</ele></trkpt><trkpt lat="47.702238" lon="12.010417"><ele>1690.3</ele></trkpt><trkpt lat="47.702348" lon="12.010367"><ele>1689.8</ele></trkpt><trkpt lat="47.702394" lon="12.010381"><ele>1689.3</ele></trkpt><trkpt lat="47.702382" lon="12.010425"><ele>1688.8</ele></trkpt><trkpt lat="47.702278" lon="12.010566"><ele>1688.3</ele></trkpt><trkpt lat="47.702224" lon="12.010752"><ele>1687.3</ele></trkpt><trkpt lat="47.702245" lon="12.010752"><ele>1686.7</ele></trkpt><trkpt lat="47.702306" lon="12.010693"><ele>1686.2</ele></trkpt><trkpt lat="47.702345" lon="12.010689"><ele>1685.7</ele></trkpt><trkpt lat="47.70233" lon="12.010743"><ele>1685.1</ele></trkpt><trkpt lat="47.702361" lon="12.010735"><ele>1684.6</ele></trkpt><trkpt lat="47.702356" lon="12.010784"><ele>1684</ele></trkpt><trkpt lat="47.702302" lon="12.010952"><ele>1682.9</ele></trkpt><trkpt lat="47.702328" lon="12.010958"><ele>1682.3</ele></trkpt><trkpt lat="47.702462" lon="12.010889"><ele>1681.2</ele></trkpt><trkpt lat="47.702491" lon="12.0109"><ele>1680.6</ele></trkpt><trkpt lat="47.702501" lon="12.010941"><ele>1680</ele></trkpt><trkpt lat="47.702441" lon="12.011007"><ele>1679.3</ele></trkpt><trkpt lat="47.702423" lon="12.011081"><ele>1680.4</ele></trkpt><trkpt lat="47.702412" lon="12.011306"><ele>1681.6</ele></trkpt><trkpt lat="47.70236" lon="12.011401"><ele>1680.9</ele></trkpt><trkpt lat="47.702362" lon="12.011526"><ele>1681.2</ele></trkpt><trkpt lat="47.702308" lon="12.011678"><ele>1681.8</ele></trkpt><trkpt lat="47.702198" lon="12.011774"><ele>1729</ele></trkpt><trkpt lat="47.70223" lon="12.011865"><ele>1729</ele></trkpt><trkpt lat="47.702106" lon="12.011975"><ele>1729</ele></trkpt><trkpt lat="47.702095" lon="12.012016"><ele>1729</ele></trkpt><trkpt lat="47.702067" lon="12.012042"><ele>1729</ele></trkpt><trkpt lat="47.70204" lon="12.01207"><ele>1719.3</ele></trkpt><trkpt lat="47.702006" lon="12.012253"><ele>1717.7</ele></trkpt><trkpt lat="47.702132" lon="12.012482"><ele>1713.6</ele></trkpt><trkpt lat="47.702147" lon="12.012543"><ele>1700</ele></trkpt><trkpt lat="47.702165" lon="12.012664"><ele>1700</ele></trkpt><trkpt lat="47.702188" lon="12.012697"><ele>1700</ele></trkpt><trkpt lat="47.702215" lon="12.012794"><ele>1700</ele></trkpt><trkpt lat="47.702222" lon="12.012803"><ele>1700</ele></trkpt><trkpt lat="47.70225" lon="12.012755"><ele>1700</ele></trkpt><trkpt lat="47.702313" lon="12.012728"><ele>1700</ele></trkpt><trkpt lat="47.702329" lon="12.012743"><ele>1700</ele></trkpt><trkpt lat="47.702365" lon="12.012617"><ele>1700</ele></trkpt><trkpt lat="47.702384" lon="12.012609"><ele>1700</ele></trkpt><trkpt lat="47.702399" lon="12.012376"><ele>1722.7</ele></trkpt><trkpt lat="47.702421" lon="12.012306"><ele>1724.6</ele></trkpt><trkpt lat="47.70247" lon="12.012258"><ele>1723.8</ele></trkpt><trkpt lat="47.70251" lon="12.012123"><ele>1722.4</ele></trkpt><trkpt lat="47.702563" lon="12.012015"><ele>1729</ele></trkpt><trkpt lat="47.702661" lon="12.011774"><ele>1729</ele></trkpt><trkpt lat="47.702718" lon="12.01152"><ele>1729</ele></trkpt><trkpt lat="47.702728" lon="12.011524"><ele>1729</ele></trkpt><trkpt lat="47.702735" lon="12.011683"><ele>1729</ele></trkpt><trkpt lat="47.702747" lon="12.011547"><ele>1729</ele></trkpt><trkpt lat="47.70278" lon="12.011496"><ele>1729</ele></trkpt><trkpt lat="47.702789" lon="12.011401"><ele>1729</ele></trkpt><trkpt lat="47.702799" lon="12.011403"><ele>1729</ele></trkpt><trkpt lat="47.702805" lon="12.011501"><ele>1729</ele></trkpt><trkpt lat="47.702776" lon="12.011573"><ele>1729</ele></trkpt><trkpt lat="47.7028" lon="12.011631"><ele>1729</ele></trkpt><trkpt lat="47.702816" lon="12.011639"><ele>1729</ele></trkpt><trkpt lat="47.702804" lon="12.011568"><ele>1729</ele></trkpt><trkpt lat="47.702825" lon="12.011553"><ele>1729</ele></trkpt><trkpt lat="47.702885" lon="12.011709"><ele>1729</ele></trkpt><trkpt lat="47.702912" lon="12.01175"><ele>1729</ele></trkpt><trkpt lat="47.702942" lon="12.011756"><ele>1729</ele></trkpt><trkpt lat="47.703012" lon="12.011642"><ele>1729</ele></trkpt><trkpt lat="47.703016" lon="12.011539"><ele>1729</ele></trkpt><trkpt lat="47.703031" lon="12.011514"><ele>1729</ele></trkpt><trkpt lat="47.703107" lon="12.01142"><ele>1729</ele></trkpt><trkpt lat="47.703198" lon="12.011278"><ele>1729</ele></trkpt><trkpt lat="47.703199" lon="12.01112"><ele>1729</ele></trkpt><trkpt lat="47.70327" lon="12.011093"><ele>1729</ele></trkpt><trkpt lat="47.703327" lon="12.011026"><ele>1729</ele></trkpt><trkpt lat="47.703348" lon="12.011013"><ele>1729</ele></trkpt><trkpt lat="47.703341" lon="12.011047"><ele>1729</ele></trkpt><trkpt lat="47.703265" lon="12.01116"><ele>1729</ele></trkpt><trkpt lat="47.703284" lon="12.011163"><ele>1729</ele></trkpt><trkpt lat="47.703361" lon="12.011065"><ele>1729</ele></trkpt><trkpt lat="47.703353" lon="12.011099"><ele>1729</ele></trkpt><trkpt lat="47.703135" lon="12.011463"><ele>1729</ele></trkpt><trkpt lat="47.703135" lon="12.011493"><ele>1729</ele></trkpt><trkpt lat="47.703183" lon="12.011539"><ele>1729</ele></trkpt><trkpt lat="47.703185" lon="12.011563"><ele>1729</ele></trkpt><trkpt lat="47.70315" lon="12.011727"><ele>1729</ele></trkpt><trkpt lat="47.70319" lon="12.01164"><ele>1729</ele></trkpt><trkpt lat="47.703209" lon="12.01151"><ele>1729</ele></trkpt><trkpt lat="47.703187" lon="12.011454"><ele>1729</ele></trkpt><trkpt lat="47.703221" lon="12.01144"><ele>1729</ele></trkpt><trkpt lat="47.703251" lon="12.011504"><ele>1729</ele></trkpt><trkpt lat="47.703249" lon="12.011673"><ele>1729</ele></trkpt><trkpt lat="47.703196" lon="12.01179"><ele>1729</ele></trkpt><trkpt lat="47.703174" lon="12.011919"><ele>1729</ele></trkpt><trkpt lat="47.703113" lon="12.012102"><ele>1729</ele></trkpt><trkpt lat="47.703124" lon="12.012112"><ele>1729</ele></trkpt><trkpt lat="47.703179" lon="12.011983"><ele>1729</ele></trkpt><trkpt lat="47.703235" lon="12.011855"><ele>1729</ele></trkpt><trkpt lat="47.703339" lon="12.011746"><ele>1729</ele></trkpt><trkpt lat="47.703356" lon="12.011772"><ele>1729</ele></trkpt><trkpt lat="47.703364" lon="12.011622"><ele>1729</ele></trkpt><trkpt lat="47.703427" lon="12.011481"><ele>1729</ele></trkpt><trkpt lat="47.703423" lon="12.011366"><ele>1729</ele></trkpt><trkpt lat="47.703439" lon="12.011459"><ele>1729</ele></trkpt><trkpt lat="47.703397" lon="12.011625"><ele>1729</ele></trkpt><trkpt lat="47.703393" lon="12.011764"><ele>1729</ele></trkpt><trkpt lat="47.703375" lon="12.011821"><ele>1729</ele></trkpt><trkpt lat="47.703425" lon="12.01174"><ele>1729</ele></trkpt><trkpt lat="47.703471" lon="12.011409"><ele>1729</ele></trkpt><trkpt lat="47.70349" lon="12.011316"><ele>1729</ele></trkpt><trkpt lat="47.703502" lon="12.011313"><ele>1729</ele></trkpt><trkpt lat="47.703481" lon="12.011559"><ele>1729</ele></trkpt><trkpt lat="47.703422" lon="12.011872"><ele>1729</ele></trkpt><trkpt lat="47.703359" lon="12.011969"><ele>1729</ele></trkpt><trkpt lat="47.703371" lon="12.011979"><ele>1729</ele></trkpt><trkpt lat="47.703423" lon="12.01192"><ele>1729</ele></trkpt><trkpt lat="47.703505" lon="12.011698"><ele>1729</ele></trkpt><trkpt lat="47.703448" lon="12.011932"><ele>1729</ele></trkpt><trkpt lat="47.703377" lon="12.012043"><ele>1729</ele></trkpt><trkpt lat="47.703368" lon="12.012085"><ele>1729</ele></trkpt><trkpt lat="47.703402" lon="12.012197"><ele>1729</ele></trkpt><trkpt lat="47.703445" lon="12.012154"><ele>1729</ele></trkpt><trkpt lat="47.703454" lon="12.012189"><ele>1729</ele></trkpt><trkpt lat="47.703465" lon="12.012184"><ele>1729</ele></trkpt><trkpt lat="47.703454" lon="12.012189"><ele>1729</ele></trkpt><trkpt lat="47.703445" lon="12.012154"><ele>1729</ele></trkpt><trkpt lat="47.703402" lon="12.012197"><ele>1729</ele></trkpt><trkpt lat="47.703368" lon="12.012085"><ele>1729</ele></trkpt><trkpt lat="47.703377" lon="12.012043"><ele>1729</ele></trkpt><trkpt lat="47.703448" lon="12.011932"><ele>1729</ele></trkpt><trkpt lat="47.703505" lon="12.011698"><ele>1729</ele></trkpt><trkpt lat="47.703423" lon="12.01192"><ele>1729</ele></trkpt><trkpt lat="47.703371" lon="12.011979"><ele>1729</ele></trkpt><trkpt lat="47.703359" lon="12.011969"><ele>1729</ele></trkpt><trkpt lat="47.703422" lon="12.011872"><ele>1729</ele></trkpt><trkpt lat="47.703481" lon="12.011559"><ele>1729</ele></trkpt><trkpt lat="47.703502" lon="12.011313"><ele>1729</ele></trkpt><trkpt lat="47.70349" lon="12.011316"><ele>1729</ele></trkpt><trkpt lat="47.703471" lon="12.011409"><ele>1729</ele></trkpt><trkpt lat="47.703425" lon="12.01174"><ele>1729</ele></trkpt><trkpt lat="47.703375" lon="12.011821"><ele>1729</ele></trkpt><trkpt lat="47.703393" lon="12.011764"><ele>1729</ele></trkpt><trkpt lat="47.703397" lon="12.011625"><ele>1729</ele></trkpt><trkpt lat="47.703439" lon="12.011459"><ele>1729</ele></trkpt><trkpt lat="47.703423" lon="12.011366"><ele>1729</ele></trkpt><trkpt lat="47.703427" lon="12.011481"><ele>1729</ele></trkpt><trkpt lat="47.703364" lon="12.011622"><ele>1729</ele></trkpt><trkpt lat="47.703356" lon="12.011772"><ele>1729</ele></trkpt><trkpt lat="47.703339" lon="12.011746"><ele>1729</ele></trkpt><trkpt lat="47.703235" lon="12.011855"><ele>1729</ele></trkpt><trkpt lat="47.703179" lon="12.011983"><ele>1729</ele></trkpt><trkpt lat="47.703124" lon="12.012112"><ele>1729</ele></trkpt><trkpt lat="47.703113" lon="12.012102"><ele>1729</ele></trkpt><trkpt lat="47.703174" lon="12.011919"><ele>1729</ele></trkpt><trkpt lat="47.703196" lon="12.01179"><ele>1729</ele></trkpt><trkpt lat="47.703249" lon="12.011673"><ele>1729</ele></trkpt><trkpt lat="47.703251" lon="12.011504"><ele>1729</ele></trkpt><trkpt lat="47.703221" lon="12.01144"><ele>1729</ele></trkpt><trkpt lat="47.703187" lon="12.011454"><ele>1729</ele></trkpt><trkpt lat="47.703209" lon="12.01151"><ele>1729</ele></trkpt><trkpt lat="47.70319" lon="12.01164"><ele>1729</ele></trkpt><trkpt lat="47.70315" lon="12.011727"><ele>1729</ele></trkpt><trkpt lat="47.703185" lon="12.011563"><ele>1729</ele></trkpt><trkpt lat="47.703183" lon="12.011539"><ele>1729</ele></trkpt><trkpt lat="47.703135" lon="12.011493"><ele>1729</ele></trkpt><trkpt lat="47.703135" lon="12.011463"><ele>1729</ele></trkpt><trkpt lat="47.703353" lon="12.011099"><ele>1729</ele></trkpt><trkpt lat="47.703361" lon="12.011065"><ele>1729</ele></trkpt><trkpt lat="47.703284" lon="12.011163"><ele>1729</ele></trkpt><trkpt lat="47.703265" lon="12.01116"><ele>1729</ele></trkpt><trkpt lat="47.703341" lon="12.011047"><ele>1729</ele></trkpt><trkpt lat="47.703348" lon="12.011013"><ele>1729</ele></trkpt><trkpt lat="47.703327" lon="12.011026"><ele>1729</ele></trkpt><trkpt lat="47.70327" lon="12.011093"><ele>1729</ele></trkpt><trkpt lat="47.703199" lon="12.01112"><ele>1729</ele></trkpt><trkpt lat="47.703198" lon="12.011278"><ele>1729</ele></trkpt><trkpt lat="47.703107" lon="12.01142"><ele>1729</ele></trkpt><trkpt lat="47.703031" lon="12.011514"><ele>1729</ele></trkpt><trkpt lat="47.703016" lon="12.011539"><ele>1729</ele></trkpt><trkpt lat="47.703012" lon="12.011642"><ele>1729</ele></trkpt><trkpt lat="47.702942" lon="12.011756"><ele>1729</ele></trkpt><trkpt lat="47.702912" lon="12.01175"><ele>1729</ele></trkpt><trkpt lat="47.702885" lon="12.011709"><ele>1729</ele></trkpt><trkpt lat="47.702825" lon="12.011553"><ele>1729</ele></trkpt><trkpt lat="47.702804" lon="12.011568"><ele>1729</ele></trkpt><trkpt lat="47.702816" lon="12.011639"><ele>1729</ele></trkpt><trkpt lat="47.7028" lon="12.011631"><ele>1729</ele></trkpt><trkpt lat="47.702776" lon="12.011573"><ele>1729</ele></trkpt><trkpt lat="47.702805" lon="12.011501"><ele>1729</ele></trkpt><trkpt lat="47.702799" lon="12.011403"><ele>1729</ele></trkpt><trkpt lat="47.702789" lon="12.011401"><ele>1729</ele></trkpt><trkpt lat="47.70278" lon="12.011496"><ele>1729</ele></trkpt><trkpt lat="47.702747" lon="12.011547"><ele>1729</ele></trkpt><trkpt lat="47.702735" lon="12.011683"><ele>1729</ele></trkpt><trkpt lat="47.702728" lon="12.011524"><ele>1729</ele></trkpt><trkpt lat="47.702718" lon="12.01152"><ele>1729</ele></trkpt><trkpt lat="47.702661" lon="12.011774"><ele>1729</ele></trkpt><trkpt lat="47.702563" lon="12.012015"><ele>1729</ele></trkpt><trkpt lat="47.70251" lon="12.012123"><ele>1722.4</ele></trkpt><trkpt lat="47.70247" lon="12.012258"><ele>1723.8</ele></trkpt><trkpt lat="47.702421" lon="12.012306"><ele>1724.6</ele></trkpt><trkpt lat="47.702399" lon="12.012376"><ele>1722.7</ele></trkpt><trkpt lat="47.702384" lon="12.012609"><ele>1700</ele></trkpt><trkpt lat="47.702382" lon="12.012786"><ele>1700</ele></trkpt><trkpt lat="47.702368" lon="12.012834"><ele>1700</ele></trkpt><trkpt lat="47.702309" lon="12.012917"><ele>1700</ele></trkpt><trkpt lat="47.702292" lon="12.012971"><ele>1700</ele></trkpt><trkpt lat="47.70229" lon="12.013048"><ele>1700</ele></trkpt><trkpt lat="47.702301" lon="12.013111"><ele>1700</ele></trkpt><trkpt lat="47.702328" lon="12.013363"><ele>1700</ele></trkpt><trkpt lat="47.702361" lon="12.013475"><ele>1700</ele></trkpt><trkpt lat="47.702363" lon="12.013559"><ele>1700</ele></trkpt><trkpt lat="47.702388" lon="12.013554"><ele>1700</ele></trkpt><trkpt lat="47.702434" lon="12.013523"><ele>1700</ele></trkpt><trkpt lat="47.70243" lon="12.013552"><ele>1700</ele></trkpt><trkpt lat="47.70241" lon="12.013617"><ele>1700</ele></trkpt><trkpt lat="47.702378" lon="12.013665"><ele>1700</ele></trkpt><trkpt lat="47.702386" lon="12.013703"><ele>1700</ele></trkpt><trkpt lat="47.702451" lon="12.014067"><ele>1685.1</ele></trkpt><trkpt lat="47.702453" lon="12.014511"><ele>1638</ele></trkpt><trkpt lat="47.702443" lon="12.014824"><ele>1638</ele></trkpt><trkpt lat="47.702457" lon="12.014948"><ele>1638</ele></trkpt><trkpt lat="47.702539" lon="12.01521"><ele>1638</ele></trkpt><trkpt lat="47.702643" lon="12.015436"><ele>1638</ele></trkpt><trkpt lat="47.702743" lon="12.015336"><ele>1638</ele></trkpt><trkpt lat="47.702842" lon="12.015214"><ele>1638</ele></trkpt><trkpt lat="47.702825" lon="12.015337"><ele>1638</ele></trkpt><trkpt lat="47.702851" lon="12.015368"><ele>1638</ele></trkpt><trkpt lat="47.702833" lon="12.015426"><ele>1638</ele></trkpt><trkpt lat="47.702879" lon="12.015422"><ele>1638</ele></trkpt><trkpt lat="47.702831" lon="12.015503"><ele>1638</ele></trkpt><trkpt lat="47.702759" lon="12.015652"><ele>1638</ele></trkpt><trkpt lat="47.702756" lon="12.015696"><ele>1638</ele></trkpt><trkpt lat="47.702819" lon="12.015623"><ele>1638</ele></trkpt><trkpt lat="47.702853" lon="12.01563"><ele>1638</ele></trkpt><trkpt lat="47.702859" lon="12.015815"><ele>1638</ele></trkpt><trkpt lat="47.702837" lon="12.015901"><ele>1638</ele></trkpt><trkpt lat="47.702814" lon="12.015999"><ele>1631.7</ele></trkpt><trkpt lat="47.702833" lon="12.016141"><ele>1632.2</ele></trkpt><trkpt lat="47.702784" lon="12.016326"><ele>1633.1</ele></trkpt><trkpt lat="47.702801" lon="12.01635"><ele>1633.5</ele></trkpt><trkpt lat="47.702805" lon="12.016396"><ele>1633.9</ele></trkpt><trkpt lat="47.702781" lon="12.016487"><ele>1634.2</ele></trkpt><trkpt lat="47.702781" lon="12.016637"><ele>1603</ele></trkpt><trkpt lat="47.702803" lon="12.016779"><ele>1603</ele></trkpt><trkpt lat="47.702788" lon="12.016986"><ele>1603</ele></trkpt><trkpt lat="47.702829" lon="12.017006"><ele>1603</ele></trkpt><trkpt lat="47.702818" lon="12.017169"><ele>1603</ele></trkpt><trkpt lat="47.702887" lon="12.017304"><ele>1603</ele></trkpt><trkpt lat="47.702862" lon="12.01733"><ele>1615.7</ele></trkpt><trkpt lat="47.702817" lon="12.017634"><ele>1618.6</ele></trkpt><trkpt lat="47.702604" lon="12.018215"><ele>1622.3</ele></trkpt><trkpt lat="47.702482" lon="12.018468"><ele>1624.5</ele></trkpt><trkpt lat="47.702049" lon="12.018894"><ele>1660</ele></trkpt><trkpt lat="47.701808" lon="12.018943"><ele>1624.3</ele></trkpt><trkpt lat="47.701692" lon="12.018934"><ele>1608</ele></trkpt><trkpt lat="47.701676" lon="12.018874"><ele>1570.5</ele></trkpt><trkpt lat="47.701684" lon="12.018815"><ele>1568.2</ele></trkpt><trkpt lat="47.701839" lon="12.018657"><ele>1560.2</ele></trkpt><trkpt lat="47.7018" lon="12.018591"><ele>1557.2</ele></trkpt><trkpt lat="47.701854" lon="12.01834"><ele>1557.8</ele></trkpt><trkpt lat="47.701762" lon="12.018122"><ele>1559.1</ele></trkpt><trkpt lat="47.701692" lon="12.01805"><ele>1559.8</ele></trkpt><trkpt lat="47.701423" lon="12.018105"><ele>1561.3</ele></trkpt><trkpt lat="47.701324" lon="12.018074"><ele>1562.1</ele></trkpt><trkpt lat="47.701138" lon="12.018124"><ele>1548</ele></trkpt><trkpt lat="47.70102" lon="12.017917"><ele>1548.2</ele></trkpt><trkpt lat="47.701025" lon="12.01785"><ele>1548.2</ele></trkpt><trkpt lat="47.701078" lon="12.017744"><ele>1548.2</ele></trkpt><trkpt lat="47.701032" lon="12.017671"><ele>1548.2</ele></trkpt><trkpt lat="47.701018" lon="12.017603"><ele>1548.2</ele></trkpt><trkpt lat="47.701082" lon="12.017389"><ele>1548.2</ele></trkpt><trkpt lat="47.700978" lon="12.017289"><ele>1548.2</ele></trkpt><trkpt lat="47.700977" lon="12.017026"><ele>1548.3</ele></trkpt><trkpt lat="47.70091" lon="12.01699"><ele>1548.3</ele></trkpt><trkpt lat="47.700761" lon="12.016562"><ele>1548.3</ele></trkpt><trkpt lat="47.700676" lon="12.016524"><ele>1550</ele></trkpt><trkpt lat="47.700622" lon="12.0164"><ele>1550</ele></trkpt><trkpt lat="47.700514" lon="12.016271"><ele>1550</ele></trkpt><trkpt lat="47.700366" lon="12.016191"><ele>1550</ele></trkpt><trkpt lat="47.700358" lon="12.016122"><ele>1550</ele></trkpt><trkpt lat="47.700427" lon="12.015843"><ele>1550</ele></trkpt><trkpt lat="47.70039" lon="12.015688"><ele>1550</ele></trkpt><trkpt lat="47.700294" lon="12.015554"><ele>1550</ele></trkpt><trkpt lat="47.700233" lon="12.015376"><ele>1550</ele></trkpt><trkpt lat="47.700206" lon="12.015141"><ele>1550</ele></trkpt><trkpt lat="47.700119" lon="12.015059"><ele>1550</ele></trkpt><trkpt lat="47.700111" lon="12.014732"><ele>1550</ele></trkpt><trkpt lat="47.700078" lon="12.014633"><ele>1550</ele></trkpt><trkpt lat="47.700009" lon="12.014466"><ele>1557.5</ele></trkpt><trkpt lat="47.700014" lon="12.014322"><ele>1559.4</ele></trkpt><trkpt lat="47.700097" lon="12.014119"><ele>1565</ele></trkpt><trkpt lat="47.700035" lon="12.014147"><ele>1484.1</ele></trkpt><trkpt lat="47.699852" lon="12.014126"><ele>1477.3</ele></trkpt><trkpt lat="47.699637" lon="12.014198"><ele>1478.7</ele></trkpt><trkpt lat="47.699075" lon="12.014214"><ele>1481.3</ele></trkpt><trkpt lat="47.698996" lon="12.014191"><ele>1482.5</ele></trkpt><trkpt lat="47.698969" lon="12.014249"><ele>1483.7</ele></trkpt><trkpt lat="47.698948" lon="12.014395"><ele>1484.6</ele></trkpt><trkpt lat="47.698916" lon="12.014438"><ele>1485.7</ele></trkpt><trkpt lat="47.698847" lon="12.014873"><ele>1482.6</ele></trkpt><trkpt lat="47.69878" lon="12.01496"><ele>1482.5</ele></trkpt><trkpt lat="47.698672" lon="12.01529"><ele>1482.7</ele></trkpt><trkpt lat="47.69862" lon="12.015659"><ele>1482.9</ele></trkpt><trkpt lat="47.69844" lon="12.015968"><ele>1483.1</ele></trkpt><trkpt lat="47.698361" lon="12.015953"><ele>1483.2</ele></trkpt><trkpt lat="47.698324" lon="12.016036"><ele>1483.2</ele></trkpt><trkpt lat="47.69817" lon="12.016032"><ele>1483.3</ele></trkpt><trkpt lat="47.697891" lon="12.016243"><ele>1483</ele></trkpt><trkpt lat="47.697822" lon="12.016243"><ele>1483</ele></trkpt><trkpt lat="47.69774" lon="12.016078"><ele>1435</ele></trkpt><trkpt lat="47.697659" lon="12.016044"><ele>1439</ele></trkpt><trkpt lat="47.697582" lon="12.015893"><ele>1419</ele></trkpt><trkpt lat="47.697376" lon="12.015614"><ele>1419</ele></trkpt><trkpt lat="47.697271" lon="12.01562"><ele>1419</ele></trkpt><trkpt lat="47.697195" lon="12.015525"><ele>1419</ele></trkpt><trkpt lat="47.697117" lon="12.0155"><ele>1419</ele></trkpt><trkpt lat="47.697075" lon="12.015426"><ele>1419</ele></trkpt><trkpt lat="47.697033" lon="12.0154"><ele>1419</ele></trkpt><trkpt lat="47.69694" lon="12.015423"><ele>1419</ele></trkpt><trkpt lat="47.696874" lon="12.015418"><ele>1419</ele></trkpt><trkpt lat="47.696866" lon="12.015339"><ele>1419</ele></trkpt><trkpt lat="47.696802" lon="12.015194"><ele>1419</ele></trkpt><trkpt lat="47.696693" lon="12.015157"><ele>1419</ele></trkpt><trkpt lat="47.696448" lon="12.014829"><ele>1419</ele></trkpt><trkpt lat="47.696354" lon="12.014571"><ele>1419</ele></trkpt><trkpt lat="47.696196" lon="12.014312"><ele>1400.8</ele></trkpt><trkpt lat="47.69617" lon="12.014136"><ele>1402.4</ele></trkpt><trkpt lat="47.696146" lon="12.014102"><ele>1403.1</ele></trkpt><trkpt lat="47.696011" lon="12.014127"><ele>1404.4</ele></trkpt><trkpt lat="47.695911" lon="12.013975"><ele>1405</ele></trkpt><trkpt lat="47.695799" lon="12.013867"><ele>1405.5</ele></trkpt><trkpt lat="47.695776" lon="12.013742"><ele>1406</ele></trkpt><trkpt lat="47.695608" lon="12.013674"><ele>1398.9</ele></trkpt><trkpt lat="47.69553" lon="12.013524"><ele>1395.7</ele></trkpt><trkpt lat="47.695507" lon="12.013421"><ele>1351</ele></trkpt><trkpt lat="47.695473" lon="12.013301"><ele>1351</ele></trkpt><trkpt lat="47.69545" lon="12.013044"><ele>1351</ele></trkpt><trkpt lat="47.695401" lon="12.012925"><ele>1351</ele></trkpt><trkpt lat="47.695339" lon="12.012813"><ele>1348.9</ele></trkpt><trkpt lat="47.695266" lon="12.012767"><ele>1349.2</ele></trkpt><trkpt lat="47.695083" lon="12.012771"><ele>1349.1</ele></trkpt><trkpt lat="47.695038" lon="12.012697"><ele>1349</ele></trkpt><trkpt lat="47.694889" lon="12.01266"><ele>1349</ele></trkpt><trkpt lat="47.694759" lon="12.012577"><ele>1349</ele></trkpt><trkpt lat="47.694731" lon="12.01256"><ele>1348.9</ele></trkpt><trkpt lat="47.69439" lon="12.012282"><ele>1348.4</ele></trkpt><trkpt lat="47.694255" lon="12.0121"><ele>1347.7</ele></trkpt><trkpt lat="47.694205" lon="12.012114"><ele>1347</ele></trkpt><trkpt lat="47.694052" lon="12.012609"><ele>1348.3</ele></trkpt><trkpt lat="47.693955" lon="12.013036"><ele>1350.6</ele></trkpt><trkpt lat="47.693913" lon="12.013116"><ele>1350.6</ele></trkpt><trkpt lat="47.693875" lon="12.01312"><ele>1350.6</ele></trkpt><trkpt lat="47.693856" lon="12.01306"><ele>1350.6</ele></trkpt><trkpt lat="47.69388" lon="12.012378"><ele>1347.1</ele></trkpt><trkpt lat="47.69394" lon="12.012007"><ele>1346.1</ele></trkpt><trkpt lat="47.693996" lon="12.011442"><ele>1347</ele></trkpt><trkpt lat="47.693688" lon="12.011162"><ele>1343.6</ele></trkpt><trkpt lat="47.69342" lon="12.011115"><ele>1324.6</ele></trkpt><trkpt lat="47.693113" lon="12.011033"><ele>1312.1</ele></trkpt><trkpt lat="47.692859" lon="12.01091"><ele>1305.6</ele></trkpt><trkpt lat="47.692622" lon="12.010924"><ele>1292.4</ele></trkpt><trkpt lat="47.692155" lon="12.010453"><ele>1273</ele></trkpt><trkpt lat="47.692101" lon="12.010443"><ele>1273</ele></trkpt><trkpt lat="47.692009" lon="12.010545"><ele>1273</ele></trkpt><trkpt lat="47.691842" lon="12.010443"><ele>1273</ele></trkpt><trkpt lat="47.69183" lon="12.01061"><ele>1273</ele></trkpt><trkpt lat="47.691883" lon="12.010839"><ele>1273</ele></trkpt><trkpt lat="47.692123" lon="12.011225"><ele>1273</ele></trkpt><trkpt lat="47.692122" lon="12.011416"><ele>1273</ele></trkpt><trkpt lat="47.692165" lon="12.011536"><ele>1273</ele></trkpt><trkpt lat="47.692159" lon="12.011589"><ele>1273</ele></trkpt><trkpt lat="47.69184" lon="12.011558"><ele>1273</ele></trkpt><trkpt lat="47.691529" lon="12.011541"><ele>1234.6</ele></trkpt><trkpt lat="47.691415" lon="12.011555"><ele>1230.6</ele></trkpt><trkpt lat="47.691308" lon="12.011521"><ele>1228.8</ele></trkpt><trkpt lat="47.69121" lon="12.01149"><ele>1227</ele></trkpt><trkpt lat="47.691064" lon="12.011399"><ele>1223.7</ele></trkpt><trkpt lat="47.690803" lon="12.011437"><ele>1218.1</ele></trkpt><trkpt lat="47.690773" lon="12.011381"><ele>1215.6</ele></trkpt><trkpt lat="47.690572" lon="12.011377"><ele>1191</ele></trkpt><trkpt lat="47.690485" lon="12.011282"><ele>1180</ele></trkpt><trkpt lat="47.690367" lon="12.011243"><ele>1179.1</ele></trkpt><trkpt lat="47.69027" lon="12.011241"><ele>1180.2</ele></trkpt><trkpt lat="47.690045" lon="12.011337"><ele>1178.7</ele></trkpt><trkpt lat="47.68993" lon="12.011361"><ele>1177.1</ele></trkpt><trkpt lat="47.689076" lon="12.011142"><ele>1160</ele></trkpt><trkpt lat="47.68889" lon="12.01105"><ele>1151.4</ele></trkpt><trkpt lat="47.688741" lon="12.010722"><ele>1144.8</ele></trkpt><trkpt lat="47.688506" lon="12.01036"><ele>1131.7</ele></trkpt><trkpt lat="47.688301" lon="12.010152"><ele>1125.6</ele></trkpt><trkpt lat="47.688171" lon="12.009958"><ele>1142</ele></trkpt><trkpt lat="47.688023" lon="12.009634"><ele>1142</ele></trkpt><trkpt lat="47.687896" lon="12.009268"><ele>1142</ele></trkpt><trkpt lat="47.687815" lon="12.008818"><ele>1142</ele></trkpt><trkpt lat="47.687792" lon="12.008786"><ele>1142</ele></trkpt><trkpt lat="47.687719" lon="12.008797"><ele>1142</ele></trkpt><trkpt lat="47.687698" lon="12.008832"><ele>1142</ele></trkpt><trkpt lat="47.687669" lon="12.009047"><ele>1142</ele></trkpt><trkpt lat="47.687644" lon="12.009097"><ele>1142</ele></trkpt><trkpt lat="47.687606" lon="12.009109"><ele>1142</ele></trkpt><trkpt lat="47.687569" lon="12.009084"><ele>1101.8</ele></trkpt><trkpt lat="47.687526" lon="12.009005"><ele>1105.1</ele></trkpt><trkpt lat="47.687397" lon="12.008541"><ele>1108.2</ele></trkpt><trkpt lat="47.687307" lon="12.008303"><ele>1103.2</ele></trkpt><trkpt lat="47.687273" lon="12.008078"><ele>1099.3</ele></trkpt><trkpt lat="47.68718" lon="12.007854"><ele>1095.7</ele></trkpt><trkpt lat="47.68709" lon="12.007534"><ele>1092.4</ele></trkpt><trkpt lat="47.68706" lon="12.007504"><ele>1089.3</ele></trkpt><trkpt lat="47.687" lon="12.007537"><ele>1056</ele></trkpt><trkpt lat="47.686926" lon="12.007686"><ele>1056</ele></trkpt><trkpt lat="47.686841" lon="12.007761"><ele>1056</ele></trkpt><trkpt lat="47.686748" lon="12.007784"><ele>1056</ele></trkpt><trkpt lat="47.686686" lon="12.007761"><ele>1056</ele></trkpt><trkpt lat="47.686638" lon="12.007713"><ele>1056</ele></trkpt><trkpt lat="47.686588" lon="12.007607"><ele>1056</ele></trkpt><trkpt lat="47.686573" lon="12.007468"><ele>1056</ele></trkpt><trkpt lat="47.68651" lon="12.007222"><ele>1056</ele></trkpt><trkpt lat="47.686519" lon="12.006721"><ele>1056</ele></trkpt><trkpt lat="47.686547" lon="12.006449"><ele>1056</ele></trkpt><trkpt lat="47.686529" lon="12.006275"><ele>1056</ele></trkpt><trkpt lat="47.68649" lon="12.006215"><ele>1056</ele></trkpt><trkpt lat="47.686333" lon="12.006212"><ele>1054.8</ele></trkpt><trkpt lat="47.68619" lon="12.006295"><ele>1054.8</ele></trkpt><trkpt lat="47.686093" lon="12.00639"><ele>1054.9</ele></trkpt><trkpt lat="47.68603" lon="12.006401"><ele>1055</ele></trkpt><trkpt lat="47.685964" lon="12.006359"><ele>1055</ele></trkpt><trkpt lat="47.685922" lon="12.006254"><ele>1055.1</ele></trkpt><trkpt lat="47.685915" lon="12.006127"><ele>1055.1</ele></trkpt><trkpt lat="47.685887" lon="12.006082"><ele>1054.3</ele></trkpt><trkpt lat="47.685848" lon="12.006084"><ele>1053.5</ele></trkpt><trkpt lat="47.685821" lon="12.006119"><ele>1053.6</ele></trkpt><trkpt lat="47.685815" lon="12.006414"><ele>1053.9</ele></trkpt><trkpt lat="47.685795" lon="12.006593"><ele>1054</ele></trkpt><trkpt lat="47.685757" lon="12.006761"><ele>1054.1</ele></trkpt><trkpt lat="47.685623" lon="12.007036"><ele>1056</ele></trkpt><trkpt lat="47.68547" lon="12.007368"><ele>1036.2</ele></trkpt><trkpt lat="47.685326" lon="12.007602"><ele>1039.4</ele></trkpt><trkpt lat="47.685297" lon="12.007606"><ele>1040.8</ele></trkpt><trkpt lat="47.685276" lon="12.007584"><ele>1036.4</ele></trkpt><trkpt lat="47.685219" lon="12.007341"><ele>1028.9</ele></trkpt><trkpt lat="47.685157" lon="12.007216"><ele>989</ele></trkpt><trkpt lat="47.685056" lon="12.007157"><ele>989</ele></trkpt><trkpt lat="47.685004" lon="12.0071"><ele>989</ele></trkpt><trkpt lat="47.684896" lon="12.00685"><ele>989</ele></trkpt><trkpt lat="47.684829" lon="12.006801"><ele>989</ele></trkpt><trkpt lat="47.684754" lon="12.006567"><ele>989</ele></trkpt><trkpt lat="47.68466" lon="12.006709"><ele>989</ele></trkpt><trkpt lat="47.684643" lon="12.006714"><ele>989</ele></trkpt><trkpt lat="47.684549" lon="12.006549"><ele>989</ele></trkpt><trkpt lat="47.684522" lon="12.006367"><ele>989</ele></trkpt><trkpt lat="47.684491" lon="12.006291"><ele>989</ele></trkpt><trkpt lat="47.684464" lon="12.006272"><ele>989</ele></trkpt><trkpt lat="47.684366" lon="12.006278"><ele>989</ele></trkpt><trkpt lat="47.684245" lon="12.006722"><ele>989</ele></trkpt><trkpt lat="47.684117" lon="12.007299"><ele>989</ele></trkpt><trkpt lat="47.683977" lon="12.007487"><ele>983.4</ele></trkpt><trkpt lat="47.683866" lon="12.007531"><ele>984.1</ele></trkpt><trkpt lat="47.683673" lon="12.007487"><ele>984.7</ele></trkpt><trkpt lat="47.683505" lon="12.00751"><ele>985.2</ele></trkpt><trkpt lat="47.683379" lon="12.007464"><ele>985.7</ele></trkpt><trkpt lat="47.683101" lon="12.007248"><ele>966</ele></trkpt><trkpt lat="47.682716" lon="12.007023"><ele>966</ele></trkpt><trkpt lat="47.682663" lon="12.007044"><ele>966</ele></trkpt><trkpt lat="47.68243" lon="12.007336"><ele>966</ele></trkpt><trkpt lat="47.682365" lon="12.007357"><ele>966</ele></trkpt><trkpt lat="47.682256" lon="12.007196"><ele>966</ele></trkpt><trkpt lat="47.681925" lon="12.007092"><ele>966</ele></trkpt><trkpt lat="47.681877" lon="12.006921"><ele>966</ele></trkpt><trkpt lat="47.681846" lon="12.006891"><ele>966</ele></trkpt><trkpt lat="47.681788" lon="12.006921"><ele>966</ele></trkpt><trkpt lat="47.681434" lon="12.007223"><ele>966</ele></trkpt><trkpt lat="47.681377" lon="12.007409"><ele>966</ele></trkpt><trkpt lat="47.681222" lon="12.007542"><ele>966</ele></trkpt><trkpt lat="47.681181" lon="12.007539"><ele>966</ele></trkpt><trkpt lat="47.681096" lon="12.007529"><ele>910.7</ele></trkpt><trkpt lat="47.680935" lon="12.007406"><ele>883</ele></trkpt><trkpt lat="47.680757" lon="12.007478"><ele>884.3</ele></trkpt><trkpt lat="47.680856" lon="12.006882"><ele>884</ele></trkpt><trkpt lat="47.680835" lon="12.006807"><ele>884</ele></trkpt><trkpt lat="47.680649" lon="12.007108"><ele>883.8</ele></trkpt><trkpt lat="47.680569" lon="12.007202"><ele>883.8</ele></trkpt><trkpt lat="47.680294" lon="12.007711"><ele>886.3</ele></trkpt><trkpt lat="47.679555" lon="12.008855"><ele>924</ele></trkpt><trkpt lat="47.679153" lon="12.009512"><ele>924</ele></trkpt><trkpt lat="47.67903" lon="12.009651"><ele>924</ele></trkpt><trkpt lat="47.678905" lon="12.009794"><ele>853.3</ele></trkpt><trkpt lat="47.678779" lon="12.009895"><ele>848.6</ele></trkpt><trkpt lat="47.678699" lon="12.009996"><ele>844.5</ele></trkpt><trkpt lat="47.678562" lon="12.010245"><ele>841</ele></trkpt><trkpt lat="47.678281" lon="12.010921"><ele>842</ele></trkpt><trkpt lat="47.678162" lon="12.011174"><ele>842</ele></trkpt><trkpt lat="47.678086" lon="12.011411"><ele>842</ele></trkpt><trkpt lat="47.678041" lon="12.011482"><ele>842</ele></trkpt><trkpt lat="47.677833" lon="12.011573"><ele>842</ele></trkpt><trkpt lat="47.677592" lon="12.01193"><ele>832.6</ele></trkpt><trkpt lat="47.677455" lon="12.012177"><ele>833.3</ele></trkpt><trkpt lat="47.677406" lon="12.01222"><ele>834.4</ele></trkpt><trkpt lat="47.677058" lon="12.012199"><ele>835.8</ele></trkpt><trkpt lat="47.676758" lon="12.012099"><ele>831</ele></trkpt><trkpt lat="47.676673" lon="12.012092"><ele>829.6</ele></trkpt><trkpt lat="47.676583" lon="12.012115"><ele>810</ele></trkpt><trkpt lat="47.676309" lon="12.012329"><ele>810</ele></trkpt><trkpt lat="47.676147" lon="12.012474"><ele>812.1</ele></trkpt><trkpt lat="47.67596" lon="12.012729"><ele>813</ele></trkpt><trkpt lat="47.675871" lon="12.012767"><ele>813</ele></trkpt><trkpt lat="47.675429" lon="12.012861"><ele>813</ele></trkpt><trkpt lat="47.675344" lon="12.012858"><ele>813</ele></trkpt><trkpt lat="47.675281" lon="12.012934"><ele>813</ele></trkpt><trkpt lat="47.675079" lon="12.013312"><ele>810.3</ele></trkpt><trkpt lat="47.675025" lon="12.013366"><ele>810.5</ele></trkpt><trkpt lat="47.674906" lon="12.013389"><ele>810.9</ele></trkpt><trkpt lat="47.674853" lon="12.013375"><ele>810.1</ele></trkpt><trkpt lat="47.67427" lon="12.012893"><ele>801</ele></trkpt><trkpt lat="47.674323" lon="12.012702"><ele>801</ele></trkpt><trkpt lat="47.674105" lon="12.012532"><ele>801</ele></trkpt><trkpt lat="47.67373" lon="12.012224"><ele>800</ele></trkpt><trkpt lat="47.673692" lon="12.012194"><ele>800</ele></trkpt><trkpt lat="47.673748" lon="12.012066"><ele>800</ele></trkpt></trkseg></trk></gpx>