<gpx xmlns="http://www.topografix.com/GPX/1/1" xmlns:xsi="http://www.w3.org/2001/XMLSchema-instance" xsi:schemaLocation="http://www.topografix.com/GPX/1/1 http://www.topografix.com/GPX/1/1/gpx.xsd" version="1.1" creator="togpx"><metadata/><wpt lat="47.70571136425254" lon="11.933224351668084"><name></name><desc>label=Kirchwandstraße, Fischbachau,BY,Germany</desc></wpt><wpt lat="47.707270828496256" lon="11.933985031153124"><name></name><desc>label=Bahnhofstraße, Fischbachau,BY,Germany</desc></wpt><wpt lat="47.712750242555146" lon="11.940371050546455"><name></name><desc>label=Sandbichl, Fischbachau,BY,Germany</desc></wpt><wpt lat="47.71039683621395" lon="11.958992134512629"><name></name><desc>label=Kothgraben, Fischbachau,BY,Germany</desc></wpt><wpt lat="47.71573877104689" lon="11.969539925875445"><name></name><desc>label=Kapellenweg, Fischbachau,BY,Germany</desc></wpt><wpt lat="47.718741564234996" lon="11.977597143490303"><name></name><desc>label=Breitensteinfensterl, Fischbachau,BY,Germany</desc></wpt><wpt lat="47.71878126346659" lon="11.978388714842248"><name></name><desc>label=Hansi, Fischbachau,BY,Germany</desc></wpt><wpt lat="47.72115233544062" lon="11.982830919447249"><name></name><desc>label=Breitenstein Westgipfel, Fischbachau,BY,Germany</desc></wpt><wpt lat="47.721105420298855" lon="11.987787843480367"><name></name><desc>label=Breitenstein, Fischbachau,BY,Germany</desc></wpt><wpt lat="47.719510280341375" lon="11.985942174235452"><name></name><desc>label=Hubertushütte, Fischbachau,BY,Germany</desc></wpt><wpt lat="47.71447191576681" lon="11.979552142646224"><name></name><desc>label=Kesselalm, Fischbachau,BY,Germany</desc></wpt><wpt lat="47.713508218902376" lon="11.973101913011813"><name></name><desc>label=Am Waldeck, Fischbachau,BY,Germany</desc></wpt><wpt lat="47.71332413994598" lon="11.963763823617592"><name></name><desc>label=Kalvarienweg, Fischbachau,BY,Germany</desc></wpt><trk><name></name><desc>ascent=1243.6
descent=1146.1
opacity=0.9</desc><trkseg><trkpt lat="47.705715" lon="11.933226"><ele>758.5</ele></trkpt><trkpt lat="47.705522" lon="11.934037"><ele>757</ele></trkpt><trkpt lat="47.705515" lon="11.934068"><ele>757</ele></trkpt><trkpt lat="47.705309" lon="11.934924"><ele>755.5</ele></trkpt><trkpt lat="47.705348" lon="11.934979"><ele>755.6</ele></trkpt><trkpt lat="47.705336" lon="11.935088"><ele>755</ele></trkpt><trkpt lat="47.705566" lon="11.935216"><ele>755</ele></trkpt><trkpt lat="47.705594" lon="11.935242"><ele>755</ele></trkpt><trkpt lat="47.705876" lon="11.93559"><ele>755.7</ele></trkpt><trkpt lat="47.70621" lon="11.935923"><ele>757</ele></trkpt><trkpt lat="47.706337" lon="11.935931"><ele>757</ele></trkpt><trkpt lat="47.706415" lon="11.935872"><ele>757</ele></trkpt><trkpt lat="47.70648" lon="11.935758"><ele>755.3</ele></trkpt><trkpt lat="47.706695" lon="11.934964"><ele>754.9</ele></trkpt><trkpt lat="47.706823" lon="11.934618"><ele>754.8</ele></trkpt><trkpt lat="47.707064" lon="11.934239"><ele>754.8</ele></trkpt><trkpt lat="47.707283" lon="11.93401"><ele>754.8</ele></trkpt><trkpt lat="47.70738" lon="11.933907"><ele>754.8</ele></trkpt><trkpt lat="47.707567" lon="11.933603"><ele>755</ele></trkpt><trkpt lat="47.707623" lon="11.933438"><ele>755.1</ele></trkpt><trkpt lat="47.70788" lon="11.932917"><ele>755.5</ele></trkpt><trkpt lat="47.707936" lon="11.932758"><ele>755.5</ele></trkpt><trkpt lat="47.707995" lon="11.932467"><ele>754</ele></trkpt><trkpt lat="47.708091" lon="11.93209"><ele>754</ele></trkpt><trkpt lat="47.708152" lon="11.931861"><ele>754</ele></trkpt><trkpt lat="47.708275" lon="11.931942"><ele>754</ele></trkpt><trkpt lat="47.708331" lon="11.93203"><ele>754</ele></trkpt><trkpt lat="47.708376" lon="11.932095"><ele>754</ele></trkpt><trkpt lat="47.70861" lon="11.932596"><ele>754</ele></trkpt><trkpt lat="47.708609" lon="11.932722"><ele>753.1</ele></trkpt><trkpt lat="47.708891" lon="11.933328"><ele>753.3</ele></trkpt><trkpt lat="47.708987" lon="11.933575"><ele>753</ele></trkpt><trkpt lat="47.709071" lon="11.933624"><ele>751</ele></trkpt><trkpt lat="47.709246" lon="11.934093"><ele>751</ele></trkpt><trkpt lat="47.709298" lon="11.93424"><ele>756</ele></trkpt><trkpt lat="47.709262" lon="11.934379"><ele>756</ele></trkpt><trkpt lat="47.710607" lon="11.937851"><ele>761.7</ele></trkpt><trkpt lat="47.710747" lon="11.938164"><ele>761.6</ele></trkpt><trkpt lat="47.710825" lon="11.938263"><ele>762</ele></trkpt><trkpt lat="47.710923" lon="11.938459"><ele>758</ele></trkpt><trkpt lat="47.711048" lon="11.938657"><ele>758.2</ele></trkpt><trkpt lat="47.711301" lon="11.938931"><ele>758.4</ele></trkpt><trkpt lat="47.711754" lon="11.939261"><ele>756</ele></trkpt><trkpt lat="47.711811" lon="11.939449"><ele>756</ele></trkpt><trkpt lat="47.711992" lon="11.939593"><ele>756</ele></trkpt><trkpt lat="47.712369" lon="11.939816"><ele>756</ele></trkpt><trkpt lat="47.712583" lon="11.939976"><ele>756.8</ele></trkpt><trkpt lat="47.712658" lon="11.940102"><ele>756.8</ele></trkpt><trkpt lat="47.712734" lon="11.940299"><ele>756.7</ele></trkpt><trkpt lat="47.71274" lon="11.940373"><ele>756.9</ele></trkpt><trkpt lat="47.712757" lon="11.940615"><ele>757</ele></trkpt><trkpt lat="47.712668" lon="11.940947"><ele>755.3</ele></trkpt><trkpt lat="47.712215" lon="11.941568"><ele>760</ele></trkpt><trkpt lat="47.712072" lon="11.941854"><ele>761.2</ele></trkpt><trkpt lat="47.711706" lon="11.942967"><ele>770</ele></trkpt><trkpt lat="47.711614" lon="11.943238"><ele>794.7</ele></trkpt><trkpt lat="47.7115" lon="11.943772"><ele>821</ele></trkpt><trkpt lat="47.711462" lon="11.943993"><ele>827</ele></trkpt><trkpt lat="47.711356" lon="11.944438"><ele>833</ele></trkpt><trkpt lat="47.71135" lon="11.944509"><ele>833</ele></trkpt><trkpt lat="47.711335" lon="11.945034"><ele>833</ele></trkpt><trkpt lat="47.711262" lon="11.945674"><ele>833</ele></trkpt><trkpt lat="47.711189" lon="11.946203"><ele>814.9</ele></trkpt><trkpt lat="47.711166" lon="11.946532"><ele>813.4</ele></trkpt><trkpt lat="47.711046" lon="11.947335"><ele>809.9</ele></trkpt><trkpt lat="47.711033" lon="11.947805"><ele>805.3</ele></trkpt><trkpt lat="47.711056" lon="11.948108"><ele>806.3</ele></trkpt><trkpt lat="47.711065" lon="11.94856"><ele>793</ele></trkpt><trkpt lat="47.711064" lon="11.948871"><ele>793.8</ele></trkpt><trkpt lat="47.71093" lon="11.950399"><ele>793.8</ele></trkpt><trkpt lat="47.710966" lon="11.950469"><ele>794</ele></trkpt><trkpt lat="47.711003" lon="11.950516"><ele>794</ele></trkpt><trkpt lat="47.711038" lon="11.950583"><ele>794</ele></trkpt><trkpt lat="47.710773" lon="11.951413"><ele>844</ele></trkpt><trkpt lat="47.710678" lon="11.951779"><ele>844.3</ele></trkpt><trkpt lat="47.710619" lon="11.952181"><ele>843.8</ele></trkpt><trkpt lat="47.710516" lon="11.953064"><ele>849.7</ele></trkpt><trkpt lat="47.710493" lon="11.953735"><ele>848.1</ele></trkpt><trkpt lat="47.710511" lon="11.954137"><ele>846.9</ele></trkpt><trkpt lat="47.710488" lon="11.955135"><ele>840.6</ele></trkpt><trkpt lat="47.710398" lon="11.955775"><ele>837.8</ele></trkpt><trkpt lat="47.710292" lon="11.956168"><ele>847.8</ele></trkpt><trkpt lat="47.710266" lon="11.956409"><ele>849.4</ele></trkpt><trkpt lat="47.710117" lon="11.956915"><ele>848.4</ele></trkpt><trkpt lat="47.709961" lon="11.957969"><ele>851.3</ele></trkpt><trkpt lat="47.710064" lon="11.958539"><ele>840.5</ele></trkpt><trkpt lat="47.71035" lon="11.958959"><ele>841.3</ele></trkpt><trkpt lat="47.710361" lon="11.959009"><ele>840.2</ele></trkpt><trkpt lat="47.710407" lon="11.959218"><ele>839</ele></trkpt><trkpt lat="47.710415" lon="11.959283"><ele>839</ele></trkpt><trkpt lat="47.710582" lon="11.960222"><ele>855</ele></trkpt><trkpt lat="47.710635" lon="11.960555"><ele>861.7</ele></trkpt><trkpt lat="47.710613" lon="11.960979"><ele>859.8</ele></trkpt><trkpt lat="47.710662" lon="11.961425"><ele>856.6</ele></trkpt><trkpt lat="47.710759" lon="11.961825"><ele>854.9</ele></trkpt><trkpt lat="47.71087" lon="11.962189"><ele>851.2</ele></trkpt><trkpt lat="47.711093" lon="11.962717"><ele>855.8</ele></trkpt><trkpt lat="47.711179" lon="11.963129"><ele>855.1</ele></trkpt><trkpt lat="47.711241" lon="11.963597"><ele>854.8</ele></trkpt><trkpt lat="47.711311" lon="11.963897"><ele>854.9</ele></trkpt><trkpt lat="47.711437" lon="11.964203"><ele>855.5</ele></trkpt><trkpt lat="47.711543" lon="11.964404"><ele>853.7</ele></trkpt><trkpt lat="47.71172" lon="11.964632"><ele>851.3</ele></trkpt><trkpt lat="47.711945" lon="11.964654"><ele>851.8</ele></trkpt><trkpt lat="47.712245" lon="11.964573"><ele>852</ele></trkpt><trkpt lat="47.712302" lon="11.964499"><ele>847</ele></trkpt><trkpt lat="47.712386" lon="11.96455"><ele>847.9</ele></trkpt><trkpt lat="47.712458" lon="11.964547"><ele>847.8</ele></trkpt><trkpt lat="47.712593" lon="11.964472"><ele>848</ele></trkpt><trkpt lat="47.712675" lon="11.964372"><ele>848.3</ele></trkpt><trkpt lat="47.712708" lon="11.96436"><ele>849</ele></trkpt><trkpt lat="47.712828" lon="11.964388"><ele>849</ele></trkpt><trkpt lat="47.712967" lon="11.964365"><ele>849</ele></trkpt><trkpt lat="47.712863" lon="11.964624"><ele>851</ele></trkpt><trkpt lat="47.712739" lon="11.965043"><ele>857</ele></trkpt><trkpt lat="47.712814" lon="11.965302"><ele>857</ele></trkpt><trkpt lat="47.712963" lon="11.965805"><ele>862.2</ele></trkpt><trkpt lat="47.71298" lon="11.965942"><ele>870</ele></trkpt><trkpt lat="47.712972" lon="11.96613"><ele>870</ele></trkpt><trkpt lat="47.712932" lon="11.966322"><ele>870</ele></trkpt><trkpt lat="47.712694" lon="11.966969"><ele>885</ele></trkpt><trkpt lat="47.712643" lon="11.967256"><ele>893.2</ele></trkpt><trkpt lat="47.712593" lon="11.967674"><ele>893.7</ele></trkpt><trkpt lat="47.712561" lon="11.967772"><ele>892.8</ele></trkpt><trkpt lat="47.712533" lon="11.967798"><ele>892.3</ele></trkpt><trkpt lat="47.712278" lon="11.967811"><ele>891.9</ele></trkpt><trkpt lat="47.712203" lon="11.967886"><ele>891.9</ele></trkpt><trkpt lat="47.712172" lon="11.967989"><ele>892</ele></trkpt><trkpt lat="47.712166" lon="11.968128"><ele>892</ele></trkpt><trkpt lat="47.712174" lon="11.968212"><ele>892.1</ele></trkpt><trkpt lat="47.712225" lon="11.96836"><ele>897</ele></trkpt><trkpt lat="47.712316" lon="11.968524"><ele>911.7</ele></trkpt><trkpt lat="47.712534" lon="11.968692"><ele>914.3</ele></trkpt><trkpt lat="47.712646" lon="11.968818"><ele>914.3</ele></trkpt><trkpt lat="47.712723" lon="11.968951"><ele>914.4</ele></trkpt><trkpt lat="47.712839" lon="11.969091"><ele>914.4</ele></trkpt><trkpt lat="47.712991" lon="11.969323"><ele>914.2</ele></trkpt><trkpt lat="47.713103" lon="11.96942"><ele>913.7</ele></trkpt><trkpt lat="47.71324" lon="11.969414"><ele>919</ele></trkpt><trkpt lat="47.713359" lon="11.969373"><ele>923.7</ele></trkpt><trkpt lat="47.713464" lon="11.969066"><ele>921.7</ele></trkpt><trkpt lat="47.713518" lon="11.969013"><ele>921.9</ele></trkpt><trkpt lat="47.713566" lon="11.969007"><ele>921</ele></trkpt><trkpt lat="47.713589" lon="11.969053"><ele>921</ele></trkpt><trkpt lat="47.713811" lon="11.969501"><ele>926.3</ele></trkpt><trkpt lat="47.713879" lon="11.969695"><ele>929</ele></trkpt><trkpt lat="47.713937" lon="11.969718"><ele>929</ele></trkpt><trkpt lat="47.714" lon="11.969677"><ele>929</ele></trkpt><trkpt lat="47.714076" lon="11.969605"><ele>929</ele></trkpt><trkpt lat="47.714243" lon="11.96969"><ele>943</ele></trkpt><trkpt lat="47.714357" lon="11.969889"><ele>951.4</ele></trkpt><trkpt lat="47.714519" lon="11.970286"><ele>952</ele></trkpt><trkpt lat="47.714558" lon="11.970307"><ele>951.7</ele></trkpt><trkpt lat="47.714602" lon="11.970298"><ele>951.3</ele></trkpt><trkpt lat="47.71464" lon="11.970254"><ele>951</ele></trkpt><trkpt lat="47.714694" lon="11.970167"><ele>950.6</ele></trkpt><trkpt lat="47.714759" lon="11.969985"><ele>943</ele></trkpt><trkpt lat="47.714861" lon="11.969797"><ele>959.5</ele></trkpt><trkpt lat="47.71502" lon="11.96962"><ele>963.6</ele></trkpt><trkpt lat="47.715075" lon="11.969584"><ele>976</ele></trkpt><trkpt lat="47.715061" lon="11.969755"><ele>976</ele></trkpt><trkpt lat="47.715084" lon="11.969847"><ele>976</ele></trkpt><trkpt lat="47.71513" lon="11.969908"><ele>976</ele></trkpt><trkpt lat="47.715198" lon="11.969906"><ele>985.5</ele></trkpt><trkpt lat="47.715375" lon="11.969777"><ele>987.1</ele></trkpt><trkpt lat="47.715535" lon="11.969715"><ele>988.1</ele></trkpt><trkpt lat="47.715612" lon="11.96965"><ele>989.1</ele></trkpt><trkpt lat="47.715708" lon="11.969525"><ele>990.2</ele></trkpt><trkpt lat="47.715731" lon="11.969511"><ele>990.8</ele></trkpt><trkpt lat="47.715777" lon="11.969484"><ele>991.4</ele></trkpt><trkpt lat="47.715837" lon="11.969503"><ele>992.6</ele></trkpt><trkpt lat="47.715891" lon="11.969565"><ele>991.9</ele></trkpt><trkpt lat="47.716037" lon="11.969824"><ele>991.2</ele></trkpt><trkpt lat="47.716241" lon="11.970083"><ele>1015</ele></trkpt><trkpt lat="47.716284" lon="11.97018"><ele>1015</ele></trkpt><trkpt lat="47.716285" lon="11.970312"><ele>1024.1</ele></trkpt><trkpt lat="47.716238" lon="11.970574"><ele>1024.8</ele></trkpt><trkpt lat="47.716199" lon="11.970657"><ele>1025.7</ele></trkpt><trkpt lat="47.716059" lon="11.97085"><ele>1026.5</ele></trkpt><trkpt lat="47.715957" lon="11.971141"><ele>1025.8</ele></trkpt><trkpt lat="47.716003" lon="11.971415"><ele>1024.9</ele></trkpt><trkpt lat="47.71599" lon="11.971541"><ele>1024.4</ele></trkpt><trkpt lat="47.715948" lon="11.971646"><ele>1023.8</ele></trkpt><trkpt lat="47.715801" lon="11.97186"><ele>1012</ele></trkpt><trkpt lat="47.715891" lon="11.971969"><ele>1047.6</ele></trkpt><trkpt lat="47.716172" lon="11.97212"><ele>1046.9</ele></trkpt><trkpt lat="47.716185" lon="11.972171"><ele>1046.7</ele></trkpt><trkpt lat="47.716149" lon="11.972393"><ele>1046.3</ele></trkpt><trkpt lat="47.716111" lon="11.972504"><ele>1046.8</ele></trkpt><trkpt lat="47.715918" lon="11.97277"><ele>1047.6</ele></trkpt><trkpt lat="47.715861" lon="11.972938"><ele>1048</ele></trkpt><trkpt lat="47.715828" lon="11.973075"><ele>1047.5</ele></trkpt><trkpt lat="47.715824" lon="11.973141"><ele>1047</ele></trkpt><trkpt lat="47.715837" lon="11.973201"><ele>1047.4</ele></trkpt><trkpt lat="47.715896" lon="11.973261"><ele>1047.8</ele></trkpt><trkpt lat="47.715982" lon="11.97328"><ele>1048.2</ele></trkpt><trkpt lat="47.716159" lon="11.973268"><ele>1048.6</ele></trkpt><trkpt lat="47.716476" lon="11.973424"><ele>1050.6</ele></trkpt><trkpt lat="47.716614" lon="11.973423"><ele>1051.3</ele></trkpt><trkpt lat="47.716736" lon="11.97349"><ele>1083</ele></trkpt><trkpt lat="47.716711" lon="11.973578"><ele>1074.5</ele></trkpt><trkpt lat="47.716589" lon="11.973761"><ele>1073.5</ele></trkpt><trkpt lat="47.716387" lon="11.973949"><ele>1072.7</ele></trkpt><trkpt lat="47.716164" lon="11.974087"><ele>1071.8</ele></trkpt><trkpt lat="47.716125" lon="11.974139"><ele>1069</ele></trkpt><trkpt lat="47.716118" lon="11.97419"><ele>1081.9</ele></trkpt><trkpt lat="47.716146" lon="11.974299"><ele>1082.4</ele></trkpt><trkpt lat="47.716298" lon="11.974435"><ele>1083.1</ele></trkpt><trkpt lat="47.716343" lon="11.974519"><ele>1083.4</ele></trkpt><trkpt lat="47.716346" lon="11.97457"><ele>1085</ele></trkpt><trkpt lat="47.716317" lon="11.974743"><ele>1093.3</ele></trkpt><trkpt lat="47.71624" lon="11.975037"><ele>1095.1</ele></trkpt><trkpt lat="47.716149" lon="11.975292"><ele>1096.7</ele></trkpt><trkpt lat="47.716127" lon="11.975409"><ele>1108</ele></trkpt><trkpt lat="47.716035" lon="11.975525"><ele>1108</ele></trkpt><trkpt lat="47.716001" lon="11.975618"><ele>1108</ele></trkpt><trkpt lat="47.716047" lon="11.975635"><ele>1133.3</ele></trkpt><trkpt lat="47.716074" lon="11.975623"><ele>1133.8</ele></trkpt><trkpt lat="47.716118" lon="11.975659"><ele>1135.2</ele></trkpt><trkpt lat="47.716226" lon="11.975645"><ele>1136.6</ele></trkpt><trkpt lat="47.716275" lon="11.975658"><ele>1137.6</ele></trkpt><trkpt lat="47.716237" lon="11.975775"><ele>1139.8</ele></trkpt><trkpt lat="47.716254" lon="11.975854"><ele>1141.5</ele></trkpt><trkpt lat="47.716248" lon="11.976052"><ele>1142.5</ele></trkpt><trkpt lat="47.716262" lon="11.976143"><ele>1143.1</ele></trkpt><trkpt lat="47.716245" lon="11.976338"><ele>1143.5</ele></trkpt><trkpt lat="47.716186" lon="11.976575"><ele>1144.3</ele></trkpt><trkpt lat="47.716166" lon="11.97688"><ele>1144.1</ele></trkpt><trkpt lat="47.716125" lon="11.976972"><ele>1143.4</ele></trkpt><trkpt lat="47.716195" lon="11.977029"><ele>1142.4</ele></trkpt><trkpt lat="47.716163" lon="11.97717"><ele>1141.4</ele></trkpt><trkpt lat="47.716135" lon="11.977224"><ele>1154</ele></trkpt><trkpt lat="47.716198" lon="11.977249"><ele>1178.5</ele></trkpt><trkpt lat="47.716214" lon="11.977288"><ele>1179.2</ele></trkpt><trkpt lat="47.716263" lon="11.977312"><ele>1180</ele></trkpt><trkpt lat="47.716276" lon="11.977292"><ele>1180.4</ele></trkpt><trkpt lat="47.716298" lon="11.977348"><ele>1181.2</ele></trkpt><trkpt lat="47.716362" lon="11.977376"><ele>1182.5</ele></trkpt><trkpt lat="47.716368" lon="11.977405"><ele>1182.9</ele></trkpt><trkpt lat="47.716445" lon="11.9775"><ele>1186.6</ele></trkpt><trkpt lat="47.716468" lon="11.977488"><ele>1187.3</ele></trkpt><trkpt lat="47.716557" lon="11.977536"><ele>1189.4</ele></trkpt><trkpt lat="47.716565" lon="11.977614"><ele>1190.4</ele></trkpt><trkpt lat="47.716618" lon="11.97762"><ele>1191.1</ele></trkpt><trkpt lat="47.716641" lon="11.97759"><ele>1191.6</ele></trkpt><trkpt lat="47.716663" lon="11.977626"><ele>1192.2</ele></trkpt><trkpt lat="47.716661" lon="11.977654"><ele>1192.4</ele></trkpt><trkpt lat="47.716682" lon="11.977648"><ele>1192.7</ele></trkpt><trkpt lat="47.716729" lon="11.977741"><ele>1192</ele></trkpt><trkpt lat="47.71677" lon="11.977775"><ele>1191</ele></trkpt><trkpt lat="47.716787" lon="11.97785"><ele>1190.3</ele></trkpt><trkpt lat="47.716907" lon="11.977997"><ele>1208</ele></trkpt><trkpt lat="47.717087" lon="11.977806"><ele>1232</ele></trkpt><trkpt lat="47.71715" lon="11.977802"><ele>1232.8</ele></trkpt><trkpt lat="47.717252" lon="11.977691"><ele>1233.9</ele></trkpt><trkpt lat="47.717379" lon="11.977675"><ele>1235.5</ele></trkpt><trkpt lat="47.717446" lon="11.977615"><ele>1237.2</ele></trkpt><trkpt lat="47.717503" lon="11.977618"><ele>1238.6</ele></trkpt><trkpt lat="47.717607" lon="11.97752"><ele>1238.1</ele></trkpt><trkpt lat="47.717725" lon="11.9775"><ele>1237.8</ele></trkpt><trkpt lat="47.717811" lon="11.977416"><ele>1238.8</ele></trkpt><trkpt lat="47.717951" lon="11.977515"><ele>1241.3</ele></trkpt><trkpt lat="47.717958" lon="11.977573"><ele>1241</ele></trkpt><trkpt lat="47.718036" lon="11.977633"><ele>1240.2</ele></trkpt><trkpt lat="47.718086" lon="11.977718"><ele>1239.3</ele></trkpt><trkpt lat="47.718114" lon="11.977708"><ele>1239.1</ele></trkpt><trkpt lat="47.718135" lon="11.977658"><ele>1238.6</ele></trkpt><trkpt lat="47.718152" lon="11.977658"><ele>1238.4</ele></trkpt><trkpt lat="47.718242" lon="11.97753"><ele>1250</ele></trkpt><trkpt lat="47.718312" lon="11.97745"><ele>1265.7</ele></trkpt><trkpt lat="47.71835" lon="11.977509"><ele>1269.3</ele></trkpt><trkpt lat="47.718368" lon="11.977481"><ele>1268.9</ele></trkpt><trkpt lat="47.718384" lon="11.977494"><ele>1270.1</ele></trkpt><trkpt lat="47.7184" lon="11.977463"><ele>1271.4</ele></trkpt><trkpt lat="47.718418" lon="11.977469"><ele>1272.1</ele></trkpt><trkpt lat="47.718425" lon="11.977439"><ele>1272.8</ele></trkpt><trkpt lat="47.718468" lon="11.977427"><ele>1274.3</ele></trkpt><trkpt lat="47.718492" lon="11.977457"><ele>1275.1</ele></trkpt><trkpt lat="47.718498" lon="11.977515"><ele>1276.8</ele></trkpt><trkpt lat="47.71852" lon="11.97755"><ele>1276</ele></trkpt><trkpt lat="47.718634" lon="11.977644"><ele>1296</ele></trkpt><trkpt lat="47.718705" lon="11.977651"><ele>1296</ele></trkpt><trkpt lat="47.718719" lon="11.977733"><ele>1296</ele></trkpt><trkpt lat="47.718782" lon="11.977738"><ele>1296</ele></trkpt><trkpt lat="47.718795" lon="11.977775"><ele>1296</ele></trkpt><trkpt lat="47.718815" lon="11.977776"><ele>1296</ele></trkpt><trkpt lat="47.718852" lon="11.977832"><ele>1296</ele></trkpt><trkpt lat="47.718853" lon="11.977889"><ele>1296</ele></trkpt><trkpt lat="47.718844" lon="11.978047"><ele>1296</ele></trkpt><trkpt lat="47.718782" lon="11.978113"><ele>1296</ele></trkpt><trkpt lat="47.718827" lon="11.978138"><ele>1309.9</ele></trkpt><trkpt lat="47.718763" lon="11.97821"><ele>1307.7</ele></trkpt><trkpt lat="47.718797" lon="11.978219"><ele>1306.7</ele></trkpt><trkpt lat="47.718735" lon="11.978357"><ele>1308.8</ele></trkpt><trkpt lat="47.718737" lon="11.978377"><ele>1310.8</ele></trkpt><trkpt lat="47.718781" lon="11.978387"><ele>1311.6</ele></trkpt><trkpt lat="47.718786" lon="11.978388"><ele>1312.5</ele></trkpt><trkpt lat="47.718796" lon="11.978411"><ele>1314.1</ele></trkpt><trkpt lat="47.718779" lon="11.978629"><ele>1332</ele></trkpt><trkpt lat="47.718737" lon="11.978723"><ele>1332</ele></trkpt><trkpt lat="47.718641" lon="11.979049"><ele>1340.6</ele></trkpt><trkpt lat="47.71857" lon="11.979208"><ele>1342.6</ele></trkpt><trkpt lat="47.718473" lon="11.979347"><ele>1346</ele></trkpt><trkpt lat="47.718448" lon="11.979557"><ele>1349</ele></trkpt><trkpt lat="47.718426" lon="11.979616"><ele>1350.3</ele></trkpt><trkpt lat="47.718303" lon="11.979786"><ele>1328</ele></trkpt><trkpt lat="47.718125" lon="11.98"><ele>1329.4</ele></trkpt><trkpt lat="47.71811" lon="11.98008"><ele>1335</ele></trkpt><trkpt lat="47.718211" lon="11.980558"><ele>1336</ele></trkpt><trkpt lat="47.7182" lon="11.980763"><ele>1335.8</ele></trkpt><trkpt lat="47.718168" lon="11.980871"><ele>1336.3</ele></trkpt><trkpt lat="47.718177" lon="11.981035"><ele>1340</ele></trkpt><trkpt lat="47.71821" lon="11.981124"><ele>1346.8</ele></trkpt><trkpt lat="47.718212" lon="11.981305"><ele>1346.4</ele></trkpt><trkpt lat="47.718196" lon="11.98137"><ele>1346.5</ele></trkpt><trkpt lat="47.718225" lon="11.981433"><ele>1346.2</ele></trkpt><trkpt lat="47.718211" lon="11.981492"><ele>1345.8</ele></trkpt><trkpt lat="47.718178" lon="11.98154"><ele>1345.6</ele></trkpt><trkpt lat="47.718155" lon="11.981645"><ele>1346</ele></trkpt><trkpt lat="47.718166" lon="11.98184"><ele>1347.6</ele></trkpt><trkpt lat="47.718145" lon="11.982"><ele>1348</ele></trkpt><trkpt lat="47.718168" lon="11.982116"><ele>1348.3</ele></trkpt><trkpt lat="47.718164" lon="11.982294"><ele>1348.7</ele></trkpt><trkpt lat="47.718189" lon="11.982473"><ele>1349</ele></trkpt><trkpt lat="47.718176" lon="11.982638"><ele>1349.6</ele></trkpt><trkpt lat="47.71818" lon="11.982898"><ele>1350.2</ele></trkpt><trkpt lat="47.718168" lon="11.983079"><ele>1351.2</ele></trkpt><trkpt lat="47.718123" lon="11.983353"><ele>1354.7</ele></trkpt><trkpt lat="47.718062" lon="11.983538"><ele>1360.1</ele></trkpt><trkpt lat="47.718079" lon="11.983753"><ele>1371</ele></trkpt><trkpt lat="47.718101" lon="11.983886"><ele>1389.5</ele></trkpt><trkpt lat="47.718156" lon="11.983963"><ele>1388.1</ele></trkpt><trkpt lat="47.718231" lon="11.983972"><ele>1386.7</ele></trkpt><trkpt lat="47.718273" lon="11.984058"><ele>1384.4</ele></trkpt><trkpt lat="47.718328" lon="11.984038"><ele>1382.4</ele></trkpt><trkpt lat="47.718346" lon="11.984077"><ele>1387.3</ele></trkpt><trkpt lat="47.71837" lon="11.984072"><ele>1391.8</ele></trkpt><trkpt lat="47.718368" lon="11.984028"><ele>1396</ele></trkpt><trkpt lat="47.718397" lon="11.983975"><ele>1446</ele></trkpt><trkpt lat="47.718421" lon="11.983956"><ele>1450.6</ele></trkpt><trkpt lat="47.718451" lon="11.983867"><ele>1450.5</ele></trkpt><trkpt lat="47.718435" lon="11.98383"><ele>1450.2</ele></trkpt><trkpt lat="47.718441" lon="11.98376"><ele>1449.9</ele></trkpt><trkpt lat="47.718622" lon="11.98331"><ele>1454.3</ele></trkpt><trkpt lat="47.718714" lon="11.983184"><ele>1453.4</ele></trkpt><trkpt lat="47.718862" lon="11.98307"><ele>1452.5</ele></trkpt><trkpt lat="47.719015" lon="11.982874"><ele>1451.7</ele></trkpt><trkpt lat="47.719054" lon="11.982763"><ele>1450.9</ele></trkpt><trkpt lat="47.719183" lon="11.982622"><ele>1452.3</ele></trkpt><trkpt lat="47.719324" lon="11.98234"><ele>1453.7</ele></trkpt><trkpt lat="47.71946" lon="11.982199"><ele>1455.8</ele></trkpt><trkpt lat="47.719581" lon="11.981997"><ele>1458.5</ele></trkpt><trkpt lat="47.719609" lon="11.98203"><ele>1459.3</ele></trkpt><trkpt lat="47.719621" lon="11.982098"><ele>1460</ele></trkpt><trkpt lat="47.719602" lon="11.982324"><ele>1459.3</ele></trkpt><trkpt lat="47.719616" lon="11.982631"><ele>1460.7</ele></trkpt><trkpt lat="47.719744" lon="11.982494"><ele>1462.1</ele></trkpt><trkpt lat="47.719777" lon="11.982762"><ele>1463.8</ele></trkpt><trkpt lat="47.719757" lon="11.982886"><ele>1489</ele></trkpt><trkpt lat="47.719785" lon="11.982907"><ele>1498.1</ele></trkpt><trkpt lat="47.719839" lon="11.982827"><ele>1496.6</ele></trkpt><trkpt lat="47.719873" lon="11.982812"><ele>1496</ele></trkpt><trkpt lat="47.719903" lon="11.982867"><ele>1494.9</ele></trkpt><trkpt lat="47.719993" lon="11.982853"><ele>1493.9</ele></trkpt><trkpt lat="47.720184" lon="11.982885"><ele>1535</ele></trkpt><trkpt lat="47.720165" lon="11.983282"><ele>1535</ele></trkpt><trkpt lat="47.720313" lon="11.983105"><ele>1535</ele></trkpt><trkpt lat="47.720607" lon="11.982846"><ele>1535</ele></trkpt><trkpt lat="47.720662" lon="11.982835"><ele>1539.6</ele></trkpt><trkpt lat="47.720822" lon="11.982916"><ele>1541.8</ele></trkpt><trkpt lat="47.720901" lon="11.982862"><ele>1542.8</ele></trkpt><trkpt lat="47.720945" lon="11.982867"><ele>1551</ele></trkpt><trkpt lat="47.720961" lon="11.982869"><ele>1551</ele></trkpt><trkpt lat="47.721153" lon="11.982837"><ele>1563</ele></trkpt><trkpt lat="47.720961" lon="11.982869"><ele>1551</ele></trkpt><trkpt lat="47.720945" lon="11.982867"><ele>1551</ele></trkpt><trkpt lat="47.720947" lon="11.982955"><ele>1545.6</ele></trkpt><trkpt lat="47.720919" lon="11.983057"><ele>1545.8</ele></trkpt><trkpt lat="47.720774" lon="11.983242"><ele>1545.1</ele></trkpt><trkpt lat="47.72077" lon="11.983341"><ele>1545</ele></trkpt><trkpt lat="47.720706" lon="11.983507"><ele>1544.9</ele></trkpt><trkpt lat="47.720741" lon="11.983741"><ele>1544.8</ele></trkpt><trkpt lat="47.720712" lon="11.983933"><ele>1544.8</ele></trkpt><trkpt lat="47.720682" lon="11.983928"><ele>1544.7</ele></trkpt><trkpt lat="47.720681" lon="11.983976"><ele>1544.7</ele></trkpt><trkpt lat="47.720655" lon="11.983991"><ele>1544.7</ele></trkpt><trkpt lat="47.72066" lon="11.984111"><ele>1544.6</ele></trkpt><trkpt lat="47.720637" lon="11.984157"><ele>1544.6</ele></trkpt><trkpt lat="47.720637" lon="11.98424"><ele>1544.8</ele></trkpt><trkpt lat="47.72061" lon="11.984246"><ele>1545</ele></trkpt><trkpt lat="47.720595" lon="11.984334"><ele>1545.2</ele></trkpt><trkpt lat="47.720611" lon="11.98453"><ele>1545.7</ele></trkpt><trkpt lat="47.720561" lon="11.984796"><ele>1550</ele></trkpt><trkpt lat="47.720648" lon="11.98504"><ele>1556.5</ele></trkpt><trkpt lat="47.720673" lon="11.985242"><ele>1557.1</ele></trkpt><trkpt lat="47.720708" lon="11.985327"><ele>1557.4</ele></trkpt><trkpt lat="47.720755" lon="11.985615"><ele>1558.5</ele></trkpt><trkpt lat="47.720797" lon="11.985714"><ele>1559</ele></trkpt><trkpt lat="47.720803" lon="11.985783"><ele>1559.4</ele></trkpt><trkpt lat="47.720842" lon="11.985903"><ele>1559.9</ele></trkpt><trkpt lat="47.720872" lon="11.986116"><ele>1576</ele></trkpt><trkpt lat="47.720923" lon="11.98623"><ele>1578.3</ele></trkpt><trkpt lat="47.72092" lon="11.986358"><ele>1578.7</ele></trkpt><trkpt lat="47.720987" lon="11.986717"><ele>1579.7</ele></trkpt><trkpt lat="47.720982" lon="11.986934"><ele>1583</ele></trkpt><trkpt lat="47.720996" lon="11.987172"><ele>1583</ele></trkpt><trkpt lat="47.720987" lon="11.987332"><ele>1583</ele></trkpt><trkpt lat="47.721039" lon="11.9873"><ele>1587</ele></trkpt><trkpt lat="47.721064" lon="11.987309"><ele>1587.4</ele></trkpt><trkpt lat="47.721081" lon="11.987377"><ele>1587.9</ele></trkpt><trkpt lat="47.721044" lon="11.987598"><ele>1589.1</ele></trkpt><trkpt lat="47.721074" lon="11.987688"><ele>1588.8</ele></trkpt><trkpt lat="47.721118" lon="11.987712"><ele>1588.4</ele></trkpt><trkpt lat="47.721122" lon="11.987766"><ele>1592</ele></trkpt><trkpt lat="47.721118" lon="11.987712"><ele>1588.4</ele></trkpt><trkpt lat="47.721074" lon="11.987688"><ele>1588.8</ele></trkpt><trkpt lat="47.721044" lon="11.987598"><ele>1589.1</ele></trkpt><trkpt lat="47.721081" lon="11.987377"><ele>1587.9</ele></trkpt><trkpt lat="47.721064" lon="11.987309"><ele>1587.4</ele></trkpt><trkpt lat="47.721039" lon="11.9873"><ele>1587</ele></trkpt><trkpt lat="47.720987" lon="11.987332"><ele>1583</ele></trkpt><trkpt lat="47.720912" lon="11.987337"><ele>1550.5</ele></trkpt><trkpt lat="47.72076" lon="11.987441"><ele>1550.5</ele></trkpt><trkpt lat="47.720779" lon="11.987351"><ele>1550.5</ele></trkpt><trkpt lat="47.720762" lon="11.987119"><ele>1550.4</ele></trkpt><trkpt lat="47.7207" lon="11.986932"><ele>1550.4</ele></trkpt><trkpt lat="47.72065" lon="11.986681"><ele>1550.4</ele></trkpt><trkpt lat="47.720608" lon="11.986689"><ele>1550.4</ele></trkpt><trkpt lat="47.720478" lon="11.987106"><ele>1550.3</ele></trkpt><trkpt lat="47.720322" lon="11.987221"><ele>1550.3</ele></trkpt><trkpt lat="47.720222" lon="11.987383"><ele>1550.3</ele></trkpt><trkpt lat="47.720203" lon="11.987383"><ele>1550.3</ele></trkpt><trkpt lat="47.720198" lon="11.987287"><ele>1550.3</ele></trkpt><trkpt lat="47.720149" lon="11.987141"><ele>1550.3</ele></trkpt><trkpt lat="47.720139" lon="11.986974"><ele>1550.3</ele></trkpt><trkpt lat="47.720053" lon="11.986744"><ele>1550.2</ele></trkpt><trkpt lat="47.71992" lon="11.986497"><ele>1547.7</ele></trkpt><trkpt lat="47.719911" lon="11.986422"><ele>1545.2</ele></trkpt><trkpt lat="47.71989" lon="11.986396"><ele>1496</ele></trkpt><trkpt lat="47.719866" lon="11.986213"><ele>1496</ele></trkpt><trkpt lat="47.719803" lon="11.986182"><ele>1471.7</ele></trkpt><trkpt lat="47.719705" lon="11.986267"><ele>1469.6</ele></trkpt><trkpt lat="47.71954" lon="11.986124"><ele>1468.9</ele></trkpt><trkpt lat="47.719528" lon="11.985978"><ele>1471.4</ele></trkpt><trkpt lat="47.719516" lon="11.985939"><ele>1472.1</ele></trkpt><trkpt lat="47.719483" lon="11.985836"><ele>1472.7</ele></trkpt><trkpt lat="47.719475" lon="11.98569"><ele>1475.9</ele></trkpt><trkpt lat="47.71944" lon="11.985626"><ele>1476.2</ele></trkpt><trkpt lat="47.719424" lon="11.985529"><ele>1477.6</ele></trkpt><trkpt lat="47.71939" lon="11.98549"><ele>1478.1</ele></trkpt><trkpt lat="47.71939" lon="11.985367"><ele>1479.1</ele></trkpt><trkpt lat="47.71938" lon="11.985359"><ele>1479.4</ele></trkpt><trkpt lat="47.719354" lon="11.9854"><ele>1479.2</ele></trkpt><trkpt lat="47.719325" lon="11.985357"><ele>1479.7</ele></trkpt><trkpt lat="47.719302" lon="11.98536"><ele>1480</ele></trkpt><trkpt lat="47.719284" lon="11.985393"><ele>1480.5</ele></trkpt><trkpt lat="47.71925" lon="11.98529"><ele>1481.2</ele></trkpt><trkpt lat="47.719214" lon="11.985303"><ele>1482</ele></trkpt><trkpt lat="47.719192" lon="11.985266"><ele>1482.4</ele></trkpt><trkpt lat="47.719158" lon="11.985282"><ele>1482.5</ele></trkpt><trkpt lat="47.719137" lon="11.985181"><ele>1481.3</ele></trkpt><trkpt lat="47.719093" lon="11.985233"><ele>1480.2</ele></trkpt><trkpt lat="47.719073" lon="11.985134"><ele>1479.4</ele></trkpt><trkpt lat="47.71904" lon="11.985094"><ele>1478.8</ele></trkpt><trkpt lat="47.718996" lon="11.985119"><ele>1477.2</ele></trkpt><trkpt lat="47.718959" lon="11.985214"><ele>1476.1</ele></trkpt><trkpt lat="47.718943" lon="11.985223"><ele>1475.4</ele></trkpt><trkpt lat="47.718865" lon="11.985072"><ele>1474.5</ele></trkpt><trkpt lat="47.718804" lon="11.985023"><ele>1473.6</ele></trkpt><trkpt lat="47.718772" lon="11.985074"><ele>1473</ele></trkpt><trkpt lat="47.718759" lon="11.985137"><ele>1472.7</ele></trkpt><trkpt lat="47.718759" lon="11.985242"><ele>1471.9</ele></trkpt><trkpt lat="47.718779" lon="11.985361"><ele>1467.1</ele></trkpt><trkpt lat="47.718766" lon="11.985387"><ele>1466.6</ele></trkpt><trkpt lat="47.718737" lon="11.985373"><ele>1466.4</ele></trkpt><trkpt lat="47.718724" lon="11.985395"><ele>1465.9</ele></trkpt><trkpt lat="47.71873" lon="11.985595"><ele>1460.7</ele></trkpt><trkpt lat="47.718779" lon="11.985842"><ele>1454</ele></trkpt><trkpt lat="47.718751" lon="11.986005"><ele>1453.7</ele></trkpt><trkpt lat="47.7188" lon="11.986199"><ele>1453.4</ele></trkpt><trkpt lat="47.71871" lon="11.986431"><ele>1452.7</ele></trkpt><trkpt lat="47.71862" lon="11.986545"><ele>1452.6</ele></trkpt><trkpt lat="47.718531" lon="11.986624"><ele>1452.3</ele></trkpt><trkpt lat="47.71852" lon="11.986673"><ele>1452</ele></trkpt><trkpt lat="47.71856" lon="11.986836"><ele>1451.9</ele></trkpt><trkpt lat="47.718568" lon="11.986981"><ele>1431</ele></trkpt><trkpt lat="47.718621" lon="11.987262"><ele>1428.7</ele></trkpt><trkpt lat="47.718418" lon="11.987141"><ele>1429</ele></trkpt><trkpt lat="47.718406" lon="11.987153"><ele>1429</ele></trkpt><trkpt lat="47.718458" lon="11.9873"><ele>1429</ele></trkpt><trkpt lat="47.718439" lon="11.987386"><ele>1428.2</ele></trkpt><trkpt lat="47.71842" lon="11.987402"><ele>1428.2</ele></trkpt><trkpt lat="47.718395" lon="11.987389"><ele>1428.3</ele></trkpt><trkpt lat="47.718367" lon="11.987337"><ele>1428.4</ele></trkpt><trkpt lat="47.718307" lon="11.987483"><ele>1428</ele></trkpt><trkpt lat="47.718253" lon="11.987423"><ele>1426.6</ele></trkpt><trkpt lat="47.718223" lon="11.987487"><ele>1425</ele></trkpt><trkpt lat="47.718166" lon="11.987414"><ele>1424.3</ele></trkpt><trkpt lat="47.718114" lon="11.987183"><ele>1423.6</ele></trkpt><trkpt lat="47.718063" lon="11.987235"><ele>1422.5</ele></trkpt><trkpt lat="47.718023" lon="11.987376"><ele>1421.4</ele></trkpt><trkpt lat="47.718005" lon="11.987366"><ele>1420.9</ele></trkpt><trkpt lat="47.717997" lon="11.987328"><ele>1420.6</ele></trkpt><trkpt lat="47.717974" lon="11.98731"><ele>1420.3</ele></trkpt><trkpt lat="47.71795" lon="11.987218"><ele>1420.3</ele></trkpt><trkpt lat="47.71795" lon="11.98699"><ele>1420.9</ele></trkpt><trkpt lat="47.71794" lon="11.986983"><ele>1420.6</ele></trkpt><trkpt lat="47.717882" lon="11.987025"><ele>1419.3</ele></trkpt><trkpt lat="47.717707" lon="11.987244"><ele>1417.1</ele></trkpt><trkpt lat="47.717649" lon="11.98727"><ele>1400</ele></trkpt><trkpt lat="47.717575" lon="11.987227"><ele>1377.1</ele></trkpt><trkpt lat="47.717393" lon="11.98692"><ele>1376.6</ele></trkpt><trkpt lat="47.71733" lon="11.98673"><ele>1372.9</ele></trkpt><trkpt lat="47.717277" lon="11.986491"><ele>1372.3</ele></trkpt><trkpt lat="47.716982" lon="11.985987"><ele>1372.1</ele></trkpt><trkpt lat="47.716786" lon="11.985831"><ele>1370.2</ele></trkpt><trkpt lat="47.716682" lon="11.985704"><ele>1362.8</ele></trkpt><trkpt lat="47.71644" lon="11.985534"><ele>1358</ele></trkpt><trkpt lat="47.716391" lon="11.985564"><ele>1333</ele></trkpt><trkpt lat="47.716302" lon="11.98556"><ele>1341.8</ele></trkpt><trkpt lat="47.716281" lon="11.985577"><ele>1342.3</ele></trkpt><trkpt lat="47.71625" lon="11.985528"><ele>1342.9</ele></trkpt><trkpt lat="47.716224" lon="11.985554"><ele>1343.5</ele></trkpt><trkpt lat="47.716203" lon="11.985504"><ele>1344.2</ele></trkpt><trkpt lat="47.716151" lon="11.985516"><ele>1344.8</ele></trkpt><trkpt lat="47.716062" lon="11.985613"><ele>1345.6</ele></trkpt><trkpt lat="47.716029" lon="11.98555"><ele>1347.2</ele></trkpt><trkpt lat="47.715971" lon="11.985528"><ele>1348.1</ele></trkpt><trkpt lat="47.715758" lon="11.985525"><ele>1348.3</ele></trkpt><trkpt lat="47.715636" lon="11.985435"><ele>1347.5</ele></trkpt><trkpt lat="47.715584" lon="11.985236"><ele>1346.7</ele></trkpt><trkpt lat="47.715566" lon="11.985211"><ele>1361</ele></trkpt><trkpt lat="47.715528" lon="11.984681"><ele>1336.4</ele></trkpt><trkpt lat="47.715499" lon="11.984492"><ele>1333.8</ele></trkpt><trkpt lat="47.715431" lon="11.98427"><ele>1330.2</ele></trkpt><trkpt lat="47.715374" lon="11.983894"><ele>1328.2</ele></trkpt><trkpt lat="47.715101" lon="11.982828"><ele>1313.3</ele></trkpt><trkpt lat="47.715004" lon="11.982572"><ele>1287</ele></trkpt><trkpt lat="47.714969" lon="11.982476"><ele>1281.5</ele></trkpt><trkpt lat="47.714615" lon="11.981847"><ele>1282.8</ele></trkpt><trkpt lat="47.71444" lon="11.981118"><ele>1267</ele></trkpt><trkpt lat="47.714382" lon="11.980834"><ele>1267</ele></trkpt><trkpt lat="47.714415" lon="11.980525"><ele>1268.6</ele></trkpt><trkpt lat="47.714413" lon="11.98017"><ele>1269</ele></trkpt><trkpt lat="47.714429" lon="11.980048"><ele>1271</ele></trkpt><trkpt lat="47.714417" lon="11.979821"><ele>1271.2</ele></trkpt><trkpt lat="47.714481" lon="11.979557"><ele>1271.6</ele></trkpt><trkpt lat="47.714506" lon="11.979455"><ele>1272</ele></trkpt><trkpt lat="47.714438" lon="11.979435"><ele>1272</ele></trkpt><trkpt lat="47.714356" lon="11.979466"><ele>1272</ele></trkpt><trkpt lat="47.714289" lon="11.979564"><ele>1272</ele></trkpt><trkpt lat="47.7142" lon="11.979657"><ele>1249.2</ele></trkpt><trkpt lat="47.713985" lon="11.97982"><ele>1246.8</ele></trkpt><trkpt lat="47.713927" lon="11.979918"><ele>1234</ele></trkpt><trkpt lat="47.713886" lon="11.980134"><ele>1232</ele></trkpt><trkpt lat="47.713865" lon="11.980296"><ele>1232</ele></trkpt><trkpt lat="47.71384" lon="11.980464"><ele>1232</ele></trkpt><trkpt lat="47.713813" lon="11.980546"><ele>1232</ele></trkpt><trkpt lat="47.713744" lon="11.980678"><ele>1232</ele></trkpt><trkpt lat="47.713712" lon="11.980671"><ele>1232</ele></trkpt><trkpt lat="47.713694" lon="11.980642"><ele>1232</ele></trkpt><trkpt lat="47.713637" lon="11.98032"><ele>1232</ele></trkpt><trkpt lat="47.713609" lon="11.980164"><ele>1228</ele></trkpt><trkpt lat="47.713594" lon="11.979884"><ele>1228.4</ele></trkpt><trkpt lat="47.713601" lon="11.979553"><ele>1228.8</ele></trkpt><trkpt lat="47.713591" lon="11.979445"><ele>1229.1</ele></trkpt><trkpt lat="47.713534" lon="11.979245"><ele>1229.5</ele></trkpt><trkpt lat="47.713507" lon="11.979212"><ele>1229.8</ele></trkpt><trkpt lat="47.713463" lon="11.979235"><ele>1230.3</ele></trkpt><trkpt lat="47.713406" lon="11.979622"><ele>1231</ele></trkpt><trkpt lat="47.7133" lon="11.979932"><ele>1201</ele></trkpt><trkpt lat="47.713261" lon="11.980051"><ele>1208.6</ele></trkpt><trkpt lat="47.713227" lon="11.980108"><ele>1208.9</ele></trkpt><trkpt lat="47.713013" lon="11.980274"><ele>1209.4</ele></trkpt><trkpt lat="47.712962" lon="11.98029"><ele>1209.6</ele></trkpt><trkpt lat="47.712912" lon="11.980277"><ele>1211</ele></trkpt><trkpt lat="47.712839" lon="11.980197"><ele>1211</ele></trkpt><trkpt lat="47.712829" lon="11.980146"><ele>1211</ele></trkpt><trkpt lat="47.712852" lon="11.980097"><ele>1211</ele></trkpt><trkpt lat="47.712959" lon="11.980052"><ele>1207.6</ele></trkpt><trkpt lat="47.712987" lon="11.980005"><ele>1208.2</ele></trkpt><trkpt lat="47.712993" lon="11.97995"><ele>1207</ele></trkpt><trkpt lat="47.712966" lon="11.979761"><ele>1201</ele></trkpt><trkpt lat="47.712923" lon="11.979706"><ele>1201</ele></trkpt><trkpt lat="47.712843" lon="11.979718"><ele>1201</ele></trkpt><trkpt lat="47.712602" lon="11.979802"><ele>1205.7</ele></trkpt><trkpt lat="47.712549" lon="11.979794"><ele>1205</ele></trkpt><trkpt lat="47.712257" lon="11.979481"><ele>1219</ele></trkpt><trkpt lat="47.712173" lon="11.979365"><ele>1219</ele></trkpt><trkpt lat="47.712181" lon="11.979331"><ele>1219</ele></trkpt><trkpt lat="47.712241" lon="11.979311"><ele>1219</ele></trkpt><trkpt lat="47.712453" lon="11.979305"><ele>1213.4</ele></trkpt><trkpt lat="47.712503" lon="11.979275"><ele>1201</ele></trkpt><trkpt lat="47.71252" lon="11.979195"><ele>1204</ele></trkpt><trkpt lat="47.712498" lon="11.979142"><ele>1213</ele></trkpt><trkpt lat="47.712095" lon="11.978725"><ele>1213</ele></trkpt><trkpt lat="47.712049" lon="11.978687"><ele>1213</ele></trkpt><trkpt lat="47.711989" lon="11.97861"><ele>1213</ele></trkpt><trkpt lat="47.711997" lon="11.978558"><ele>1213</ele></trkpt><trkpt lat="47.712026" lon="11.978532"><ele>1213</ele></trkpt><trkpt lat="47.712106" lon="11.978525"><ele>1213</ele></trkpt><trkpt lat="47.712151" lon="11.978521"><ele>1213</ele></trkpt><trkpt lat="47.712347" lon="11.978497"><ele>1213</ele></trkpt><trkpt lat="47.712416" lon="11.978467"><ele>1213</ele></trkpt><trkpt lat="47.712464" lon="11.978432"><ele>1213</ele></trkpt><trkpt lat="47.712527" lon="11.978355"><ele>1172</ele></trkpt><trkpt lat="47.712676" lon="11.978186"><ele>1170.6</ele></trkpt><trkpt lat="47.712691" lon="11.978142"><ele>1168.6</ele></trkpt><trkpt lat="47.712682" lon="11.978094"><ele>1166.7</ele></trkpt><trkpt lat="47.712647" lon="11.97806"><ele>1165.1</ele></trkpt><trkpt lat="47.712483" lon="11.977997"><ele>1205</ele></trkpt><trkpt lat="47.712441" lon="11.977981"><ele>1205</ele></trkpt><trkpt lat="47.712384" lon="11.977956"><ele>1205</ele></trkpt><trkpt lat="47.712356" lon="11.97793"><ele>1205</ele></trkpt><trkpt lat="47.712348" lon="11.97789"><ele>1205</ele></trkpt><trkpt lat="47.712357" lon="11.977855"><ele>1205</ele></trkpt><trkpt lat="47.712378" lon="11.977841"><ele>1205</ele></trkpt><trkpt lat="47.712463" lon="11.977777"><ele>1205</ele></trkpt><trkpt lat="47.71247" lon="11.977772"><ele>1205</ele></trkpt><trkpt lat="47.71263" lon="11.977674"><ele>1167</ele></trkpt><trkpt lat="47.712642" lon="11.977623"><ele>1164.4</ele></trkpt><trkpt lat="47.71248" lon="11.977433"><ele>1193</ele></trkpt><trkpt lat="47.712402" lon="11.977359"><ele>1193</ele></trkpt><trkpt lat="47.712337" lon="11.977295"><ele>1193</ele></trkpt><trkpt lat="47.712299" lon="11.97722"><ele>1193</ele></trkpt><trkpt lat="47.712289" lon="11.977154"><ele>1193</ele></trkpt><trkpt lat="47.712294" lon="11.977081"><ele>1193</ele></trkpt><trkpt lat="47.712344" lon="11.976983"><ele>1193</ele></trkpt><trkpt lat="47.7124" lon="11.976926"><ele>1193</ele></trkpt><trkpt lat="47.712588" lon="11.976762"><ele>1141</ele></trkpt><trkpt lat="47.712578" lon="11.976721"><ele>1113.5</ele></trkpt><trkpt lat="47.712593" lon="11.976673"><ele>1112.8</ele></trkpt><trkpt lat="47.712647" lon="11.976642"><ele>1111.9</ele></trkpt><trkpt lat="47.712634" lon="11.97651"><ele>1111.4</ele></trkpt><trkpt lat="47.712659" lon="11.976373"><ele>1110.7</ele></trkpt><trkpt lat="47.712702" lon="11.976302"><ele>1110.2</ele></trkpt><trkpt lat="47.712707" lon="11.976267"><ele>1109.9</ele></trkpt><trkpt lat="47.712692" lon="11.976227"><ele>1109.6</ele></trkpt><trkpt lat="47.712746" lon="11.976063"><ele>1109</ele></trkpt><trkpt lat="47.712777" lon="11.976057"><ele>1108.7</ele></trkpt><trkpt lat="47.712866" lon="11.975966"><ele>1107.8</ele></trkpt><trkpt lat="47.712952" lon="11.975808"><ele>1106.8</ele></trkpt><trkpt lat="47.713107" lon="11.975675"><ele>1107.4</ele></trkpt><trkpt lat="47.713075" lon="11.975637"><ele>1108</ele></trkpt><trkpt lat="47.71308" lon="11.975603"><ele>1108.4</ele></trkpt><trkpt lat="47.713061" lon="11.975575"><ele>1108.8</ele></trkpt><trkpt lat="47.713062" lon="11.975521"><ele>1109.4</ele></trkpt><trkpt lat="47.713038" lon="11.975487"><ele>1101</ele></trkpt><trkpt lat="47.713029" lon="11.975456"><ele>1101</ele></trkpt><trkpt lat="47.713082" lon="11.975391"><ele>1101</ele></trkpt><trkpt lat="47.713043" lon="11.975292"><ele>1101</ele></trkpt><trkpt lat="47.713054" lon="11.975265"><ele>1101</ele></trkpt><trkpt lat="47.713097" lon="11.974898"><ele>1053.4</ele></trkpt><trkpt lat="47.713187" lon="11.974784"><ele>1052.4</ele></trkpt><trkpt lat="47.713257" lon="11.974626"><ele>1046.6</ele></trkpt><trkpt lat="47.713339" lon="11.974315"><ele>1042.2</ele></trkpt><trkpt lat="47.713326" lon="11.973964"><ele>1035.9</ele></trkpt><trkpt lat="47.71334" lon="11.973772"><ele>1033.2</ele></trkpt><trkpt lat="47.713384" lon="11.973582"><ele>1030.9</ele></trkpt><trkpt lat="47.713551" lon="11.973144"><ele>1009.7</ele></trkpt><trkpt lat="47.713556" lon="11.973121"><ele>995.5</ele></trkpt><trkpt lat="47.713669" lon="11.972506"><ele>981.2</ele></trkpt><trkpt lat="47.713794" lon="11.972317"><ele>973.6</ele></trkpt><trkpt lat="47.713831" lon="11.972201"><ele>969.5</ele></trkpt><trkpt lat="47.713851" lon="11.972006"><ele>967.1</ele></trkpt><trkpt lat="47.713847" lon="11.971685"><ele>961.8</ele></trkpt><trkpt lat="47.713812" lon="11.971402"><ele>959.1</ele></trkpt><trkpt lat="47.713773" lon="11.971313"><ele>959.1</ele></trkpt><trkpt lat="47.713761" lon="11.971122"><ele>957.4</ele></trkpt><trkpt lat="47.713742" lon="11.971061"><ele>957.3</ele></trkpt><trkpt lat="47.713739" lon="11.97099"><ele>955.6</ele></trkpt><trkpt lat="47.713758" lon="11.970943"><ele>955.5</ele></trkpt><trkpt lat="47.713742" lon="11.970776"><ele>953.8</ele></trkpt><trkpt lat="47.713725" lon="11.970732"><ele>954.3</ele></trkpt><trkpt lat="47.713674" lon="11.970698"><ele>954</ele></trkpt><trkpt lat="47.713666" lon="11.970637"><ele>954.6</ele></trkpt><trkpt lat="47.713692" lon="11.9705"><ele>954.7</ele></trkpt><trkpt lat="47.713683" lon="11.970406"><ele>955.3</ele></trkpt><trkpt lat="47.713702" lon="11.970338"><ele>956.5</ele></trkpt><trkpt lat="47.71368" lon="11.970292"><ele>956.5</ele></trkpt><trkpt lat="47.713691" lon="11.970256"><ele>940</ele></trkpt><trkpt lat="47.713826" lon="11.970294"><ele>940</ele></trkpt><trkpt lat="47.713953" lon="11.970367"><ele>940</ele></trkpt><trkpt lat="47.714073" lon="11.970386"><ele>940</ele></trkpt><trkpt lat="47.714108" lon="11.970374"><ele>940</ele></trkpt><trkpt lat="47.714133" lon="11.970335"><ele>940</ele></trkpt><trkpt lat="47.714138" lon="11.97023"><ele>940</ele></trkpt><trkpt lat="47.713973" lon="11.969959"><ele>932.4</ele></trkpt><trkpt lat="47.7139" lon="11.969793"><ele>931.8</ele></trkpt><trkpt lat="47.713879" lon="11.969695"><ele>929</ele></trkpt><trkpt lat="47.713811" lon="11.969501"><ele>926.3</ele></trkpt><trkpt lat="47.713589" lon="11.969053"><ele>921</ele></trkpt><trkpt lat="47.713566" lon="11.969007"><ele>921</ele></trkpt><trkpt lat="47.713518" lon="11.969013"><ele>921.9</ele></trkpt><trkpt lat="47.713464" lon="11.969066"><ele>921.7</ele></trkpt><trkpt lat="47.713359" lon="11.969373"><ele>923.7</ele></trkpt><trkpt lat="47.71324" lon="11.969414"><ele>919</ele></trkpt><trkpt lat="47.713103" lon="11.96942"><ele>913.7</ele></trkpt><trkpt lat="47.712991" lon="11.969323"><ele>914.2</ele></trkpt><trkpt lat="47.712839" lon="11.969091"><ele>914.4</ele></trkpt><trkpt lat="47.712723" lon="11.968951"><ele>914.4</ele></trkpt><trkpt lat="47.712646" lon="11.968818"><ele>914.3</ele></trkpt><trkpt lat="47.712534" lon="11.968692"><ele>914.3</ele></trkpt><trkpt lat="47.712316" lon="11.968524"><ele>911.7</ele></trkpt><trkpt lat="47.712225" lon="11.96836"><ele>897</ele></trkpt><trkpt lat="47.712174" lon="11.968212"><ele>892.1</ele></trkpt><trkpt lat="47.712166" lon="11.968128"><ele>892</ele></trkpt><trkpt lat="47.712172" lon="11.967989"><ele>892</ele></trkpt><trkpt lat="47.712203" lon="11.967886"><ele>891.9</ele></trkpt><trkpt lat="47.712278" lon="11.967811"><ele>891.9</ele></trkpt><trkpt lat="47.712533" lon="11.967798"><ele>892.3</ele></trkpt><trkpt lat="47.712561" lon="11.967772"><ele>892.8</ele></trkpt><trkpt lat="47.712593" lon="11.967674"><ele>893.7</ele></trkpt><trkpt lat="47.712643" lon="11.967256"><ele>893.2</ele></trkpt><trkpt lat="47.712694" lon="11.966969"><ele>885</ele></trkpt><trkpt lat="47.712932" lon="11.966322"><ele>870</ele></trkpt><trkpt lat="47.712972" lon="11.96613"><ele>870</ele></trkpt><trkpt lat="47.71298" lon="11.965942"><ele>870</ele></trkpt><trkpt lat="47.712963" lon="11.965805"><ele>862.2</ele></trkpt><trkpt lat="47.712814" lon="11.965302"><ele>857</ele></trkpt><trkpt lat="47.712739" lon="11.965043"><ele>857</ele></trkpt><trkpt lat="47.712863" lon="11.964624"><ele>851</ele></trkpt><trkpt lat="47.712967" lon="11.964365"><ele>849</ele></trkpt><trkpt lat="47.713085" lon="11.964119"><ele>848</ele></trkpt><trkpt lat="47.713175" lon="11.963962"><ele>848</ele></trkpt><trkpt lat="47.71334" lon="11.963819"><ele>856</ele></trkpt><trkpt lat="47.713342" lon="11.963817"><ele>856</ele></trkpt></trkseg></trk></gpx>