<gpx xmlns="http://www.topografix.com/GPX/1/1" xmlns:xsi="http://www.w3.org/2001/XMLSchema-instance" xsi:schemaLocation="http://www.topografix.com/GPX/1/1 http://www.topografix.com/GPX/1/1/gpx.xsd" version="1.1" creator="togpx"><metadata/><wpt lat="47.675191348594524" lon="12.083470512925006"><name></name><desc>label=Tatzelwurm, Oberaudorf,BY,Germany</desc></wpt><wpt lat="47.67210657687707" lon="12.08463921654221"><name></name><desc>label=Tatzelwurm, Oberaudorf,BY,Germany</desc></wpt><wpt lat="47.6712865893144" lon="12.0821184801093"><name></name><desc>label=Tatzelwurm, Oberaudorf,BY,Germany</desc></wpt><wpt lat="47.66441913927074" lon="12.087237556650521"><name></name><desc>label=Schoißer Alm, Oberaudorf,BY,Germany</desc></wpt><wpt lat="47.655155139923075" lon="12.095239196356584"><name></name><desc>label=Liselotte Reichel, Oberaudorf,BY,Germany</desc></wpt><wpt lat="47.64473659696585" lon="12.098791644951554"><name></name><desc>label=Dr. Julius Mayr Weg, Oberaudorf,BY,Germany</desc></wpt><wpt lat="47.6470170731411" lon="12.09753822335696"><name></name><desc>label=Dr. Julius Mayr Weg, Oberaudorf,BY,Germany</desc></wpt><wpt lat="47.64734594500885" lon="12.097112226884981"><name></name><desc>label=Dr. Julius Mayr Weg, Oberaudorf,BY,Germany</desc></wpt><wpt lat="47.645694336804596" lon="12.092911223749498"><name></name><desc>label=Brünnstein Nordanstieg, Oberaudorf,BY,Germany</desc></wpt><wpt lat="47.64729896344023" lon="12.152252290522307"><name></name><desc>label=Hocheckstraße, Oberaudorf,BY,Germany</desc></wpt><wpt lat="47.646214761655195" lon="12.159075752259707"><name></name><desc>label=Winterrodelbahn, Oberaudorf,BY,Germany</desc></wpt><wpt lat="47.64629427055077" lon="12.162187185931176"><name></name><desc>label=Hubertusweg, Oberaudorf,BY,Germany</desc></wpt><wpt lat="47.647472433637375" lon="12.172111370307544"><name></name><desc>label=Rathausapotheke, Oberaudorf,BY,Germany</desc></wpt><wpt lat="47.65264013567813" lon="12.175288484208389"><name></name><desc>label=Oberaudorf, BY,Germany</desc></wpt><trk><name></name><desc>ascent=1416.4
descent=1747.1
opacity=0.9</desc><trkseg><trkpt lat="47.6752" lon="12.083525"><ele>812.7</ele></trkpt><trkpt lat="47.675373" lon="12.083465"><ele>811</ele></trkpt><trkpt lat="47.67544" lon="12.083918"><ele>811</ele></trkpt><trkpt lat="47.675442" lon="12.084137"><ele>811</ele></trkpt><trkpt lat="47.675422" lon="12.084305"><ele>798.2</ele></trkpt><trkpt lat="47.675364" lon="12.084505"><ele>797.5</ele></trkpt><trkpt lat="47.67533" lon="12.084575"><ele>797.3</ele></trkpt><trkpt lat="47.675273" lon="12.084623"><ele>795</ele></trkpt><trkpt lat="47.675168" lon="12.084646"><ele>794.2</ele></trkpt><trkpt lat="47.675124" lon="12.084633"><ele>794.3</ele></trkpt><trkpt lat="47.674728" lon="12.084327"><ele>794</ele></trkpt><trkpt lat="47.674539" lon="12.084278"><ele>792</ele></trkpt><trkpt lat="47.674403" lon="12.084273"><ele>789.1</ele></trkpt><trkpt lat="47.674165" lon="12.084317"><ele>789.2</ele></trkpt><trkpt lat="47.674082" lon="12.084307"><ele>789.1</ele></trkpt><trkpt lat="47.673822" lon="12.084179"><ele>788.9</ele></trkpt><trkpt lat="47.67368" lon="12.084152"><ele>790.6</ele></trkpt><trkpt lat="47.6734" lon="12.084249"><ele>790.3</ele></trkpt><trkpt lat="47.673224" lon="12.084335"><ele>776</ele></trkpt><trkpt lat="47.672987" lon="12.08445"><ele>776</ele></trkpt><trkpt lat="47.672735" lon="12.084487"><ele>776</ele></trkpt><trkpt lat="47.672303" lon="12.084549"><ele>755</ele></trkpt><trkpt lat="47.672249" lon="12.084578"><ele>755</ele></trkpt><trkpt lat="47.672216" lon="12.08462"><ele>755</ele></trkpt><trkpt lat="47.672195" lon="12.084722"><ele>755</ele></trkpt><trkpt lat="47.672105" lon="12.084644"><ele>755</ele></trkpt><trkpt lat="47.672066" lon="12.084611"><ele>755</ele></trkpt><trkpt lat="47.672006" lon="12.084542"><ele>755</ele></trkpt><trkpt lat="47.671974" lon="12.084332"><ele>755</ele></trkpt><trkpt lat="47.671965" lon="12.084068"><ele>765.7</ele></trkpt><trkpt lat="47.672006" lon="12.083873"><ele>771</ele></trkpt><trkpt lat="47.672026" lon="12.083786"><ele>771</ele></trkpt><trkpt lat="47.672081" lon="12.08369"><ele>771</ele></trkpt><trkpt lat="47.672219" lon="12.083323"><ele>799.1</ele></trkpt><trkpt lat="47.672145" lon="12.083167"><ele>799.1</ele></trkpt><trkpt lat="47.671907" lon="12.083011"><ele>799.1</ele></trkpt><trkpt lat="47.671459" lon="12.082228"><ele>798.2</ele></trkpt><trkpt lat="47.671388" lon="12.08214"><ele>797.2</ele></trkpt><trkpt lat="47.671306" lon="12.082123"><ele>808</ele></trkpt><trkpt lat="47.671287" lon="12.082119"><ele>808</ele></trkpt><trkpt lat="47.671239" lon="12.08211"><ele>808</ele></trkpt><trkpt lat="47.671104" lon="12.081981"><ele>812.1</ele></trkpt><trkpt lat="47.671049" lon="12.081844"><ele>812.6</ele></trkpt><trkpt lat="47.671048" lon="12.081773"><ele>812.9</ele></trkpt><trkpt lat="47.671097" lon="12.081561"><ele>813.6</ele></trkpt><trkpt lat="47.671104" lon="12.081424"><ele>813.5</ele></trkpt><trkpt lat="47.671076" lon="12.081236"><ele>813.5</ele></trkpt><trkpt lat="47.671034" lon="12.081129"><ele>813.4</ele></trkpt><trkpt lat="47.67079" lon="12.080744"><ele>823</ele></trkpt><trkpt lat="47.670687" lon="12.080734"><ele>823</ele></trkpt><trkpt lat="47.670626" lon="12.080634"><ele>823</ele></trkpt><trkpt lat="47.670544" lon="12.080683"><ele>823</ele></trkpt><trkpt lat="47.670566" lon="12.080793"><ele>839.6</ele></trkpt><trkpt lat="47.67054" lon="12.080937"><ele>838.9</ele></trkpt><trkpt lat="47.670428" lon="12.08101"><ele>838.3</ele></trkpt><trkpt lat="47.670291" lon="12.080996"><ele>838.4</ele></trkpt><trkpt lat="47.670166" lon="12.080825"><ele>837.9</ele></trkpt><trkpt lat="47.670063" lon="12.080591"><ele>838.2</ele></trkpt><trkpt lat="47.669934" lon="12.079882"><ele>840</ele></trkpt><trkpt lat="47.669907" lon="12.07987"><ele>840.3</ele></trkpt><trkpt lat="47.669881" lon="12.079905"><ele>840.7</ele></trkpt><trkpt lat="47.669838" lon="12.080285"><ele>842.8</ele></trkpt><trkpt lat="47.669855" lon="12.080566"><ele>843.8</ele></trkpt><trkpt lat="47.669807" lon="12.080628"><ele>844.3</ele></trkpt><trkpt lat="47.6696" lon="12.080692"><ele>845.7</ele></trkpt><trkpt lat="47.669423" lon="12.080819"><ele>846.1</ele></trkpt><trkpt lat="47.668912" lon="12.080679"><ele>855.8</ele></trkpt><trkpt lat="47.668738" lon="12.080696"><ele>859.8</ele></trkpt><trkpt lat="47.668583" lon="12.080819"><ele>866.8</ele></trkpt><trkpt lat="47.668117" lon="12.081479"><ele>900</ele></trkpt><trkpt lat="47.667978" lon="12.081732"><ele>899.2</ele></trkpt><trkpt lat="47.667655" lon="12.082436"><ele>899.6</ele></trkpt><trkpt lat="47.667546" lon="12.082737"><ele>899.1</ele></trkpt><trkpt lat="47.667544" lon="12.083138"><ele>896</ele></trkpt><trkpt lat="47.667491" lon="12.083614"><ele>919</ele></trkpt><trkpt lat="47.667374" lon="12.0838"><ele>921.8</ele></trkpt><trkpt lat="47.667136" lon="12.084018"><ele>924.4</ele></trkpt><trkpt lat="47.666928" lon="12.084315"><ele>923.7</ele></trkpt><trkpt lat="47.666665" lon="12.084821"><ele>927.2</ele></trkpt><trkpt lat="47.666544" lon="12.084916"><ele>931.2</ele></trkpt><trkpt lat="47.666337" lon="12.084964"><ele>932.6</ele></trkpt><trkpt lat="47.666152" lon="12.085114"><ele>931.5</ele></trkpt><trkpt lat="47.666058" lon="12.085143"><ele>925</ele></trkpt><trkpt lat="47.665482" lon="12.086036"><ele>938.8</ele></trkpt><trkpt lat="47.665118" lon="12.086687"><ele>943.5</ele></trkpt><trkpt lat="47.664883" lon="12.086784"><ele>947</ele></trkpt><trkpt lat="47.664627" lon="12.087039"><ele>946.5</ele></trkpt><trkpt lat="47.664412" lon="12.087219"><ele>948.3</ele></trkpt><trkpt lat="47.664253" lon="12.087353"><ele>950</ele></trkpt><trkpt lat="47.664086" lon="12.087409"><ele>966.9</ele></trkpt><trkpt lat="47.663984" lon="12.08747"><ele>966.3</ele></trkpt><trkpt lat="47.66389" lon="12.087582"><ele>967</ele></trkpt><trkpt lat="47.66379" lon="12.087765"><ele>967.8</ele></trkpt><trkpt lat="47.663728" lon="12.087841"><ele>968.3</ele></trkpt><trkpt lat="47.663653" lon="12.087889"><ele>969.2</ele></trkpt><trkpt lat="47.663395" lon="12.087923"><ele>971.7</ele></trkpt><trkpt lat="47.663261" lon="12.087968"><ele>972.7</ele></trkpt><trkpt lat="47.663074" lon="12.088089"><ele>973.4</ele></trkpt><trkpt lat="47.662914" lon="12.088132"><ele>974.3</ele></trkpt><trkpt lat="47.662688" lon="12.088264"><ele>974.7</ele></trkpt><trkpt lat="47.662505" lon="12.088499"><ele>978.2</ele></trkpt><trkpt lat="47.662376" lon="12.088711"><ele>981.4</ele></trkpt><trkpt lat="47.662036" lon="12.089021"><ele>982</ele></trkpt><trkpt lat="47.661459" lon="12.089643"><ele>1014</ele></trkpt><trkpt lat="47.661289" lon="12.089844"><ele>1005.5</ele></trkpt><trkpt lat="47.661021" lon="12.090273"><ele>997</ele></trkpt><trkpt lat="47.660817" lon="12.090484"><ele>1034</ele></trkpt><trkpt lat="47.66036" lon="12.091093"><ele>1030.9</ele></trkpt><trkpt lat="47.660021" lon="12.091746"><ele>1034.7</ele></trkpt><trkpt lat="47.659805" lon="12.092443"><ele>1036.6</ele></trkpt><trkpt lat="47.659625" lon="12.092826"><ele>1037.3</ele></trkpt><trkpt lat="47.659506" lon="12.092958"><ele>1037.2</ele></trkpt><trkpt lat="47.65942" lon="12.092966"><ele>1037</ele></trkpt><trkpt lat="47.659285" lon="12.092922"><ele>1038</ele></trkpt><trkpt lat="47.658879" lon="12.093804"><ele>1049.5</ele></trkpt><trkpt lat="47.658667" lon="12.094009"><ele>1048.2</ele></trkpt><trkpt lat="47.658493" lon="12.094094"><ele>1050.1</ele></trkpt><trkpt lat="47.658343" lon="12.09422"><ele>1049</ele></trkpt><trkpt lat="47.658012" lon="12.094393"><ele>1055.7</ele></trkpt><trkpt lat="47.657895" lon="12.094368"><ele>1059.9</ele></trkpt><trkpt lat="47.657296" lon="12.094061"><ele>1070.7</ele></trkpt><trkpt lat="47.656948" lon="12.093824"><ele>1074.3</ele></trkpt><trkpt lat="47.656468" lon="12.093809"><ele>1080.8</ele></trkpt><trkpt lat="47.656371" lon="12.093774"><ele>1079.8</ele></trkpt><trkpt lat="47.656307" lon="12.093699"><ele>1087</ele></trkpt><trkpt lat="47.656219" lon="12.093637"><ele>1087</ele></trkpt><trkpt lat="47.656202" lon="12.093673"><ele>1087</ele></trkpt><trkpt lat="47.656194" lon="12.093819"><ele>1087</ele></trkpt><trkpt lat="47.656186" lon="12.094282"><ele>1089</ele></trkpt><trkpt lat="47.656108" lon="12.095336"><ele>1090.2</ele></trkpt><trkpt lat="47.655998" lon="12.095522"><ele>1090.5</ele></trkpt><trkpt lat="47.655987" lon="12.095668"><ele>1090.7</ele></trkpt><trkpt lat="47.656144" lon="12.096028"><ele>1091.6</ele></trkpt><trkpt lat="47.656211" lon="12.096257"><ele>1091.2</ele></trkpt><trkpt lat="47.656242" lon="12.096436"><ele>1094</ele></trkpt><trkpt lat="47.656122" lon="12.096292"><ele>1094</ele></trkpt><trkpt lat="47.656028" lon="12.096085"><ele>1094</ele></trkpt><trkpt lat="47.655932" lon="12.096016"><ele>1094</ele></trkpt><trkpt lat="47.65589" lon="12.09603"><ele>1094</ele></trkpt><trkpt lat="47.655969" lon="12.096352"><ele>1094</ele></trkpt><trkpt lat="47.655847" lon="12.0962"><ele>1148</ele></trkpt><trkpt lat="47.655603" lon="12.095749"><ele>1151.9</ele></trkpt><trkpt lat="47.655556" lon="12.095595"><ele>1151.6</ele></trkpt><trkpt lat="47.655552" lon="12.095385"><ele>1151.2</ele></trkpt><trkpt lat="47.655575" lon="12.095218"><ele>1150.9</ele></trkpt><trkpt lat="47.655557" lon="12.094995"><ele>1150.5</ele></trkpt><trkpt lat="47.655482" lon="12.094841"><ele>1149.9</ele></trkpt><trkpt lat="47.655471" lon="12.094873"><ele>1149.3</ele></trkpt><trkpt lat="47.65551" lon="12.095026"><ele>1148.6</ele></trkpt><trkpt lat="47.65548" lon="12.095124"><ele>1148.1</ele></trkpt><trkpt lat="47.655434" lon="12.094996"><ele>1147.5</ele></trkpt><trkpt lat="47.655425" lon="12.0951"><ele>1146.7</ele></trkpt><trkpt lat="47.655386" lon="12.095023"><ele>1156</ele></trkpt><trkpt lat="47.655374" lon="12.095128"><ele>1156</ele></trkpt><trkpt lat="47.655179" lon="12.095165"><ele>1185.5</ele></trkpt><trkpt lat="47.655144" lon="12.095225"><ele>1187</ele></trkpt><trkpt lat="47.655019" lon="12.095436"><ele>1188.4</ele></trkpt><trkpt lat="47.654871" lon="12.095845"><ele>1195.4</ele></trkpt><trkpt lat="47.654838" lon="12.096073"><ele>1195.3</ele></trkpt><trkpt lat="47.654985" lon="12.096433"><ele>1195.1</ele></trkpt><trkpt lat="47.655146" lon="12.09668"><ele>1195.8</ele></trkpt><trkpt lat="47.655098" lon="12.096797"><ele>1201.6</ele></trkpt><trkpt lat="47.654973" lon="12.09693"><ele>1204.7</ele></trkpt><trkpt lat="47.654799" lon="12.097547"><ele>1210</ele></trkpt><trkpt lat="47.654709" lon="12.097562"><ele>1209.7</ele></trkpt><trkpt lat="47.654393" lon="12.097961"><ele>1210.4</ele></trkpt><trkpt lat="47.654257" lon="12.097963"><ele>1211.4</ele></trkpt><trkpt lat="47.654163" lon="12.09812"><ele>1216.6</ele></trkpt><trkpt lat="47.654079" lon="12.098091"><ele>1214.7</ele></trkpt><trkpt lat="47.654011" lon="12.098167"><ele>1234</ele></trkpt><trkpt lat="47.653756" lon="12.098378"><ele>1223</ele></trkpt><trkpt lat="47.653708" lon="12.098403"><ele>1223</ele></trkpt><trkpt lat="47.653685" lon="12.098459"><ele>1223</ele></trkpt><trkpt lat="47.653592" lon="12.098461"><ele>1223</ele></trkpt><trkpt lat="47.653479" lon="12.098361"><ele>1223</ele></trkpt><trkpt lat="47.65349" lon="12.098312"><ele>1234</ele></trkpt><trkpt lat="47.653413" lon="12.098359"><ele>1241.4</ele></trkpt><trkpt lat="47.65319" lon="12.098683"><ele>1243</ele></trkpt><trkpt lat="47.653029" lon="12.098951"><ele>1243.8</ele></trkpt><trkpt lat="47.652927" lon="12.09903"><ele>1244.7</ele></trkpt><trkpt lat="47.652834" lon="12.09898"><ele>1245.7</ele></trkpt><trkpt lat="47.652775" lon="12.098922"><ele>1246.7</ele></trkpt><trkpt lat="47.652618" lon="12.098587"><ele>1247.8</ele></trkpt><trkpt lat="47.652617" lon="12.098413"><ele>1249.1</ele></trkpt><trkpt lat="47.652541" lon="12.0981"><ele>1250.4</ele></trkpt><trkpt lat="47.652435" lon="12.098022"><ele>1250.4</ele></trkpt><trkpt lat="47.652339" lon="12.098062"><ele>1279</ele></trkpt><trkpt lat="47.65215" lon="12.098289"><ele>1294.6</ele></trkpt><trkpt lat="47.65164" lon="12.098556"><ele>1297.7</ele></trkpt><trkpt lat="47.651546" lon="12.098567"><ele>1296.3</ele></trkpt><trkpt lat="47.65121" lon="12.098718"><ele>1305</ele></trkpt><trkpt lat="47.651005" lon="12.098893"><ele>1305</ele></trkpt><trkpt lat="47.650834" lon="12.098968"><ele>1305</ele></trkpt><trkpt lat="47.650517" lon="12.099171"><ele>1305</ele></trkpt><trkpt lat="47.6502" lon="12.099264"><ele>1305</ele></trkpt><trkpt lat="47.649962" lon="12.09929"><ele>1349.3</ele></trkpt><trkpt lat="47.649878" lon="12.099227"><ele>1349.6</ele></trkpt><trkpt lat="47.649694" lon="12.099273"><ele>1353.9</ele></trkpt><trkpt lat="47.649585" lon="12.099338"><ele>1355.4</ele></trkpt><trkpt lat="47.649513" lon="12.099569"><ele>1357.4</ele></trkpt><trkpt lat="47.649253" lon="12.099786"><ele>1358.4</ele></trkpt><trkpt lat="47.649016" lon="12.09993"><ele>1359.4</ele></trkpt><trkpt lat="47.648813" lon="12.100466"><ele>1360.9</ele></trkpt><trkpt lat="47.648677" lon="12.100948"><ele>1370</ele></trkpt><trkpt lat="47.648739" lon="12.101895"><ele>1373.3</ele></trkpt><trkpt lat="47.648682" lon="12.102118"><ele>1373.9</ele></trkpt><trkpt lat="47.64854" lon="12.102455"><ele>1374.7</ele></trkpt><trkpt lat="47.648448" lon="12.102494"><ele>1375.3</ele></trkpt><trkpt lat="47.648168" lon="12.102514"><ele>1373.3</ele></trkpt><trkpt lat="47.64807" lon="12.102649"><ele>1371.9</ele></trkpt><trkpt lat="47.647644" lon="12.102871"><ele>1351.3</ele></trkpt><trkpt lat="47.647492" lon="12.103191"><ele>1347</ele></trkpt><trkpt lat="47.647478" lon="12.103486"><ele>1344.5</ele></trkpt><trkpt lat="47.647349" lon="12.103779"><ele>1340.1</ele></trkpt><trkpt lat="47.647199" lon="12.103704"><ele>1339.3</ele></trkpt><trkpt lat="47.647048" lon="12.103737"><ele>1336.5</ele></trkpt><trkpt lat="47.646818" lon="12.103653"><ele>1333.2</ele></trkpt><trkpt lat="47.646635" lon="12.103563"><ele>1331.8</ele></trkpt><trkpt lat="47.646452" lon="12.103424"><ele>1331.5</ele></trkpt><trkpt lat="47.646392" lon="12.103417"><ele>1333.3</ele></trkpt><trkpt lat="47.646369" lon="12.103399"><ele>1335.3</ele></trkpt><trkpt lat="47.646328" lon="12.103193"><ele>1339.6</ele></trkpt><trkpt lat="47.646261" lon="12.10309"><ele>1338.6</ele></trkpt><trkpt lat="47.646044" lon="12.102923"><ele>1336.9</ele></trkpt><trkpt lat="47.645981" lon="12.102842"><ele>1343</ele></trkpt><trkpt lat="47.645979" lon="12.102647"><ele>1358.2</ele></trkpt><trkpt lat="47.645893" lon="12.102464"><ele>1374</ele></trkpt><trkpt lat="47.645676" lon="12.102175"><ele>1332</ele></trkpt><trkpt lat="47.645621" lon="12.102008"><ele>1334</ele></trkpt><trkpt lat="47.64563" lon="12.101743"><ele>1320</ele></trkpt><trkpt lat="47.645608" lon="12.101665"><ele>1338.9</ele></trkpt><trkpt lat="47.645569" lon="12.101613"><ele>1338.4</ele></trkpt><trkpt lat="47.645433" lon="12.101508"><ele>1337.3</ele></trkpt><trkpt lat="47.645432" lon="12.10141"><ele>1342</ele></trkpt><trkpt lat="47.64533" lon="12.100953"><ele>1343.9</ele></trkpt><trkpt lat="47.645244" lon="12.10072"><ele>1346</ele></trkpt><trkpt lat="47.645036" lon="12.100044"><ele>1346</ele></trkpt><trkpt lat="47.644851" lon="12.099285"><ele>1330.7</ele></trkpt><trkpt lat="47.644706" lon="12.098908"><ele>1325</ele></trkpt><trkpt lat="47.644701" lon="12.098861"><ele>1325</ele></trkpt><trkpt lat="47.644728" lon="12.098785"><ele>1325</ele></trkpt><trkpt lat="47.644749" lon="12.098724"><ele>1325</ele></trkpt><trkpt lat="47.644876" lon="12.098924"><ele>1350.3</ele></trkpt><trkpt lat="47.644922" lon="12.099119"><ele>1353.5</ele></trkpt><trkpt lat="47.645068" lon="12.098831"><ele>1357</ele></trkpt><trkpt lat="47.645132" lon="12.098655"><ele>1355.4</ele></trkpt><trkpt lat="47.645192" lon="12.098551"><ele>1353.6</ele></trkpt><trkpt lat="47.645247" lon="12.098541"><ele>1370</ele></trkpt><trkpt lat="47.64528" lon="12.098626"><ele>1370</ele></trkpt><trkpt lat="47.64531" lon="12.098796"><ele>1377.1</ele></trkpt><trkpt lat="47.645343" lon="12.09883"><ele>1378.2</ele></trkpt><trkpt lat="47.645378" lon="12.099068"><ele>1380.7</ele></trkpt><trkpt lat="47.645451" lon="12.099263"><ele>1395</ele></trkpt><trkpt lat="47.645679" lon="12.099975"><ele>1395</ele></trkpt><trkpt lat="47.64571" lon="12.100006"><ele>1378.7</ele></trkpt><trkpt lat="47.645738" lon="12.099996"><ele>1395</ele></trkpt><trkpt lat="47.645744" lon="12.099786"><ele>1413.5</ele></trkpt><trkpt lat="47.645719" lon="12.099555"><ele>1414.7</ele></trkpt><trkpt lat="47.645773" lon="12.099305"><ele>1416</ele></trkpt><trkpt lat="47.645774" lon="12.09926"><ele>1417.4</ele></trkpt><trkpt lat="47.645753" lon="12.099203"><ele>1420.5</ele></trkpt><trkpt lat="47.64579" lon="12.09921"><ele>1424</ele></trkpt><trkpt lat="47.645905" lon="12.099387"><ele>1424.6</ele></trkpt><trkpt lat="47.645928" lon="12.09945"><ele>1423.1</ele></trkpt><trkpt lat="47.646005" lon="12.099485"><ele>1421.5</ele></trkpt><trkpt lat="47.64607" lon="12.099665"><ele>1447</ele></trkpt><trkpt lat="47.646141" lon="12.099711"><ele>1447</ele></trkpt><trkpt lat="47.646151" lon="12.099625"><ele>1447</ele></trkpt><trkpt lat="47.646101" lon="12.09942"><ele>1447</ele></trkpt><trkpt lat="47.646096" lon="12.099229"><ele>1447</ele></trkpt><trkpt lat="47.646118" lon="12.099166"><ele>1460.3</ele></trkpt><trkpt lat="47.646193" lon="12.09905"><ele>1467</ele></trkpt><trkpt lat="47.646222" lon="12.099107"><ele>1460.8</ele></trkpt><trkpt lat="47.646212" lon="12.099178"><ele>1447</ele></trkpt><trkpt lat="47.646256" lon="12.099359"><ele>1447</ele></trkpt><trkpt lat="47.646318" lon="12.099445"><ele>1447</ele></trkpt><trkpt lat="47.646343" lon="12.099429"><ele>1447</ele></trkpt><trkpt lat="47.646404" lon="12.099429"><ele>1447</ele></trkpt><trkpt lat="47.646443" lon="12.099383"><ele>1447</ele></trkpt><trkpt lat="47.64636" lon="12.099215"><ele>1447</ele></trkpt><trkpt lat="47.646298" lon="12.099116"><ele>1463</ele></trkpt><trkpt lat="47.646279" lon="12.099044"><ele>1462.2</ele></trkpt><trkpt lat="47.646275" lon="12.098943"><ele>1461.2</ele></trkpt><trkpt lat="47.646314" lon="12.098857"><ele>1467</ele></trkpt><trkpt lat="47.646348" lon="12.098688"><ele>1467</ele></trkpt><trkpt lat="47.646369" lon="12.098592"><ele>1467</ele></trkpt><trkpt lat="47.646448" lon="12.098687"><ele>1467</ele></trkpt><trkpt lat="47.646458" lon="12.098693"><ele>1467</ele></trkpt><trkpt lat="47.646494" lon="12.098472"><ele>1467</ele></trkpt><trkpt lat="47.64656" lon="12.098344"><ele>1486.6</ele></trkpt><trkpt lat="47.646555" lon="12.098287"><ele>1488.4</ele></trkpt><trkpt lat="47.646574" lon="12.098189"><ele>1488.2</ele></trkpt><trkpt lat="47.646632" lon="12.098147"><ele>1487.7</ele></trkpt><trkpt lat="47.646642" lon="12.098084"><ele>1487.3</ele></trkpt><trkpt lat="47.646582" lon="12.098006"><ele>1486.7</ele></trkpt><trkpt lat="47.646593" lon="12.097978"><ele>1486.3</ele></trkpt><trkpt lat="47.64665" lon="12.097971"><ele>1491</ele></trkpt><trkpt lat="47.646657" lon="12.097907"><ele>1491</ele></trkpt><trkpt lat="47.646617" lon="12.097842"><ele>1491</ele></trkpt><trkpt lat="47.646674" lon="12.097779"><ele>1559</ele></trkpt><trkpt lat="47.646763" lon="12.097855"><ele>1559</ele></trkpt><trkpt lat="47.646761" lon="12.097914"><ele>1559</ele></trkpt><trkpt lat="47.646806" lon="12.097983"><ele>1559</ele></trkpt><trkpt lat="47.646886" lon="12.097957"><ele>1559</ele></trkpt><trkpt lat="47.64689" lon="12.097895"><ele>1557.6</ele></trkpt><trkpt lat="47.646994" lon="12.097676"><ele>1556.9</ele></trkpt><trkpt lat="47.647001" lon="12.097564"><ele>1556.7</ele></trkpt><trkpt lat="47.647014" lon="12.097535"><ele>1556.6</ele></trkpt><trkpt lat="47.647019" lon="12.097525"><ele>1556.5</ele></trkpt><trkpt lat="47.647131" lon="12.097495"><ele>1545</ele></trkpt><trkpt lat="47.647342" lon="12.09711"><ele>1619</ele></trkpt><trkpt lat="47.647131" lon="12.097495"><ele>1545</ele></trkpt><trkpt lat="47.647155" lon="12.096856"><ele>1545</ele></trkpt><trkpt lat="47.647122" lon="12.096836"><ele>1545</ele></trkpt><trkpt lat="47.647096" lon="12.096769"><ele>1545</ele></trkpt><trkpt lat="47.647067" lon="12.096775"><ele>1545</ele></trkpt><trkpt lat="47.647038" lon="12.096745"><ele>1545</ele></trkpt><trkpt lat="47.647042" lon="12.096596"><ele>1531</ele></trkpt><trkpt lat="47.647004" lon="12.096037"><ele>1532.6</ele></trkpt><trkpt lat="47.647015" lon="12.095979"><ele>1529</ele></trkpt><trkpt lat="47.647017" lon="12.095847"><ele>1517</ele></trkpt><trkpt lat="47.646981" lon="12.095757"><ele>1515.8</ele></trkpt><trkpt lat="47.646994" lon="12.09564"><ele>1515.8</ele></trkpt><trkpt lat="47.646972" lon="12.095521"><ele>1515.8</ele></trkpt><trkpt lat="47.646964" lon="12.095248"><ele>1515.7</ele></trkpt><trkpt lat="47.646974" lon="12.095153"><ele>1515.7</ele></trkpt><trkpt lat="47.646945" lon="12.095039"><ele>1515.6</ele></trkpt><trkpt lat="47.64694" lon="12.094829"><ele>1500</ele></trkpt><trkpt lat="47.646851" lon="12.094968"><ele>1460.9</ele></trkpt><trkpt lat="47.646783" lon="12.095042"><ele>1459.8</ele></trkpt><trkpt lat="47.646815" lon="12.09473"><ele>1451.8</ele></trkpt><trkpt lat="47.646786" lon="12.094733"><ele>1449.6</ele></trkpt><trkpt lat="47.646758" lon="12.094827"><ele>1449.5</ele></trkpt><trkpt lat="47.646706" lon="12.094864"><ele>1447.7</ele></trkpt><trkpt lat="47.646667" lon="12.094708"><ele>1443.9</ele></trkpt><trkpt lat="47.646679" lon="12.094583"><ele>1442.6</ele></trkpt><trkpt lat="47.64666" lon="12.094575"><ele>1441</ele></trkpt><trkpt lat="47.646622" lon="12.094662"><ele>1441.2</ele></trkpt><trkpt lat="47.646601" lon="12.094664"><ele>1441.1</ele></trkpt><trkpt lat="47.646589" lon="12.094533"><ele>1437.8</ele></trkpt><trkpt lat="47.646572" lon="12.094488"><ele>1435.2</ele></trkpt><trkpt lat="47.646527" lon="12.094571"><ele>1437.5</ele></trkpt><trkpt lat="47.64651" lon="12.094564"><ele>1436.1</ele></trkpt><trkpt lat="47.646506" lon="12.094441"><ele>1433.6</ele></trkpt><trkpt lat="47.646491" lon="12.094442"><ele>1422.3</ele></trkpt><trkpt lat="47.646412" lon="12.094569"><ele>1434</ele></trkpt><trkpt lat="47.646398" lon="12.094535"><ele>1432.7</ele></trkpt><trkpt lat="47.646395" lon="12.09442"><ele>1421</ele></trkpt><trkpt lat="47.64643" lon="12.0942"><ele>1420.8</ele></trkpt><trkpt lat="47.646413" lon="12.093975"><ele>1420.5</ele></trkpt><trkpt lat="47.646375" lon="12.093832"><ele>1420.3</ele></trkpt><trkpt lat="47.64643" lon="12.09364"><ele>1421.2</ele></trkpt><trkpt lat="47.646406" lon="12.093569"><ele>1421</ele></trkpt><trkpt lat="47.646362" lon="12.093578"><ele>1420.2</ele></trkpt><trkpt lat="47.646344" lon="12.093453"><ele>1420.6</ele></trkpt><trkpt lat="47.64631" lon="12.093501"><ele>1419.8</ele></trkpt><trkpt lat="47.646282" lon="12.093467"><ele>1419.6</ele></trkpt><trkpt lat="47.646307" lon="12.093335"><ele>1419.9</ele></trkpt><trkpt lat="47.646283" lon="12.093318"><ele>1419.7</ele></trkpt><trkpt lat="47.64625" lon="12.092988"><ele>1417.5</ele></trkpt><trkpt lat="47.646193" lon="12.093025"><ele>1416.4</ele></trkpt><trkpt lat="47.646133" lon="12.093108"><ele>1415.7</ele></trkpt><trkpt lat="47.646139" lon="12.093142"><ele>1416.2</ele></trkpt><trkpt lat="47.646057" lon="12.093321"><ele>1415.6</ele></trkpt><trkpt lat="47.646038" lon="12.093134"><ele>1412.5</ele></trkpt><trkpt lat="47.646001" lon="12.093146"><ele>1411.7</ele></trkpt><trkpt lat="47.645956" lon="12.093042"><ele>1410.7</ele></trkpt><trkpt lat="47.645977" lon="12.092871"><ele>1407.9</ele></trkpt><trkpt lat="47.645963" lon="12.092859"><ele>1407.6</ele></trkpt><trkpt lat="47.645932" lon="12.092911"><ele>1407.3</ele></trkpt><trkpt lat="47.645909" lon="12.09281"><ele>1406.9</ele></trkpt><trkpt lat="47.645855" lon="12.09288"><ele>1406.6</ele></trkpt><trkpt lat="47.645853" lon="12.092913"><ele>1405.8</ele></trkpt><trkpt lat="47.645822" lon="12.092905"><ele>1405.5</ele></trkpt><trkpt lat="47.645801" lon="12.092883"><ele>1404.3</ele></trkpt><trkpt lat="47.64578" lon="12.092778"><ele>1403.8</ele></trkpt><trkpt lat="47.64575" lon="12.092778"><ele>1403.9</ele></trkpt><trkpt lat="47.645693" lon="12.09291"><ele>1405</ele></trkpt><trkpt lat="47.645681" lon="12.092936"><ele>1406.2</ele></trkpt><trkpt lat="47.645666" lon="12.093088"><ele>1408.7</ele></trkpt><trkpt lat="47.645465" lon="12.093799"><ele>1407.1</ele></trkpt><trkpt lat="47.645491" lon="12.09388"><ele>1408.7</ele></trkpt><trkpt lat="47.645474" lon="12.094007"><ele>1409.2</ele></trkpt><trkpt lat="47.645394" lon="12.094103"><ele>1408.1</ele></trkpt><trkpt lat="47.645393" lon="12.094148"><ele>1407.5</ele></trkpt><trkpt lat="47.64527" lon="12.094381"><ele>1391.1</ele></trkpt><trkpt lat="47.645211" lon="12.094373"><ele>1391.3</ele></trkpt><trkpt lat="47.645151" lon="12.094408"><ele>1390.9</ele></trkpt><trkpt lat="47.645149" lon="12.094611"><ele>1376.3</ele></trkpt><trkpt lat="47.645119" lon="12.094849"><ele>1372.2</ele></trkpt><trkpt lat="47.644939" lon="12.095281"><ele>1369.7</ele></trkpt><trkpt lat="47.644886" lon="12.095316"><ele>1370.9</ele></trkpt><trkpt lat="47.644871" lon="12.095422"><ele>1370.6</ele></trkpt><trkpt lat="47.644895" lon="12.095599"><ele>1371.8</ele></trkpt><trkpt lat="47.644856" lon="12.095909"><ele>1368.1</ele></trkpt><trkpt lat="47.644827" lon="12.095945"><ele>1367.4</ele></trkpt><trkpt lat="47.644851" lon="12.096082"><ele>1366.7</ele></trkpt><trkpt lat="47.64483" lon="12.096169"><ele>1368</ele></trkpt><trkpt lat="47.644839" lon="12.09625"><ele>1367.4</ele></trkpt><trkpt lat="47.644829" lon="12.096431"><ele>1364.3</ele></trkpt><trkpt lat="47.644768" lon="12.096619"><ele>1365.1</ele></trkpt><trkpt lat="47.644696" lon="12.096554"><ele>1342</ele></trkpt><trkpt lat="47.644624" lon="12.096857"><ele>1336</ele></trkpt><trkpt lat="47.644538" lon="12.097808"><ele>1336.3</ele></trkpt><trkpt lat="47.644565" lon="12.098246"><ele>1334</ele></trkpt><trkpt lat="47.644553" lon="12.098381"><ele>1325</ele></trkpt><trkpt lat="47.644581" lon="12.09857"><ele>1325</ele></trkpt><trkpt lat="47.644656" lon="12.098596"><ele>1325</ele></trkpt><trkpt lat="47.644694" lon="12.098678"><ele>1325</ele></trkpt><trkpt lat="47.644701" lon="12.098861"><ele>1325</ele></trkpt><trkpt lat="47.644706" lon="12.098908"><ele>1325</ele></trkpt><trkpt lat="47.644672" lon="12.098927"><ele>1323.4</ele></trkpt><trkpt lat="47.644634" lon="12.0991"><ele>1323.1</ele></trkpt><trkpt lat="47.644618" lon="12.099518"><ele>1322.7</ele></trkpt><trkpt lat="47.644639" lon="12.099807"><ele>1321</ele></trkpt><trkpt lat="47.644608" lon="12.100639"><ele>1308.9</ele></trkpt><trkpt lat="47.644664" lon="12.101358"><ele>1308</ele></trkpt><trkpt lat="47.644655" lon="12.101584"><ele>1308.1</ele></trkpt><trkpt lat="47.644621" lon="12.10173"><ele>1308.2</ele></trkpt><trkpt lat="47.64458" lon="12.101764"><ele>1308.7</ele></trkpt><trkpt lat="47.644415" lon="12.101759"><ele>1305</ele></trkpt><trkpt lat="47.644467" lon="12.101925"><ele>1305</ele></trkpt><trkpt lat="47.644477" lon="12.102147"><ele>1305</ele></trkpt><trkpt lat="47.644517" lon="12.102389"><ele>1305</ele></trkpt><trkpt lat="47.644642" lon="12.102531"><ele>1284.1</ele></trkpt><trkpt lat="47.644966" lon="12.102748"><ele>1277.9</ele></trkpt><trkpt lat="47.645105" lon="12.103038"><ele>1269.4</ele></trkpt><trkpt lat="47.645299" lon="12.103534"><ele>1258.4</ele></trkpt><trkpt lat="47.645404" lon="12.103737"><ele>1258</ele></trkpt><trkpt lat="47.645343" lon="12.103936"><ele>1257.6</ele></trkpt><trkpt lat="47.645411" lon="12.104291"><ele>1250.2</ele></trkpt><trkpt lat="47.645558" lon="12.10472"><ele>1248.5</ele></trkpt><trkpt lat="47.645474" lon="12.104822"><ele>1249.3</ele></trkpt><trkpt lat="47.645509" lon="12.105301"><ele>1245.8</ele></trkpt><trkpt lat="47.645471" lon="12.105467"><ele>1222</ele></trkpt><trkpt lat="47.645443" lon="12.105944"><ele>1213.4</ele></trkpt><trkpt lat="47.645458" lon="12.106257"><ele>1213.9</ele></trkpt><trkpt lat="47.645415" lon="12.10651"><ele>1214.5</ele></trkpt><trkpt lat="47.645551" lon="12.106742"><ele>1215.1</ele></trkpt><trkpt lat="47.645641" lon="12.107053"><ele>1215.3</ele></trkpt><trkpt lat="47.645703" lon="12.107356"><ele>1214</ele></trkpt><trkpt lat="47.645707" lon="12.107604"><ele>1196.6</ele></trkpt><trkpt lat="47.64568" lon="12.107727"><ele>1195.2</ele></trkpt><trkpt lat="47.645668" lon="12.107907"><ele>1193.6</ele></trkpt><trkpt lat="47.645816" lon="12.109325"><ele>1188.2</ele></trkpt><trkpt lat="47.645891" lon="12.109514"><ele>1129</ele></trkpt><trkpt lat="47.645916" lon="12.10956"><ele>1120</ele></trkpt><trkpt lat="47.646083" lon="12.109452"><ele>1117.2</ele></trkpt><trkpt lat="47.646142" lon="12.109466"><ele>1115.6</ele></trkpt><trkpt lat="47.646485" lon="12.109728"><ele>1113.6</ele></trkpt><trkpt lat="47.646994" lon="12.110036"><ele>1066</ele></trkpt><trkpt lat="47.64724" lon="12.110316"><ele>1055.5</ele></trkpt><trkpt lat="47.647528" lon="12.110856"><ele>1051.7</ele></trkpt><trkpt lat="47.647622" lon="12.110973"><ele>1039</ele></trkpt><trkpt lat="47.647853" lon="12.111262"><ele>1039</ele></trkpt><trkpt lat="47.648045" lon="12.111553"><ele>1039</ele></trkpt><trkpt lat="47.648171" lon="12.111847"><ele>991.6</ele></trkpt><trkpt lat="47.648394" lon="12.112773"><ele>988.7</ele></trkpt><trkpt lat="47.648522" lon="12.113144"><ele>988.6</ele></trkpt><trkpt lat="47.648419" lon="12.113452"><ele>961</ele></trkpt><trkpt lat="47.648266" lon="12.113457"><ele>949</ele></trkpt><trkpt lat="47.648114" lon="12.113725"><ele>945</ele></trkpt><trkpt lat="47.648004" lon="12.11408"><ele>940.2</ele></trkpt><trkpt lat="47.647867" lon="12.114136"><ele>939.4</ele></trkpt><trkpt lat="47.647797" lon="12.114071"><ele>938.9</ele></trkpt><trkpt lat="47.647606" lon="12.114051"><ele>938.4</ele></trkpt><trkpt lat="47.64748" lon="12.114107"><ele>937.9</ele></trkpt><trkpt lat="47.647428" lon="12.114277"><ele>936.7</ele></trkpt><trkpt lat="47.647254" lon="12.114564"><ele>937.8</ele></trkpt><trkpt lat="47.647194" lon="12.114732"><ele>930</ele></trkpt><trkpt lat="47.647199" lon="12.114763"><ele>921.3</ele></trkpt><trkpt lat="47.647106" lon="12.114952"><ele>920.4</ele></trkpt><trkpt lat="47.64704" lon="12.115273"><ele>919.6</ele></trkpt><trkpt lat="47.647033" lon="12.115395"><ele>919.8</ele></trkpt><trkpt lat="47.647051" lon="12.115532"><ele>920.2</ele></trkpt><trkpt lat="47.647089" lon="12.115671"><ele>920.5</ele></trkpt><trkpt lat="47.647095" lon="12.115767"><ele>917</ele></trkpt><trkpt lat="47.647047" lon="12.116008"><ele>894.8</ele></trkpt><trkpt lat="47.646841" lon="12.116373"><ele>894.7</ele></trkpt><trkpt lat="47.646802" lon="12.116486"><ele>894.7</ele></trkpt><trkpt lat="47.646798" lon="12.116615"><ele>894.6</ele></trkpt><trkpt lat="47.646833" lon="12.116838"><ele>883</ele></trkpt><trkpt lat="47.64683" lon="12.116949"><ele>891.6</ele></trkpt><trkpt lat="47.646795" lon="12.11703"><ele>892.4</ele></trkpt><trkpt lat="47.646601" lon="12.117243"><ele>891.2</ele></trkpt><trkpt lat="47.646418" lon="12.117367"><ele>889.8</ele></trkpt><trkpt lat="47.646294" lon="12.117498"><ele>888.3</ele></trkpt><trkpt lat="47.646031" lon="12.117914"><ele>886.6</ele></trkpt><trkpt lat="47.645945" lon="12.118258"><ele>886.6</ele></trkpt><trkpt lat="47.645923" lon="12.118569"><ele>861</ele></trkpt><trkpt lat="47.645794" lon="12.118836"><ele>899.4</ele></trkpt><trkpt lat="47.64573" lon="12.119108"><ele>894.7</ele></trkpt><trkpt lat="47.645642" lon="12.119616"><ele>895</ele></trkpt><trkpt lat="47.645272" lon="12.120505"><ele>869.1</ele></trkpt><trkpt lat="47.644899" lon="12.121145"><ele>870.8</ele></trkpt><trkpt lat="47.644724" lon="12.121344"><ele>866.6</ele></trkpt><trkpt lat="47.644102" lon="12.121781"><ele>858.2</ele></trkpt><trkpt lat="47.642743" lon="12.122952"><ele>840</ele></trkpt><trkpt lat="47.642712" lon="12.122991"><ele>840.3</ele></trkpt><trkpt lat="47.642703" lon="12.12304"><ele>839.6</ele></trkpt><trkpt lat="47.642723" lon="12.123102"><ele>839.9</ele></trkpt><trkpt lat="47.642885" lon="12.123271"><ele>837</ele></trkpt><trkpt lat="47.642836" lon="12.123347"><ele>780</ele></trkpt><trkpt lat="47.642917" lon="12.123351"><ele>821.5</ele></trkpt><trkpt lat="47.643207" lon="12.123272"><ele>815.9</ele></trkpt><trkpt lat="47.643392" lon="12.123277"><ele>811.2</ele></trkpt><trkpt lat="47.643642" lon="12.123226"><ele>808.1</ele></trkpt><trkpt lat="47.644324" lon="12.123172"><ele>805.3</ele></trkpt><trkpt lat="47.6446" lon="12.123174"><ele>801.6</ele></trkpt><trkpt lat="47.644744" lon="12.123149"><ele>800.1</ele></trkpt><trkpt lat="47.64493" lon="12.123074"><ele>798.1</ele></trkpt><trkpt lat="47.645003" lon="12.123024"><ele>771</ele></trkpt><trkpt lat="47.645084" lon="12.122935"><ele>768.8</ele></trkpt><trkpt lat="47.645155" lon="12.122898"><ele>769.1</ele></trkpt><trkpt lat="47.645381" lon="12.122885"><ele>769.2</ele></trkpt><trkpt lat="47.645598" lon="12.122917"><ele>769.4</ele></trkpt><trkpt lat="47.645655" lon="12.12294"><ele>772.1</ele></trkpt><trkpt lat="47.645991" lon="12.123188"><ele>768.4</ele></trkpt><trkpt lat="47.646345" lon="12.123562"><ele>768</ele></trkpt><trkpt lat="47.646388" lon="12.123628"><ele>767.6</ele></trkpt><trkpt lat="47.646462" lon="12.123913"><ele>767</ele></trkpt><trkpt lat="47.64675" lon="12.124372"><ele>762</ele></trkpt><trkpt lat="47.646801" lon="12.12447"><ele>762.5</ele></trkpt><trkpt lat="47.64684" lon="12.124622"><ele>762.9</ele></trkpt><trkpt lat="47.646874" lon="12.124693"><ele>763.5</ele></trkpt><trkpt lat="47.647092" lon="12.124835"><ele>763.7</ele></trkpt><trkpt lat="47.647221" lon="12.124954"><ele>764.3</ele></trkpt><trkpt lat="47.647378" lon="12.125049"><ele>767</ele></trkpt><trkpt lat="47.64716" lon="12.125482"><ele>765.9</ele></trkpt><trkpt lat="47.647063" lon="12.1256"><ele>765.9</ele></trkpt><trkpt lat="47.646888" lon="12.125758"><ele>765.7</ele></trkpt><trkpt lat="47.64684" lon="12.125822"><ele>765.6</ele></trkpt><trkpt lat="47.646794" lon="12.125956"><ele>765.5</ele></trkpt><trkpt lat="47.646789" lon="12.126262"><ele>765.1</ele></trkpt><trkpt lat="47.646871" lon="12.127074"><ele>763.9</ele></trkpt><trkpt lat="47.64687" lon="12.127325"><ele>763.5</ele></trkpt><trkpt lat="47.646779" lon="12.128048"><ele>761.4</ele></trkpt><trkpt lat="47.646781" lon="12.128415"><ele>761</ele></trkpt><trkpt lat="47.646737" lon="12.128731"><ele>758</ele></trkpt><trkpt lat="47.646761" lon="12.12913"><ele>761.5</ele></trkpt><trkpt lat="47.646801" lon="12.129225"><ele>762.4</ele></trkpt><trkpt lat="47.646871" lon="12.129293"><ele>765</ele></trkpt><trkpt lat="47.647358" lon="12.129386"><ele>773.1</ele></trkpt><trkpt lat="47.647642" lon="12.129364"><ele>771.6</ele></trkpt><trkpt lat="47.647723" lon="12.129447"><ele>773.3</ele></trkpt><trkpt lat="47.647782" lon="12.129638"><ele>775.1</ele></trkpt><trkpt lat="47.647816" lon="12.130215"><ele>779.1</ele></trkpt><trkpt lat="47.647929" lon="12.130927"><ele>790.3</ele></trkpt><trkpt lat="47.648041" lon="12.131379"><ele>800.5</ele></trkpt><trkpt lat="47.648068" lon="12.13159"><ele>806.3</ele></trkpt><trkpt lat="47.648082" lon="12.132042"><ele>814.9</ele></trkpt><trkpt lat="47.648072" lon="12.132419"><ele>821.5</ele></trkpt><trkpt lat="47.648014" lon="12.132857"><ele>835</ele></trkpt><trkpt lat="47.647955" lon="12.133749"><ele>838.8</ele></trkpt><trkpt lat="47.647962" lon="12.134033"><ele>839.7</ele></trkpt><trkpt lat="47.647941" lon="12.134302"><ele>841.4</ele></trkpt><trkpt lat="47.647869" lon="12.134532"><ele>839.9</ele></trkpt><trkpt lat="47.647457" lon="12.135235"><ele>844.8</ele></trkpt><trkpt lat="47.647295" lon="12.135542"><ele>849.5</ele></trkpt><trkpt lat="47.647237" lon="12.135799"><ele>869</ele></trkpt><trkpt lat="47.647319" lon="12.136903"><ele>863</ele></trkpt><trkpt lat="47.647238" lon="12.1379"><ele>861</ele></trkpt><trkpt lat="47.647212" lon="12.138219"><ele>861</ele></trkpt><trkpt lat="47.647" lon="12.138707"><ele>860.9</ele></trkpt><trkpt lat="47.647" lon="12.139301"><ele>861.8</ele></trkpt><trkpt lat="47.646882" lon="12.139645"><ele>860.5</ele></trkpt><trkpt lat="47.646413" lon="12.140611"><ele>875.3</ele></trkpt><trkpt lat="47.646419" lon="12.141651"><ele>890.3</ele></trkpt><trkpt lat="47.646322" lon="12.142197"><ele>878</ele></trkpt><trkpt lat="47.646342" lon="12.142538"><ele>870</ele></trkpt><trkpt lat="47.646365" lon="12.14277"><ele>870</ele></trkpt><trkpt lat="47.646367" lon="12.142784"><ele>870</ele></trkpt><trkpt lat="47.646381" lon="12.142899"><ele>870</ele></trkpt><trkpt lat="47.646415" lon="12.143189"><ele>866</ele></trkpt><trkpt lat="47.646423" lon="12.143394"><ele>858</ele></trkpt><trkpt lat="47.646429" lon="12.143548"><ele>847.4</ele></trkpt><trkpt lat="47.646405" lon="12.144156"><ele>848.9</ele></trkpt><trkpt lat="47.646349" lon="12.144789"><ele>840.4</ele></trkpt><trkpt lat="47.64634" lon="12.145441"><ele>833.5</ele></trkpt><trkpt lat="47.646387" lon="12.146359"><ele>825.5</ele></trkpt><trkpt lat="47.646439" lon="12.146501"><ele>821.6</ele></trkpt><trkpt lat="47.646538" lon="12.146689"><ele>819.3</ele></trkpt><trkpt lat="47.646723" lon="12.14721"><ele>814.7</ele></trkpt><trkpt lat="47.646891" lon="12.147598"><ele>810.1</ele></trkpt><trkpt lat="47.647212" lon="12.147962"><ele>805.9</ele></trkpt><trkpt lat="47.64735" lon="12.148221"><ele>803.3</ele></trkpt><trkpt lat="47.64773" lon="12.149319"><ele>790</ele></trkpt><trkpt lat="47.647875" lon="12.149509"><ele>790</ele></trkpt><trkpt lat="47.647988" lon="12.14976"><ele>790</ele></trkpt><trkpt lat="47.647959" lon="12.149973"><ele>782</ele></trkpt><trkpt lat="47.647883" lon="12.150136"><ele>781.5</ele></trkpt><trkpt lat="47.647814" lon="12.150176"><ele>781.6</ele></trkpt><trkpt lat="47.647718" lon="12.150109"><ele>781.6</ele></trkpt><trkpt lat="47.647613" lon="12.14996"><ele>781.7</ele></trkpt><trkpt lat="47.647381" lon="12.149544"><ele>781.4</ele></trkpt><trkpt lat="47.647242" lon="12.149532"><ele>781.8</ele></trkpt><trkpt lat="47.647064" lon="12.149576"><ele>779</ele></trkpt><trkpt lat="47.646929" lon="12.149648"><ele>780.9</ele></trkpt><trkpt lat="47.646821" lon="12.149663"><ele>780.7</ele></trkpt><trkpt lat="47.646737" lon="12.149639"><ele>780.7</ele></trkpt><trkpt lat="47.646518" lon="12.149516"><ele>781</ele></trkpt><trkpt lat="47.646443" lon="12.149516"><ele>781.2</ele></trkpt><trkpt lat="47.646387" lon="12.149565"><ele>781.4</ele></trkpt><trkpt lat="47.646351" lon="12.149663"><ele>781.5</ele></trkpt><trkpt lat="47.646365" lon="12.149818"><ele>781.7</ele></trkpt><trkpt lat="47.646398" lon="12.149955"><ele>783</ele></trkpt><trkpt lat="47.646518" lon="12.150274"><ele>760.9</ele></trkpt><trkpt lat="47.646581" lon="12.150554"><ele>760.5</ele></trkpt><trkpt lat="47.646629" lon="12.150798"><ele>760.4</ele></trkpt><trkpt lat="47.646662" lon="12.151149"><ele>759</ele></trkpt><trkpt lat="47.646702" lon="12.151329"><ele>758.7</ele></trkpt><trkpt lat="47.646861" lon="12.151619"><ele>758.5</ele></trkpt><trkpt lat="47.646964" lon="12.151874"><ele>756</ele></trkpt><trkpt lat="47.647095" lon="12.15202"><ele>754.6</ele></trkpt><trkpt lat="47.647253" lon="12.152155"><ele>753.6</ele></trkpt><trkpt lat="47.647307" lon="12.152241"><ele>746.3</ele></trkpt><trkpt lat="47.647498" lon="12.152542"><ele>739</ele></trkpt><trkpt lat="47.647631" lon="12.152673"><ele>736.3</ele></trkpt><trkpt lat="47.647732" lon="12.152807"><ele>735</ele></trkpt><trkpt lat="47.647788" lon="12.152918"><ele>726.9</ele></trkpt><trkpt lat="47.647834" lon="12.153078"><ele>727.8</ele></trkpt><trkpt lat="47.647909" lon="12.153435"><ele>727.5</ele></trkpt><trkpt lat="47.647935" lon="12.153637"><ele>727.2</ele></trkpt><trkpt lat="47.647929" lon="12.153735"><ele>727</ele></trkpt><trkpt lat="47.647897" lon="12.153877"><ele>726.8</ele></trkpt><trkpt lat="47.647751" lon="12.154232"><ele>709</ele></trkpt><trkpt lat="47.647658" lon="12.154387"><ele>705.6</ele></trkpt><trkpt lat="47.647611" lon="12.154511"><ele>706</ele></trkpt><trkpt lat="47.647572" lon="12.154667"><ele>706.5</ele></trkpt><trkpt lat="47.647553" lon="12.154832"><ele>706.8</ele></trkpt><trkpt lat="47.647555" lon="12.155007"><ele>696</ele></trkpt><trkpt lat="47.647614" lon="12.155343"><ele>696</ele></trkpt><trkpt lat="47.647625" lon="12.155554"><ele>696</ele></trkpt><trkpt lat="47.64761" lon="12.155813"><ele>696</ele></trkpt><trkpt lat="47.647633" lon="12.156321"><ele>687.9</ele></trkpt><trkpt lat="47.647583" lon="12.156564"><ele>688.1</ele></trkpt><trkpt lat="47.647518" lon="12.156696"><ele>687.1</ele></trkpt><trkpt lat="47.647434" lon="12.156796"><ele>686.5</ele></trkpt><trkpt lat="47.647123" lon="12.15708"><ele>680</ele></trkpt><trkpt lat="47.6469" lon="12.157243"><ele>680</ele></trkpt><trkpt lat="47.646697" lon="12.157444"><ele>680</ele></trkpt><trkpt lat="47.646628" lon="12.157561"><ele>680</ele></trkpt><trkpt lat="47.646572" lon="12.15772"><ele>680</ele></trkpt><trkpt lat="47.646468" lon="12.157988"><ele>680</ele></trkpt><trkpt lat="47.646335" lon="12.158493"><ele>689</ele></trkpt><trkpt lat="47.646244" lon="12.158814"><ele>688.2</ele></trkpt><trkpt lat="47.64623" lon="12.159078"><ele>688.3</ele></trkpt><trkpt lat="47.646229" lon="12.159105"><ele>688.4</ele></trkpt><trkpt lat="47.646395" lon="12.159982"><ele>688.5</ele></trkpt><trkpt lat="47.646418" lon="12.160244"><ele>686</ele></trkpt><trkpt lat="47.646393" lon="12.161148"><ele>667.2</ele></trkpt><trkpt lat="47.64632" lon="12.161435"><ele>666.9</ele></trkpt><trkpt lat="47.64629" lon="12.161675"><ele>664.8</ele></trkpt><trkpt lat="47.646289" lon="12.161953"><ele>661.9</ele></trkpt><trkpt lat="47.646311" lon="12.162184"><ele>660.2</ele></trkpt><trkpt lat="47.64634" lon="12.162487"><ele>658.4</ele></trkpt><trkpt lat="47.646354" lon="12.162837"><ele>656.3</ele></trkpt><trkpt lat="47.646344" lon="12.16301"><ele>654.5</ele></trkpt><trkpt lat="47.646309" lon="12.163202"><ele>650.6</ele></trkpt><trkpt lat="47.646243" lon="12.163401"><ele>645.4</ele></trkpt><trkpt lat="47.646118" lon="12.163621"><ele>637.7</ele></trkpt><trkpt lat="47.645982" lon="12.163766"><ele>633</ele></trkpt><trkpt lat="47.645443" lon="12.164194"><ele>619.9</ele></trkpt><trkpt lat="47.645378" lon="12.164282"><ele>617</ele></trkpt><trkpt lat="47.645324" lon="12.164387"><ele>614.1</ele></trkpt><trkpt lat="47.645252" lon="12.164622"><ele>611.2</ele></trkpt><trkpt lat="47.645202" lon="12.164811"><ele>609.5</ele></trkpt><trkpt lat="47.64517" lon="12.165012"><ele>606.3</ele></trkpt><trkpt lat="47.645126" lon="12.165145"><ele>603.1</ele></trkpt><trkpt lat="47.644994" lon="12.165362"><ele>597.8</ele></trkpt><trkpt lat="47.644741" lon="12.165583"><ele>597</ele></trkpt><trkpt lat="47.644685" lon="12.165656"><ele>594.9</ele></trkpt><trkpt lat="47.64462" lon="12.165816"><ele>592.8</ele></trkpt><trkpt lat="47.644579" lon="12.166426"><ele>584.9</ele></trkpt><trkpt lat="47.644512" lon="12.166793"><ele>581.1</ele></trkpt><trkpt lat="47.644508" lon="12.166991"><ele>579.2</ele></trkpt><trkpt lat="47.644553" lon="12.167523"><ele>571.4</ele></trkpt><trkpt lat="47.64464" lon="12.167914"><ele>544</ele></trkpt><trkpt lat="47.644709" lon="12.168174"><ele>544</ele></trkpt><trkpt lat="47.644749" lon="12.168263"><ele>544</ele></trkpt><trkpt lat="47.644859" lon="12.16832"><ele>544</ele></trkpt><trkpt lat="47.644926" lon="12.168351"><ele>538</ele></trkpt><trkpt lat="47.644997" lon="12.168396"><ele>530.3</ele></trkpt><trkpt lat="47.645049" lon="12.168469"><ele>529.6</ele></trkpt><trkpt lat="47.645203" lon="12.168849"><ele>528.4</ele></trkpt><trkpt lat="47.645274" lon="12.168962"><ele>527.5</ele></trkpt><trkpt lat="47.645314" lon="12.168988"><ele>524</ele></trkpt><trkpt lat="47.645412" lon="12.169037"><ele>524</ele></trkpt><trkpt lat="47.645497" lon="12.169102"><ele>519.8</ele></trkpt><trkpt lat="47.645916" lon="12.169611"><ele>518.8</ele></trkpt><trkpt lat="47.645985" lon="12.169681"><ele>518</ele></trkpt><trkpt lat="47.646079" lon="12.169731"><ele>514</ele></trkpt><trkpt lat="47.646142" lon="12.169719"><ele>510.6</ele></trkpt><trkpt lat="47.646203" lon="12.169659"><ele>511</ele></trkpt><trkpt lat="47.646261" lon="12.169522"><ele>511.3</ele></trkpt><trkpt lat="47.646333" lon="12.16943"><ele>511.6</ele></trkpt><trkpt lat="47.646441" lon="12.16937"><ele>511.9</ele></trkpt><trkpt lat="47.646594" lon="12.169322"><ele>512.1</ele></trkpt><trkpt lat="47.646738" lon="12.169234"><ele>499</ele></trkpt><trkpt lat="47.646809" lon="12.169468"><ele>496.6</ele></trkpt><trkpt lat="47.64675" lon="12.169686"><ele>497.2</ele></trkpt><trkpt lat="47.64676" lon="12.169889"><ele>497.5</ele></trkpt><trkpt lat="47.646913" lon="12.170557"><ele>497</ele></trkpt><trkpt lat="47.647077" lon="12.170992"><ele>484</ele></trkpt><trkpt lat="47.647332" lon="12.171351"><ele>484</ele></trkpt><trkpt lat="47.647385" lon="12.171438"><ele>484</ele></trkpt><trkpt lat="47.647444" lon="12.171792"><ele>484</ele></trkpt><trkpt lat="47.647466" lon="12.172102"><ele>484</ele></trkpt><trkpt lat="47.647467" lon="12.172112"><ele>484</ele></trkpt><trkpt lat="47.647469" lon="12.172165"><ele>484</ele></trkpt><trkpt lat="47.647634" lon="12.172161"><ele>484</ele></trkpt><trkpt lat="47.647784" lon="12.172158"><ele>484</ele></trkpt><trkpt lat="47.647914" lon="12.17215"><ele>484</ele></trkpt><trkpt lat="47.648375" lon="12.172073"><ele>485</ele></trkpt><trkpt lat="47.648483" lon="12.172045"><ele>485</ele></trkpt><trkpt lat="47.648659" lon="12.172004"><ele>485</ele></trkpt><trkpt lat="47.648677" lon="12.171999"><ele>485</ele></trkpt><trkpt lat="47.649146" lon="12.171958"><ele>485</ele></trkpt><trkpt lat="47.649285" lon="12.171949"><ele>485.4</ele></trkpt><trkpt lat="47.64933" lon="12.171967"><ele>485.4</ele></trkpt><trkpt lat="47.649405" lon="12.172049"><ele>485.5</ele></trkpt><trkpt lat="47.649429" lon="12.172109"><ele>485.5</ele></trkpt><trkpt lat="47.649476" lon="12.172809"><ele>485.5</ele></trkpt><trkpt lat="47.649519" lon="12.172907"><ele>484</ele></trkpt><trkpt lat="47.649563" lon="12.172953"><ele>484</ele></trkpt><trkpt lat="47.649605" lon="12.172976"><ele>483.8</ele></trkpt><trkpt lat="47.650043" lon="12.172926"><ele>483</ele></trkpt><trkpt lat="47.650559" lon="12.172908"><ele>483</ele></trkpt><trkpt lat="47.652581" lon="12.172881"><ele>483</ele></trkpt><trkpt lat="47.652767" lon="12.172879"><ele>483</ele></trkpt><trkpt lat="47.65276" lon="12.173621"><ele>483</ele></trkpt><trkpt lat="47.652762" lon="12.174036"><ele>483</ele></trkpt><trkpt lat="47.652767" lon="12.174203"><ele>482</ele></trkpt><trkpt lat="47.652769" lon="12.174469"><ele>482</ele></trkpt><trkpt lat="47.652798" lon="12.174715"><ele>482</ele></trkpt><trkpt lat="47.65282" lon="12.174761"><ele>482</ele></trkpt><trkpt lat="47.652905" lon="12.174807"><ele>482</ele></trkpt><trkpt lat="47.652861" lon="12.175161"><ele>482</ele></trkpt><trkpt lat="47.652856" lon="12.175195"><ele>482</ele></trkpt><trkpt lat="47.65284" lon="12.1752"><ele>482</ele></trkpt><trkpt lat="47.652617" lon="12.175125"><ele>482</ele></trkpt><trkpt lat="47.652614" lon="12.175144"><ele>482</ele></trkpt><trkpt lat="47.65256" lon="12.175128"><ele>482</ele></trkpt><trkpt lat="47.652464" lon="12.175093"><ele>481</ele></trkpt><trkpt lat="47.652447" lon="12.175087"><ele>481</ele></trkpt><trkpt lat="47.652416" lon="12.1753"><ele>481</ele></trkpt><trkpt lat="47.652433" lon="12.175306"><ele>481</ele></trkpt><trkpt lat="47.652529" lon="12.175342"><ele>482</ele></trkpt><trkpt lat="47.652543" lon="12.175345"><ele>482</ele></trkpt><trkpt lat="47.65255" lon="12.175294"><ele>482</ele></trkpt></trkseg></trk></gpx>