<gpx xmlns="http://www.topografix.com/GPX/1/1" xmlns:xsi="http://www.w3.org/2001/XMLSchema-instance" xsi:schemaLocation="http://www.topografix.com/GPX/1/1 http://www.topografix.com/GPX/1/1/gpx.xsd" version="1.1" creator="togpx"><metadata/><wpt lat="47.61560750021115" lon="11.67569875717163"><name></name><desc>label=RB 2, Kreuth,BY,Germany</desc></wpt><wpt lat="47.631590295067554" lon="11.67595624923706"><name></name><desc>label=Roßstein Steig, Lenggries,BY,Germany</desc></wpt><wpt lat="47.63198252708578" lon="11.675760447978975"><name></name><desc>label=Roßstein Steig, Lenggries,BY,Germany</desc></wpt><wpt lat="47.632090977815544" lon="11.676307618618011"><name></name><desc>label=Roßstein Steig, Lenggries,BY,Germany</desc></wpt><wpt lat="47.632631420596866" lon="11.678386330604555"><name></name><desc>label=RB 1, Kreuth,BY,Germany</desc></wpt><wpt lat="47.63273264002814" lon="11.678407788276672"><name></name><desc>label=RB 1, Kreuth,BY,Germany</desc></wpt><wpt lat="47.63307244668496" lon="11.679368019104004"><name></name><desc>label=RB 1, Kreuth,BY,Germany</desc></wpt><wpt lat="47.632732000000004" lon="11.678412000000002"><name></name><desc>label=RB 1, Kreuth,BY,Germany</desc></wpt><wpt lat="47.64818799211077" lon="11.686728000640871"><name></name><desc>label=Schwarzentennalpe, Kreuth,BY,Germany</desc></wpt><wpt lat="47.63993317645682" lon="11.717755794525146"><name></name><desc>label=Leonhardstein, Kreuth,BY,Germany</desc></wpt><wpt lat="47.64401556991623" lon="11.745339632034304"><name></name><desc>label=Mühlauerweg, Kreuth,BY,Germany</desc></wpt><wpt lat="47.65304485718255" lon="11.747517585754396"><name></name><desc>label=Brunnbichl, Kreuth,BY,Germany</desc></wpt><wpt lat="47.657814552872225" lon="11.749234199523928"><name></name><desc>label=Sterneckerweg, Kreuth,BY,Germany</desc></wpt><wpt lat="47.66626885175884" lon="11.747732162475588"><name></name><desc>label=Fleischhackerweg, Kreuth,BY,Germany</desc></wpt><trk><name></name><desc>ascent=1188.2
descent=1322.4
opacity=0.9</desc><trkseg><trkpt lat="47.615541" lon="11.675705"><ele>865</ele></trkpt><trkpt lat="47.615535" lon="11.675561"><ele>867</ele></trkpt><trkpt lat="47.61561" lon="11.675442"><ele>867</ele></trkpt><trkpt lat="47.615748" lon="11.675309"><ele>867</ele></trkpt><trkpt lat="47.61589" lon="11.675767"><ele>880</ele></trkpt><trkpt lat="47.61602" lon="11.676284"><ele>877.6</ele></trkpt><trkpt lat="47.616132" lon="11.676561"><ele>877.4</ele></trkpt><trkpt lat="47.616081" lon="11.676618"><ele>877</ele></trkpt><trkpt lat="47.616157" lon="11.676674"><ele>875.4</ele></trkpt><trkpt lat="47.616224" lon="11.676757"><ele>875</ele></trkpt><trkpt lat="47.616385" lon="11.676771"><ele>876.2</ele></trkpt><trkpt lat="47.616402" lon="11.676761"><ele>876.2</ele></trkpt><trkpt lat="47.61641" lon="11.676696"><ele>876.3</ele></trkpt><trkpt lat="47.61643" lon="11.676673"><ele>876.4</ele></trkpt><trkpt lat="47.616567" lon="11.67667"><ele>876.5</ele></trkpt><trkpt lat="47.616603" lon="11.676648"><ele>876.5</ele></trkpt><trkpt lat="47.616609" lon="11.676623"><ele>876.5</ele></trkpt><trkpt lat="47.61654" lon="11.676546"><ele>876.5</ele></trkpt><trkpt lat="47.616569" lon="11.67652"><ele>876.5</ele></trkpt><trkpt lat="47.616575" lon="11.676409"><ele>876.4</ele></trkpt><trkpt lat="47.61663" lon="11.676289"><ele>876.4</ele></trkpt><trkpt lat="47.616632" lon="11.676181"><ele>877</ele></trkpt><trkpt lat="47.616669" lon="11.676057"><ele>906</ele></trkpt><trkpt lat="47.616673" lon="11.676018"><ele>902.3</ele></trkpt><trkpt lat="47.61665" lon="11.675956"><ele>902.2</ele></trkpt><trkpt lat="47.616667" lon="11.675934"><ele>903.2</ele></trkpt><trkpt lat="47.616894" lon="11.676014"><ele>902.8</ele></trkpt><trkpt lat="47.616905" lon="11.675998"><ele>902.7</ele></trkpt><trkpt lat="47.616878" lon="11.675781"><ele>902.3</ele></trkpt><trkpt lat="47.616901" lon="11.675729"><ele>902.4</ele></trkpt><trkpt lat="47.61701" lon="11.675842"><ele>902.4</ele></trkpt><trkpt lat="47.617003" lon="11.67559"><ele>902.3</ele></trkpt><trkpt lat="47.617016" lon="11.675559"><ele>902.4</ele></trkpt><trkpt lat="47.617049" lon="11.675565"><ele>902.5</ele></trkpt><trkpt lat="47.617108" lon="11.675679"><ele>902.6</ele></trkpt><trkpt lat="47.617181" lon="11.675763"><ele>902.7</ele></trkpt><trkpt lat="47.617345" lon="11.675861"><ele>902.9</ele></trkpt><trkpt lat="47.61736" lon="11.675863"><ele>902.8</ele></trkpt><trkpt lat="47.617367" lon="11.675823"><ele>900</ele></trkpt><trkpt lat="47.617383" lon="11.675622"><ele>900</ele></trkpt><trkpt lat="47.61738" lon="11.67556"><ele>941.5</ele></trkpt><trkpt lat="47.617392" lon="11.675546"><ele>942.7</ele></trkpt><trkpt lat="47.617488" lon="11.67562"><ele>946.6</ele></trkpt><trkpt lat="47.61747" lon="11.675515"><ele>949.4</ele></trkpt><trkpt lat="47.617515" lon="11.67538"><ele>952.3</ele></trkpt><trkpt lat="47.617601" lon="11.675471"><ele>952.1</ele></trkpt><trkpt lat="47.617644" lon="11.675336"><ele>952</ele></trkpt><trkpt lat="47.617677" lon="11.67542"><ele>951.9</ele></trkpt><trkpt lat="47.617686" lon="11.675246"><ele>951.8</ele></trkpt><trkpt lat="47.617694" lon="11.675227"><ele>951.7</ele></trkpt><trkpt lat="47.617759" lon="11.675266"><ele>951.6</ele></trkpt><trkpt lat="47.617756" lon="11.675193"><ele>951.5</ele></trkpt><trkpt lat="47.617777" lon="11.675162"><ele>951.4</ele></trkpt><trkpt lat="47.617892" lon="11.675213"><ele>951.2</ele></trkpt><trkpt lat="47.617894" lon="11.675129"><ele>950.9</ele></trkpt><trkpt lat="47.617948" lon="11.675137"><ele>950.8</ele></trkpt><trkpt lat="47.617955" lon="11.675067"><ele>950.6</ele></trkpt><trkpt lat="47.617975" lon="11.675039"><ele>950.5</ele></trkpt><trkpt lat="47.618026" lon="11.675089"><ele>950.4</ele></trkpt><trkpt lat="47.61803" lon="11.674998"><ele>950.2</ele></trkpt><trkpt lat="47.61812" lon="11.675059"><ele>949.7</ele></trkpt><trkpt lat="47.618146" lon="11.674983"><ele>949.6</ele></trkpt><trkpt lat="47.618249" lon="11.675032"><ele>949.1</ele></trkpt><trkpt lat="47.618234" lon="11.674974"><ele>967</ele></trkpt><trkpt lat="47.618199" lon="11.674842"><ele>967</ele></trkpt><trkpt lat="47.618217" lon="11.674815"><ele>1018.7</ele></trkpt><trkpt lat="47.618305" lon="11.674883"><ele>1022.7</ele></trkpt><trkpt lat="47.618311" lon="11.674838"><ele>1026.9</ele></trkpt><trkpt lat="47.618341" lon="11.674799"><ele>1031.6</ele></trkpt><trkpt lat="47.618328" lon="11.674743"><ele>1030.1</ele></trkpt><trkpt lat="47.618343" lon="11.67468"><ele>1034.9</ele></trkpt><trkpt lat="47.618415" lon="11.674701"><ele>1033.7</ele></trkpt><trkpt lat="47.618396" lon="11.674559"><ele>1030.9</ele></trkpt><trkpt lat="47.61843" lon="11.674461"><ele>1029.4</ele></trkpt><trkpt lat="47.618545" lon="11.674514"><ele>1027.7</ele></trkpt><trkpt lat="47.618569" lon="11.674385"><ele>1051</ele></trkpt><trkpt lat="47.618588" lon="11.67428"><ele>1051</ele></trkpt><trkpt lat="47.618694" lon="11.674304"><ele>1051</ele></trkpt><trkpt lat="47.618715" lon="11.674333"><ele>1051</ele></trkpt><trkpt lat="47.618778" lon="11.674425"><ele>1051</ele></trkpt><trkpt lat="47.618808" lon="11.674429"><ele>1051</ele></trkpt><trkpt lat="47.61888" lon="11.674249"><ele>1051</ele></trkpt><trkpt lat="47.618918" lon="11.674219"><ele>1051</ele></trkpt><trkpt lat="47.618935" lon="11.674241"><ele>1051</ele></trkpt><trkpt lat="47.618981" lon="11.674298"><ele>1051</ele></trkpt><trkpt lat="47.619055" lon="11.674356"><ele>1069.1</ele></trkpt><trkpt lat="47.619039" lon="11.674185"><ele>1071.2</ele></trkpt><trkpt lat="47.619088" lon="11.674081"><ele>1073.4</ele></trkpt><trkpt lat="47.619137" lon="11.674106"><ele>1074.6</ele></trkpt><trkpt lat="47.619203" lon="11.6741"><ele>1075.8</ele></trkpt><trkpt lat="47.61931" lon="11.674032"><ele>1092</ele></trkpt><trkpt lat="47.619596" lon="11.673785"><ele>1092</ele></trkpt><trkpt lat="47.61963" lon="11.673722"><ele>1092</ele></trkpt><trkpt lat="47.61974" lon="11.673624"><ele>1092</ele></trkpt><trkpt lat="47.619801" lon="11.673589"><ele>1092</ele></trkpt><trkpt lat="47.619826" lon="11.673528"><ele>1092</ele></trkpt><trkpt lat="47.619847" lon="11.673529"><ele>1092</ele></trkpt><trkpt lat="47.619864" lon="11.673591"><ele>1092</ele></trkpt><trkpt lat="47.619851" lon="11.673764"><ele>1092</ele></trkpt><trkpt lat="47.619865" lon="11.673814"><ele>1092</ele></trkpt><trkpt lat="47.619892" lon="11.673857"><ele>1098.2</ele></trkpt><trkpt lat="47.619943" lon="11.673747"><ele>1099.1</ele></trkpt><trkpt lat="47.619989" lon="11.673708"><ele>1100.1</ele></trkpt><trkpt lat="47.620014" lon="11.673758"><ele>1101.3</ele></trkpt><trkpt lat="47.620057" lon="11.673709"><ele>1111</ele></trkpt><trkpt lat="47.620068" lon="11.673697"><ele>1111</ele></trkpt><trkpt lat="47.620083" lon="11.673715"><ele>1111</ele></trkpt><trkpt lat="47.620128" lon="11.67398"><ele>1111</ele></trkpt><trkpt lat="47.620152" lon="11.673975"><ele>1111</ele></trkpt><trkpt lat="47.620164" lon="11.673961"><ele>1111</ele></trkpt><trkpt lat="47.620232" lon="11.673855"><ele>1111</ele></trkpt><trkpt lat="47.620351" lon="11.673742"><ele>1111</ele></trkpt><trkpt lat="47.620366" lon="11.673726"><ele>1111</ele></trkpt><trkpt lat="47.620436" lon="11.673636"><ele>1111</ele></trkpt><trkpt lat="47.620469" lon="11.673546"><ele>1111</ele></trkpt><trkpt lat="47.620545" lon="11.673461"><ele>1111</ele></trkpt><trkpt lat="47.620556" lon="11.673456"><ele>1111</ele></trkpt><trkpt lat="47.620624" lon="11.673427"><ele>1117</ele></trkpt><trkpt lat="47.620697" lon="11.67344"><ele>1118.2</ele></trkpt><trkpt lat="47.620794" lon="11.6734"><ele>1119.6</ele></trkpt><trkpt lat="47.620884" lon="11.673394"><ele>1141</ele></trkpt><trkpt lat="47.620897" lon="11.673387"><ele>1141</ele></trkpt><trkpt lat="47.621028" lon="11.673315"><ele>1153</ele></trkpt><trkpt lat="47.621038" lon="11.673311"><ele>1153</ele></trkpt><trkpt lat="47.621074" lon="11.673296"><ele>1153</ele></trkpt><trkpt lat="47.621306" lon="11.67312"><ele>1153</ele></trkpt><trkpt lat="47.621436" lon="11.673175"><ele>1153</ele></trkpt><trkpt lat="47.62147" lon="11.673046"><ele>1153</ele></trkpt><trkpt lat="47.621485" lon="11.673033"><ele>1153</ele></trkpt><trkpt lat="47.621542" lon="11.673178"><ele>1153</ele></trkpt><trkpt lat="47.621564" lon="11.673161"><ele>1153</ele></trkpt><trkpt lat="47.621609" lon="11.672991"><ele>1153</ele></trkpt><trkpt lat="47.621713" lon="11.672821"><ele>1174.6</ele></trkpt><trkpt lat="47.62177" lon="11.672768"><ele>1183</ele></trkpt><trkpt lat="47.621796" lon="11.672793"><ele>1183</ele></trkpt><trkpt lat="47.621797" lon="11.67287"><ele>1183</ele></trkpt><trkpt lat="47.621831" lon="11.67298"><ele>1183</ele></trkpt><trkpt lat="47.62192" lon="11.672942"><ele>1183</ele></trkpt><trkpt lat="47.621923" lon="11.673004"><ele>1183</ele></trkpt><trkpt lat="47.621951" lon="11.672996"><ele>1183</ele></trkpt><trkpt lat="47.621955" lon="11.673025"><ele>1183</ele></trkpt><trkpt lat="47.621972" lon="11.673112"><ele>1183</ele></trkpt><trkpt lat="47.621936" lon="11.673212"><ele>1181.3</ele></trkpt><trkpt lat="47.621967" lon="11.673334"><ele>1176</ele></trkpt><trkpt lat="47.622062" lon="11.673212"><ele>1183</ele></trkpt><trkpt lat="47.622091" lon="11.673184"><ele>1182.2</ele></trkpt><trkpt lat="47.622123" lon="11.673184"><ele>1182.2</ele></trkpt><trkpt lat="47.622185" lon="11.673124"><ele>1182</ele></trkpt><trkpt lat="47.622187" lon="11.673202"><ele>1181.8</ele></trkpt><trkpt lat="47.622159" lon="11.673356"><ele>1176</ele></trkpt><trkpt lat="47.622123" lon="11.673584"><ele>1176</ele></trkpt><trkpt lat="47.622132" lon="11.673854"><ele>1176</ele></trkpt><trkpt lat="47.622148" lon="11.673888"><ele>1176</ele></trkpt><trkpt lat="47.622347" lon="11.673641"><ele>1176</ele></trkpt><trkpt lat="47.622361" lon="11.673646"><ele>1176</ele></trkpt><trkpt lat="47.622369" lon="11.67379"><ele>1176</ele></trkpt><trkpt lat="47.622386" lon="11.673799"><ele>1176</ele></trkpt><trkpt lat="47.62244" lon="11.673762"><ele>1176</ele></trkpt><trkpt lat="47.622527" lon="11.673699"><ele>1217</ele></trkpt><trkpt lat="47.622619" lon="11.673674"><ele>1217</ele></trkpt><trkpt lat="47.62265" lon="11.673691"><ele>1217</ele></trkpt><trkpt lat="47.622637" lon="11.673803"><ele>1217</ele></trkpt><trkpt lat="47.622603" lon="11.673871"><ele>1217</ele></trkpt><trkpt lat="47.6226" lon="11.673936"><ele>1217</ele></trkpt><trkpt lat="47.622616" lon="11.673993"><ele>1217</ele></trkpt><trkpt lat="47.622657" lon="11.674068"><ele>1227.5</ele></trkpt><trkpt lat="47.622691" lon="11.674393"><ele>1228.9</ele></trkpt><trkpt lat="47.622723" lon="11.674523"><ele>1228.3</ele></trkpt><trkpt lat="47.622745" lon="11.674555"><ele>1232</ele></trkpt><trkpt lat="47.622798" lon="11.674587"><ele>1232</ele></trkpt><trkpt lat="47.622815" lon="11.674581"><ele>1232</ele></trkpt><trkpt lat="47.622834" lon="11.674574"><ele>1232</ele></trkpt><trkpt lat="47.622856" lon="11.674596"><ele>1232</ele></trkpt><trkpt lat="47.622888" lon="11.674754"><ele>1232</ele></trkpt><trkpt lat="47.622893" lon="11.674805"><ele>1244.3</ele></trkpt><trkpt lat="47.622926" lon="11.674838"><ele>1244.9</ele></trkpt><trkpt lat="47.623006" lon="11.674825"><ele>1246.1</ele></trkpt><trkpt lat="47.623054" lon="11.674801"><ele>1246.8</ele></trkpt><trkpt lat="47.623126" lon="11.674719"><ele>1248.2</ele></trkpt><trkpt lat="47.623219" lon="11.674714"><ele>1250.7</ele></trkpt><trkpt lat="47.623301" lon="11.674509"><ele>1253.5</ele></trkpt><trkpt lat="47.623368" lon="11.674436"><ele>1255.6</ele></trkpt><trkpt lat="47.623404" lon="11.6745"><ele>1253.7</ele></trkpt><trkpt lat="47.62343" lon="11.674514"><ele>1252.7</ele></trkpt><trkpt lat="47.623489" lon="11.674467"><ele>1275</ele></trkpt><trkpt lat="47.623543" lon="11.674413"><ele>1275</ele></trkpt><trkpt lat="47.623556" lon="11.674486"><ele>1275</ele></trkpt><trkpt lat="47.623568" lon="11.674486"><ele>1275</ele></trkpt><trkpt lat="47.623609" lon="11.674439"><ele>1275</ele></trkpt><trkpt lat="47.623729" lon="11.674407"><ele>1275</ele></trkpt><trkpt lat="47.623805" lon="11.674348"><ele>1275</ele></trkpt><trkpt lat="47.623857" lon="11.674352"><ele>1275</ele></trkpt><trkpt lat="47.62396" lon="11.674225"><ele>1275</ele></trkpt><trkpt lat="47.623976" lon="11.674241"><ele>1275</ele></trkpt><trkpt lat="47.623991" lon="11.674356"><ele>1275</ele></trkpt><trkpt lat="47.624094" lon="11.674197"><ele>1275</ele></trkpt><trkpt lat="47.624102" lon="11.6743"><ele>1275</ele></trkpt><trkpt lat="47.624136" lon="11.674432"><ele>1275</ele></trkpt><trkpt lat="47.624228" lon="11.674267"><ele>1314</ele></trkpt><trkpt lat="47.624388" lon="11.674047"><ele>1299.6</ele></trkpt><trkpt lat="47.62449" lon="11.673956"><ele>1296</ele></trkpt><trkpt lat="47.624569" lon="11.674269"><ele>1314</ele></trkpt><trkpt lat="47.62458" lon="11.674329"><ele>1314</ele></trkpt><trkpt lat="47.624622" lon="11.67436"><ele>1314</ele></trkpt><trkpt lat="47.624664" lon="11.674351"><ele>1314</ele></trkpt><trkpt lat="47.624709" lon="11.674478"><ele>1314</ele></trkpt><trkpt lat="47.624736" lon="11.674559"><ele>1314</ele></trkpt><trkpt lat="47.624738" lon="11.674568"><ele>1314</ele></trkpt><trkpt lat="47.62476" lon="11.674638"><ele>1314</ele></trkpt><trkpt lat="47.624766" lon="11.67465"><ele>1314</ele></trkpt><trkpt lat="47.624839" lon="11.674774"><ele>1314</ele></trkpt><trkpt lat="47.624843" lon="11.674779"><ele>1314</ele></trkpt><trkpt lat="47.624896" lon="11.67485"><ele>1314</ele></trkpt><trkpt lat="47.6249" lon="11.674856"><ele>1314</ele></trkpt><trkpt lat="47.624927" lon="11.67489"><ele>1314</ele></trkpt><trkpt lat="47.624932" lon="11.674896"><ele>1314</ele></trkpt><trkpt lat="47.624944" lon="11.674911"><ele>1314</ele></trkpt><trkpt lat="47.624947" lon="11.674914"><ele>1314</ele></trkpt><trkpt lat="47.625078" lon="11.675066"><ele>1348.2</ele></trkpt><trkpt lat="47.625168" lon="11.67521"><ele>1347</ele></trkpt><trkpt lat="47.625303" lon="11.675345"><ele>1345.7</ele></trkpt><trkpt lat="47.625391" lon="11.67547"><ele>1344.1</ele></trkpt><trkpt lat="47.625457" lon="11.675514"><ele>1355</ele></trkpt><trkpt lat="47.625466" lon="11.67552"><ele>1355</ele></trkpt><trkpt lat="47.62554" lon="11.675573"><ele>1355</ele></trkpt><trkpt lat="47.625549" lon="11.675579"><ele>1355</ele></trkpt><trkpt lat="47.625614" lon="11.675633"><ele>1362.4</ele></trkpt><trkpt lat="47.625728" lon="11.675631"><ele>1363.3</ele></trkpt><trkpt lat="47.625807" lon="11.675661"><ele>1364.2</ele></trkpt><trkpt lat="47.625866" lon="11.675777"><ele>1365.2</ele></trkpt><trkpt lat="47.625919" lon="11.67584"><ele>1362.5</ele></trkpt><trkpt lat="47.625979" lon="11.675852"><ele>1362.4</ele></trkpt><trkpt lat="47.626046" lon="11.675936"><ele>1363</ele></trkpt><trkpt lat="47.626052" lon="11.675942"><ele>1363</ele></trkpt><trkpt lat="47.626112" lon="11.676002"><ele>1363</ele></trkpt><trkpt lat="47.62612" lon="11.676007"><ele>1363</ele></trkpt><trkpt lat="47.626201" lon="11.676054"><ele>1363</ele></trkpt><trkpt lat="47.626205" lon="11.676056"><ele>1363</ele></trkpt><trkpt lat="47.626258" lon="11.676108"><ele>1363</ele></trkpt><trkpt lat="47.62644" lon="11.676182"><ele>1363</ele></trkpt><trkpt lat="47.626475" lon="11.67624"><ele>1363</ele></trkpt><trkpt lat="47.626551" lon="11.67627"><ele>1363</ele></trkpt><trkpt lat="47.626589" lon="11.676259"><ele>1363</ele></trkpt><trkpt lat="47.626597" lon="11.676258"><ele>1363</ele></trkpt><trkpt lat="47.626629" lon="11.67625"><ele>1387</ele></trkpt><trkpt lat="47.626721" lon="11.67645"><ele>1389.6</ele></trkpt><trkpt lat="47.626745" lon="11.676471"><ele>1403</ele></trkpt><trkpt lat="47.626749" lon="11.676474"><ele>1403</ele></trkpt><trkpt lat="47.626845" lon="11.676576"><ele>1403.4</ele></trkpt><trkpt lat="47.626865" lon="11.676648"><ele>1403.5</ele></trkpt><trkpt lat="47.626871" lon="11.676802"><ele>1404</ele></trkpt><trkpt lat="47.626872" lon="11.676811"><ele>1404</ele></trkpt><trkpt lat="47.626896" lon="11.676911"><ele>1404</ele></trkpt><trkpt lat="47.626898" lon="11.676917"><ele>1404</ele></trkpt><trkpt lat="47.626971" lon="11.677181"><ele>1404</ele></trkpt><trkpt lat="47.626975" lon="11.677193"><ele>1404</ele></trkpt><trkpt lat="47.626996" lon="11.677247"><ele>1404</ele></trkpt><trkpt lat="47.626992" lon="11.677403"><ele>1404</ele></trkpt><trkpt lat="47.626992" lon="11.677425"><ele>1404</ele></trkpt><trkpt lat="47.627157" lon="11.678163"><ele>1398.2</ele></trkpt><trkpt lat="47.627146" lon="11.678306"><ele>1400</ele></trkpt><trkpt lat="47.627159" lon="11.678404"><ele>1401.8</ele></trkpt><trkpt lat="47.627213" lon="11.678543"><ele>1403.2</ele></trkpt><trkpt lat="47.62727" lon="11.678581"><ele>1418</ele></trkpt><trkpt lat="47.627327" lon="11.678672"><ele>1420.8</ele></trkpt><trkpt lat="47.627458" lon="11.678819"><ele>1426</ele></trkpt><trkpt lat="47.627492" lon="11.678783"><ele>1427.5</ele></trkpt><trkpt lat="47.627699" lon="11.678907"><ele>1431.1</ele></trkpt><trkpt lat="47.627823" lon="11.678947"><ele>1431.4</ele></trkpt><trkpt lat="47.628027" lon="11.679159"><ele>1435.1</ele></trkpt><trkpt lat="47.628091" lon="11.679184"><ele>1435.4</ele></trkpt><trkpt lat="47.628291" lon="11.679466"><ele>1441.5</ele></trkpt><trkpt lat="47.628347" lon="11.679725"><ele>1446.3</ele></trkpt><trkpt lat="47.628375" lon="11.679727"><ele>1445.6</ele></trkpt><trkpt lat="47.628423" lon="11.679575"><ele>1444</ele></trkpt><trkpt lat="47.628466" lon="11.679234"><ele>1441.1</ele></trkpt><trkpt lat="47.628478" lon="11.679232"><ele>1440.3</ele></trkpt><trkpt lat="47.628652" lon="11.679462"><ele>1442</ele></trkpt><trkpt lat="47.628747" lon="11.679659"><ele>1467</ele></trkpt><trkpt lat="47.628823" lon="11.679494"><ele>1484.9</ele></trkpt><trkpt lat="47.628878" lon="11.679198"><ele>1492</ele></trkpt><trkpt lat="47.628918" lon="11.679108"><ele>1494.7</ele></trkpt><trkpt lat="47.629041" lon="11.678962"><ele>1501.6</ele></trkpt><trkpt lat="47.629202" lon="11.678685"><ele>1510</ele></trkpt><trkpt lat="47.62927" lon="11.678515"><ele>1511.4</ele></trkpt><trkpt lat="47.629331" lon="11.678267"><ele>1512.6</ele></trkpt><trkpt lat="47.629515" lon="11.67772"><ele>1517.3</ele></trkpt><trkpt lat="47.629547" lon="11.67754"><ele>1519.2</ele></trkpt><trkpt lat="47.629695" lon="11.677088"><ele>1522.1</ele></trkpt><trkpt lat="47.629705" lon="11.676972"><ele>1521.8</ele></trkpt><trkpt lat="47.629763" lon="11.676886"><ele>1520.8</ele></trkpt><trkpt lat="47.629798" lon="11.676781"><ele>1520.7</ele></trkpt><trkpt lat="47.629902" lon="11.676649"><ele>1545</ele></trkpt><trkpt lat="47.629922" lon="11.676604"><ele>1545</ele></trkpt><trkpt lat="47.62992" lon="11.676563"><ele>1547</ele></trkpt><trkpt lat="47.62988" lon="11.676522"><ele>1547.2</ele></trkpt><trkpt lat="47.629912" lon="11.676452"><ele>1547.4</ele></trkpt><trkpt lat="47.630062" lon="11.67634"><ele>1547.6</ele></trkpt><trkpt lat="47.63009" lon="11.676291"><ele>1547.6</ele></trkpt><trkpt lat="47.630146" lon="11.676336"><ele>1547.6</ele></trkpt><trkpt lat="47.630257" lon="11.676291"><ele>1547.5</ele></trkpt><trkpt lat="47.630252" lon="11.676238"><ele>1547.4</ele></trkpt><trkpt lat="47.630212" lon="11.676209"><ele>1547.4</ele></trkpt><trkpt lat="47.630189" lon="11.676119"><ele>1548</ele></trkpt><trkpt lat="47.630194" lon="11.67611"><ele>1548</ele></trkpt><trkpt lat="47.630228" lon="11.676089"><ele>1548</ele></trkpt><trkpt lat="47.630232" lon="11.676053"><ele>1548</ele></trkpt><trkpt lat="47.630205" lon="11.676018"><ele>1548</ele></trkpt><trkpt lat="47.630208" lon="11.676005"><ele>1548</ele></trkpt><trkpt lat="47.630245" lon="11.675981"><ele>1548.7</ele></trkpt><trkpt lat="47.630291" lon="11.675821"><ele>1549.1</ele></trkpt><trkpt lat="47.630316" lon="11.675811"><ele>1550</ele></trkpt><trkpt lat="47.630325" lon="11.675811"><ele>1550</ele></trkpt><trkpt lat="47.630468" lon="11.67587"><ele>1549</ele></trkpt><trkpt lat="47.630562" lon="11.675828"><ele>1549.2</ele></trkpt><trkpt lat="47.630626" lon="11.675843"><ele>1548</ele></trkpt><trkpt lat="47.630639" lon="11.675848"><ele>1548</ele></trkpt><trkpt lat="47.630821" lon="11.675862"><ele>1546.5</ele></trkpt><trkpt lat="47.630924" lon="11.675808"><ele>1546.2</ele></trkpt><trkpt lat="47.630942" lon="11.675758"><ele>1544</ele></trkpt><trkpt lat="47.63109" lon="11.675693"><ele>1544.5</ele></trkpt><trkpt lat="47.631174" lon="11.675694"><ele>1544.5</ele></trkpt><trkpt lat="47.631226" lon="11.675651"><ele>1544.5</ele></trkpt><trkpt lat="47.631363" lon="11.675608"><ele>1544.6</ele></trkpt><trkpt lat="47.631332" lon="11.675723"><ele>1544.6</ele></trkpt><trkpt lat="47.631476" lon="11.675679"><ele>1544.7</ele></trkpt><trkpt lat="47.63147" lon="11.675732"><ele>1544.8</ele></trkpt><trkpt lat="47.631423" lon="11.675817"><ele>1544.9</ele></trkpt><trkpt lat="47.631424" lon="11.675841"><ele>1550</ele></trkpt><trkpt lat="47.631486" lon="11.67588"><ele>1550</ele></trkpt><trkpt lat="47.631576" lon="11.675881"><ele>1550</ele></trkpt><trkpt lat="47.631585" lon="11.675954"><ele>1550</ele></trkpt>

<trkpt lat="47.631584" lon="11.675952"><ele>1550.0</ele></trkpt><trkpt lat="47.631584" lon="11.675952"><ele>1550.0</ele></trkpt><trkpt lat="47.631639" lon="11.675925"><ele>1551.8</ele></trkpt><trkpt lat="47.631718" lon="11.675870"><ele>1554.3</ele></trkpt><trkpt lat="47.631742" lon="11.675916"><ele>1555.5</ele></trkpt><trkpt lat="47.631778" lon="11.675836"><ele>1558.0</ele></trkpt><trkpt lat="47.631784" lon="11.675925"><ele>1560.5</ele></trkpt><trkpt lat="47.631814" lon="11.675960"><ele>1561.7</ele></trkpt><trkpt lat="47.631838" lon="11.675952"><ele>1562.3</ele></trkpt><trkpt lat="47.631893" lon="11.675844"><ele>1564.2</ele></trkpt><trkpt lat="47.631984" lon="11.675754"><ele>1567.2</ele></trkpt><trkpt lat="47.631978" lon="11.675836"><ele>1568.5</ele></trkpt><trkpt lat="47.631996" lon="11.675844"><ele>1569.8</ele></trkpt><trkpt lat="47.631990" lon="11.675897"><ele>1571.0</ele></trkpt><trkpt lat="47.632020" lon="11.675889"><ele>1571.6</ele></trkpt><trkpt lat="47.632105" lon="11.675844"><ele>1575.3</ele></trkpt><trkpt lat="47.632105" lon="11.675889"><ele>1576.5</ele></trkpt><trkpt lat="47.632081" lon="11.675925"><ele>1577.8</ele></trkpt><trkpt lat="47.632075" lon="11.675952"><ele>1578.9</ele></trkpt><trkpt lat="47.632044" lon="11.676123"><ele>1581.5</ele></trkpt><trkpt lat="47.632038" lon="11.676186"><ele>1582.7</ele></trkpt><trkpt lat="47.632081" lon="11.676176"><ele>1583.3</ele></trkpt><trkpt lat="47.632099" lon="11.676186"><ele>1583.9</ele></trkpt><trkpt lat="47.632105" lon="11.676230"><ele>1584.5</ele></trkpt><trkpt lat="47.632087" lon="11.676312"><ele>1585.7</ele></trkpt><trkpt lat="47.632081" lon="11.676329"><ele>1587</ele></trkpt>

<trkpt lat="47.632062" lon="11.676425"><ele>1587</ele></trkpt><trkpt lat="47.632079" lon="11.676494"><ele>1587</ele></trkpt><trkpt lat="47.632108" lon="11.676536"><ele>1587</ele></trkpt><trkpt lat="47.632168" lon="11.676766"><ele>1559.9</ele></trkpt><trkpt lat="47.632235" lon="11.676833"><ele>1560</ele></trkpt><trkpt lat="47.632266" lon="11.676956"><ele>1560.3</ele></trkpt><trkpt lat="47.632352" lon="11.677081"><ele>1560.6</ele></trkpt><trkpt lat="47.632389" lon="11.67709"><ele>1560.8</ele></trkpt><trkpt lat="47.632443" lon="11.67716"><ele>1561</ele></trkpt><trkpt lat="47.632515" lon="11.677202"><ele>1561.2</ele></trkpt><trkpt lat="47.63256" lon="11.677343"><ele>1561.4</ele></trkpt><trkpt lat="47.632666" lon="11.677583"><ele>1546</ele></trkpt><trkpt lat="47.632752" lon="11.677832"><ele>1546</ele></trkpt><trkpt lat="47.632737" lon="11.678013"><ele>1546</ele></trkpt><trkpt lat="47.632636" lon="11.678235"><ele>1546</ele></trkpt><trkpt lat="47.632612" lon="11.678366"><ele>1535.3</ele></trkpt><trkpt lat="47.632628" lon="11.678387"><ele>1530</ele></trkpt><trkpt lat="47.632612" lon="11.678366"><ele>1535.3</ele></trkpt><trkpt lat="47.632636" lon="11.678235"><ele>1546</ele></trkpt><trkpt lat="47.632737" lon="11.678013"><ele>1546</ele></trkpt><trkpt lat="47.632758" lon="11.678043"><ele>1541.4</ele></trkpt><trkpt lat="47.632765" lon="11.678155"><ele>1542.2</ele></trkpt><trkpt lat="47.632823" lon="11.678255"><ele>1542.8</ele></trkpt><trkpt lat="47.632856" lon="11.678351"><ele>1530</ele></trkpt><trkpt lat="47.632828" lon="11.678373"><ele>1530</ele></trkpt><trkpt lat="47.632818" lon="11.678427"><ele>1530</ele></trkpt><trkpt lat="47.632793" lon="11.678436"><ele>1530</ele></trkpt><trkpt lat="47.632732" lon="11.678412"><ele>1530</ele></trkpt>

<trkpt lat="47.6327143" lon="11.6784047"><ele>1628.8</ele></trkpt><trkpt lat="47.6326919" lon="11.678422"><ele>1630.2</ele></trkpt><trkpt lat="47.6326927" lon="11.6784359"><ele>1631.4</ele></trkpt><trkpt lat="47.6327149" lon="11.6784601"><ele>1632.5</ele></trkpt><trkpt lat="47.6327259" lon="11.6785168"><ele>1637.2</ele></trkpt><trkpt lat="47.6327387" lon="11.678548"><ele>1639.6</ele></trkpt><trkpt lat="47.6327345" lon="11.678583"><ele>1642.7</ele></trkpt><trkpt lat="47.6327396" lon="11.6786174"><ele>1645.9</ele></trkpt><trkpt lat="47.6327475" lon="11.6786345"><ele>1647.7</ele></trkpt><trkpt lat="47.6327688" lon="11.6786351"><ele>1648.1</ele></trkpt><trkpt lat="47.6327688" lon="11.6786537"><ele>1650</ele></trkpt><trkpt lat="47.6327818" lon="11.6786692"><ele>1651.7</ele></trkpt><trkpt lat="47.6327923" lon="11.678704"><ele>1653.3</ele></trkpt><trkpt lat="47.6328361" lon="11.67874"><ele>1651.8</ele></trkpt><trkpt lat="47.6328357" lon="11.6787719"><ele>1653.5</ele></trkpt><trkpt lat="47.6328432" lon="11.678788"><ele>1652.8</ele></trkpt><trkpt lat="47.6328222" lon="11.6788444"><ele>1656.2</ele></trkpt><trkpt lat="47.6328148" lon="11.6789012"><ele>1655.3</ele></trkpt><trkpt lat="47.6328175" lon="11.6789538"><ele>1654.6</ele></trkpt><trkpt lat="47.6328386" lon="11.6789969"><ele>1653.8</ele></trkpt><trkpt lat="47.6328631" lon="11.6790207"><ele>1653.5</ele></trkpt><trkpt lat="47.6328735" lon="11.6790449"><ele>1653.8</ele></trkpt><trkpt lat="47.6328675" lon="11.6791214"><ele>1657.5</ele></trkpt><trkpt lat="47.6328734" lon="11.6791769"><ele>1660</ele></trkpt><trkpt lat="47.6328892" lon="11.6791871"><ele>1660.8</ele></trkpt><trkpt lat="47.632892" lon="11.679236"><ele>1662.6</ele></trkpt><trkpt lat="47.6329229" lon="11.6792402"><ele>1663.3</ele></trkpt><trkpt lat="47.6329359" lon="11.6792652"><ele>1663.8</ele></trkpt><trkpt lat="47.632958" lon="11.6792717"><ele>1664.6</ele></trkpt><trkpt lat="47.6329874" lon="11.6793183"><ele>1665.3</ele></trkpt><trkpt lat="47.6330632" lon="11.6793143"><ele>1668.8</ele></trkpt><trkpt lat="47.6330819" lon="11.6793264"><ele>1668.3</ele></trkpt><trkpt lat="47.6330823" lon="11.6793544"><ele>1667.9</ele></trkpt><trkpt lat="47.63307" lon="11.6793681"><ele>1668</ele></trkpt>
<trkpt lat="47.6330823" lon="11.6793544"><ele>1667.9</ele></trkpt><trkpt lat="47.6330819" lon="11.6793264"><ele>1668.3</ele></trkpt><trkpt lat="47.6330632" lon="11.6793143"><ele>1668.8</ele></trkpt><trkpt lat="47.6329874" lon="11.6793183"><ele>1665.3</ele></trkpt><trkpt lat="47.632958" lon="11.6792717"><ele>1664.6</ele></trkpt><trkpt lat="47.6329359" lon="11.6792652"><ele>1663.8</ele></trkpt><trkpt lat="47.6329229" lon="11.6792402"><ele>1663.3</ele></trkpt><trkpt lat="47.632892" lon="11.679236"><ele>1662.6</ele></trkpt><trkpt lat="47.6328892" lon="11.6791871"><ele>1660.8</ele></trkpt><trkpt lat="47.6328734" lon="11.6791769"><ele>1660</ele></trkpt><trkpt lat="47.6328675" lon="11.6791214"><ele>1657.5</ele></trkpt><trkpt lat="47.6328735" lon="11.6790449"><ele>1653.8</ele></trkpt><trkpt lat="47.6328631" lon="11.6790207"><ele>1653.5</ele></trkpt><trkpt lat="47.6328386" lon="11.6789969"><ele>1653.8</ele></trkpt><trkpt lat="47.6328175" lon="11.6789538"><ele>1654.6</ele></trkpt><trkpt lat="47.6328148" lon="11.6789012"><ele>1655.3</ele></trkpt><trkpt lat="47.6328222" lon="11.6788444"><ele>1656.2</ele></trkpt><trkpt lat="47.6328432" lon="11.678788"><ele>1652.8</ele></trkpt><trkpt lat="47.6328357" lon="11.6787719"><ele>1653.5</ele></trkpt><trkpt lat="47.6328361" lon="11.67874"><ele>1651.8</ele></trkpt><trkpt lat="47.6327923" lon="11.678704"><ele>1653.3</ele></trkpt><trkpt lat="47.6327818" lon="11.6786692"><ele>1651.7</ele></trkpt><trkpt lat="47.6327688" lon="11.6786537"><ele>1650</ele></trkpt><trkpt lat="47.6327688" lon="11.6786351"><ele>1648.1</ele></trkpt><trkpt lat="47.6327475" lon="11.6786345"><ele>1647.7</ele></trkpt><trkpt lat="47.6327396" lon="11.6786174"><ele>1645.9</ele></trkpt><trkpt lat="47.6327345" lon="11.678583"><ele>1642.7</ele></trkpt><trkpt lat="47.6327387" lon="11.678548"><ele>1639.6</ele></trkpt><trkpt lat="47.6327259" lon="11.6785168"><ele>1637.2</ele></trkpt><trkpt lat="47.6327149" lon="11.6784601"><ele>1632.5</ele></trkpt><trkpt lat="47.6326927" lon="11.6784359"><ele>1631.4</ele></trkpt><trkpt lat="47.6326919" lon="11.678422"><ele>1630.2</ele></trkpt><trkpt lat="47.6327143" lon="11.6784047"><ele>1628.8</ele></trkpt>

<trkpt lat="47.632793" lon="11.678436"><ele>1530</ele></trkpt><trkpt lat="47.632818" lon="11.678427"><ele>1530</ele></trkpt><trkpt lat="47.632828" lon="11.678373"><ele>1530</ele></trkpt><trkpt lat="47.632856" lon="11.678351"><ele>1530</ele></trkpt><trkpt lat="47.632885" lon="11.678386"><ele>1530</ele></trkpt><trkpt lat="47.632968" lon="11.678579"><ele>1530</ele></trkpt><trkpt lat="47.633018" lon="11.678621"><ele>1530</ele></trkpt><trkpt lat="47.633126" lon="11.678648"><ele>1530</ele></trkpt><trkpt lat="47.633113" lon="11.678548"><ele>1538</ele></trkpt><trkpt lat="47.633117" lon="11.678408"><ele>1540.1</ele></trkpt><trkpt lat="47.633058" lon="11.678234"><ele>1540.8</ele></trkpt><trkpt lat="47.633055" lon="11.678044"><ele>1540.2</ele></trkpt><trkpt lat="47.633086" lon="11.678053"><ele>1546</ele></trkpt><trkpt lat="47.633106" lon="11.678064"><ele>1546</ele></trkpt><trkpt lat="47.633199" lon="11.678136"><ele>1545.1</ele></trkpt><trkpt lat="47.633174" lon="11.67804"><ele>1545.1</ele></trkpt><trkpt lat="47.63318" lon="11.677981"><ele>1544.6</ele></trkpt><trkpt lat="47.633207" lon="11.677996"><ele>1543.7</ele></trkpt><trkpt lat="47.633279" lon="11.678109"><ele>1543.6</ele></trkpt><trkpt lat="47.633294" lon="11.678098"><ele>1543.6</ele></trkpt><trkpt lat="47.633287" lon="11.677994"><ele>1543.5</ele></trkpt><trkpt lat="47.633314" lon="11.677982"><ele>1543.4</ele></trkpt><trkpt lat="47.633385" lon="11.678152"><ele>1543.4</ele></trkpt><trkpt lat="47.633412" lon="11.678094"><ele>1542.3</ele></trkpt><trkpt lat="47.633409" lon="11.677974"><ele>1541.7</ele></trkpt><trkpt lat="47.633518" lon="11.677623"><ele>1535.7</ele></trkpt><trkpt lat="47.633649" lon="11.677408"><ele>1534.3</ele></trkpt><trkpt lat="47.633668" lon="11.677522"><ele>1533.7</ele></trkpt><trkpt lat="47.6337" lon="11.677482"><ele>1533.6</ele></trkpt><trkpt lat="47.633789" lon="11.677439"><ele>1533</ele></trkpt><trkpt lat="47.633823" lon="11.677476"><ele>1532.4</ele></trkpt><trkpt lat="47.633908" lon="11.67745"><ele>1531.8</ele></trkpt><trkpt lat="47.633991" lon="11.677559"><ele>1531</ele></trkpt><trkpt lat="47.634094" lon="11.677464"><ele>1530.8</ele></trkpt><trkpt lat="47.634152" lon="11.677462"><ele>1530.2</ele></trkpt><trkpt lat="47.634207" lon="11.677423"><ele>1529.5</ele></trkpt><trkpt lat="47.634181" lon="11.677349"><ele>1529.5</ele></trkpt><trkpt lat="47.634252" lon="11.677334"><ele>1529.5</ele></trkpt><trkpt lat="47.634291" lon="11.677276"><ele>1529.6</ele></trkpt><trkpt lat="47.634257" lon="11.67717"><ele>1529.6</ele></trkpt><trkpt lat="47.634254" lon="11.677097"><ele>1529.6</ele></trkpt><trkpt lat="47.634214" lon="11.677006"><ele>1529.7</ele></trkpt><trkpt lat="47.634369" lon="11.676982"><ele>1528.2</ele></trkpt><trkpt lat="47.634291" lon="11.676847"><ele>1528.5</ele></trkpt><trkpt lat="47.634419" lon="11.676825"><ele>1526.1</ele></trkpt><trkpt lat="47.634304" lon="11.676684"><ele>1526</ele></trkpt><trkpt lat="47.634432" lon="11.676678"><ele>1525.5</ele></trkpt><trkpt lat="47.634573" lon="11.676733"><ele>1524.6</ele></trkpt><trkpt lat="47.634595" lon="11.676714"><ele>1524.1</ele></trkpt><trkpt lat="47.634413" lon="11.676495"><ele>1524.9</ele></trkpt><trkpt lat="47.634185" lon="11.676163"><ele>1526.7</ele></trkpt><trkpt lat="47.634173" lon="11.675935"><ele>1527.6</ele></trkpt><trkpt lat="47.634185" lon="11.675857"><ele>1528.1</ele></trkpt><trkpt lat="47.634162" lon="11.675745"><ele>1534</ele></trkpt><trkpt lat="47.634241" lon="11.675786"><ele>1470</ele></trkpt><trkpt lat="47.634585" lon="11.675964"><ele>1469.1</ele></trkpt><trkpt lat="47.634661" lon="11.675727"><ele>1465.6</ele></trkpt><trkpt lat="47.634935" lon="11.675874"><ele>1465.1</ele></trkpt><trkpt lat="47.635415" lon="11.675992"><ele>1461.6</ele></trkpt><trkpt lat="47.635425" lon="11.675891"><ele>1462.3</ele></trkpt><trkpt lat="47.635559" lon="11.675982"><ele>1463</ele></trkpt><trkpt lat="47.635628" lon="11.675887"><ele>1456</ele></trkpt><trkpt lat="47.635634" lon="11.675877"><ele>1456</ele></trkpt><trkpt lat="47.635745" lon="11.675699"><ele>1428.4</ele></trkpt><trkpt lat="47.636003" lon="11.675553"><ele>1427</ele></trkpt><trkpt lat="47.636104" lon="11.675189"><ele>1428.9</ele></trkpt><trkpt lat="47.636232" lon="11.6751"><ele>1415</ele></trkpt><trkpt lat="47.636244" lon="11.675091"><ele>1415</ele></trkpt><trkpt lat="47.636282" lon="11.675065"><ele>1410.7</ele></trkpt><trkpt lat="47.636355" lon="11.674679"><ele>1402</ele></trkpt><trkpt lat="47.636359" lon="11.674656"><ele>1402</ele></trkpt><trkpt lat="47.636379" lon="11.674542"><ele>1402</ele></trkpt><trkpt lat="47.636383" lon="11.674522"><ele>1402</ele></trkpt><trkpt lat="47.636423" lon="11.674317"><ele>1395.2</ele></trkpt><trkpt lat="47.636519" lon="11.674226"><ele>1394.5</ele></trkpt><trkpt lat="47.636709" lon="11.674359"><ele>1393.6</ele></trkpt><trkpt lat="47.636782" lon="11.674632"><ele>1397.2</ele></trkpt><trkpt lat="47.636822" lon="11.674953"><ele>1400.9</ele></trkpt><trkpt lat="47.636701" lon="11.675225"><ele>1398.7</ele></trkpt><trkpt lat="47.63658" lon="11.675599"><ele>1396.7</ele></trkpt><trkpt lat="47.636511" lon="11.676141"><ele>1392.3</ele></trkpt><trkpt lat="47.636693" lon="11.677051"><ele>1361.6</ele></trkpt><trkpt lat="47.636854" lon="11.677341"><ele>1356</ele></trkpt><trkpt lat="47.637413" lon="11.678044"><ele>1348.6</ele></trkpt><trkpt lat="47.637451" lon="11.678118"><ele>1344.7</ele></trkpt><trkpt lat="47.637516" lon="11.678164"><ele>1343.7</ele></trkpt><trkpt lat="47.637697" lon="11.67859"><ele>1318</ele></trkpt><trkpt lat="47.637686" lon="11.678624"><ele>1318</ele></trkpt><trkpt lat="47.637605" lon="11.678793"><ele>1318</ele></trkpt><trkpt lat="47.637599" lon="11.678835"><ele>1318</ele></trkpt><trkpt lat="47.637587" lon="11.678939"><ele>1313.5</ele></trkpt><trkpt lat="47.637931" lon="11.679453"><ele>1309</ele></trkpt><trkpt lat="47.638092" lon="11.67971"><ele>1295</ele></trkpt><trkpt lat="47.638461" lon="11.680384"><ele>1292.1</ele></trkpt><trkpt lat="47.638486" lon="11.680804"><ele>1293.3</ele></trkpt><trkpt lat="47.638626" lon="11.681466"><ele>1290.9</ele></trkpt><trkpt lat="47.63888" lon="11.681974"><ele>1291.3</ele></trkpt><trkpt lat="47.639091" lon="11.682694"><ele>1291</ele></trkpt><trkpt lat="47.639105" lon="11.68273"><ele>1291</ele></trkpt><trkpt lat="47.639118" lon="11.682817"><ele>1273</ele></trkpt><trkpt lat="47.639282" lon="11.683073"><ele>1271.1</ele></trkpt><trkpt lat="47.639344" lon="11.683231"><ele>1271.8</ele></trkpt><trkpt lat="47.639514" lon="11.683956"><ele>1269.9</ele></trkpt><trkpt lat="47.639529" lon="11.684169"><ele>1268.8</ele></trkpt><trkpt lat="47.639561" lon="11.684356"><ele>1267.3</ele></trkpt><trkpt lat="47.639702" lon="11.684862"><ele>1264.1</ele></trkpt><trkpt lat="47.639793" lon="11.685115"><ele>1262.5</ele></trkpt><trkpt lat="47.639962" lon="11.685423"><ele>1260.8</ele></trkpt><trkpt lat="47.640056" lon="11.685535"><ele>1258.5</ele></trkpt><trkpt lat="47.640135" lon="11.6856"><ele>1259</ele></trkpt><trkpt lat="47.640182" lon="11.685742"><ele>1257.8</ele></trkpt><trkpt lat="47.640202" lon="11.685908"><ele>1256.7</ele></trkpt><trkpt lat="47.64016" lon="11.686105"><ele>1256.8</ele></trkpt><trkpt lat="47.640156" lon="11.68621"><ele>1256.3</ele></trkpt><trkpt lat="47.64019" lon="11.686818"><ele>1255.2</ele></trkpt><trkpt lat="47.64022" lon="11.686916"><ele>1255.2</ele></trkpt><trkpt lat="47.64024" lon="11.687393"><ele>1254</ele></trkpt><trkpt lat="47.640209" lon="11.687783"><ele>1242</ele></trkpt><trkpt lat="47.640451" lon="11.687344"><ele>1241.1</ele></trkpt><trkpt lat="47.640606" lon="11.686942"><ele>1243.3</ele></trkpt><trkpt lat="47.640669" lon="11.686857"><ele>1242.4</ele></trkpt><trkpt lat="47.64071" lon="11.686919"><ele>1241.4</ele></trkpt><trkpt lat="47.640738" lon="11.687053"><ele>1240.4</ele></trkpt><trkpt lat="47.640649" lon="11.687754"><ele>1232.6</ele></trkpt><trkpt lat="47.640664" lon="11.687954"><ele>1229.9</ele></trkpt><trkpt lat="47.64074" lon="11.688215"><ele>1229.2</ele></trkpt><trkpt lat="47.640829" lon="11.68865"><ele>1222.1</ele></trkpt><trkpt lat="47.64082" lon="11.688799"><ele>1222.2</ele></trkpt><trkpt lat="47.640711" lon="11.689174"><ele>1210.3</ele></trkpt><trkpt lat="47.640609" lon="11.689419"><ele>1208.8</ele></trkpt><trkpt lat="47.640263" lon="11.689845"><ele>1207.3</ele></trkpt><trkpt lat="47.640044" lon="11.690163"><ele>1172</ele></trkpt><trkpt lat="47.639888" lon="11.690227"><ele>1194</ele></trkpt><trkpt lat="47.639808" lon="11.690396"><ele>1174.4</ele></trkpt><trkpt lat="47.639923" lon="11.690463"><ele>1170.5</ele></trkpt><trkpt lat="47.640304" lon="11.690353"><ele>1170.2</ele></trkpt><trkpt lat="47.640557" lon="11.690237"><ele>1167</ele></trkpt><trkpt lat="47.640825" lon="11.690197"><ele>1166.4</ele></trkpt><trkpt lat="47.64111" lon="11.690116"><ele>1167</ele></trkpt><trkpt lat="47.641354" lon="11.68994"><ele>1166.4</ele></trkpt><trkpt lat="47.64151" lon="11.689865"><ele>1165.6</ele></trkpt><trkpt lat="47.641584" lon="11.689872"><ele>1164.7</ele></trkpt><trkpt lat="47.641706" lon="11.689791"><ele>1163.2</ele></trkpt><trkpt lat="47.641727" lon="11.689879"><ele>1148</ele></trkpt><trkpt lat="47.641632" lon="11.690021"><ele>1151</ele></trkpt><trkpt lat="47.641583" lon="11.690172"><ele>1151.1</ele></trkpt><trkpt lat="47.641586" lon="11.690257"><ele>1151.1</ele></trkpt><trkpt lat="47.64161" lon="11.690333"><ele>1151</ele></trkpt><trkpt lat="47.641733" lon="11.690469"><ele>1133.8</ele></trkpt><trkpt lat="47.64195" lon="11.690279"><ele>1128</ele></trkpt><trkpt lat="47.642064" lon="11.690221"><ele>1126.2</ele></trkpt><trkpt lat="47.642139" lon="11.690146"><ele>1126.1</ele></trkpt><trkpt lat="47.642247" lon="11.690084"><ele>1126.4</ele></trkpt><trkpt lat="47.642428" lon="11.689864"><ele>1123.6</ele></trkpt><trkpt lat="47.642766" lon="11.689513"><ele>1122.4</ele></trkpt><trkpt lat="47.643001" lon="11.689381"><ele>1122.8</ele></trkpt><trkpt lat="47.643198" lon="11.689235"><ele>1123</ele></trkpt><trkpt lat="47.6433" lon="11.689102"><ele>1122.8</ele></trkpt><trkpt lat="47.643475" lon="11.688986"><ele>1109</ele></trkpt><trkpt lat="47.643003" lon="11.690355"><ele>1099.3</ele></trkpt><trkpt lat="47.642977" lon="11.69055"><ele>1099.3</ele></trkpt><trkpt lat="47.642995" lon="11.690874"><ele>1082</ele></trkpt><trkpt lat="47.643122" lon="11.691424"><ele>1059.2</ele></trkpt><trkpt lat="47.643263" lon="11.691837"><ele>1054.6</ele></trkpt><trkpt lat="47.643403" lon="11.692187"><ele>1052.8</ele></trkpt><trkpt lat="47.643511" lon="11.692332"><ele>1034</ele></trkpt><trkpt lat="47.643537" lon="11.692475"><ele>1032.6</ele></trkpt><trkpt lat="47.643622" lon="11.692578"><ele>1029</ele></trkpt><trkpt lat="47.643662" lon="11.692592"><ele>1029</ele></trkpt><trkpt lat="47.643962" lon="11.692532"><ele>1029</ele></trkpt><trkpt lat="47.644042" lon="11.6925"><ele>1029</ele></trkpt><trkpt lat="47.644138" lon="11.692508"><ele>1029</ele></trkpt><trkpt lat="47.644228" lon="11.692554"><ele>1031.1</ele></trkpt><trkpt lat="47.644292" lon="11.692614"><ele>1031.4</ele></trkpt><trkpt lat="47.644332" lon="11.692716"><ele>1031.7</ele></trkpt><trkpt lat="47.644312" lon="11.693349"><ele>1032.4</ele></trkpt><trkpt lat="47.644402" lon="11.693563"><ele>1032.6</ele></trkpt><trkpt lat="47.644592" lon="11.693936"><ele>1032.9</ele></trkpt><trkpt lat="47.644683" lon="11.69393"><ele>1033.1</ele></trkpt><trkpt lat="47.645009" lon="11.693629"><ele>1034.7</ele></trkpt><trkpt lat="47.645359" lon="11.692991"><ele>1037.1</ele></trkpt><trkpt lat="47.645456" lon="11.692906"><ele>1037.3</ele></trkpt><trkpt lat="47.64569" lon="11.692785"><ele>1040.2</ele></trkpt><trkpt lat="47.645828" lon="11.692671"><ele>1041.4</ele></trkpt><trkpt lat="47.645925" lon="11.692509"><ele>1042.4</ele></trkpt><trkpt lat="47.645958" lon="11.692203"><ele>1041.7</ele></trkpt><trkpt lat="47.646014" lon="11.692004"><ele>1040.7</ele></trkpt><trkpt lat="47.646177" lon="11.691734"><ele>1038.7</ele></trkpt><trkpt lat="47.646233" lon="11.691529"><ele>1038.5</ele></trkpt><trkpt lat="47.64625" lon="11.691235"><ele>1039.1</ele></trkpt><trkpt lat="47.646294" lon="11.691008"><ele>1039.4</ele></trkpt><trkpt lat="47.646431" lon="11.690583"><ele>1039.2</ele></trkpt><trkpt lat="47.64656" lon="11.690343"><ele>1040</ele></trkpt><trkpt lat="47.646617" lon="11.690091"><ele>1040.6</ele></trkpt><trkpt lat="47.646815" lon="11.689587"><ele>1040.8</ele></trkpt><trkpt lat="47.646876" lon="11.689239"><ele>1039.8</ele></trkpt><trkpt lat="47.646921" lon="11.688817"><ele>1040.5</ele></trkpt><trkpt lat="47.64697" lon="11.688611"><ele>1041.5</ele></trkpt><trkpt lat="47.647002" lon="11.688327"><ele>1041.9</ele></trkpt><trkpt lat="47.647078" lon="11.687997"><ele>1042.9</ele></trkpt><trkpt lat="47.647177" lon="11.687826"><ele>1043.7</ele></trkpt><trkpt lat="47.647249" lon="11.68759"><ele>1044.2</ele></trkpt><trkpt lat="47.647662" lon="11.687236"><ele>1045.4</ele></trkpt><trkpt lat="47.64798" lon="11.68707"><ele>1045.3</ele></trkpt><trkpt lat="47.648201" lon="11.686748"><ele>1047.1</ele></trkpt><trkpt lat="47.64798" lon="11.68707"><ele>1045.3</ele></trkpt><trkpt lat="47.647662" lon="11.687236"><ele>1045.4</ele></trkpt><trkpt lat="47.647249" lon="11.68759"><ele>1044.2</ele></trkpt><trkpt lat="47.647177" lon="11.687826"><ele>1043.7</ele></trkpt><trkpt lat="47.647078" lon="11.687997"><ele>1042.9</ele></trkpt><trkpt lat="47.647002" lon="11.688327"><ele>1041.9</ele></trkpt><trkpt lat="47.64697" lon="11.688611"><ele>1041.5</ele></trkpt><trkpt lat="47.646921" lon="11.688817"><ele>1040.5</ele></trkpt><trkpt lat="47.646876" lon="11.689239"><ele>1039.8</ele></trkpt><trkpt lat="47.646815" lon="11.689587"><ele>1040.8</ele></trkpt><trkpt lat="47.646617" lon="11.690091"><ele>1040.6</ele></trkpt><trkpt lat="47.64656" lon="11.690343"><ele>1040</ele></trkpt><trkpt lat="47.646431" lon="11.690583"><ele>1039.2</ele></trkpt><trkpt lat="47.646294" lon="11.691008"><ele>1039.4</ele></trkpt><trkpt lat="47.64625" lon="11.691235"><ele>1039.1</ele></trkpt><trkpt lat="47.646233" lon="11.691529"><ele>1038.5</ele></trkpt><trkpt lat="47.646177" lon="11.691734"><ele>1038.7</ele></trkpt><trkpt lat="47.646014" lon="11.692004"><ele>1040.7</ele></trkpt><trkpt lat="47.645958" lon="11.692203"><ele>1041.7</ele></trkpt><trkpt lat="47.645925" lon="11.692509"><ele>1042.4</ele></trkpt><trkpt lat="47.645828" lon="11.692671"><ele>1041.4</ele></trkpt><trkpt lat="47.64569" lon="11.692785"><ele>1040.2</ele></trkpt><trkpt lat="47.645456" lon="11.692906"><ele>1037.3</ele></trkpt><trkpt lat="47.645359" lon="11.692991"><ele>1037.1</ele></trkpt><trkpt lat="47.645009" lon="11.693629"><ele>1034.7</ele></trkpt><trkpt lat="47.644683" lon="11.69393"><ele>1033.1</ele></trkpt><trkpt lat="47.644592" lon="11.693936"><ele>1032.9</ele></trkpt><trkpt lat="47.644402" lon="11.693563"><ele>1032.6</ele></trkpt><trkpt lat="47.644312" lon="11.693349"><ele>1032.4</ele></trkpt><trkpt lat="47.644332" lon="11.692716"><ele>1031.7</ele></trkpt><trkpt lat="47.644292" lon="11.692614"><ele>1031.4</ele></trkpt><trkpt lat="47.644228" lon="11.692554"><ele>1031.1</ele></trkpt><trkpt lat="47.644138" lon="11.692508"><ele>1029</ele></trkpt><trkpt lat="47.644075" lon="11.69274"><ele>1021.8</ele></trkpt><trkpt lat="47.643852" lon="11.693276"><ele>1019.4</ele></trkpt><trkpt lat="47.643798" lon="11.693459"><ele>1018.8</ele></trkpt><trkpt lat="47.64371" lon="11.693889"><ele>1016.9</ele></trkpt><trkpt lat="47.643643" lon="11.694078"><ele>1015.8</ele></trkpt><trkpt lat="47.643644" lon="11.694247"><ele>1015</ele></trkpt><trkpt lat="47.643679" lon="11.694399"><ele>1014.4</ele></trkpt><trkpt lat="47.643696" lon="11.694572"><ele>1013.5</ele></trkpt><trkpt lat="47.643679" lon="11.694705"><ele>1012.5</ele></trkpt><trkpt lat="47.643517" lon="11.695157"><ele>1010.3</ele></trkpt><trkpt lat="47.643324" lon="11.695458"><ele>1008.4</ele></trkpt><trkpt lat="47.643187" lon="11.695557"><ele>1007.9</ele></trkpt><trkpt lat="47.643137" lon="11.695619"><ele>1007.9</ele></trkpt><trkpt lat="47.643055" lon="11.695855"><ele>1007.4</ele></trkpt><trkpt lat="47.642989" lon="11.695991"><ele>1007.1</ele></trkpt><trkpt lat="47.642889" lon="11.696103"><ele>1006.7</ele></trkpt><trkpt lat="47.642839" lon="11.696199"><ele>1006.4</ele></trkpt><trkpt lat="47.642754" lon="11.696526"><ele>1006.8</ele></trkpt><trkpt lat="47.642744" lon="11.69672"><ele>1006.2</ele></trkpt><trkpt lat="47.642701" lon="11.696908"><ele>1005.3</ele></trkpt><trkpt lat="47.642531" lon="11.697315"><ele>1003.2</ele></trkpt><trkpt lat="47.642423" lon="11.697638"><ele>1002.1</ele></trkpt><trkpt lat="47.642222" lon="11.69839"><ele>999.6</ele></trkpt><trkpt lat="47.642048" lon="11.698908"><ele>991</ele></trkpt><trkpt lat="47.642374" lon="11.6986"><ele>1005.2</ele></trkpt><trkpt lat="47.642554" lon="11.698509"><ele>1005</ele></trkpt><trkpt lat="47.642637" lon="11.698506"><ele>1005.3</ele></trkpt><trkpt lat="47.6428" lon="11.698611"><ele>1005.9</ele></trkpt><trkpt lat="47.642891" lon="11.698724"><ele>1006.7</ele></trkpt><trkpt lat="47.643061" lon="11.699015"><ele>1008</ele></trkpt><trkpt lat="47.643089" lon="11.699112"><ele>1008.2</ele></trkpt><trkpt lat="47.643081" lon="11.699273"><ele>1008.8</ele></trkpt><trkpt lat="47.642924" lon="11.699607"><ele>1009.9</ele></trkpt><trkpt lat="47.642865" lon="11.699837"><ele>1010.5</ele></trkpt><trkpt lat="47.642871" lon="11.700227"><ele>1011.3</ele></trkpt><trkpt lat="47.642944" lon="11.700641"><ele>1017.2</ele></trkpt><trkpt lat="47.642986" lon="11.700998"><ele>1019.8</ele></trkpt><trkpt lat="47.642971" lon="11.701324"><ele>1022.6</ele></trkpt><trkpt lat="47.642902" lon="11.701838"><ele>1029.5</ele></trkpt><trkpt lat="47.642864" lon="11.702081"><ele>1032.9</ele></trkpt><trkpt lat="47.642614" lon="11.703297"><ele>1050.5</ele></trkpt><trkpt lat="47.642562" lon="11.703916"><ele>1056.6</ele></trkpt><trkpt lat="47.642517" lon="11.704256"><ele>1059.7</ele></trkpt><trkpt lat="47.642399" lon="11.704728"><ele>1062</ele></trkpt><trkpt lat="47.642349" lon="11.704858"><ele>1061.4</ele></trkpt><trkpt lat="47.642222" lon="11.705081"><ele>1064.3</ele></trkpt><trkpt lat="47.64177" lon="11.705633"><ele>1075.7</ele></trkpt><trkpt lat="47.64153" lon="11.705989"><ele>1081.3</ele></trkpt><trkpt lat="47.64112" lon="11.706635"><ele>1092.5</ele></trkpt><trkpt lat="47.641019" lon="11.706879"><ele>1096.9</ele></trkpt><trkpt lat="47.640899" lon="11.707088"><ele>1100</ele></trkpt><trkpt lat="47.640662" lon="11.707387"><ele>1100.2</ele></trkpt><trkpt lat="47.640503" lon="11.707654"><ele>1104.3</ele></trkpt><trkpt lat="47.640087" lon="11.708487"><ele>1115.1</ele></trkpt><trkpt lat="47.639944" lon="11.708926"><ele>1120.9</ele></trkpt><trkpt lat="47.639888" lon="11.709149"><ele>1124.4</ele></trkpt><trkpt lat="47.639817" lon="11.709633"><ele>1128.5</ele></trkpt><trkpt lat="47.639732" lon="11.710856"><ele>1144.7</ele></trkpt><trkpt lat="47.639698" lon="11.711807"><ele>1156.6</ele></trkpt><trkpt lat="47.639769" lon="11.712011"><ele>1160.8</ele></trkpt><trkpt lat="47.639827" lon="11.712092"><ele>1161.4</ele></trkpt><trkpt lat="47.640101" lon="11.712331"><ele>1165.7</ele></trkpt><trkpt lat="47.640166" lon="11.712408"><ele>1187</ele></trkpt><trkpt lat="47.640065" lon="11.712597"><ele>1191</ele></trkpt><trkpt lat="47.639852" lon="11.71287"><ele>1191</ele></trkpt><trkpt lat="47.639815" lon="11.71297"><ele>1191</ele></trkpt><trkpt lat="47.639927" lon="11.713496"><ele>1211.5</ele></trkpt><trkpt lat="47.639949" lon="11.713676"><ele>1232</ele></trkpt><trkpt lat="47.639948" lon="11.713989"><ele>1238.8</ele></trkpt><trkpt lat="47.639931" lon="11.714215"><ele>1239.2</ele></trkpt><trkpt lat="47.639949" lon="11.71512"><ele>1242.9</ele></trkpt><trkpt lat="47.64006" lon="11.716"><ele>1233.2</ele></trkpt><trkpt lat="47.639974" lon="11.717124"><ele>1215</ele></trkpt><trkpt lat="47.639902" lon="11.717724"><ele>1211.9</ele></trkpt><trkpt lat="47.6399" lon="11.717751"><ele>1211.9</ele></trkpt><trkpt lat="47.639887" lon="11.717952"><ele>1211.8</ele></trkpt><trkpt lat="47.639885" lon="11.718551"><ele>1210.7</ele></trkpt><trkpt lat="47.639868" lon="11.718773"><ele>1208.4</ele></trkpt><trkpt lat="47.639737" lon="11.719433"><ele>1203.7</ele></trkpt><trkpt lat="47.639762" lon="11.71967"><ele>1201.6</ele></trkpt><trkpt lat="47.63996" lon="11.720179"><ele>1195.3</ele></trkpt><trkpt lat="47.640026" lon="11.720609"><ele>1189.9</ele></trkpt><trkpt lat="47.639995" lon="11.720808"><ele>1187.4</ele></trkpt><trkpt lat="47.640046" lon="11.721139"><ele>1180.1</ele></trkpt><trkpt lat="47.640279" lon="11.72192"><ele>1168.6</ele></trkpt><trkpt lat="47.640436" lon="11.722537"><ele>1156.1</ele></trkpt><trkpt lat="47.640484" lon="11.722794"><ele>1153.4</ele></trkpt><trkpt lat="47.640501" lon="11.722995"><ele>1152.8</ele></trkpt><trkpt lat="47.640481" lon="11.723214"><ele>1152.2</ele></trkpt><trkpt lat="47.64041" lon="11.723406"><ele>1150.5</ele></trkpt><trkpt lat="47.64037" lon="11.723592"><ele>1150</ele></trkpt><trkpt lat="47.640286" lon="11.723868"><ele>1147.9</ele></trkpt><trkpt lat="47.640294" lon="11.723939"><ele>1146.1</ele></trkpt><trkpt lat="47.640421" lon="11.723905"><ele>1146.7</ele></trkpt><trkpt lat="47.640457" lon="11.723958"><ele>1145</ele></trkpt><trkpt lat="47.64043" lon="11.72418"><ele>1141</ele></trkpt><trkpt lat="47.640445" lon="11.72428"><ele>1139.1</ele></trkpt><trkpt lat="47.640493" lon="11.7243"><ele>1137.2</ele></trkpt><trkpt lat="47.640591" lon="11.724281"><ele>1135.5</ele></trkpt><trkpt lat="47.640675" lon="11.724179"><ele>1102</ele></trkpt><trkpt lat="47.640722" lon="11.7242"><ele>1102</ele></trkpt><trkpt lat="47.640761" lon="11.724217"><ele>1100.7</ele></trkpt><trkpt lat="47.6408" lon="11.724293"><ele>1100.9</ele></trkpt><trkpt lat="47.640839" lon="11.724602"><ele>1097</ele></trkpt><trkpt lat="47.64092" lon="11.724831"><ele>1086</ele></trkpt><trkpt lat="47.64109" lon="11.725089"><ele>1083.5</ele></trkpt><trkpt lat="47.641319" lon="11.725387"><ele>1071</ele></trkpt><trkpt lat="47.641462" lon="11.725486"><ele>1054.3</ele></trkpt><trkpt lat="47.641727" lon="11.725753"><ele>1049.6</ele></trkpt><trkpt lat="47.64199" lon="11.726125"><ele>1048.7</ele></trkpt><trkpt lat="47.642037" lon="11.726262"><ele>1048.2</ele></trkpt><trkpt lat="47.642101" lon="11.726636"><ele>1047.6</ele></trkpt><trkpt lat="47.642106" lon="11.72686"><ele>1047.4</ele></trkpt><trkpt lat="47.642075" lon="11.727086"><ele>1046.3</ele></trkpt><trkpt lat="47.642023" lon="11.727227"><ele>1046.4</ele></trkpt><trkpt lat="47.641976" lon="11.727297"><ele>1046.3</ele></trkpt><trkpt lat="47.641894" lon="11.727367"><ele>1046.4</ele></trkpt><trkpt lat="47.641801" lon="11.727412"><ele>1044.5</ele></trkpt><trkpt lat="47.64153" lon="11.727405"><ele>1042</ele></trkpt><trkpt lat="47.641322" lon="11.727515"><ele>1033.7</ele></trkpt><trkpt lat="47.641234" lon="11.727494"><ele>1033.2</ele></trkpt><trkpt lat="47.641134" lon="11.727411"><ele>1033.4</ele></trkpt><trkpt lat="47.641005" lon="11.72734"><ele>1032.7</ele></trkpt><trkpt lat="47.640896" lon="11.727313"><ele>1029.9</ele></trkpt><trkpt lat="47.640677" lon="11.727304"><ele>1025.8</ele></trkpt><trkpt lat="47.640624" lon="11.727323"><ele>1024</ele></trkpt><trkpt lat="47.640587" lon="11.727388"><ele>1023.5</ele></trkpt><trkpt lat="47.640524" lon="11.727639"><ele>1021.7</ele></trkpt><trkpt lat="47.640304" lon="11.727655"><ele>1019.9</ele></trkpt><trkpt lat="47.640167" lon="11.727832"><ele>1016.8</ele></trkpt><trkpt lat="47.640159" lon="11.727875"><ele>1016.6</ele></trkpt><trkpt lat="47.640177" lon="11.727898"><ele>1016.3</ele></trkpt><trkpt lat="47.640323" lon="11.727875"><ele>1016.7</ele></trkpt><trkpt lat="47.640382" lon="11.72791"><ele>1017.1</ele></trkpt><trkpt lat="47.640604" lon="11.728172"><ele>1017</ele></trkpt><trkpt lat="47.640635" lon="11.728229"><ele>1016.8</ele></trkpt><trkpt lat="47.64064" lon="11.728283"><ele>1016.6</ele></trkpt><trkpt lat="47.640606" lon="11.728328"><ele>1016.4</ele></trkpt><trkpt lat="47.640397" lon="11.72838"><ele>1013.7</ele></trkpt><trkpt lat="47.640349" lon="11.728429"><ele>1013.4</ele></trkpt><trkpt lat="47.640299" lon="11.728542"><ele>1013.2</ele></trkpt><trkpt lat="47.640252" lon="11.728851"><ele>1011.5</ele></trkpt><trkpt lat="47.640223" lon="11.728924"><ele>1010.8</ele></trkpt><trkpt lat="47.640187" lon="11.728964"><ele>1009.9</ele></trkpt><trkpt lat="47.640132" lon="11.728978"><ele>1009.6</ele></trkpt><trkpt lat="47.639978" lon="11.728965"><ele>1008.9</ele></trkpt><trkpt lat="47.639892" lon="11.728995"><ele>1008.6</ele></trkpt><trkpt lat="47.639824" lon="11.729077"><ele>1007.2</ele></trkpt><trkpt lat="47.639591" lon="11.729233"><ele>1003.9</ele></trkpt><trkpt lat="47.639098" lon="11.72949"><ele>996.8</ele></trkpt><trkpt lat="47.638777" lon="11.729686"><ele>994.4</ele></trkpt><trkpt lat="47.638525" lon="11.729891"><ele>993.8</ele></trkpt><trkpt lat="47.638462" lon="11.729993"><ele>977</ele></trkpt><trkpt lat="47.638474" lon="11.730028"><ele>950.9</ele></trkpt><trkpt lat="47.63851" lon="11.730035"><ele>950.9</ele></trkpt><trkpt lat="47.638983" lon="11.730062"><ele>949.6</ele></trkpt><trkpt lat="47.639171" lon="11.730159"><ele>948</ele></trkpt><trkpt lat="47.639373" lon="11.730225"><ele>947.3</ele></trkpt><trkpt lat="47.639506" lon="11.730365"><ele>946.6</ele></trkpt><trkpt lat="47.639716" lon="11.730463"><ele>938.2</ele></trkpt><trkpt lat="47.639939" lon="11.730742"><ele>931.1</ele></trkpt><trkpt lat="47.640247" lon="11.731265"><ele>922.9</ele></trkpt><trkpt lat="47.640362" lon="11.731473"><ele>918.8</ele></trkpt><trkpt lat="47.640491" lon="11.731765"><ele>911.4</ele></trkpt><trkpt lat="47.640535" lon="11.731814"><ele>909.8</ele></trkpt><trkpt lat="47.64061" lon="11.731832"><ele>909.1</ele></trkpt><trkpt lat="47.64066" lon="11.731808"><ele>906.9</ele></trkpt><trkpt lat="47.640764" lon="11.731667"><ele>908.3</ele></trkpt><trkpt lat="47.640813" lon="11.731629"><ele>908.4</ele></trkpt><trkpt lat="47.640854" lon="11.73163"><ele>905.5</ele></trkpt><trkpt lat="47.640894" lon="11.731674"><ele>902.5</ele></trkpt><trkpt lat="47.640957" lon="11.73215"><ele>890</ele></trkpt><trkpt lat="47.641044" lon="11.732322"><ele>886.8</ele></trkpt><trkpt lat="47.641214" lon="11.732552"><ele>880.7</ele></trkpt><trkpt lat="47.641314" lon="11.732736"><ele>879.1</ele></trkpt><trkpt lat="47.641466" lon="11.733029"><ele>877.2</ele></trkpt><trkpt lat="47.641509" lon="11.733171"><ele>876.2</ele></trkpt><trkpt lat="47.641516" lon="11.73326"><ele>875.3</ele></trkpt><trkpt lat="47.641483" lon="11.733425"><ele>870.3</ele></trkpt><trkpt lat="47.641398" lon="11.733614"><ele>869.2</ele></trkpt><trkpt lat="47.641259" lon="11.733822"><ele>869.3</ele></trkpt><trkpt lat="47.641245" lon="11.733909"><ele>869.9</ele></trkpt><trkpt lat="47.641304" lon="11.734018"><ele>869.8</ele></trkpt><trkpt lat="47.641384" lon="11.734096"><ele>869.8</ele></trkpt><trkpt lat="47.641492" lon="11.734118"><ele>869.6</ele></trkpt><trkpt lat="47.641765" lon="11.734232"><ele>870.3</ele></trkpt><trkpt lat="47.641782" lon="11.734359"><ele>871.1</ele></trkpt><trkpt lat="47.641716" lon="11.734554"><ele>852</ele></trkpt><trkpt lat="47.641759" lon="11.734752"><ele>852</ele></trkpt><trkpt lat="47.641795" lon="11.734803"><ele>852</ele></trkpt><trkpt lat="47.641818" lon="11.734835"><ele>852</ele></trkpt><trkpt lat="47.641832" lon="11.734854"><ele>852</ele></trkpt><trkpt lat="47.641963" lon="11.735097"><ele>834.8</ele></trkpt><trkpt lat="47.642121" lon="11.735211"><ele>834.1</ele></trkpt><trkpt lat="47.642456" lon="11.735514"><ele>833</ele></trkpt><trkpt lat="47.642661" lon="11.735761"><ele>832.2</ele></trkpt><trkpt lat="47.642867" lon="11.736056"><ele>830.3</ele></trkpt><trkpt lat="47.643022" lon="11.73623"><ele>827.5</ele></trkpt><trkpt lat="47.643096" lon="11.736357"><ele>825.7</ele></trkpt><trkpt lat="47.643138" lon="11.736518"><ele>824.9</ele></trkpt><trkpt lat="47.643155" lon="11.736689"><ele>823.2</ele></trkpt><trkpt lat="47.643238" lon="11.736918"><ele>820.1</ele></trkpt><trkpt lat="47.643403" lon="11.737156"><ele>815.7</ele></trkpt><trkpt lat="47.643809" lon="11.737641"><ele>807.3</ele></trkpt><trkpt lat="47.643909" lon="11.737797"><ele>805.3</ele></trkpt><trkpt lat="47.644003" lon="11.738014"><ele>802.7</ele></trkpt><trkpt lat="47.644135" lon="11.738456"><ele>798.7</ele></trkpt><trkpt lat="47.644284" lon="11.739259"><ele>795.7</ele></trkpt><trkpt lat="47.644315" lon="11.739363"><ele>795.3</ele></trkpt><trkpt lat="47.644391" lon="11.739488"><ele>794</ele></trkpt><trkpt lat="47.644446" lon="11.739664"><ele>794</ele></trkpt><trkpt lat="47.644482" lon="11.739832"><ele>794</ele></trkpt><trkpt lat="47.644507" lon="11.739983"><ele>794</ele></trkpt><trkpt lat="47.644548" lon="11.740406"><ele>791</ele></trkpt><trkpt lat="47.644562" lon="11.740584"><ele>791</ele></trkpt><trkpt lat="47.64475" lon="11.741577"><ele>789</ele></trkpt><trkpt lat="47.644845" lon="11.7419"><ele>786</ele></trkpt><trkpt lat="47.644942" lon="11.742174"><ele>786</ele></trkpt><trkpt lat="47.645038" lon="11.742418"><ele>788</ele></trkpt><trkpt lat="47.645178" lon="11.742748"><ele>787.1</ele></trkpt><trkpt lat="47.645216" lon="11.742799"><ele>787.1</ele></trkpt><trkpt lat="47.645314" lon="11.742883"><ele>787.2</ele></trkpt><trkpt lat="47.645599" lon="11.74299"><ele>787</ele></trkpt><trkpt lat="47.645688" lon="11.743054"><ele>787</ele></trkpt><trkpt lat="47.645757" lon="11.743165"><ele>787</ele></trkpt><trkpt lat="47.645788" lon="11.74325"><ele>787</ele></trkpt><trkpt lat="47.64579" lon="11.743339"><ele>784</ele></trkpt><trkpt lat="47.645786" lon="11.743425"><ele>784</ele></trkpt><trkpt lat="47.64566" lon="11.744076"><ele>784</ele></trkpt><trkpt lat="47.645654" lon="11.744104"><ele>784</ele></trkpt><trkpt lat="47.645629" lon="11.744282"><ele>782</ele></trkpt><trkpt lat="47.645596" lon="11.744475"><ele>782</ele></trkpt><trkpt lat="47.645522" lon="11.744988"><ele>782</ele></trkpt><trkpt lat="47.645498" lon="11.745149"><ele>781</ele></trkpt><trkpt lat="47.645469" lon="11.745325"><ele>781</ele></trkpt><trkpt lat="47.645457" lon="11.745398"><ele>781</ele></trkpt><trkpt lat="47.645103" lon="11.74528"><ele>781</ele></trkpt><trkpt lat="47.645018" lon="11.745269"><ele>781</ele></trkpt><trkpt lat="47.644743" lon="11.745251"><ele>778</ele></trkpt><trkpt lat="47.644592" lon="11.745241"><ele>778</ele></trkpt><trkpt lat="47.644521" lon="11.745237"><ele>778</ele></trkpt><trkpt lat="47.644502" lon="11.745236"><ele>778</ele></trkpt><trkpt lat="47.644319" lon="11.745227"><ele>778</ele></trkpt><trkpt lat="47.644317" lon="11.745276"><ele>778</ele></trkpt><trkpt lat="47.64413" lon="11.745297"><ele>778.4</ele></trkpt><trkpt lat="47.644021" lon="11.745277"><ele>778.7</ele></trkpt><trkpt lat="47.64413" lon="11.745297"><ele>778.4</ele></trkpt><trkpt lat="47.644317" lon="11.745276"><ele>778</ele></trkpt><trkpt lat="47.644319" lon="11.745227"><ele>778</ele></trkpt><trkpt lat="47.644502" lon="11.745236"><ele>778</ele></trkpt><trkpt lat="47.644521" lon="11.745237"><ele>778</ele></trkpt><trkpt lat="47.644592" lon="11.745241"><ele>778</ele></trkpt><trkpt lat="47.644743" lon="11.745251"><ele>778</ele></trkpt><trkpt lat="47.645018" lon="11.745269"><ele>781</ele></trkpt><trkpt lat="47.645103" lon="11.74528"><ele>781</ele></trkpt><trkpt lat="47.6451" lon="11.74534"><ele>781</ele></trkpt><trkpt lat="47.645309" lon="11.745399"><ele>781</ele></trkpt><trkpt lat="47.645486" lon="11.745492"><ele>781</ele></trkpt><trkpt lat="47.645592" lon="11.745557"><ele>781</ele></trkpt><trkpt lat="47.64584" lon="11.74575"><ele>781.8</ele></trkpt><trkpt lat="47.646233" lon="11.746114"><ele>781.4</ele></trkpt><trkpt lat="47.64653" lon="11.746302"><ele>780.9</ele></trkpt><trkpt lat="47.646792" lon="11.746366"><ele>781.7</ele></trkpt><trkpt lat="47.647223" lon="11.746378"><ele>790</ele></trkpt><trkpt lat="47.647466" lon="11.746366"><ele>790</ele></trkpt><trkpt lat="47.647486" lon="11.746298"><ele>790</ele></trkpt><trkpt lat="47.647506" lon="11.74621"><ele>790</ele></trkpt><trkpt lat="47.64786" lon="11.746198"><ele>790</ele></trkpt><trkpt lat="47.647943" lon="11.746218"><ele>790</ele></trkpt><trkpt lat="47.648047" lon="11.746217"><ele>790</ele></trkpt><trkpt lat="47.648216" lon="11.746192"><ele>783.8</ele></trkpt><trkpt lat="47.648476" lon="11.746203"><ele>782.2</ele></trkpt><trkpt lat="47.649473" lon="11.746303"><ele>779</ele></trkpt><trkpt lat="47.650704" lon="11.746578"><ele>777.9</ele></trkpt><trkpt lat="47.651419" lon="11.746814"><ele>774.8</ele></trkpt><trkpt lat="47.65239" lon="11.747269"><ele>773.3</ele></trkpt><trkpt lat="47.652534" lon="11.747357"><ele>766</ele></trkpt><trkpt lat="47.65279" lon="11.747368"><ele>767</ele></trkpt><trkpt lat="47.652977" lon="11.747465"><ele>766.9</ele></trkpt><trkpt lat="47.653044" lon="11.747519"><ele>768.9</ele></trkpt><trkpt lat="47.653171" lon="11.747622"><ele>771</ele></trkpt><trkpt lat="47.653426" lon="11.747907"><ele>771</ele></trkpt><trkpt lat="47.653477" lon="11.747936"><ele>771</ele></trkpt><trkpt lat="47.654356" lon="11.748445"><ele>771.4</ele></trkpt><trkpt lat="47.655004" lon="11.748776"><ele>774</ele></trkpt><trkpt lat="47.655466" lon="11.748944"><ele>781.2</ele></trkpt><trkpt lat="47.655938" lon="11.749079"><ele>782.2</ele></trkpt><trkpt lat="47.656379" lon="11.749167"><ele>781.2</ele></trkpt><trkpt lat="47.657042" lon="11.749245"><ele>780.3</ele></trkpt><trkpt lat="47.657815" lon="11.749242"><ele>774.6</ele></trkpt><trkpt lat="47.659463" lon="11.749237"><ele>769</ele></trkpt><trkpt lat="47.660592" lon="11.749273"><ele>771</ele></trkpt><trkpt lat="47.660675" lon="11.749118"><ele>772</ele></trkpt><trkpt lat="47.660742" lon="11.748999"><ele>772</ele></trkpt><trkpt lat="47.660806" lon="11.748932"><ele>772</ele></trkpt><trkpt lat="47.660883" lon="11.74885"><ele>769.3</ele></trkpt><trkpt lat="47.661007" lon="11.748765"><ele>769</ele></trkpt><trkpt lat="47.661168" lon="11.748702"><ele>768</ele></trkpt><trkpt lat="47.661513" lon="11.748583"><ele>768</ele></trkpt><trkpt lat="47.661787" lon="11.748465"><ele>769.3</ele></trkpt><trkpt lat="47.662076" lon="11.748394"><ele>770</ele></trkpt><trkpt lat="47.662461" lon="11.748382"><ele>770</ele></trkpt><trkpt lat="47.662942" lon="11.748345"><ele>769.5</ele></trkpt><trkpt lat="47.663131" lon="11.748269"><ele>768</ele></trkpt><trkpt lat="47.663201" lon="11.748239"><ele>768</ele></trkpt><trkpt lat="47.663412" lon="11.748151"><ele>769</ele></trkpt><trkpt lat="47.663602" lon="11.748129"><ele>769</ele></trkpt><trkpt lat="47.664026" lon="11.748114"><ele>769</ele></trkpt><trkpt lat="47.664277" lon="11.748093"><ele>765</ele></trkpt><trkpt lat="47.664504" lon="11.747917"><ele>765</ele></trkpt><trkpt lat="47.66479" lon="11.747639"><ele>765</ele></trkpt><trkpt lat="47.665033" lon="11.747489"><ele>765</ele></trkpt><trkpt lat="47.665285" lon="11.747403"><ele>765</ele></trkpt><trkpt lat="47.665486" lon="11.747379"><ele>765</ele></trkpt><trkpt lat="47.665598" lon="11.747393"><ele>765</ele></trkpt><trkpt lat="47.665773" lon="11.747424"><ele>765.8</ele></trkpt><trkpt lat="47.666145" lon="11.747582"><ele>767</ele></trkpt><trkpt lat="47.666287" lon="11.747656"><ele>767.8</ele></trkpt></trkseg></trk></gpx>