<gpx xmlns="http://www.topografix.com/GPX/1/1" xmlns:xsi="http://www.w3.org/2001/XMLSchema-instance" xsi:schemaLocation="http://www.topografix.com/GPX/1/1 http://www.topografix.com/GPX/1/1/gpx.xsd" version="1.1" creator="togpx"><metadata/><wpt lat="47.6469466003286" lon="11.746243536472322"><name></name><desc>label=Loipe Kreuth-Scharling, Kreuth,BY,Germany</desc></wpt><wpt lat="47.64359090020492" lon="11.691204607486727"><name></name><desc>label=RB, Kreuth,BY,Germany</desc></wpt><wpt lat="47.63307606163751" lon="11.679368019104004"><name></name><desc>label=RB 1, Kreuth,BY,Germany</desc></wpt><wpt lat="47.63270372021064" lon="11.678405106067657"><name></name><desc>label=RB 1, Kreuth,BY,Germany</desc></wpt><wpt lat="47.63262780561355" lon="11.67838364839554"><name></name><desc>label=RB 1, Kreuth,BY,Germany</desc></wpt><wpt lat="47.63260250072337" lon="11.676307618618011"><name></name><desc>label=Bayerwald Steig, Kreuth,BY,Germany</desc></wpt><wpt lat="47.65218662705158" lon="11.643160879611969"><name></name><desc>label=622, Lenggries,BY,Germany</desc></wpt><wpt lat="47.65185417201082" lon="11.631002426147463"><name></name><desc>label=621, 622,Lenggries,BY,Germany</desc></wpt><wpt lat="47.68028226793505" lon="11.573479771614076"><name></name><desc>label=Lenggries, BY,Germany</desc></wpt><trk><name></name><desc>ascent=1868.7
descent=1968.6
opacity=0.9</desc><trkseg><trkpt lat="47.646947" lon="11.746246"><ele>781</ele></trkpt><trkpt lat="47.646904" lon="11.746248"><ele>783</ele></trkpt><trkpt lat="47.646698" lon="11.746227"><ele>783.3</ele></trkpt><trkpt lat="47.646593" lon="11.746184"><ele>783.8</ele></trkpt><trkpt lat="47.64626" lon="11.745969"><ele>785</ele></trkpt><trkpt lat="47.645632" lon="11.745412"><ele>780</ele></trkpt><trkpt lat="47.645469" lon="11.745325"><ele>780</ele></trkpt><trkpt lat="47.645498" lon="11.745149"><ele>780</ele></trkpt><trkpt lat="47.645522" lon="11.744988"><ele>780</ele></trkpt><trkpt lat="47.645596" lon="11.744475"><ele>780</ele></trkpt><trkpt lat="47.645629" lon="11.744282"><ele>780</ele></trkpt><trkpt lat="47.645654" lon="11.744104"><ele>780</ele></trkpt><trkpt lat="47.64566" lon="11.744076"><ele>780</ele></trkpt><trkpt lat="47.645786" lon="11.743425"><ele>804</ele></trkpt><trkpt lat="47.64579" lon="11.743339"><ele>812</ele></trkpt><trkpt lat="47.645788" lon="11.74325"><ele>812</ele></trkpt><trkpt lat="47.645757" lon="11.743165"><ele>801.9</ele></trkpt><trkpt lat="47.645688" lon="11.743054"><ele>800.8</ele></trkpt><trkpt lat="47.645599" lon="11.74299"><ele>785</ele></trkpt><trkpt lat="47.645314" lon="11.742883"><ele>785</ele></trkpt><trkpt lat="47.645216" lon="11.742799"><ele>785</ele></trkpt><trkpt lat="47.645178" lon="11.742748"><ele>785</ele></trkpt><trkpt lat="47.645038" lon="11.742418"><ele>785</ele></trkpt><trkpt lat="47.644942" lon="11.742174"><ele>785</ele></trkpt><trkpt lat="47.644845" lon="11.7419"><ele>785</ele></trkpt><trkpt lat="47.64475" lon="11.741577"><ele>785</ele></trkpt><trkpt lat="47.644562" lon="11.740584"><ele>792</ele></trkpt><trkpt lat="47.644548" lon="11.740406"><ele>792</ele></trkpt><trkpt lat="47.644507" lon="11.739983"><ele>792</ele></trkpt><trkpt lat="47.644482" lon="11.739832"><ele>792</ele></trkpt><trkpt lat="47.644446" lon="11.739664"><ele>792</ele></trkpt><trkpt lat="47.644391" lon="11.739488"><ele>792</ele></trkpt><trkpt lat="47.644315" lon="11.739363"><ele>795.8</ele></trkpt><trkpt lat="47.644284" lon="11.739259"><ele>795.8</ele></trkpt><trkpt lat="47.644135" lon="11.738456"><ele>799.3</ele></trkpt><trkpt lat="47.644003" lon="11.738014"><ele>803.2</ele></trkpt><trkpt lat="47.643909" lon="11.737797"><ele>804.9</ele></trkpt><trkpt lat="47.643809" lon="11.737641"><ele>806.4</ele></trkpt><trkpt lat="47.643403" lon="11.737156"><ele>811.6</ele></trkpt><trkpt lat="47.643238" lon="11.736918"><ele>812.7</ele></trkpt><trkpt lat="47.643155" lon="11.736689"><ele>813.3</ele></trkpt><trkpt lat="47.643138" lon="11.736518"><ele>815.4</ele></trkpt><trkpt lat="47.643096" lon="11.736357"><ele>816.7</ele></trkpt><trkpt lat="47.643022" lon="11.73623"><ele>819.2</ele></trkpt><trkpt lat="47.642867" lon="11.736056"><ele>822.7</ele></trkpt><trkpt lat="47.642661" lon="11.735761"><ele>824.6</ele></trkpt><trkpt lat="47.642456" lon="11.735514"><ele>826.6</ele></trkpt><trkpt lat="47.642121" lon="11.735211"><ele>830.7</ele></trkpt><trkpt lat="47.641963" lon="11.735097"><ele>830.5</ele></trkpt><trkpt lat="47.641832" lon="11.734854"><ele>851</ele></trkpt><trkpt lat="47.641818" lon="11.734835"><ele>851</ele></trkpt><trkpt lat="47.641795" lon="11.734803"><ele>851</ele></trkpt><trkpt lat="47.641759" lon="11.734752"><ele>851</ele></trkpt><trkpt lat="47.641716" lon="11.734554"><ele>851</ele></trkpt><trkpt lat="47.641782" lon="11.734359"><ele>861.1</ele></trkpt><trkpt lat="47.641765" lon="11.734232"><ele>860.8</ele></trkpt><trkpt lat="47.641492" lon="11.734118"><ele>860.5</ele></trkpt><trkpt lat="47.641384" lon="11.734096"><ele>860.3</ele></trkpt><trkpt lat="47.641304" lon="11.734018"><ele>859.6</ele></trkpt><trkpt lat="47.641245" lon="11.733909"><ele>859.2</ele></trkpt><trkpt lat="47.641259" lon="11.733822"><ele>858.1</ele></trkpt><trkpt lat="47.641398" lon="11.733614"><ele>857.3</ele></trkpt><trkpt lat="47.641483" lon="11.733425"><ele>858.1</ele></trkpt><trkpt lat="47.641516" lon="11.73326"><ele>862.5</ele></trkpt><trkpt lat="47.641509" lon="11.733171"><ele>864</ele></trkpt><trkpt lat="47.641466" lon="11.733029"><ele>866</ele></trkpt><trkpt lat="47.641314" lon="11.732736"><ele>869.1</ele></trkpt><trkpt lat="47.641214" lon="11.732552"><ele>871.2</ele></trkpt><trkpt lat="47.641044" lon="11.732322"><ele>875.6</ele></trkpt><trkpt lat="47.640957" lon="11.73215"><ele>878.9</ele></trkpt><trkpt lat="47.640894" lon="11.731674"><ele>893.2</ele></trkpt><trkpt lat="47.640854" lon="11.73163"><ele>895.6</ele></trkpt><trkpt lat="47.640813" lon="11.731629"><ele>898</ele></trkpt><trkpt lat="47.640764" lon="11.731667"><ele>897.9</ele></trkpt><trkpt lat="47.64066" lon="11.731808"><ele>896.1</ele></trkpt><trkpt lat="47.64061" lon="11.731832"><ele>898.6</ele></trkpt><trkpt lat="47.640535" lon="11.731814"><ele>900.1</ele></trkpt><trkpt lat="47.640491" lon="11.731765"><ele>901.2</ele></trkpt><trkpt lat="47.640362" lon="11.731473"><ele>905.1</ele></trkpt><trkpt lat="47.640247" lon="11.731265"><ele>907.8</ele></trkpt><trkpt lat="47.639939" lon="11.730742"><ele>918.7</ele></trkpt><trkpt lat="47.639716" lon="11.730463"><ele>929.2</ele></trkpt><trkpt lat="47.639506" lon="11.730365"><ele>940.8</ele></trkpt><trkpt lat="47.639373" lon="11.730225"><ele>943.6</ele></trkpt><trkpt lat="47.639171" lon="11.730159"><ele>946.3</ele></trkpt><trkpt lat="47.638983" lon="11.730062"><ele>951.5</ele></trkpt><trkpt lat="47.63851" lon="11.730035"><ele>951.7</ele></trkpt><trkpt lat="47.638474" lon="11.730028"><ele>951.7</ele></trkpt><trkpt lat="47.638462" lon="11.729993"><ele>952</ele></trkpt><trkpt lat="47.638525" lon="11.729891"><ele>974.2</ele></trkpt><trkpt lat="47.638777" lon="11.729686"><ele>974.8</ele></trkpt><trkpt lat="47.639098" lon="11.72949"><ele>978.3</ele></trkpt><trkpt lat="47.639591" lon="11.729233"><ele>987.8</ele></trkpt><trkpt lat="47.639824" lon="11.729077"><ele>990.4</ele></trkpt><trkpt lat="47.639892" lon="11.728995"><ele>992.6</ele></trkpt><trkpt lat="47.639978" lon="11.728965"><ele>993.4</ele></trkpt><trkpt lat="47.640132" lon="11.728978"><ele>995.4</ele></trkpt><trkpt lat="47.640187" lon="11.728964"><ele>996.1</ele></trkpt><trkpt lat="47.640223" lon="11.728924"><ele>997.8</ele></trkpt><trkpt lat="47.640252" lon="11.728851"><ele>998.7</ele></trkpt><trkpt lat="47.640299" lon="11.728542"><ele>1001.9</ele></trkpt><trkpt lat="47.640349" lon="11.728429"><ele>1003.3</ele></trkpt><trkpt lat="47.640397" lon="11.72838"><ele>1003.8</ele></trkpt><trkpt lat="47.640606" lon="11.728328"><ele>1006.5</ele></trkpt><trkpt lat="47.64064" lon="11.728283"><ele>1006.6</ele></trkpt><trkpt lat="47.640635" lon="11.728229"><ele>1006.7</ele></trkpt><trkpt lat="47.640604" lon="11.728172"><ele>1006.8</ele></trkpt><trkpt lat="47.640382" lon="11.72791"><ele>1006.9</ele></trkpt><trkpt lat="47.640323" lon="11.727875"><ele>1005.9</ele></trkpt><trkpt lat="47.640177" lon="11.727898"><ele>1005.8</ele></trkpt><trkpt lat="47.640159" lon="11.727875"><ele>1005.9</ele></trkpt><trkpt lat="47.640167" lon="11.727832"><ele>1006</ele></trkpt><trkpt lat="47.640304" lon="11.727655"><ele>1009</ele></trkpt><trkpt lat="47.640524" lon="11.727639"><ele>1010.6</ele></trkpt><trkpt lat="47.640587" lon="11.727388"><ele>1013.3</ele></trkpt><trkpt lat="47.640624" lon="11.727323"><ele>1013.3</ele></trkpt><trkpt lat="47.640677" lon="11.727304"><ele>1013.6</ele></trkpt><trkpt lat="47.640896" lon="11.727313"><ele>1014.8</ele></trkpt><trkpt lat="47.641005" lon="11.72734"><ele>1016.7</ele></trkpt><trkpt lat="47.641134" lon="11.727411"><ele>1016.7</ele></trkpt><trkpt lat="47.641234" lon="11.727494"><ele>1016.2</ele></trkpt><trkpt lat="47.641322" lon="11.727515"><ele>1016.2</ele></trkpt><trkpt lat="47.64153" lon="11.727405"><ele>1019</ele></trkpt><trkpt lat="47.641801" lon="11.727412"><ele>1020.1</ele></trkpt><trkpt lat="47.641894" lon="11.727367"><ele>1021</ele></trkpt><trkpt lat="47.641976" lon="11.727297"><ele>1021.6</ele></trkpt><trkpt lat="47.642023" lon="11.727227"><ele>1021.5</ele></trkpt><trkpt lat="47.642075" lon="11.727086"><ele>1021.8</ele></trkpt><trkpt lat="47.642106" lon="11.72686"><ele>1024.5</ele></trkpt><trkpt lat="47.642101" lon="11.726636"><ele>1026.3</ele></trkpt><trkpt lat="47.642037" lon="11.726262"><ele>1028.5</ele></trkpt><trkpt lat="47.64199" lon="11.726125"><ele>1030.3</ele></trkpt><trkpt lat="47.641727" lon="11.725753"><ele>1032.5</ele></trkpt><trkpt lat="47.641462" lon="11.725486"><ele>1040.1</ele></trkpt><trkpt lat="47.641319" lon="11.725387"><ele>1061</ele></trkpt><trkpt lat="47.64109" lon="11.725089"><ele>1086</ele></trkpt><trkpt lat="47.64092" lon="11.724831"><ele>1091</ele></trkpt><trkpt lat="47.640839" lon="11.724602"><ele>1113</ele></trkpt><trkpt lat="47.6408" lon="11.724293"><ele>1113</ele></trkpt><trkpt lat="47.640761" lon="11.724217"><ele>1113</ele></trkpt><trkpt lat="47.640722" lon="11.7242"><ele>1113</ele></trkpt><trkpt lat="47.640675" lon="11.724179"><ele>1113</ele></trkpt><trkpt lat="47.640591" lon="11.724281"><ele>1119.1</ele></trkpt><trkpt lat="47.640493" lon="11.7243"><ele>1119.4</ele></trkpt><trkpt lat="47.640445" lon="11.72428"><ele>1119.8</ele></trkpt><trkpt lat="47.64043" lon="11.72418"><ele>1120.1</ele></trkpt><trkpt lat="47.640457" lon="11.723958"><ele>1123.5</ele></trkpt><trkpt lat="47.640421" lon="11.723905"><ele>1126.3</ele></trkpt><trkpt lat="47.640294" lon="11.723939"><ele>1125.3</ele></trkpt><trkpt lat="47.640286" lon="11.723868"><ele>1128.1</ele></trkpt><trkpt lat="47.64037" lon="11.723592"><ele>1131.4</ele></trkpt><trkpt lat="47.64041" lon="11.723406"><ele>1132.3</ele></trkpt><trkpt lat="47.640481" lon="11.723214"><ele>1134.8</ele></trkpt><trkpt lat="47.640501" lon="11.722995"><ele>1137.2</ele></trkpt><trkpt lat="47.640484" lon="11.722794"><ele>1139.5</ele></trkpt><trkpt lat="47.640436" lon="11.722537"><ele>1142.8</ele></trkpt><trkpt lat="47.640279" lon="11.72192"><ele>1157.5</ele></trkpt><trkpt lat="47.640046" lon="11.721139"><ele>1169.5</ele></trkpt><trkpt lat="47.639995" lon="11.720808"><ele>1175.7</ele></trkpt><trkpt lat="47.640026" lon="11.720609"><ele>1179.1</ele></trkpt><trkpt lat="47.63996" lon="11.720179"><ele>1182.1</ele></trkpt><trkpt lat="47.639762" lon="11.71967"><ele>1187.7</ele></trkpt><trkpt lat="47.639737" lon="11.719433"><ele>1189.5</ele></trkpt><trkpt lat="47.639868" lon="11.718773"><ele>1193</ele></trkpt><trkpt lat="47.639885" lon="11.718551"><ele>1195.7</ele></trkpt><trkpt lat="47.639887" lon="11.717952"><ele>1198.5</ele></trkpt><trkpt lat="47.639902" lon="11.717724"><ele>1198.9</ele></trkpt><trkpt lat="47.639974" lon="11.717124"><ele>1201.3</ele></trkpt><trkpt lat="47.64006" lon="11.716"><ele>1205.9</ele></trkpt><trkpt lat="47.639949" lon="11.71512"><ele>1206.2</ele></trkpt><trkpt lat="47.639931" lon="11.714215"><ele>1205.1</ele></trkpt><trkpt lat="47.639948" lon="11.713989"><ele>1205.1</ele></trkpt><trkpt lat="47.639949" lon="11.713676"><ele>1203</ele></trkpt><trkpt lat="47.639927" lon="11.713496"><ele>1203</ele></trkpt><trkpt lat="47.639815" lon="11.71297"><ele>1203</ele></trkpt><trkpt lat="47.639852" lon="11.71287"><ele>1203</ele></trkpt><trkpt lat="47.640065" lon="11.712597"><ele>1203</ele></trkpt><trkpt lat="47.640166" lon="11.712408"><ele>1203</ele></trkpt><trkpt lat="47.640101" lon="11.712331"><ele>1196.6</ele></trkpt><trkpt lat="47.639827" lon="11.712092"><ele>1195.2</ele></trkpt><trkpt lat="47.639769" lon="11.712011"><ele>1195.1</ele></trkpt><trkpt lat="47.639698" lon="11.711807"><ele>1193.7</ele></trkpt><trkpt lat="47.639732" lon="11.710856"><ele>1189.2</ele></trkpt><trkpt lat="47.639817" lon="11.709633"><ele>1169.5</ele></trkpt><trkpt lat="47.639888" lon="11.709149"><ele>1158.8</ele></trkpt><trkpt lat="47.639944" lon="11.708926"><ele>1153</ele></trkpt><trkpt lat="47.640087" lon="11.708487"><ele>1140.6</ele></trkpt><trkpt lat="47.640503" lon="11.707654"><ele>1127.9</ele></trkpt><trkpt lat="47.640662" lon="11.707387"><ele>1124.9</ele></trkpt><trkpt lat="47.640899" lon="11.707088"><ele>1123.1</ele></trkpt><trkpt lat="47.641019" lon="11.706879"><ele>1122.5</ele></trkpt><trkpt lat="47.64112" lon="11.706635"><ele>1121.3</ele></trkpt><trkpt lat="47.64153" lon="11.705989"><ele>1118.4</ele></trkpt><trkpt lat="47.64177" lon="11.705633"><ele>1117</ele></trkpt><trkpt lat="47.642222" lon="11.705081"><ele>1102.1</ele></trkpt><trkpt lat="47.642349" lon="11.704858"><ele>1095.4</ele></trkpt><trkpt lat="47.642399" lon="11.704728"><ele>1094.5</ele></trkpt><trkpt lat="47.642517" lon="11.704256"><ele>1085.3</ele></trkpt><trkpt lat="47.642562" lon="11.703916"><ele>1079.8</ele></trkpt><trkpt lat="47.642614" lon="11.703297"><ele>1072.7</ele></trkpt><trkpt lat="47.642864" lon="11.702081"><ele>1048.2</ele></trkpt><trkpt lat="47.642902" lon="11.701838"><ele>1043.1</ele></trkpt><trkpt lat="47.642971" lon="11.701324"><ele>1034</ele></trkpt><trkpt lat="47.642986" lon="11.700998"><ele>1029.5</ele></trkpt><trkpt lat="47.642944" lon="11.700641"><ele>1025.5</ele></trkpt><trkpt lat="47.642871" lon="11.700227"><ele>1019.9</ele></trkpt><trkpt lat="47.642865" lon="11.699837"><ele>1018.2</ele></trkpt><trkpt lat="47.642924" lon="11.699607"><ele>1017.7</ele></trkpt><trkpt lat="47.643081" lon="11.699273"><ele>1016.8</ele></trkpt><trkpt lat="47.643089" lon="11.699112"><ele>1016.6</ele></trkpt><trkpt lat="47.643061" lon="11.699015"><ele>1016.7</ele></trkpt><trkpt lat="47.642891" lon="11.698724"><ele>1016</ele></trkpt><trkpt lat="47.6428" lon="11.698611"><ele>1015.8</ele></trkpt><trkpt lat="47.642637" lon="11.698506"><ele>1016</ele></trkpt><trkpt lat="47.642554" lon="11.698509"><ele>1016.1</ele></trkpt><trkpt lat="47.642374" lon="11.6986"><ele>1016.4</ele></trkpt><trkpt lat="47.642048" lon="11.698908"><ele>1013</ele></trkpt><trkpt lat="47.642222" lon="11.69839"><ele>1017.4</ele></trkpt><trkpt lat="47.642423" lon="11.697638"><ele>1018.7</ele></trkpt><trkpt lat="47.642531" lon="11.697315"><ele>1019.3</ele></trkpt><trkpt lat="47.642701" lon="11.696908"><ele>1020.4</ele></trkpt><trkpt lat="47.642744" lon="11.69672"><ele>1020.9</ele></trkpt><trkpt lat="47.642754" lon="11.696526"><ele>1021.3</ele></trkpt><trkpt lat="47.642839" lon="11.696199"><ele>1021.4</ele></trkpt><trkpt lat="47.642889" lon="11.696103"><ele>1022</ele></trkpt><trkpt lat="47.642989" lon="11.695991"><ele>1022.8</ele></trkpt><trkpt lat="47.643055" lon="11.695855"><ele>1023.3</ele></trkpt><trkpt lat="47.643137" lon="11.695619"><ele>1023.7</ele></trkpt><trkpt lat="47.643187" lon="11.695557"><ele>1023.8</ele></trkpt><trkpt lat="47.643324" lon="11.695458"><ele>1024.4</ele></trkpt><trkpt lat="47.643517" lon="11.695157"><ele>1026.1</ele></trkpt><trkpt lat="47.643679" lon="11.694705"><ele>1030.6</ele></trkpt><trkpt lat="47.643696" lon="11.694572"><ele>1032.7</ele></trkpt><trkpt lat="47.643679" lon="11.694399"><ele>1034.7</ele></trkpt><trkpt lat="47.643644" lon="11.694247"><ele>1035.5</ele></trkpt><trkpt lat="47.643643" lon="11.694078"><ele>1037</ele></trkpt><trkpt lat="47.64371" lon="11.693889"><ele>1039.6</ele></trkpt><trkpt lat="47.643798" lon="11.693459"><ele>1044.8</ele></trkpt><trkpt lat="47.643852" lon="11.693276"><ele>1045.5</ele></trkpt><trkpt lat="47.644075" lon="11.69274"><ele>1045.4</ele></trkpt><trkpt lat="47.644138" lon="11.692508"><ele>1033</ele></trkpt><trkpt lat="47.644042" lon="11.6925"><ele>1033</ele></trkpt><trkpt lat="47.643962" lon="11.692532"><ele>1033</ele></trkpt><trkpt lat="47.643662" lon="11.692592"><ele>1033</ele></trkpt><trkpt lat="47.643622" lon="11.692578"><ele>1033</ele></trkpt><trkpt lat="47.643537" lon="11.692475"><ele>1045.2</ele></trkpt><trkpt lat="47.643511" lon="11.692332"><ele>1049</ele></trkpt><trkpt lat="47.643532" lon="11.691666"><ele>1075.5</ele></trkpt><trkpt lat="47.643583" lon="11.691203"><ele>1075.5</ele></trkpt><trkpt lat="47.643617" lon="11.690903"><ele>1075.6</ele></trkpt><trkpt lat="47.643612" lon="11.69078"><ele>1077.7</ele></trkpt><trkpt lat="47.643577" lon="11.690645"><ele>1079.7</ele></trkpt><trkpt lat="47.643519" lon="11.690552"><ele>1079.3</ele></trkpt><trkpt lat="47.643487" lon="11.69053"><ele>1079</ele></trkpt><trkpt lat="47.643291" lon="11.690553"><ele>1077.8</ele></trkpt><trkpt lat="47.643165" lon="11.690663"><ele>1077.2</ele></trkpt><trkpt lat="47.642995" lon="11.690874"><ele>1085</ele></trkpt><trkpt lat="47.642968" lon="11.690798"><ele>1093</ele></trkpt><trkpt lat="47.64298" lon="11.690712"><ele>1092.5</ele></trkpt><trkpt lat="47.64295" lon="11.690545"><ele>1092</ele></trkpt><trkpt lat="47.643041" lon="11.690401"><ele>1091.5</ele></trkpt><trkpt lat="47.643272" lon="11.69015"><ele>1090.7</ele></trkpt><trkpt lat="47.643366" lon="11.689913"><ele>1090</ele></trkpt><trkpt lat="47.64336" lon="11.689743"><ele>1089.6</ele></trkpt><trkpt lat="47.643421" lon="11.689506"><ele>1089.3</ele></trkpt><trkpt lat="47.64338" lon="11.689025"><ele>1129</ele></trkpt><trkpt lat="47.643289" lon="11.689057"><ele>1109.9</ele></trkpt><trkpt lat="47.643228" lon="11.689247"><ele>1109.3</ele></trkpt><trkpt lat="47.643103" lon="11.689302"><ele>1109</ele></trkpt><trkpt lat="47.642865" lon="11.689457"><ele>1108.7</ele></trkpt><trkpt lat="47.642766" lon="11.689462"><ele>1107.2</ele></trkpt><trkpt lat="47.642626" lon="11.689504"><ele>1105.8</ele></trkpt><trkpt lat="47.642525" lon="11.68959"><ele>1104.5</ele></trkpt><trkpt lat="47.642424" lon="11.689825"><ele>1103.3</ele></trkpt><trkpt lat="47.642343" lon="11.689973"><ele>1102.1</ele></trkpt><trkpt lat="47.642247" lon="11.690084"><ele>1101.1</ele></trkpt><trkpt lat="47.642139" lon="11.690146"><ele>1095.9</ele></trkpt><trkpt lat="47.642064" lon="11.690221"><ele>1095.2</ele></trkpt><trkpt lat="47.64195" lon="11.690279"><ele>1085</ele></trkpt><trkpt lat="47.641733" lon="11.690469"><ele>1085</ele></trkpt><trkpt lat="47.64161" lon="11.690333"><ele>1085</ele></trkpt><trkpt lat="47.641586" lon="11.690257"><ele>1085</ele></trkpt><trkpt lat="47.641583" lon="11.690172"><ele>1085</ele></trkpt><trkpt lat="47.641632" lon="11.690021"><ele>1085</ele></trkpt><trkpt lat="47.641727" lon="11.689879"><ele>1085</ele></trkpt><trkpt lat="47.641706" lon="11.689791"><ele>1121.8</ele></trkpt><trkpt lat="47.641584" lon="11.689872"><ele>1120.7</ele></trkpt><trkpt lat="47.64151" lon="11.689865"><ele>1122.7</ele></trkpt><trkpt lat="47.641354" lon="11.68994"><ele>1124.5</ele></trkpt><trkpt lat="47.64111" lon="11.690116"><ele>1130.2</ele></trkpt><trkpt lat="47.640825" lon="11.690197"><ele>1132.3</ele></trkpt><trkpt lat="47.640557" lon="11.690237"><ele>1134.2</ele></trkpt><trkpt lat="47.640304" lon="11.690353"><ele>1143.2</ele></trkpt><trkpt lat="47.639923" lon="11.690493"><ele>1148</ele></trkpt><trkpt lat="47.639888" lon="11.690227"><ele>1148</ele></trkpt><trkpt lat="47.640044" lon="11.690163"><ele>1148</ele></trkpt><trkpt lat="47.640263" lon="11.689845"><ele>1178.8</ele></trkpt><trkpt lat="47.640609" lon="11.689419"><ele>1183.3</ele></trkpt><trkpt lat="47.640711" lon="11.689174"><ele>1186.6</ele></trkpt><trkpt lat="47.64082" lon="11.688799"><ele>1195.8</ele></trkpt><trkpt lat="47.640829" lon="11.68865"><ele>1196</ele></trkpt><trkpt lat="47.64074" lon="11.688215"><ele>1202</ele></trkpt><trkpt lat="47.640664" lon="11.687954"><ele>1201.9</ele></trkpt><trkpt lat="47.640649" lon="11.687754"><ele>1205.2</ele></trkpt><trkpt lat="47.640738" lon="11.687053"><ele>1207.5</ele></trkpt><trkpt lat="47.64071" lon="11.686919"><ele>1209.3</ele></trkpt><trkpt lat="47.640669" lon="11.686857"><ele>1211</ele></trkpt><trkpt lat="47.640606" lon="11.686942"><ele>1212.6</ele></trkpt><trkpt lat="47.640451" lon="11.687344"><ele>1213.2</ele></trkpt><trkpt lat="47.640209" lon="11.687783"><ele>1201</ele></trkpt><trkpt lat="47.64024" lon="11.687393"><ele>1224</ele></trkpt><trkpt lat="47.64022" lon="11.686916"><ele>1227.2</ele></trkpt><trkpt lat="47.64019" lon="11.686818"><ele>1227.6</ele></trkpt><trkpt lat="47.640156" lon="11.68621"><ele>1230.5</ele></trkpt><trkpt lat="47.64016" lon="11.686105"><ele>1231.9</ele></trkpt><trkpt lat="47.640202" lon="11.685908"><ele>1232</ele></trkpt><trkpt lat="47.640182" lon="11.685742"><ele>1235.2</ele></trkpt><trkpt lat="47.640135" lon="11.6856"><ele>1238.3</ele></trkpt><trkpt lat="47.640056" lon="11.685535"><ele>1238</ele></trkpt><trkpt lat="47.639962" lon="11.685423"><ele>1241.2</ele></trkpt><trkpt lat="47.639793" lon="11.685115"><ele>1242.7</ele></trkpt><trkpt lat="47.639702" lon="11.684862"><ele>1245.6</ele></trkpt><trkpt lat="47.639561" lon="11.684356"><ele>1252.9</ele></trkpt><trkpt lat="47.639529" lon="11.684169"><ele>1254.6</ele></trkpt><trkpt lat="47.639514" lon="11.683956"><ele>1255.2</ele></trkpt><trkpt lat="47.639344" lon="11.683231"><ele>1266.7</ele></trkpt><trkpt lat="47.639282" lon="11.683073"><ele>1270.8</ele></trkpt><trkpt lat="47.639118" lon="11.682817"><ele>1278.5</ele></trkpt><trkpt lat="47.639105" lon="11.68273"><ele>1296</ele></trkpt><trkpt lat="47.639091" lon="11.682694"><ele>1296</ele></trkpt><trkpt lat="47.63888" lon="11.681974"><ele>1293.6</ele></trkpt><trkpt lat="47.638626" lon="11.681466"><ele>1293.5</ele></trkpt><trkpt lat="47.638486" lon="11.680804"><ele>1291.5</ele></trkpt><trkpt lat="47.638461" lon="11.680384"><ele>1291.2</ele></trkpt><trkpt lat="47.638092" lon="11.67971"><ele>1290.2</ele></trkpt><trkpt lat="47.637931" lon="11.679453"><ele>1289</ele></trkpt><trkpt lat="47.637587" lon="11.678939"><ele>1293.7</ele></trkpt><trkpt lat="47.637599" lon="11.678835"><ele>1303</ele></trkpt><trkpt lat="47.637605" lon="11.678793"><ele>1303</ele></trkpt><trkpt lat="47.637686" lon="11.678624"><ele>1303</ele></trkpt><trkpt lat="47.637697" lon="11.67859"><ele>1303</ele></trkpt><trkpt lat="47.637516" lon="11.678164"><ele>1332.8</ele></trkpt><trkpt lat="47.637451" lon="11.678118"><ele>1330.1</ele></trkpt><trkpt lat="47.637413" lon="11.678044"><ele>1332</ele></trkpt><trkpt lat="47.636854" lon="11.677341"><ele>1350.3</ele></trkpt><trkpt lat="47.636693" lon="11.677051"><ele>1358.9</ele></trkpt><trkpt lat="47.636511" lon="11.676141"><ele>1389.7</ele></trkpt><trkpt lat="47.63658" lon="11.675599"><ele>1390</ele></trkpt><trkpt lat="47.636701" lon="11.675225"><ele>1390.3</ele></trkpt><trkpt lat="47.636822" lon="11.674953"><ele>1390.6</ele></trkpt><trkpt lat="47.636782" lon="11.674632"><ele>1391.5</ele></trkpt><trkpt lat="47.636709" lon="11.674359"><ele>1392.5</ele></trkpt><trkpt lat="47.636519" lon="11.674226"><ele>1393.1</ele></trkpt><trkpt lat="47.636423" lon="11.674317"><ele>1393.6</ele></trkpt><trkpt lat="47.636383" lon="11.674522"><ele>1398</ele></trkpt><trkpt lat="47.636379" lon="11.674542"><ele>1398</ele></trkpt><trkpt lat="47.636359" lon="11.674656"><ele>1398</ele></trkpt><trkpt lat="47.636355" lon="11.674679"><ele>1398</ele></trkpt><trkpt lat="47.636282" lon="11.675065"><ele>1391.3</ele></trkpt><trkpt lat="47.636244" lon="11.675091"><ele>1388</ele></trkpt><trkpt lat="47.636232" lon="11.6751"><ele>1388</ele></trkpt><trkpt lat="47.636104" lon="11.675189"><ele>1388</ele></trkpt><trkpt lat="47.636003" lon="11.675553"><ele>1388</ele></trkpt><trkpt lat="47.635745" lon="11.675699"><ele>1388</ele></trkpt><trkpt lat="47.635634" lon="11.675877"><ele>1388</ele></trkpt><trkpt lat="47.635628" lon="11.675887"><ele>1388</ele></trkpt><trkpt lat="47.635559" lon="11.675982"><ele>1437.8</ele></trkpt><trkpt lat="47.635425" lon="11.675891"><ele>1432.8</ele></trkpt><trkpt lat="47.635415" lon="11.675992"><ele>1428.3</ele></trkpt><trkpt lat="47.634935" lon="11.675874"><ele>1444.4</ele></trkpt><trkpt lat="47.634661" lon="11.675727"><ele>1451.3</ele></trkpt><trkpt lat="47.634585" lon="11.675964"><ele>1457.4</ele></trkpt><trkpt lat="47.634241" lon="11.675786"><ele>1513</ele></trkpt><trkpt lat="47.634162" lon="11.675745"><ele>1513</ele></trkpt><trkpt lat="47.634185" lon="11.675857"><ele>1538.6</ele></trkpt><trkpt lat="47.634173" lon="11.675935"><ele>1538.2</ele></trkpt><trkpt lat="47.634185" lon="11.676163"><ele>1537.5</ele></trkpt><trkpt lat="47.634413" lon="11.676495"><ele>1535.7</ele></trkpt><trkpt lat="47.634595" lon="11.676714"><ele>1533.7</ele></trkpt><trkpt lat="47.634573" lon="11.676733"><ele>1533.7</ele></trkpt><trkpt lat="47.634432" lon="11.676678"><ele>1534.3</ele></trkpt><trkpt lat="47.634304" lon="11.676684"><ele>1533.9</ele></trkpt><trkpt lat="47.634419" lon="11.676825"><ele>1533</ele></trkpt><trkpt lat="47.634291" lon="11.676847"><ele>1536.7</ele></trkpt><trkpt lat="47.634369" lon="11.676982"><ele>1536.6</ele></trkpt><trkpt lat="47.634214" lon="11.677006"><ele>1541.8</ele></trkpt><trkpt lat="47.634254" lon="11.677097"><ele>1542.1</ele></trkpt><trkpt lat="47.634257" lon="11.67717"><ele>1542.5</ele></trkpt><trkpt lat="47.634291" lon="11.677276"><ele>1542.8</ele></trkpt><trkpt lat="47.634252" lon="11.677334"><ele>1543.2</ele></trkpt><trkpt lat="47.634181" lon="11.677349"><ele>1543.5</ele></trkpt><trkpt lat="47.634207" lon="11.677423"><ele>1543.8</ele></trkpt><trkpt lat="47.634152" lon="11.677462"><ele>1544.2</ele></trkpt><trkpt lat="47.634094" lon="11.677464"><ele>1544.5</ele></trkpt><trkpt lat="47.633991" lon="11.677559"><ele>1544.8</ele></trkpt><trkpt lat="47.633908" lon="11.67745"><ele>1545.4</ele></trkpt><trkpt lat="47.633823" lon="11.677476"><ele>1545.7</ele></trkpt><trkpt lat="47.633789" lon="11.677439"><ele>1546</ele></trkpt><trkpt lat="47.6337" lon="11.677482"><ele>1546.3</ele></trkpt><trkpt lat="47.633668" lon="11.677522"><ele>1546.5</ele></trkpt><trkpt lat="47.633649" lon="11.677408"><ele>1546.8</ele></trkpt><trkpt lat="47.633518" lon="11.677623"><ele>1548.6</ele></trkpt><trkpt lat="47.633409" lon="11.677974"><ele>1557.3</ele></trkpt><trkpt lat="47.633412" lon="11.678094"><ele>1559.5</ele></trkpt><trkpt lat="47.633385" lon="11.678152"><ele>1563.1</ele></trkpt><trkpt lat="47.633314" lon="11.677982"><ele>1563.1</ele></trkpt><trkpt lat="47.633287" lon="11.677994"><ele>1563.1</ele></trkpt><trkpt lat="47.633294" lon="11.678098"><ele>1563.1</ele></trkpt><trkpt lat="47.633279" lon="11.678109"><ele>1563</ele></trkpt><trkpt lat="47.633207" lon="11.677996"><ele>1563</ele></trkpt><trkpt lat="47.63318" lon="11.677981"><ele>1566.1</ele></trkpt><trkpt lat="47.633174" lon="11.67804"><ele>1567.9</ele></trkpt><trkpt lat="47.633199" lon="11.678136"><ele>1567.7</ele></trkpt><trkpt lat="47.633106" lon="11.678064"><ele>1626</ele></trkpt><trkpt lat="47.633086" lon="11.678053"><ele>1626</ele></trkpt><trkpt lat="47.633055" lon="11.678044"><ele>1626</ele></trkpt><trkpt lat="47.633058" lon="11.678234"><ele>1626</ele></trkpt><trkpt lat="47.633117" lon="11.678408"><ele>1626</ele></trkpt><trkpt lat="47.633113" lon="11.678548"><ele>1626</ele></trkpt><trkpt lat="47.633126" lon="11.678648"><ele>1626</ele></trkpt><trkpt lat="47.633018" lon="11.678621"><ele>1626</ele></trkpt><trkpt lat="47.632968" lon="11.678579"><ele>1626</ele></trkpt><trkpt lat="47.632885" lon="11.678386"><ele>1626</ele></trkpt><trkpt lat="47.632856" lon="11.678351"><ele>1626</ele></trkpt><trkpt lat="47.632828" lon="11.678373"><ele>1626</ele></trkpt><trkpt lat="47.632818" lon="11.678427"><ele>1626</ele></trkpt><trkpt lat="47.632793" lon="11.678436"><ele>1626</ele></trkpt><trkpt lat="47.632714" lon="11.678405"><ele>1626</ele></trkpt><trkpt lat="47.6327143" lon="11.6784047"><ele>1628.8</ele></trkpt><trkpt lat="47.6326919" lon="11.678422"><ele>1630.2</ele></trkpt><trkpt lat="47.6326927" lon="11.6784359"><ele>1631.4</ele></trkpt><trkpt lat="47.6327149" lon="11.6784601"><ele>1632.5</ele></trkpt><trkpt lat="47.6327259" lon="11.6785168"><ele>1637.2</ele></trkpt><trkpt lat="47.6327387" lon="11.678548"><ele>1639.6</ele></trkpt><trkpt lat="47.6327345" lon="11.678583"><ele>1642.7</ele></trkpt><trkpt lat="47.6327396" lon="11.6786174"><ele>1645.9</ele></trkpt><trkpt lat="47.6327475" lon="11.6786345"><ele>1647.7</ele></trkpt><trkpt lat="47.6327688" lon="11.6786351"><ele>1648.1</ele></trkpt><trkpt lat="47.6327688" lon="11.6786537"><ele>1650</ele></trkpt><trkpt lat="47.6327818" lon="11.6786692"><ele>1651.7</ele></trkpt><trkpt lat="47.6327923" lon="11.678704"><ele>1653.3</ele></trkpt><trkpt lat="47.6328361" lon="11.67874"><ele>1651.8</ele></trkpt><trkpt lat="47.6328357" lon="11.6787719"><ele>1653.5</ele></trkpt><trkpt lat="47.6328432" lon="11.678788"><ele>1652.8</ele></trkpt><trkpt lat="47.6328222" lon="11.6788444"><ele>1656.2</ele></trkpt><trkpt lat="47.6328148" lon="11.6789012"><ele>1655.3</ele></trkpt><trkpt lat="47.6328175" lon="11.6789538"><ele>1654.6</ele></trkpt><trkpt lat="47.6328386" lon="11.6789969"><ele>1653.8</ele></trkpt><trkpt lat="47.6328631" lon="11.6790207"><ele>1653.5</ele></trkpt><trkpt lat="47.6328735" lon="11.6790449"><ele>1653.8</ele></trkpt><trkpt lat="47.6328675" lon="11.6791214"><ele>1657.5</ele></trkpt><trkpt lat="47.6328734" lon="11.6791769"><ele>1660</ele></trkpt><trkpt lat="47.6328892" lon="11.6791871"><ele>1660.8</ele></trkpt><trkpt lat="47.632892" lon="11.679236"><ele>1662.6</ele></trkpt><trkpt lat="47.6329229" lon="11.6792402"><ele>1663.3</ele></trkpt><trkpt lat="47.6329359" lon="11.6792652"><ele>1663.8</ele></trkpt><trkpt lat="47.632958" lon="11.6792717"><ele>1664.6</ele></trkpt><trkpt lat="47.6329874" lon="11.6793183"><ele>1665.3</ele></trkpt><trkpt lat="47.6330632" lon="11.6793143"><ele>1668.8</ele></trkpt><trkpt lat="47.6330819" lon="11.6793264"><ele>1668.3</ele></trkpt><trkpt lat="47.6330823" lon="11.6793544"><ele>1667.9</ele></trkpt><trkpt lat="47.63307" lon="11.6793681"><ele>1668</ele></trkpt><trkpt lat="47.6330823" lon="11.6793544"><ele>1667.9</ele></trkpt><trkpt lat="47.6330819" lon="11.6793264"><ele>1668.3</ele></trkpt><trkpt lat="47.6330632" lon="11.6793143"><ele>1668.8</ele></trkpt><trkpt lat="47.6329874" lon="11.6793183"><ele>1665.3</ele></trkpt><trkpt lat="47.632958" lon="11.6792717"><ele>1664.6</ele></trkpt><trkpt lat="47.6329359" lon="11.6792652"><ele>1663.8</ele></trkpt><trkpt lat="47.6329229" lon="11.6792402"><ele>1663.3</ele></trkpt><trkpt lat="47.632892" lon="11.679236"><ele>1662.6</ele></trkpt><trkpt lat="47.6328892" lon="11.6791871"><ele>1660.8</ele></trkpt><trkpt lat="47.6328734" lon="11.6791769"><ele>1660</ele></trkpt><trkpt lat="47.6328675" lon="11.6791214"><ele>1657.5</ele></trkpt><trkpt lat="47.6328735" lon="11.6790449"><ele>1653.8</ele></trkpt><trkpt lat="47.6328631" lon="11.6790207"><ele>1653.5</ele></trkpt><trkpt lat="47.6328386" lon="11.6789969"><ele>1653.8</ele></trkpt><trkpt lat="47.6328175" lon="11.6789538"><ele>1654.6</ele></trkpt><trkpt lat="47.6328148" lon="11.6789012"><ele>1655.3</ele></trkpt><trkpt lat="47.6328222" lon="11.6788444"><ele>1656.2</ele></trkpt><trkpt lat="47.6328432" lon="11.678788"><ele>1652.8</ele></trkpt><trkpt lat="47.6328357" lon="11.6787719"><ele>1653.5</ele></trkpt><trkpt lat="47.6328361" lon="11.67874"><ele>1651.8</ele></trkpt><trkpt lat="47.6327923" lon="11.678704"><ele>1653.3</ele></trkpt><trkpt lat="47.6327818" lon="11.6786692"><ele>1651.7</ele></trkpt><trkpt lat="47.6327688" lon="11.6786537"><ele>1650</ele></trkpt><trkpt lat="47.6327688" lon="11.6786351"><ele>1648.1</ele></trkpt><trkpt lat="47.6327475" lon="11.6786345"><ele>1647.7</ele></trkpt><trkpt lat="47.6327396" lon="11.6786174"><ele>1645.9</ele></trkpt><trkpt lat="47.6327345" lon="11.678583"><ele>1642.7</ele></trkpt><trkpt lat="47.6327387" lon="11.678548"><ele>1639.6</ele></trkpt><trkpt lat="47.6327259" lon="11.6785168"><ele>1637.2</ele></trkpt><trkpt lat="47.6327149" lon="11.6784601"><ele>1632.5</ele></trkpt><trkpt lat="47.6326927" lon="11.6784359"><ele>1631.4</ele></trkpt><trkpt lat="47.6326919" lon="11.678422"><ele>1630.2</ele></trkpt><trkpt lat="47.6327143" lon="11.6784047"><ele>1628.8</ele></trkpt><trkpt lat="47.632793" lon="11.678436"><ele>1626</ele></trkpt><trkpt lat="47.632818" lon="11.678427"><ele>1626</ele></trkpt><trkpt lat="47.632828" lon="11.678373"><ele>1626</ele></trkpt><trkpt lat="47.632856" lon="11.678351"><ele>1626</ele></trkpt><trkpt lat="47.632823" lon="11.678255"><ele>1626</ele></trkpt><trkpt lat="47.632765" lon="11.678155"><ele>1626</ele></trkpt><trkpt lat="47.632758" lon="11.678043"><ele>1626</ele></trkpt><trkpt lat="47.632737" lon="11.678013"><ele>1626</ele></trkpt><trkpt lat="47.632636" lon="11.678235"><ele>1626</ele></trkpt><trkpt lat="47.632612" lon="11.678366"><ele>1626</ele></trkpt><trkpt lat="47.632627" lon="11.678385"><ele>1626</ele></trkpt><trkpt lat="47.632612" lon="11.678366"><ele>1626</ele></trkpt><trkpt lat="47.632636" lon="11.678235"><ele>1626</ele></trkpt><trkpt lat="47.632737" lon="11.678013"><ele>1626</ele></trkpt><trkpt lat="47.632752" lon="11.677832"><ele>1626</ele></trkpt><trkpt lat="47.632666" lon="11.677583"><ele>1626</ele></trkpt><trkpt lat="47.632667" lon="11.677477"><ele>1619.2</ele></trkpt><trkpt lat="47.63269" lon="11.677401"><ele>1618.8</ele></trkpt><trkpt lat="47.632674" lon="11.677309"><ele>1618.2</ele></trkpt><trkpt lat="47.632692" lon="11.677171"><ele>1617.5</ele></trkpt><trkpt lat="47.632662" lon="11.677095"><ele>1617.1</ele></trkpt><trkpt lat="47.632669" lon="11.676982"><ele>1616.7</ele></trkpt><trkpt lat="47.632637" lon="11.676866"><ele>1616.6</ele></trkpt><trkpt lat="47.632654" lon="11.676824"><ele>1616.8</ele></trkpt><trkpt lat="47.63268" lon="11.676833"><ele>1617.1</ele></trkpt><trkpt lat="47.632658" lon="11.676741"><ele>1617.5</ele></trkpt><trkpt lat="47.632666" lon="11.676689"><ele>1614</ele></trkpt><trkpt lat="47.632683" lon="11.676567"><ele>1621.6</ele></trkpt><trkpt lat="47.632718" lon="11.676467"><ele>1622.3</ele></trkpt><trkpt lat="47.632739" lon="11.676302"><ele>1623.9</ele></trkpt><trkpt lat="47.632727" lon="11.676267"><ele>1624.8</ele></trkpt><trkpt lat="47.632707" lon="11.676289"><ele>1625.8</ele></trkpt><trkpt lat="47.632685" lon="11.676225"><ele>1626.9</ele></trkpt><trkpt lat="47.632648" lon="11.676175"><ele>1628</ele></trkpt><trkpt lat="47.632624" lon="11.676288"><ele>1629.3</ele></trkpt><trkpt lat="47.632607" lon="11.676304"><ele>1698</ele></trkpt><trkpt lat="47.632624" lon="11.676288"><ele>1629.3</ele></trkpt><trkpt lat="47.632648" lon="11.676175"><ele>1628</ele></trkpt><trkpt lat="47.632685" lon="11.676225"><ele>1626.9</ele></trkpt><trkpt lat="47.632707" lon="11.676289"><ele>1625.8</ele></trkpt><trkpt lat="47.632727" lon="11.676267"><ele>1624.8</ele></trkpt><trkpt lat="47.632739" lon="11.676302"><ele>1623.9</ele></trkpt><trkpt lat="47.632718" lon="11.676467"><ele>1622.3</ele></trkpt><trkpt lat="47.632683" lon="11.676567"><ele>1621.6</ele></trkpt><trkpt lat="47.632666" lon="11.676689"><ele>1614</ele></trkpt><trkpt lat="47.632658" lon="11.676741"><ele>1617.5</ele></trkpt><trkpt lat="47.63268" lon="11.676833"><ele>1617.1</ele></trkpt><trkpt lat="47.632654" lon="11.676824"><ele>1616.8</ele></trkpt><trkpt lat="47.632637" lon="11.676866"><ele>1616.6</ele></trkpt><trkpt lat="47.632669" lon="11.676982"><ele>1616.7</ele></trkpt><trkpt lat="47.632662" lon="11.677095"><ele>1617.1</ele></trkpt><trkpt lat="47.632692" lon="11.677171"><ele>1617.5</ele></trkpt><trkpt lat="47.632674" lon="11.677309"><ele>1618.2</ele></trkpt><trkpt lat="47.63269" lon="11.677401"><ele>1618.8</ele></trkpt><trkpt lat="47.632667" lon="11.677477"><ele>1619.2</ele></trkpt><trkpt lat="47.632666" lon="11.677583"><ele>1626</ele></trkpt><trkpt lat="47.632752" lon="11.677832"><ele>1626</ele></trkpt><trkpt lat="47.632737" lon="11.678013"><ele>1626</ele></trkpt><trkpt lat="47.632758" lon="11.678043"><ele>1626</ele></trkpt><trkpt lat="47.632765" lon="11.678155"><ele>1626</ele></trkpt><trkpt lat="47.632823" lon="11.678255"><ele>1626</ele></trkpt><trkpt lat="47.632856" lon="11.678351"><ele>1626</ele></trkpt><trkpt lat="47.632885" lon="11.678386"><ele>1626</ele></trkpt><trkpt lat="47.632968" lon="11.678579"><ele>1626</ele></trkpt><trkpt lat="47.633018" lon="11.678621"><ele>1626</ele></trkpt><trkpt lat="47.633126" lon="11.678648"><ele>1626</ele></trkpt><trkpt lat="47.633113" lon="11.678548"><ele>1626</ele></trkpt><trkpt lat="47.633117" lon="11.678408"><ele>1626</ele></trkpt><trkpt lat="47.633058" lon="11.678234"><ele>1626</ele></trkpt><trkpt lat="47.633055" lon="11.678044"><ele>1626</ele></trkpt><trkpt lat="47.633086" lon="11.678053"><ele>1626</ele></trkpt><trkpt lat="47.633106" lon="11.678064"><ele>1626</ele></trkpt><trkpt lat="47.633199" lon="11.678136"><ele>1567.7</ele></trkpt><trkpt lat="47.633174" lon="11.67804"><ele>1567.9</ele></trkpt><trkpt lat="47.63318" lon="11.677981"><ele>1566.1</ele></trkpt><trkpt lat="47.633207" lon="11.677996"><ele>1563</ele></trkpt><trkpt lat="47.633279" lon="11.678109"><ele>1563</ele></trkpt><trkpt lat="47.633294" lon="11.678098"><ele>1563.1</ele></trkpt><trkpt lat="47.633287" lon="11.677994"><ele>1563.1</ele></trkpt><trkpt lat="47.633314" lon="11.677982"><ele>1563.1</ele></trkpt><trkpt lat="47.633385" lon="11.678152"><ele>1563.1</ele></trkpt><trkpt lat="47.633412" lon="11.678094"><ele>1559.5</ele></trkpt><trkpt lat="47.633409" lon="11.677974"><ele>1557.3</ele></trkpt><trkpt lat="47.633518" lon="11.677623"><ele>1548.6</ele></trkpt><trkpt lat="47.633649" lon="11.677408"><ele>1546.8</ele></trkpt><trkpt lat="47.633668" lon="11.677522"><ele>1546.5</ele></trkpt><trkpt lat="47.6337" lon="11.677482"><ele>1546.3</ele></trkpt><trkpt lat="47.633789" lon="11.677439"><ele>1546</ele></trkpt><trkpt lat="47.633823" lon="11.677476"><ele>1545.7</ele></trkpt><trkpt lat="47.633908" lon="11.67745"><ele>1545.4</ele></trkpt><trkpt lat="47.633991" lon="11.677559"><ele>1544.8</ele></trkpt><trkpt lat="47.634094" lon="11.677464"><ele>1544.5</ele></trkpt><trkpt lat="47.634152" lon="11.677462"><ele>1544.2</ele></trkpt><trkpt lat="47.634207" lon="11.677423"><ele>1543.8</ele></trkpt><trkpt lat="47.634181" lon="11.677349"><ele>1543.5</ele></trkpt><trkpt lat="47.634252" lon="11.677334"><ele>1543.2</ele></trkpt><trkpt lat="47.634291" lon="11.677276"><ele>1542.8</ele></trkpt><trkpt lat="47.634257" lon="11.67717"><ele>1542.5</ele></trkpt><trkpt lat="47.634254" lon="11.677097"><ele>1542.1</ele></trkpt><trkpt lat="47.634214" lon="11.677006"><ele>1541.8</ele></trkpt><trkpt lat="47.634369" lon="11.676982"><ele>1536.6</ele></trkpt><trkpt lat="47.634291" lon="11.676847"><ele>1536.7</ele></trkpt><trkpt lat="47.634419" lon="11.676825"><ele>1533</ele></trkpt><trkpt lat="47.634304" lon="11.676684"><ele>1533.9</ele></trkpt><trkpt lat="47.634432" lon="11.676678"><ele>1534.3</ele></trkpt><trkpt lat="47.634573" lon="11.676733"><ele>1533.7</ele></trkpt><trkpt lat="47.634595" lon="11.676714"><ele>1533.7</ele></trkpt><trkpt lat="47.634413" lon="11.676495"><ele>1535.7</ele></trkpt><trkpt lat="47.634185" lon="11.676163"><ele>1537.5</ele></trkpt><trkpt lat="47.634173" lon="11.675935"><ele>1538.2</ele></trkpt><trkpt lat="47.634185" lon="11.675857"><ele>1538.6</ele></trkpt><trkpt lat="47.634162" lon="11.675745"><ele>1513</ele></trkpt><trkpt lat="47.634093" lon="11.675653"><ele>1490.6</ele></trkpt><trkpt lat="47.634064" lon="11.675469"><ele>1488.6</ele></trkpt><trkpt lat="47.634015" lon="11.675375"><ele>1486.6</ele></trkpt><trkpt lat="47.633963" lon="11.675185"><ele>1484.3</ele></trkpt><trkpt lat="47.633861" lon="11.675031"><ele>1480.3</ele></trkpt><trkpt lat="47.63375" lon="11.674641"><ele>1477.9</ele></trkpt><trkpt lat="47.633731" lon="11.674527"><ele>1478.3</ele></trkpt><trkpt lat="47.633733" lon="11.674429"><ele>1478.7</ele></trkpt><trkpt lat="47.633807" lon="11.674239"><ele>1479.7</ele></trkpt><trkpt lat="47.633814" lon="11.674074"><ele>1480.2</ele></trkpt><trkpt lat="47.633781" lon="11.673998"><ele>1480.7</ele></trkpt><trkpt lat="47.633759" lon="11.67382"><ele>1479.8</ele></trkpt><trkpt lat="47.633692" lon="11.673754"><ele>1479.8</ele></trkpt><trkpt lat="47.633668" lon="11.673605"><ele>1479.8</ele></trkpt><trkpt lat="47.633666" lon="11.673442"><ele>1468</ele></trkpt><trkpt lat="47.633656" lon="11.673268"><ele>1489.2</ele></trkpt><trkpt lat="47.633673" lon="11.673215"><ele>1490.1</ele></trkpt><trkpt lat="47.633741" lon="11.673112"><ele>1490.9</ele></trkpt><trkpt lat="47.633744" lon="11.673066"><ele>1491.9</ele></trkpt><trkpt lat="47.633729" lon="11.67291"><ele>1492.8</ele></trkpt><trkpt lat="47.633681" lon="11.672708"><ele>1494.8</ele></trkpt><trkpt lat="47.633686" lon="11.672572"><ele>1494.7</ele></trkpt><trkpt lat="47.633711" lon="11.67251"><ele>1494.6</ele></trkpt><trkpt lat="47.633803" lon="11.67241"><ele>1494.3</ele></trkpt><trkpt lat="47.633902" lon="11.672026"><ele>1493.7</ele></trkpt><trkpt lat="47.633957" lon="11.671979"><ele>1493.3</ele></trkpt><trkpt lat="47.63398" lon="11.671928"><ele>1492.9</ele></trkpt><trkpt lat="47.63383" lon="11.671756"><ele>1498</ele></trkpt><trkpt lat="47.633961" lon="11.671758"><ele>1498</ele></trkpt><trkpt lat="47.634101" lon="11.671668"><ele>1498</ele></trkpt><trkpt lat="47.634322" lon="11.671594"><ele>1498</ele></trkpt><trkpt lat="47.634389" lon="11.67159"><ele>1498</ele></trkpt><trkpt lat="47.634445" lon="11.671612"><ele>1498</ele></trkpt><trkpt lat="47.634516" lon="11.671517"><ele>1498</ele></trkpt><trkpt lat="47.634564" lon="11.671502"><ele>1498</ele></trkpt><trkpt lat="47.634678" lon="11.671541"><ele>1498</ele></trkpt><trkpt lat="47.634711" lon="11.671527"><ele>1498</ele></trkpt><trkpt lat="47.634793" lon="11.671429"><ele>1498</ele></trkpt><trkpt lat="47.635025" lon="11.67129"><ele>1498</ele></trkpt><trkpt lat="47.63524" lon="11.671229"><ele>1476.7</ele></trkpt><trkpt lat="47.635658" lon="11.670968"><ele>1471.3</ele></trkpt><trkpt lat="47.636268" lon="11.670932"><ele>1458</ele></trkpt><trkpt lat="47.636283" lon="11.670934"><ele>1458</ele></trkpt><trkpt lat="47.636441" lon="11.670918"><ele>1458</ele></trkpt><trkpt lat="47.636676" lon="11.670894"><ele>1458</ele></trkpt><trkpt lat="47.636766" lon="11.670898"><ele>1458</ele></trkpt><trkpt lat="47.636912" lon="11.670862"><ele>1458</ele></trkpt><trkpt lat="47.637089" lon="11.670772"><ele>1458</ele></trkpt><trkpt lat="47.637173" lon="11.670575"><ele>1474.5</ele></trkpt><trkpt lat="47.637993" lon="11.669216"><ele>1488.5</ele></trkpt><trkpt lat="47.638089" lon="11.669028"><ele>1492.9</ele></trkpt><trkpt lat="47.638111" lon="11.668837"><ele>1493.2</ele></trkpt><trkpt lat="47.638105" lon="11.668513"><ele>1494.5</ele></trkpt><trkpt lat="47.638051" lon="11.668101"><ele>1494.1</ele></trkpt><trkpt lat="47.637966" lon="11.667624"><ele>1494.5</ele></trkpt><trkpt lat="47.637591" lon="11.666797"><ele>1496.2</ele></trkpt><trkpt lat="47.637578" lon="11.666686"><ele>1499</ele></trkpt><trkpt lat="47.637924" lon="11.666569"><ele>1487.9</ele></trkpt><trkpt lat="47.638149" lon="11.666593"><ele>1485.4</ele></trkpt><trkpt lat="47.638343" lon="11.666654"><ele>1484</ele></trkpt><trkpt lat="47.638466" lon="11.666628"><ele>1482.5</ele></trkpt><trkpt lat="47.638617" lon="11.66644"><ele>1480.8</ele></trkpt><trkpt lat="47.63881" lon="11.66608"><ele>1481.4</ele></trkpt><trkpt lat="47.638932" lon="11.665727"><ele>1480.4</ele></trkpt><trkpt lat="47.63904" lon="11.665275"><ele>1476.4</ele></trkpt><trkpt lat="47.639346" lon="11.662948"><ele>1429.5</ele></trkpt><trkpt lat="47.639349" lon="11.662499"><ele>1418.6</ele></trkpt><trkpt lat="47.6393" lon="11.662244"><ele>1414.1</ele></trkpt><trkpt lat="47.63918" lon="11.661857"><ele>1415.3</ele></trkpt><trkpt lat="47.639117" lon="11.661315"><ele>1413.2</ele></trkpt><trkpt lat="47.6391" lon="11.660952"><ele>1411.9</ele></trkpt><trkpt lat="47.639119" lon="11.660468"><ele>1405</ele></trkpt><trkpt lat="47.639157" lon="11.659825"><ele>1419.2</ele></trkpt><trkpt lat="47.639258" lon="11.659337"><ele>1458</ele></trkpt><trkpt lat="47.639421" lon="11.659083"><ele>1440.2</ele></trkpt><trkpt lat="47.639561" lon="11.658503"><ele>1437.8</ele></trkpt><trkpt lat="47.639621" lon="11.657392"><ele>1445.3</ele></trkpt><trkpt lat="47.639585" lon="11.657199"><ele>1448.7</ele></trkpt><trkpt lat="47.639074" lon="11.656601"><ele>1450.3</ele></trkpt><trkpt lat="47.638903" lon="11.656135"><ele>1442.5</ele></trkpt><trkpt lat="47.638935" lon="11.655325"><ele>1435.4</ele></trkpt><trkpt lat="47.639312" lon="11.654509"><ele>1441.3</ele></trkpt><trkpt lat="47.639558" lon="11.654236"><ele>1449.6</ele></trkpt><trkpt lat="47.639704" lon="11.65381"><ele>1446.7</ele></trkpt><trkpt lat="47.640285" lon="11.652676"><ele>1445.8</ele></trkpt><trkpt lat="47.640429" lon="11.652135"><ele>1438</ele></trkpt><trkpt lat="47.640498" lon="11.652072"><ele>1443</ele></trkpt><trkpt lat="47.64062" lon="11.651841"><ele>1443.7</ele></trkpt><trkpt lat="47.640732" lon="11.651214"><ele>1445.5</ele></trkpt><trkpt lat="47.640685" lon="11.650904"><ele>1446.2</ele></trkpt><trkpt lat="47.640739" lon="11.650624"><ele>1446.9</ele></trkpt><trkpt lat="47.640788" lon="11.649963"><ele>1450.4</ele></trkpt><trkpt lat="47.64092" lon="11.649793"><ele>1453.2</ele></trkpt><trkpt lat="47.641057" lon="11.649515"><ele>1454.7</ele></trkpt><trkpt lat="47.641125" lon="11.649096"><ele>1457.8</ele></trkpt><trkpt lat="47.641168" lon="11.648767"><ele>1459.9</ele></trkpt><trkpt lat="47.641165" lon="11.648427"><ele>1461.8</ele></trkpt><trkpt lat="47.641138" lon="11.648197"><ele>1462</ele></trkpt><trkpt lat="47.641147" lon="11.648023"><ele>1463.6</ele></trkpt><trkpt lat="47.641114" lon="11.647727"><ele>1465</ele></trkpt><trkpt lat="47.64112" lon="11.647492"><ele>1466.4</ele></trkpt><trkpt lat="47.641315" lon="11.647321"><ele>1466.8</ele></trkpt><trkpt lat="47.641496" lon="11.647094"><ele>1467.4</ele></trkpt><trkpt lat="47.641668" lon="11.646771"><ele>1466.4</ele></trkpt><trkpt lat="47.641702" lon="11.646493"><ele>1465.9</ele></trkpt><trkpt lat="47.64177" lon="11.646279"><ele>1465.7</ele></trkpt><trkpt lat="47.641922" lon="11.646001"><ele>1465.5</ele></trkpt><trkpt lat="47.642001" lon="11.645957"><ele>1464.6</ele></trkpt><trkpt lat="47.64204" lon="11.645705"><ele>1463.6</ele></trkpt><trkpt lat="47.642086" lon="11.645621"><ele>1463.8</ele></trkpt><trkpt lat="47.642256" lon="11.645436"><ele>1464.8</ele></trkpt><trkpt lat="47.642297" lon="11.645359"><ele>1465.3</ele></trkpt><trkpt lat="47.64253" lon="11.64532"><ele>1466.8</ele></trkpt><trkpt lat="47.642598" lon="11.645279"><ele>1468.1</ele></trkpt><trkpt lat="47.642692" lon="11.645181"><ele>1468.5</ele></trkpt><trkpt lat="47.642839" lon="11.645174"><ele>1470.2</ele></trkpt><trkpt lat="47.642951" lon="11.645104"><ele>1471.9</ele></trkpt><trkpt lat="47.643029" lon="11.64503"><ele>1472.2</ele></trkpt><trkpt lat="47.643141" lon="11.644979"><ele>1473.9</ele></trkpt><trkpt lat="47.643303" lon="11.644977"><ele>1469</ele></trkpt><trkpt lat="47.643429" lon="11.645102"><ele>1479.6</ele></trkpt><trkpt lat="47.643564" lon="11.645038"><ele>1479.9</ele></trkpt><trkpt lat="47.643651" lon="11.644945"><ele>1480.3</ele></trkpt><trkpt lat="47.64394" lon="11.644941"><ele>1481.1</ele></trkpt><trkpt lat="47.64414" lon="11.644992"><ele>1481.8</ele></trkpt><trkpt lat="47.644364" lon="11.645169"><ele>1482.1</ele></trkpt><trkpt lat="47.644568" lon="11.645206"><ele>1482.2</ele></trkpt><trkpt lat="47.644769" lon="11.645366"><ele>1483.6</ele></trkpt><trkpt lat="47.645061" lon="11.645351"><ele>1484</ele></trkpt><trkpt lat="47.645262" lon="11.645502"><ele>1484</ele></trkpt><trkpt lat="47.645443" lon="11.645458"><ele>1484</ele></trkpt><trkpt lat="47.64554" lon="11.645277"><ele>1484</ele></trkpt><trkpt lat="47.645525" lon="11.64516"><ele>1477.8</ele></trkpt><trkpt lat="47.645546" lon="11.644909"><ele>1479</ele></trkpt><trkpt lat="47.645707" lon="11.644634"><ele>1464</ele></trkpt><trkpt lat="47.645905" lon="11.644358"><ele>1476.1</ele></trkpt><trkpt lat="47.646053" lon="11.644074"><ele>1475.1</ele></trkpt><trkpt lat="47.646156" lon="11.643766"><ele>1474.3</ele></trkpt><trkpt lat="47.646297" lon="11.643618"><ele>1473.5</ele></trkpt><trkpt lat="47.646369" lon="11.64346"><ele>1475.5</ele></trkpt><trkpt lat="47.646386" lon="11.643263"><ele>1477.4</ele></trkpt><trkpt lat="47.646331" lon="11.643065"><ele>1479.1</ele></trkpt><trkpt lat="47.646425" lon="11.642567"><ele>1500</ele></trkpt><trkpt lat="47.646493" lon="11.642257"><ele>1500</ele></trkpt><trkpt lat="47.646605" lon="11.641969"><ele>1500</ele></trkpt><trkpt lat="47.646607" lon="11.641635"><ele>1500</ele></trkpt><trkpt lat="47.646629" lon="11.64156"><ele>1500</ele></trkpt><trkpt lat="47.646742" lon="11.641483"><ele>1496.8</ele></trkpt><trkpt lat="47.64678" lon="11.641491"><ele>1496.7</ele></trkpt><trkpt lat="47.646811" lon="11.641429"><ele>1496.6</ele></trkpt><trkpt lat="47.6469" lon="11.641406"><ele>1496.5</ele></trkpt><trkpt lat="47.647162" lon="11.641009"><ele>1496</ele></trkpt><trkpt lat="47.647352" lon="11.641039"><ele>1514</ele></trkpt><trkpt lat="47.647639" lon="11.641221"><ele>1514.5</ele></trkpt><trkpt lat="47.647926" lon="11.641279"><ele>1517.6</ele></trkpt><trkpt lat="47.648109" lon="11.641397"><ele>1519.1</ele></trkpt><trkpt lat="47.648502" lon="11.641444"><ele>1523.8</ele></trkpt><trkpt lat="47.648803" lon="11.641432"><ele>1525.5</ele></trkpt><trkpt lat="47.648903" lon="11.641358"><ele>1525.7</ele></trkpt><trkpt lat="47.649241" lon="11.641395"><ele>1527.6</ele></trkpt><trkpt lat="47.649472" lon="11.641304"><ele>1527.6</ele></trkpt><trkpt lat="47.649579" lon="11.641225"><ele>1527.7</ele></trkpt><trkpt lat="47.649769" lon="11.641185"><ele>1527.8</ele></trkpt><trkpt lat="47.649818" lon="11.641184"><ele>1527.8</ele></trkpt><trkpt lat="47.64986" lon="11.641212"><ele>1527.8</ele></trkpt><trkpt lat="47.649892" lon="11.641187"><ele>1514</ele></trkpt><trkpt lat="47.650219" lon="11.641419"><ele>1526.7</ele></trkpt><trkpt lat="47.650315" lon="11.64142"><ele>1528.4</ele></trkpt><trkpt lat="47.650407" lon="11.641492"><ele>1530.5</ele></trkpt><trkpt lat="47.650638" lon="11.641679"><ele>1531.9</ele></trkpt><trkpt lat="47.650959" lon="11.642009"><ele>1534.7</ele></trkpt><trkpt lat="47.651087" lon="11.642065"><ele>1538.9</ele></trkpt><trkpt lat="47.651253" lon="11.642273"><ele>1540.3</ele></trkpt><trkpt lat="47.651316" lon="11.642283"><ele>1540.6</ele></trkpt><trkpt lat="47.651374" lon="11.64226"><ele>1540.9</ele></trkpt><trkpt lat="47.651389" lon="11.642348"><ele>1541.2</ele></trkpt><trkpt lat="47.651435" lon="11.642423"><ele>1542.3</ele></trkpt><trkpt lat="47.651495" lon="11.642405"><ele>1543.5</ele></trkpt><trkpt lat="47.651545" lon="11.642425"><ele>1544</ele></trkpt><trkpt lat="47.651545" lon="11.642493"><ele>1544.5</ele></trkpt><trkpt lat="47.65158" lon="11.642565"><ele>1545.9</ele></trkpt><trkpt lat="47.651736" lon="11.642728"><ele>1546.5</ele></trkpt><trkpt lat="47.651815" lon="11.642739"><ele>1548.1</ele></trkpt><trkpt lat="47.651947" lon="11.642826"><ele>1549</ele></trkpt><trkpt lat="47.652" lon="11.642971"><ele>1548.3</ele></trkpt><trkpt lat="47.652154" lon="11.643164"><ele>1601</ele></trkpt><trkpt lat="47.652187" lon="11.64316"><ele>1578.9</ele></trkpt><trkpt lat="47.652154" lon="11.643164"><ele>1601</ele></trkpt><trkpt lat="47.652" lon="11.642971"><ele>1548.3</ele></trkpt><trkpt lat="47.651947" lon="11.642826"><ele>1549</ele></trkpt><trkpt lat="47.651815" lon="11.642739"><ele>1548.1</ele></trkpt><trkpt lat="47.651736" lon="11.642728"><ele>1546.5</ele></trkpt><trkpt lat="47.65158" lon="11.642565"><ele>1545.9</ele></trkpt><trkpt lat="47.651545" lon="11.642493"><ele>1544.5</ele></trkpt><trkpt lat="47.651545" lon="11.642425"><ele>1544</ele></trkpt><trkpt lat="47.651495" lon="11.642405"><ele>1543.5</ele></trkpt><trkpt lat="47.651435" lon="11.642423"><ele>1542.3</ele></trkpt><trkpt lat="47.651389" lon="11.642348"><ele>1541.2</ele></trkpt><trkpt lat="47.651374" lon="11.64226"><ele>1540.9</ele></trkpt><trkpt lat="47.651316" lon="11.642283"><ele>1540.6</ele></trkpt><trkpt lat="47.651253" lon="11.642273"><ele>1540.3</ele></trkpt><trkpt lat="47.651087" lon="11.642065"><ele>1538.9</ele></trkpt><trkpt lat="47.650959" lon="11.642009"><ele>1534.7</ele></trkpt><trkpt lat="47.650638" lon="11.641679"><ele>1531.9</ele></trkpt><trkpt lat="47.650407" lon="11.641492"><ele>1530.5</ele></trkpt><trkpt lat="47.650315" lon="11.64142"><ele>1528.4</ele></trkpt><trkpt lat="47.650219" lon="11.641419"><ele>1526.7</ele></trkpt><trkpt lat="47.649892" lon="11.641187"><ele>1514</ele></trkpt><trkpt lat="47.649839" lon="11.640969"><ele>1511.2</ele></trkpt><trkpt lat="47.649766" lon="11.640552"><ele>1510</ele></trkpt><trkpt lat="47.649725" lon="11.640215"><ele>1510.1</ele></trkpt><trkpt lat="47.649717" lon="11.639805"><ele>1509.5</ele></trkpt><trkpt lat="47.649735" lon="11.639367"><ele>1509.3</ele></trkpt><trkpt lat="47.649725" lon="11.639179"><ele>1507.9</ele></trkpt><trkpt lat="47.649635" lon="11.638998"><ele>1506.6</ele></trkpt><trkpt lat="47.649631" lon="11.638929"><ele>1504.8</ele></trkpt><trkpt lat="47.649663" lon="11.638789"><ele>1502.2</ele></trkpt><trkpt lat="47.649634" lon="11.638754"><ele>1502.3</ele></trkpt><trkpt lat="47.649482" lon="11.638692"><ele>1500.6</ele></trkpt><trkpt lat="47.649469" lon="11.638576"><ele>1498.9</ele></trkpt><trkpt lat="47.649525" lon="11.638429"><ele>1496.1</ele></trkpt><trkpt lat="47.64953" lon="11.638364"><ele>1496.3</ele></trkpt><trkpt lat="47.649424" lon="11.638347"><ele>1495.4</ele></trkpt><trkpt lat="47.64949" lon="11.638016"><ele>1492.4</ele></trkpt><trkpt lat="47.649367" lon="11.637887"><ele>1490.4</ele></trkpt><trkpt lat="47.649252" lon="11.637651"><ele>1489.7</ele></trkpt><trkpt lat="47.649418" lon="11.637275"><ele>1484.8</ele></trkpt><trkpt lat="47.649288" lon="11.637093"><ele>1479.9</ele></trkpt><trkpt lat="47.64919" lon="11.637055"><ele>1478.6</ele></trkpt><trkpt lat="47.649139" lon="11.637008"><ele>1477.2</ele></trkpt><trkpt lat="47.649167" lon="11.636876"><ele>1472</ele></trkpt><trkpt lat="47.649151" lon="11.636814"><ele>1470.5</ele></trkpt><trkpt lat="47.648973" lon="11.636522"><ele>1459.9</ele></trkpt><trkpt lat="47.648988" lon="11.636319"><ele>1456.8</ele></trkpt><trkpt lat="47.649039" lon="11.636169"><ele>1455.6</ele></trkpt><trkpt lat="47.649055" lon="11.636071"><ele>1451.1</ele></trkpt><trkpt lat="47.64885" lon="11.635647"><ele>1445</ele></trkpt><trkpt lat="47.64883" lon="11.635545"><ele>1445.5</ele></trkpt><trkpt lat="47.648849" lon="11.635451"><ele>1444</ele></trkpt><trkpt lat="47.648904" lon="11.635391"><ele>1444.6</ele></trkpt><trkpt lat="47.648982" lon="11.634938"><ele>1437.6</ele></trkpt><trkpt lat="47.648945" lon="11.634766"><ele>1432.1</ele></trkpt><trkpt lat="47.648994" lon="11.634605"><ele>1428.4</ele></trkpt><trkpt lat="47.649084" lon="11.634488"><ele>1424.9</ele></trkpt><trkpt lat="47.649068" lon="11.63432"><ele>1419.7</ele></trkpt><trkpt lat="47.649146" lon="11.634172"><ele>1416.3</ele></trkpt><trkpt lat="47.64921" lon="11.634104"><ele>1416.4</ele></trkpt><trkpt lat="47.649237" lon="11.633971"><ele>1411.1</ele></trkpt><trkpt lat="47.649237" lon="11.633828"><ele>1409.7</ele></trkpt><trkpt lat="47.649279" lon="11.633649"><ele>1404.2</ele></trkpt><trkpt lat="47.649427" lon="11.633473"><ele>1398.4</ele></trkpt><trkpt lat="47.64948" lon="11.633188"><ele>1393</ele></trkpt><trkpt lat="47.649477" lon="11.632983"><ele>1389.7</ele></trkpt><trkpt lat="47.649544" lon="11.632817"><ele>1385.7</ele></trkpt><trkpt lat="47.649612" lon="11.632749"><ele>1383.6</ele></trkpt><trkpt lat="47.649621" lon="11.632647"><ele>1380.7</ele></trkpt><trkpt lat="47.649584" lon="11.632329"><ele>1377.2</ele></trkpt><trkpt lat="47.6497" lon="11.631994"><ele>1370.3</ele></trkpt><trkpt lat="47.649698" lon="11.631802"><ele>1368</ele></trkpt><trkpt lat="47.649752" lon="11.631541"><ele>1365.6</ele></trkpt><trkpt lat="47.649902" lon="11.631471"><ele>1363.4</ele></trkpt><trkpt lat="47.650112" lon="11.631557"><ele>1363.6</ele></trkpt><trkpt lat="47.650292" lon="11.631793"><ele>1363.7</ele></trkpt><trkpt lat="47.650509" lon="11.631847"><ele>1363.9</ele></trkpt><trkpt lat="47.650676" lon="11.632029"><ele>1364.1</ele></trkpt><trkpt lat="47.650758" lon="11.632011"><ele>1364.2</ele></trkpt><trkpt lat="47.650844" lon="11.631712"><ele>1364.8</ele></trkpt><trkpt lat="47.650943" lon="11.631696"><ele>1365</ele></trkpt><trkpt lat="47.651128" lon="11.631726"><ele>1366</ele></trkpt><trkpt lat="47.651267" lon="11.63172"><ele>1366</ele></trkpt><trkpt lat="47.651314" lon="11.631703"><ele>1366</ele></trkpt><trkpt lat="47.651397" lon="11.631571"><ele>1366</ele></trkpt><trkpt lat="47.651504" lon="11.631584"><ele>1366</ele></trkpt><trkpt lat="47.651532" lon="11.631548"><ele>1366</ele></trkpt><trkpt lat="47.651715" lon="11.631153"><ele>1366</ele></trkpt><trkpt lat="47.651731" lon="11.631054"><ele>1345.4</ele></trkpt><trkpt lat="47.651821" lon="11.630951"><ele>1343.5</ele></trkpt><trkpt lat="47.651853" lon="11.630939"><ele>1336</ele></trkpt><trkpt lat="47.651876" lon="11.63097"><ele>1336</ele></trkpt><trkpt lat="47.651857" lon="11.630984"><ele>1336</ele></trkpt><trkpt lat="47.651876" lon="11.63097"><ele>1336</ele></trkpt><trkpt lat="47.651853" lon="11.630939"><ele>1336</ele></trkpt><trkpt lat="47.651821" lon="11.630951"><ele>1343.5</ele></trkpt><trkpt lat="47.651731" lon="11.631054"><ele>1345.4</ele></trkpt><trkpt lat="47.651715" lon="11.631153"><ele>1366</ele></trkpt><trkpt lat="47.651532" lon="11.631548"><ele>1366</ele></trkpt><trkpt lat="47.651505" lon="11.631487"><ele>1366</ele></trkpt><trkpt lat="47.651406" lon="11.631205"><ele>1347</ele></trkpt><trkpt lat="47.651445" lon="11.630846"><ele>1340.6</ele></trkpt><trkpt lat="47.651449" lon="11.630516"><ele>1340.1</ele></trkpt><trkpt lat="47.65134" lon="11.629969"><ele>1329</ele></trkpt><trkpt lat="47.651066" lon="11.629293"><ele>1321.5</ele></trkpt><trkpt lat="47.651254" lon="11.62896"><ele>1300.3</ele></trkpt><trkpt lat="47.651398" lon="11.62851"><ele>1283.6</ele></trkpt><trkpt lat="47.651478" lon="11.62807"><ele>1278.3</ele></trkpt><trkpt lat="47.651825" lon="11.627491"><ele>1261.4</ele></trkpt><trkpt lat="47.652013" lon="11.627394"><ele>1270.3</ele></trkpt><trkpt lat="47.65207" lon="11.627072"><ele>1273.5</ele></trkpt><trkpt lat="47.651897" lon="11.626804"><ele>1266.6</ele></trkpt><trkpt lat="47.651702" lon="11.626396"><ele>1244.1</ele></trkpt><trkpt lat="47.651752" lon="11.625785"><ele>1238</ele></trkpt><trkpt lat="47.651608" lon="11.625268"><ele>1216.2</ele></trkpt><trkpt lat="47.651527" lon="11.624533"><ele>1186.4</ele></trkpt><trkpt lat="47.651492" lon="11.624669"><ele>1160</ele></trkpt><trkpt lat="47.651433" lon="11.624439"><ele>1149.6</ele></trkpt><trkpt lat="47.651396" lon="11.623776"><ele>1147</ele></trkpt><trkpt lat="47.651341" lon="11.623444"><ele>1144.2</ele></trkpt><trkpt lat="47.651372" lon="11.622735"><ele>1137</ele></trkpt><trkpt lat="47.651267" lon="11.622047"><ele>1120.5</ele></trkpt><trkpt lat="47.651373" lon="11.621464"><ele>1112.1</ele></trkpt><trkpt lat="47.651276" lon="11.621034"><ele>1102</ele></trkpt><trkpt lat="47.651193" lon="11.620505"><ele>1094.4</ele></trkpt><trkpt lat="47.65123" lon="11.620217"><ele>1093.6</ele></trkpt><trkpt lat="47.651413" lon="11.619606"><ele>1084.1</ele></trkpt><trkpt lat="47.651486" lon="11.619468"><ele>1080.6</ele></trkpt><trkpt lat="47.651599" lon="11.618988"><ele>1077.3</ele></trkpt><trkpt lat="47.651707" lon="11.618752"><ele>1078.3</ele></trkpt><trkpt lat="47.65185" lon="11.618381"><ele>1024</ele></trkpt><trkpt lat="47.652107" lon="11.617657"><ele>1098.3</ele></trkpt><trkpt lat="47.652349" lon="11.617073"><ele>1105</ele></trkpt><trkpt lat="47.652642" lon="11.616635"><ele>1132</ele></trkpt><trkpt lat="47.652969" lon="11.616145"><ele>1066.3</ele></trkpt><trkpt lat="47.653614" lon="11.615444"><ele>1053.1</ele></trkpt><trkpt lat="47.653635" lon="11.615178"><ele>1038.1</ele></trkpt><trkpt lat="47.654004" lon="11.614819"><ele>1035.2</ele></trkpt><trkpt lat="47.654397" lon="11.614092"><ele>1029.4</ele></trkpt><trkpt lat="47.654976" lon="11.613581"><ele>1020.4</ele></trkpt><trkpt lat="47.655597" lon="11.613221"><ele>1015</ele></trkpt><trkpt lat="47.656023" lon="11.613149"><ele>1015</ele></trkpt><trkpt lat="47.656249" lon="11.613186"><ele>982.7</ele></trkpt><trkpt lat="47.65642" lon="11.613014"><ele>980.7</ele></trkpt><trkpt lat="47.656652" lon="11.612996"><ele>977.4</ele></trkpt><trkpt lat="47.657004" lon="11.613177"><ele>972.7</ele></trkpt><trkpt lat="47.65733" lon="11.612921"><ele>966.2</ele></trkpt><trkpt lat="47.657409" lon="11.612704"><ele>962</ele></trkpt><trkpt lat="47.657611" lon="11.612594"><ele>960.7</ele></trkpt><trkpt lat="47.657875" lon="11.612627"><ele>960.9</ele></trkpt><trkpt lat="47.657759" lon="11.612403"><ele>957.8</ele></trkpt><trkpt lat="47.657723" lon="11.612213"><ele>956.2</ele></trkpt><trkpt lat="47.657815" lon="11.611918"><ele>952.8</ele></trkpt><trkpt lat="47.657861" lon="11.611866"><ele>951.3</ele></trkpt><trkpt lat="47.657894" lon="11.611792"><ele>949.9</ele></trkpt><trkpt lat="47.657908" lon="11.6117"><ele>948.6</ele></trkpt><trkpt lat="47.657892" lon="11.611629"><ele>945</ele></trkpt><trkpt lat="47.657853" lon="11.611567"><ele>943.8</ele></trkpt><trkpt lat="47.658046" lon="11.611477"><ele>940.5</ele></trkpt><trkpt lat="47.657885" lon="11.611139"><ele>939.4</ele></trkpt><trkpt lat="47.658093" lon="11.611082"><ele>935.7</ele></trkpt><trkpt lat="47.658096" lon="11.611052"><ele>934.8</ele></trkpt><trkpt lat="47.657936" lon="11.610702"><ele>930.1</ele></trkpt><trkpt lat="47.658165" lon="11.610674"><ele>922.2</ele></trkpt><trkpt lat="47.658149" lon="11.610593"><ele>917.7</ele></trkpt><trkpt lat="47.658252" lon="11.610588"><ele>877</ele></trkpt><trkpt lat="47.658384" lon="11.610509"><ele>872.4</ele></trkpt><trkpt lat="47.65842" lon="11.610468"><ele>872.7</ele></trkpt><trkpt lat="47.658603" lon="11.610483"><ele>873</ele></trkpt><trkpt lat="47.658689" lon="11.610463"><ele>873.1</ele></trkpt><trkpt lat="47.659327" lon="11.610253"><ele>870.1</ele></trkpt><trkpt lat="47.659477" lon="11.610334"><ele>870.7</ele></trkpt><trkpt lat="47.659627" lon="11.610497"><ele>870.7</ele></trkpt><trkpt lat="47.659767" lon="11.610597"><ele>870.7</ele></trkpt><trkpt lat="47.660071" lon="11.610671"><ele>870.7</ele></trkpt><trkpt lat="47.660328" lon="11.610705"><ele>869.6</ele></trkpt><trkpt lat="47.660462" lon="11.610798"><ele>847</ele></trkpt><trkpt lat="47.660534" lon="11.610848"><ele>847</ele></trkpt><trkpt lat="47.660779" lon="11.610862"><ele>839.9</ele></trkpt><trkpt lat="47.660861" lon="11.610807"><ele>839.8</ele></trkpt><trkpt lat="47.660985" lon="11.610798"><ele>840</ele></trkpt><trkpt lat="47.661142" lon="11.610647"><ele>840</ele></trkpt><trkpt lat="47.661513" lon="11.610423"><ele>838.9</ele></trkpt><trkpt lat="47.661598" lon="11.610332"><ele>837.5</ele></trkpt><trkpt lat="47.661654" lon="11.610309"><ele>836.9</ele></trkpt><trkpt lat="47.661894" lon="11.610264"><ele>835.4</ele></trkpt><trkpt lat="47.662184" lon="11.610132"><ele>829.3</ele></trkpt><trkpt lat="47.662393" lon="11.610117"><ele>826</ele></trkpt><trkpt lat="47.662846" lon="11.61"><ele>816.1</ele></trkpt><trkpt lat="47.662932" lon="11.609916"><ele>812.9</ele></trkpt><trkpt lat="47.663247" lon="11.6094"><ele>805.3</ele></trkpt><trkpt lat="47.663348" lon="11.609286"><ele>802</ele></trkpt><trkpt lat="47.66342" lon="11.609265"><ele>802</ele></trkpt><trkpt lat="47.663614" lon="11.609271"><ele>802</ele></trkpt><trkpt lat="47.66381" lon="11.609195"><ele>802</ele></trkpt><trkpt lat="47.66391" lon="11.609113"><ele>802</ele></trkpt><trkpt lat="47.663939" lon="11.609023"><ele>795.7</ele></trkpt><trkpt lat="47.663953" lon="11.60874"><ele>795.9</ele></trkpt><trkpt lat="47.664017" lon="11.608357"><ele>794.3</ele></trkpt><trkpt lat="47.664074" lon="11.607386"><ele>790.5</ele></trkpt><trkpt lat="47.664151" lon="11.606858"><ele>786.1</ele></trkpt><trkpt lat="47.664364" lon="11.605779"><ele>772.9</ele></trkpt><trkpt lat="47.66471" lon="11.604488"><ele>767.3</ele></trkpt><trkpt lat="47.664929" lon="11.604365"><ele>767.8</ele></trkpt><trkpt lat="47.66497" lon="11.604328"><ele>767.5</ele></trkpt><trkpt lat="47.664997" lon="11.60426"><ele>767.8</ele></trkpt><trkpt lat="47.664949" lon="11.603934"><ele>766.3</ele></trkpt><trkpt lat="47.664988" lon="11.602955"><ele>762.6</ele></trkpt><trkpt lat="47.664881" lon="11.601572"><ele>752.5</ele></trkpt><trkpt lat="47.664853" lon="11.600662"><ele>748.6</ele></trkpt><trkpt lat="47.664862" lon="11.600483"><ele>745</ele></trkpt><trkpt lat="47.665033" lon="11.60023"><ele>743.7</ele></trkpt><trkpt lat="47.665125" lon="11.600041"><ele>743.4</ele></trkpt><trkpt lat="47.665219" lon="11.599777"><ele>743.3</ele></trkpt><trkpt lat="47.665501" lon="11.598801"><ele>743.7</ele></trkpt><trkpt lat="47.66561" lon="11.598552"><ele>743</ele></trkpt><trkpt lat="47.665674" lon="11.598456"><ele>743</ele></trkpt><trkpt lat="47.666281" lon="11.597812"><ele>741.9</ele></trkpt><trkpt lat="47.666643" lon="11.597335"><ele>740.3</ele></trkpt><trkpt lat="47.666769" lon="11.597101"><ele>734</ele></trkpt><trkpt lat="47.667049" lon="11.596586"><ele>734</ele></trkpt><trkpt lat="47.66719" lon="11.596272"><ele>734</ele></trkpt><trkpt lat="47.667266" lon="11.59607"><ele>734</ele></trkpt><trkpt lat="47.667319" lon="11.595873"><ele>734</ele></trkpt><trkpt lat="47.667419" lon="11.595463"><ele>731</ele></trkpt><trkpt lat="47.66743" lon="11.595258"><ele>731.2</ele></trkpt><trkpt lat="47.667423" lon="11.595116"><ele>730</ele></trkpt><trkpt lat="47.667399" lon="11.595047"><ele>730</ele></trkpt><trkpt lat="47.667285" lon="11.594778"><ele>730</ele></trkpt><trkpt lat="47.667316" lon="11.594427"><ele>730</ele></trkpt><trkpt lat="47.667322" lon="11.594321"><ele>730</ele></trkpt><trkpt lat="47.667352" lon="11.594202"><ele>730</ele></trkpt><trkpt lat="47.667458" lon="11.593683"><ele>730</ele></trkpt><trkpt lat="47.667482" lon="11.593556"><ele>723.4</ele></trkpt><trkpt lat="47.667532" lon="11.593459"><ele>723.3</ele></trkpt><trkpt lat="47.667589" lon="11.593371"><ele>723.2</ele></trkpt><trkpt lat="47.667731" lon="11.593219"><ele>722.9</ele></trkpt><trkpt lat="47.667793" lon="11.592992"><ele>722.7</ele></trkpt><trkpt lat="47.667843" lon="11.592881"><ele>722.7</ele></trkpt><trkpt lat="47.667887" lon="11.592824"><ele>722</ele></trkpt><trkpt lat="47.667948" lon="11.59279"><ele>722</ele></trkpt><trkpt lat="47.668218" lon="11.592777"><ele>722</ele></trkpt><trkpt lat="47.668448" lon="11.592763"><ele>722</ele></trkpt><trkpt lat="47.66868" lon="11.592763"><ele>724</ele></trkpt><trkpt lat="47.668974" lon="11.592801"><ele>724</ele></trkpt><trkpt lat="47.669237" lon="11.592742"><ele>724</ele></trkpt><trkpt lat="47.669829" lon="11.592295"><ele>724</ele></trkpt><trkpt lat="47.670125" lon="11.59214"><ele>724</ele></trkpt><trkpt lat="47.670249" lon="11.592076"><ele>724</ele></trkpt><trkpt lat="47.670548" lon="11.591947"><ele>724</ele></trkpt><trkpt lat="47.670642" lon="11.591969"><ele>724</ele></trkpt><trkpt lat="47.670672" lon="11.591981"><ele>724</ele></trkpt><trkpt lat="47.670785" lon="11.592047"><ele>735</ele></trkpt><trkpt lat="47.670959" lon="11.592148"><ele>735</ele></trkpt><trkpt lat="47.670981" lon="11.592047"><ele>735</ele></trkpt><trkpt lat="47.671015" lon="11.591984"><ele>735</ele></trkpt><trkpt lat="47.671093" lon="11.591935"><ele>735</ele></trkpt><trkpt lat="47.671305" lon="11.592027"><ele>735</ele></trkpt><trkpt lat="47.671367" lon="11.592049"><ele>735</ele></trkpt><trkpt lat="47.671358" lon="11.591765"><ele>735.8</ele></trkpt><trkpt lat="47.671373" lon="11.591461"><ele>736.2</ele></trkpt><trkpt lat="47.671368" lon="11.591101"><ele>738</ele></trkpt><trkpt lat="47.67162" lon="11.590779"><ele>738</ele></trkpt><trkpt lat="47.671789" lon="11.590372"><ele>738</ele></trkpt><trkpt lat="47.671901" lon="11.589954"><ele>738</ele></trkpt><trkpt lat="47.672024" lon="11.589659"><ele>738</ele></trkpt><trkpt lat="47.672087" lon="11.589127"><ele>721.3</ele></trkpt><trkpt lat="47.672132" lon="11.588914"><ele>720.4</ele></trkpt><trkpt lat="47.672186" lon="11.588824"><ele>716</ele></trkpt><trkpt lat="47.672375" lon="11.588521"><ele>716</ele></trkpt><trkpt lat="47.672429" lon="11.588536"><ele>716</ele></trkpt><trkpt lat="47.672605" lon="11.587742"><ele>716</ele></trkpt><trkpt lat="47.672753" lon="11.58748"><ele>716</ele></trkpt><trkpt lat="47.672899" lon="11.587287"><ele>719</ele></trkpt><trkpt lat="47.673117" lon="11.586932"><ele>719</ele></trkpt><trkpt lat="47.673225" lon="11.586801"><ele>719</ele></trkpt><trkpt lat="47.673587" lon="11.586566"><ele>719</ele></trkpt><trkpt lat="47.673907" lon="11.586309"><ele>719</ele></trkpt><trkpt lat="47.67397" lon="11.586163"><ele>719</ele></trkpt><trkpt lat="47.674" lon="11.586045"><ele>719</ele></trkpt><trkpt lat="47.674053" lon="11.585946"><ele>716.9</ele></trkpt><trkpt lat="47.674063" lon="11.585747"><ele>716.6</ele></trkpt><trkpt lat="47.674046" lon="11.58561"><ele>715.9</ele></trkpt><trkpt lat="47.673922" lon="11.58504"><ele>715.4</ele></trkpt><trkpt lat="47.673916" lon="11.584648"><ele>710.9</ele></trkpt><trkpt lat="47.673935" lon="11.584186"><ele>708.7</ele></trkpt><trkpt lat="47.674177" lon="11.583199"><ele>704</ele></trkpt><trkpt lat="47.674334" lon="11.582955"><ele>702.1</ele></trkpt><trkpt lat="47.674509" lon="11.582793"><ele>702.4</ele></trkpt><trkpt lat="47.674611" lon="11.582727"><ele>697</ele></trkpt><trkpt lat="47.674625" lon="11.582567"><ele>697</ele></trkpt><trkpt lat="47.674605" lon="11.582368"><ele>697</ele></trkpt><trkpt lat="47.674556" lon="11.582237"><ele>697</ele></trkpt><trkpt lat="47.674495" lon="11.582156"><ele>697</ele></trkpt><trkpt lat="47.674663" lon="11.582014"><ele>695.7</ele></trkpt><trkpt lat="47.674882" lon="11.581738"><ele>693</ele></trkpt><trkpt lat="47.675313" lon="11.581204"><ele>690</ele></trkpt><trkpt lat="47.675602" lon="11.580888"><ele>689.4</ele></trkpt><trkpt lat="47.675861" lon="11.580643"><ele>688.8</ele></trkpt><trkpt lat="47.676069" lon="11.580501"><ele>686</ele></trkpt><trkpt lat="47.676803" lon="11.580029"><ele>686</ele></trkpt><trkpt lat="47.677461" lon="11.579627"><ele>685.2</ele></trkpt><trkpt lat="47.677812" lon="11.579361"><ele>685.3</ele></trkpt><trkpt lat="47.677946" lon="11.579282"><ele>685</ele></trkpt><trkpt lat="47.678731" lon="11.578598"><ele>684</ele></trkpt><trkpt lat="47.67878" lon="11.578589"><ele>684</ele></trkpt><trkpt lat="47.67886" lon="11.578244"><ele>684</ele></trkpt><trkpt lat="47.678918" lon="11.578175"><ele>684</ele></trkpt><trkpt lat="47.679061" lon="11.578147"><ele>683</ele></trkpt><trkpt lat="47.679283" lon="11.578046"><ele>683</ele></trkpt><trkpt lat="47.679349" lon="11.577948"><ele>683</ele></trkpt><trkpt lat="47.679312" lon="11.577833"><ele>683</ele></trkpt><trkpt lat="47.679482" lon="11.577832"><ele>683</ele></trkpt><trkpt lat="47.679627" lon="11.577756"><ele>683</ele></trkpt><trkpt lat="47.679749" lon="11.577684"><ele>683</ele></trkpt><trkpt lat="47.679895" lon="11.577561"><ele>683</ele></trkpt><trkpt lat="47.680011" lon="11.577466"><ele>683</ele></trkpt><trkpt lat="47.68036" lon="11.577196"><ele>683</ele></trkpt><trkpt lat="47.680591" lon="11.57703"><ele>683</ele></trkpt><trkpt lat="47.680661" lon="11.57693"><ele>683</ele></trkpt><trkpt lat="47.680701" lon="11.576827"><ele>683</ele></trkpt><trkpt lat="47.680714" lon="11.576674"><ele>683</ele></trkpt><trkpt lat="47.680676" lon="11.576445"><ele>683</ele></trkpt><trkpt lat="47.680581" lon="11.576108"><ele>683</ele></trkpt><trkpt lat="47.680418" lon="11.575657"><ele>683</ele></trkpt><trkpt lat="47.680292" lon="11.575308"><ele>683</ele></trkpt><trkpt lat="47.68008" lon="11.574726"><ele>681</ele></trkpt><trkpt lat="47.679993" lon="11.574482"><ele>681</ele></trkpt><trkpt lat="47.679941" lon="11.574257"><ele>681</ele></trkpt><trkpt lat="47.679842" lon="11.574206"><ele>681</ele></trkpt><trkpt lat="47.679831" lon="11.573999"><ele>681</ele></trkpt><trkpt lat="47.679831" lon="11.573989"><ele>681</ele></trkpt><trkpt lat="47.679827" lon="11.573901"><ele>681</ele></trkpt><trkpt lat="47.679854" lon="11.573898"><ele>681</ele></trkpt><trkpt lat="47.679847" lon="11.573755"><ele>681</ele></trkpt><trkpt lat="47.679846" lon="11.573742"><ele>681</ele></trkpt><trkpt lat="47.679845" lon="11.573725"><ele>681</ele></trkpt><trkpt lat="47.67988" lon="11.573721"><ele>681</ele></trkpt><trkpt lat="47.679878" lon="11.573654"><ele>681</ele></trkpt><trkpt lat="47.679835" lon="11.573656"><ele>681</ele></trkpt><trkpt lat="47.679832" lon="11.573563"><ele>681</ele></trkpt><trkpt lat="47.679847" lon="11.573544"><ele>681</ele></trkpt><trkpt lat="47.680283" lon="11.573484"><ele>681</ele></trkpt></trkseg></trk></gpx>