<gpx xmlns="http://www.topografix.com/GPX/1/1" xmlns:xsi="http://www.w3.org/2001/XMLSchema-instance" xsi:schemaLocation="http://www.topografix.com/GPX/1/1 http://www.topografix.com/GPX/1/1/gpx.xsd" version="1.1" creator="togpx"><metadata/><wpt lat="32.783781621417546" lon="-16.905772984027866"><name></name><desc>label=Caminho dos Folhadeiros, Santana,Portugal</desc></wpt><wpt lat="32.77527991606868" lon="-16.935167312622074"><name></name><desc>label=Levada do Caldeirão Verde sup., Ilha,Portugal</desc></wpt><wpt lat="32.784298011831" lon="-16.905727386474613"><name></name><desc>label=Caminho dos Folhadeiros, Santana,Portugal</desc></wpt><trk><name></name><desc>ascent=1886.5
descent=1886.5
opacity=0.9</desc><trkseg><trkpt lat="32.78378" lon="-16.90577"><ele>821</ele></trkpt><trkpt lat="32.78377" lon="-16.905779"><ele>821</ele></trkpt><trkpt lat="32.783719" lon="-16.905889"><ele>821</ele></trkpt><trkpt lat="32.783713" lon="-16.905973"><ele>821</ele></trkpt><trkpt lat="32.783829" lon="-16.906419"><ele>853</ele></trkpt><trkpt lat="32.783874" lon="-16.906535"><ele>853</ele></trkpt><trkpt lat="32.783998" lon="-16.906691"><ele>853</ele></trkpt><trkpt lat="32.784006" lon="-16.906697"><ele>853</ele></trkpt><trkpt lat="32.784037" lon="-16.906703"><ele>853</ele></trkpt><trkpt lat="32.784079" lon="-16.90658"><ele>850.5</ele></trkpt><trkpt lat="32.784241" lon="-16.906508"><ele>848.4</ele></trkpt><trkpt lat="32.784402" lon="-16.906584"><ele>848.8</ele></trkpt><trkpt lat="32.784594" lon="-16.906707"><ele>849.1</ele></trkpt><trkpt lat="32.784799" lon="-16.906771"><ele>849.5</ele></trkpt><trkpt lat="32.785048" lon="-16.906961"><ele>849.8</ele></trkpt><trkpt lat="32.78521" lon="-16.907249"><ele>850</ele></trkpt><trkpt lat="32.785275" lon="-16.907317"><ele>850.3</ele></trkpt><trkpt lat="32.785343" lon="-16.907321"><ele>823</ele></trkpt><trkpt lat="32.785392" lon="-16.907294"><ele>824.7</ele></trkpt><trkpt lat="32.785504" lon="-16.907161"><ele>824</ele></trkpt><trkpt lat="32.78561" lon="-16.907099"><ele>823.9</ele></trkpt><trkpt lat="32.785745" lon="-16.907088"><ele>823.8</ele></trkpt><trkpt lat="32.786054" lon="-16.907291"><ele>824.4</ele></trkpt><trkpt lat="32.786175" lon="-16.90756"><ele>824.2</ele></trkpt><trkpt lat="32.786207" lon="-16.907842"><ele>824.1</ele></trkpt><trkpt lat="32.786193" lon="-16.908152"><ele>825.4</ele></trkpt><trkpt lat="32.786109" lon="-16.908387"><ele>825.2</ele></trkpt><trkpt lat="32.785873" lon="-16.908745"><ele>831</ele></trkpt><trkpt lat="32.785548" lon="-16.909366"><ele>841.4</ele></trkpt><trkpt lat="32.78507" lon="-16.909676"><ele>852.5</ele></trkpt><trkpt lat="32.784948" lon="-16.90983"><ele>856.7</ele></trkpt><trkpt lat="32.78487" lon="-16.910115"><ele>868.2</ele></trkpt><trkpt lat="32.784909" lon="-16.910369"><ele>882</ele></trkpt><trkpt lat="32.784901" lon="-16.910569"><ele>864.7</ele></trkpt><trkpt lat="32.784881" lon="-16.910649"><ele>863.7</ele></trkpt><trkpt lat="32.784642" lon="-16.910867"><ele>861.9</ele></trkpt><trkpt lat="32.784552" lon="-16.911097"><ele>861.5</ele></trkpt><trkpt lat="32.784139" lon="-16.911476"><ele>860.9</ele></trkpt><trkpt lat="32.783541" lon="-16.91177"><ele>858.5</ele></trkpt><trkpt lat="32.783335" lon="-16.911898"><ele>860.6</ele></trkpt><trkpt lat="32.78324" lon="-16.91225"><ele>860.2</ele></trkpt><trkpt lat="32.783259" lon="-16.912511"><ele>860</ele></trkpt><trkpt lat="32.783189" lon="-16.912709"><ele>862.4</ele></trkpt><trkpt lat="32.783243" lon="-16.912997"><ele>856.6</ele></trkpt><trkpt lat="32.783203" lon="-16.91315"><ele>851.4</ele></trkpt><trkpt lat="32.783108" lon="-16.913296"><ele>884</ele></trkpt><trkpt lat="32.783076" lon="-16.91336"><ele>884</ele></trkpt><trkpt lat="32.782924" lon="-16.913615"><ele>884</ele></trkpt><trkpt lat="32.782961" lon="-16.913703"><ele>884</ele></trkpt><trkpt lat="32.78299" lon="-16.913753"><ele>884</ele></trkpt><trkpt lat="32.783008" lon="-16.913816"><ele>884</ele></trkpt><trkpt lat="32.783083" lon="-16.913962"><ele>876.3</ele></trkpt><trkpt lat="32.783089" lon="-16.914145"><ele>875.1</ele></trkpt><trkpt lat="32.783029" lon="-16.91431"><ele>875.9</ele></trkpt><trkpt lat="32.782933" lon="-16.9145"><ele>874</ele></trkpt><trkpt lat="32.782812" lon="-16.914558"><ele>872.1</ele></trkpt><trkpt lat="32.782714" lon="-16.914649"><ele>873</ele></trkpt><trkpt lat="32.782449" lon="-16.915139"><ele>864.4</ele></trkpt><trkpt lat="32.782309" lon="-16.915349"><ele>855.6</ele></trkpt><trkpt lat="32.782306" lon="-16.915665"><ele>845.3</ele></trkpt><trkpt lat="32.782112" lon="-16.915928"><ele>838.6</ele></trkpt><trkpt lat="32.781916" lon="-16.916131"><ele>837.8</ele></trkpt><trkpt lat="32.781608" lon="-16.916255"><ele>835.5</ele></trkpt><trkpt lat="32.781354" lon="-16.916573"><ele>838.2</ele></trkpt><trkpt lat="32.780806" lon="-16.916941"><ele>944</ele></trkpt><trkpt lat="32.780804" lon="-16.91696"><ele>944</ele></trkpt><trkpt lat="32.78084" lon="-16.917201"><ele>944</ele></trkpt><trkpt lat="32.780855" lon="-16.917222"><ele>944</ele></trkpt><trkpt lat="32.78136" lon="-16.916847"><ele>884.1</ele></trkpt><trkpt lat="32.781735" lon="-16.916804"><ele>874.3</ele></trkpt><trkpt lat="32.782085" lon="-16.916863"><ele>874</ele></trkpt><trkpt lat="32.782542" lon="-16.916809"><ele>853</ele></trkpt><trkpt lat="32.78291" lon="-16.916598"><ele>843.6</ele></trkpt><trkpt lat="32.783158" lon="-16.916694"><ele>843.6</ele></trkpt><trkpt lat="32.783471" lon="-16.916518"><ele>823.6</ele></trkpt><trkpt lat="32.783635" lon="-16.916296"><ele>770</ele></trkpt><trkpt lat="32.783655" lon="-16.916286"><ele>770</ele></trkpt><trkpt lat="32.783929" lon="-16.91617"><ele>788.6</ele></trkpt><trkpt lat="32.784213" lon="-16.916082"><ele>786.7</ele></trkpt><trkpt lat="32.784269" lon="-16.916112"><ele>787.3</ele></trkpt><trkpt lat="32.784245" lon="-16.916727"><ele>792.3</ele></trkpt><trkpt lat="32.784594" lon="-16.917273"><ele>798.3</ele></trkpt><trkpt lat="32.784638" lon="-16.917422"><ele>801.5</ele></trkpt><trkpt lat="32.784613" lon="-16.91763"><ele>809.4</ele></trkpt><trkpt lat="32.784081" lon="-16.917904"><ele>816.9</ele></trkpt><trkpt lat="32.783976" lon="-16.91827"><ele>818.5</ele></trkpt><trkpt lat="32.783717" lon="-16.918422"><ele>823.9</ele></trkpt><trkpt lat="32.783591" lon="-16.918459"><ele>828.9</ele></trkpt><trkpt lat="32.783454" lon="-16.918622"><ele>831.1</ele></trkpt><trkpt lat="32.783333" lon="-16.91872"><ele>833.6</ele></trkpt><trkpt lat="32.783246" lon="-16.918878"><ele>832.4</ele></trkpt><trkpt lat="32.783335" lon="-16.919532"><ele>831.8</ele></trkpt><trkpt lat="32.783236" lon="-16.919633"><ele>836.1</ele></trkpt><trkpt lat="32.782955" lon="-16.919654"><ele>843.3</ele></trkpt><trkpt lat="32.782797" lon="-16.919612"><ele>851.6</ele></trkpt><trkpt lat="32.78254" lon="-16.919373"><ele>856.8</ele></trkpt><trkpt lat="32.782295" lon="-16.919287"><ele>864</ele></trkpt><trkpt lat="32.782108" lon="-16.919326"><ele>871.3</ele></trkpt><trkpt lat="32.781906" lon="-16.919501"><ele>891.7</ele></trkpt><trkpt lat="32.781735" lon="-16.919587"><ele>897.1</ele></trkpt><trkpt lat="32.781571" lon="-16.919517"><ele>899.7</ele></trkpt><trkpt lat="32.781345" lon="-16.919511"><ele>902.7</ele></trkpt><trkpt lat="32.781157" lon="-16.919697"><ele>902.7</ele></trkpt><trkpt lat="32.781042" lon="-16.919947"><ele>912.3</ele></trkpt><trkpt lat="32.780501" lon="-16.92043"><ele>930.4</ele></trkpt><trkpt lat="32.780492" lon="-16.920589"><ele>938</ele></trkpt><trkpt lat="32.780026" lon="-16.920945"><ele>950</ele></trkpt><trkpt lat="32.779617" lon="-16.921196"><ele>942</ele></trkpt><trkpt lat="32.779133" lon="-16.921603"><ele>918</ele></trkpt><trkpt lat="32.77914" lon="-16.921629"><ele>918</ele></trkpt><trkpt lat="32.779214" lon="-16.921752"><ele>918</ele></trkpt><trkpt lat="32.779542" lon="-16.921587"><ele>918</ele></trkpt><trkpt lat="32.77971" lon="-16.921675"><ele>918</ele></trkpt><trkpt lat="32.779924" lon="-16.921547"><ele>906.9</ele></trkpt><trkpt lat="32.780869" lon="-16.921349"><ele>890.2</ele></trkpt><trkpt lat="32.781534" lon="-16.921186"><ele>883.2</ele></trkpt><trkpt lat="32.781681" lon="-16.921174"><ele>882.2</ele></trkpt><trkpt lat="32.781775" lon="-16.921234"><ele>879.2</ele></trkpt><trkpt lat="32.781842" lon="-16.921404"><ele>878.7</ele></trkpt><trkpt lat="32.78187" lon="-16.921604"><ele>878.5</ele></trkpt><trkpt lat="32.781808" lon="-16.921876"><ele>878.2</ele></trkpt><trkpt lat="32.781811" lon="-16.92202"><ele>878.2</ele></trkpt><trkpt lat="32.781731" lon="-16.922122"><ele>877.5</ele></trkpt><trkpt lat="32.781735" lon="-16.922253"><ele>877.6</ele></trkpt><trkpt lat="32.78183" lon="-16.922302"><ele>877.3</ele></trkpt><trkpt lat="32.78211" lon="-16.922254"><ele>874.5</ele></trkpt><trkpt lat="32.782344" lon="-16.922082"><ele>874.4</ele></trkpt><trkpt lat="32.78272" lon="-16.922126"><ele>876.1</ele></trkpt><trkpt lat="32.782939" lon="-16.922358"><ele>880.9</ele></trkpt><trkpt lat="32.783135" lon="-16.92349"><ele>901.6</ele></trkpt><trkpt lat="32.783248" lon="-16.923625"><ele>937</ele></trkpt><trkpt lat="32.783272" lon="-16.923646"><ele>937</ele></trkpt><trkpt lat="32.783547" lon="-16.92364"><ele>932.1</ele></trkpt><trkpt lat="32.783766" lon="-16.923704"><ele>927.9</ele></trkpt><trkpt lat="32.784023" lon="-16.923644"><ele>929.2</ele></trkpt><trkpt lat="32.784611" lon="-16.923091"><ele>929.2</ele></trkpt><trkpt lat="32.784822" lon="-16.922995"><ele>898</ele></trkpt><trkpt lat="32.784993" lon="-16.923009"><ele>915.5</ele></trkpt><trkpt lat="32.785156" lon="-16.92314"><ele>937</ele></trkpt><trkpt lat="32.785227" lon="-16.923244"><ele>937</ele></trkpt><trkpt lat="32.785171" lon="-16.923512"><ele>937</ele></trkpt><trkpt lat="32.78509" lon="-16.923826"><ele>937</ele></trkpt><trkpt lat="32.784999" lon="-16.924097"><ele>937</ele></trkpt><trkpt lat="32.784823" lon="-16.924531"><ele>937</ele></trkpt><trkpt lat="32.784577" lon="-16.925268"><ele>943</ele></trkpt><trkpt lat="32.784338" lon="-16.925825"><ele>943</ele></trkpt><trkpt lat="32.783692" lon="-16.927142"><ele>943</ele></trkpt><trkpt lat="32.783587" lon="-16.927112"><ele>943</ele></trkpt><trkpt lat="32.783415" lon="-16.927163"><ele>943</ele></trkpt><trkpt lat="32.783195" lon="-16.926992"><ele>943</ele></trkpt><trkpt lat="32.783108" lon="-16.926923"><ele>947.6</ele></trkpt><trkpt lat="32.783028" lon="-16.926907"><ele>950.7</ele></trkpt><trkpt lat="32.782918" lon="-16.926955"><ele>954.9</ele></trkpt><trkpt lat="32.78277" lon="-16.926888"><ele>960.8</ele></trkpt><trkpt lat="32.782698" lon="-16.926899"><ele>963.6</ele></trkpt><trkpt lat="32.78261" lon="-16.926963"><ele>968</ele></trkpt><trkpt lat="32.78234" lon="-16.927212"><ele>960.5</ele></trkpt><trkpt lat="32.782233" lon="-16.927476"><ele>958</ele></trkpt><trkpt lat="32.782036" lon="-16.927894"><ele>948</ele></trkpt><trkpt lat="32.781966" lon="-16.928097"><ele>948</ele></trkpt><trkpt lat="32.781717" lon="-16.928791"><ele>942</ele></trkpt><trkpt lat="32.781693" lon="-16.929159"><ele>942</ele></trkpt><trkpt lat="32.781559" lon="-16.929636"><ele>937.9</ele></trkpt><trkpt lat="32.7815" lon="-16.929784"><ele>935.4</ele></trkpt><trkpt lat="32.781282" lon="-16.930147"><ele>934.6</ele></trkpt><trkpt lat="32.781138" lon="-16.930434"><ele>936.3</ele></trkpt><trkpt lat="32.780924" lon="-16.93061"><ele>964.1</ele></trkpt><trkpt lat="32.780736" lon="-16.9305"><ele>974.4</ele></trkpt><trkpt lat="32.780533" lon="-16.930727"><ele>996.9</ele></trkpt><trkpt lat="32.780305" lon="-16.930802"><ele>1021.9</ele></trkpt><trkpt lat="32.780215" lon="-16.931229"><ele>1050</ele></trkpt><trkpt lat="32.780022" lon="-16.931587"><ele>1113</ele></trkpt><trkpt lat="32.779976" lon="-16.931697"><ele>1113</ele></trkpt><trkpt lat="32.780005" lon="-16.931783"><ele>1113</ele></trkpt><trkpt lat="32.779952" lon="-16.931843"><ele>1115.6</ele></trkpt><trkpt lat="32.779923" lon="-16.931988"><ele>1115.2</ele></trkpt><trkpt lat="32.779843" lon="-16.932179"><ele>1116</ele></trkpt><trkpt lat="32.77957" lon="-16.933277"><ele>1119.7</ele></trkpt><trkpt lat="32.779456" lon="-16.933616"><ele>1123.5</ele></trkpt><trkpt lat="32.779329" lon="-16.933838"><ele>1125.9</ele></trkpt><trkpt lat="32.779004" lon="-16.934002"><ele>1133.3</ele></trkpt><trkpt lat="32.777789" lon="-16.93435"><ele>1148.6</ele></trkpt><trkpt lat="32.777253" lon="-16.934308"><ele>1148.6</ele></trkpt><trkpt lat="32.777122" lon="-16.934409"><ele>1150.4</ele></trkpt><trkpt lat="32.777061" lon="-16.934838"><ele>1152.2</ele></trkpt><trkpt lat="32.777019" lon="-16.935524"><ele>1157.9</ele></trkpt><trkpt lat="32.776783" lon="-16.935903"><ele>1171.4</ele></trkpt><trkpt lat="32.776509" lon="-16.936259"><ele>1176.3</ele></trkpt><trkpt lat="32.776184" lon="-16.93631"><ele>1181.8</ele></trkpt><trkpt lat="32.775925" lon="-16.936117"><ele>1187.8</ele></trkpt><trkpt lat="32.775887" lon="-16.935965"><ele>1184</ele></trkpt><trkpt lat="32.775674" lon="-16.935653"><ele>1196</ele></trkpt><trkpt lat="32.775635" lon="-16.935655"><ele>1196</ele></trkpt><trkpt lat="32.775572" lon="-16.935527"><ele>1176.8</ele></trkpt><trkpt lat="32.775291" lon="-16.935167"><ele>1168</ele></trkpt><trkpt lat="32.775281" lon="-16.93517"><ele>584</ele></trkpt><trkpt lat="32.775291" lon="-16.935167"><ele>1168</ele></trkpt><trkpt lat="32.775572" lon="-16.935527"><ele>1176.8</ele></trkpt><trkpt lat="32.775635" lon="-16.935655"><ele>1196</ele></trkpt><trkpt lat="32.775674" lon="-16.935653"><ele>1196</ele></trkpt><trkpt lat="32.775887" lon="-16.935965"><ele>1184</ele></trkpt><trkpt lat="32.775925" lon="-16.936117"><ele>1187.8</ele></trkpt><trkpt lat="32.776184" lon="-16.93631"><ele>1181.8</ele></trkpt><trkpt lat="32.776509" lon="-16.936259"><ele>1176.3</ele></trkpt><trkpt lat="32.776783" lon="-16.935903"><ele>1171.4</ele></trkpt><trkpt lat="32.777019" lon="-16.935524"><ele>1157.9</ele></trkpt><trkpt lat="32.777061" lon="-16.934838"><ele>1152.2</ele></trkpt><trkpt lat="32.777122" lon="-16.934409"><ele>1150.4</ele></trkpt><trkpt lat="32.777253" lon="-16.934308"><ele>1148.6</ele></trkpt><trkpt lat="32.777789" lon="-16.93435"><ele>1148.6</ele></trkpt><trkpt lat="32.779004" lon="-16.934002"><ele>1133.3</ele></trkpt><trkpt lat="32.779329" lon="-16.933838"><ele>1125.9</ele></trkpt><trkpt lat="32.779456" lon="-16.933616"><ele>1123.5</ele></trkpt><trkpt lat="32.77957" lon="-16.933277"><ele>1119.7</ele></trkpt><trkpt lat="32.779843" lon="-16.932179"><ele>1116</ele></trkpt><trkpt lat="32.779923" lon="-16.931988"><ele>1115.2</ele></trkpt><trkpt lat="32.779952" lon="-16.931843"><ele>1115.6</ele></trkpt><trkpt lat="32.780005" lon="-16.931783"><ele>1113</ele></trkpt><trkpt lat="32.779976" lon="-16.931697"><ele>1113</ele></trkpt><trkpt lat="32.780022" lon="-16.931587"><ele>1113</ele></trkpt><trkpt lat="32.780215" lon="-16.931229"><ele>1050</ele></trkpt><trkpt lat="32.780305" lon="-16.930802"><ele>1021.9</ele></trkpt><trkpt lat="32.780533" lon="-16.930727"><ele>996.9</ele></trkpt><trkpt lat="32.780736" lon="-16.9305"><ele>974.4</ele></trkpt><trkpt lat="32.780924" lon="-16.93061"><ele>964.1</ele></trkpt><trkpt lat="32.781138" lon="-16.930434"><ele>936.3</ele></trkpt><trkpt lat="32.781282" lon="-16.930147"><ele>934.6</ele></trkpt><trkpt lat="32.7815" lon="-16.929784"><ele>935.4</ele></trkpt><trkpt lat="32.781559" lon="-16.929636"><ele>937.9</ele></trkpt><trkpt lat="32.781693" lon="-16.929159"><ele>942</ele></trkpt><trkpt lat="32.781717" lon="-16.928791"><ele>942</ele></trkpt><trkpt lat="32.781966" lon="-16.928097"><ele>948</ele></trkpt><trkpt lat="32.782036" lon="-16.927894"><ele>948</ele></trkpt><trkpt lat="32.782233" lon="-16.927476"><ele>958</ele></trkpt><trkpt lat="32.78234" lon="-16.927212"><ele>960.5</ele></trkpt><trkpt lat="32.78261" lon="-16.926963"><ele>968</ele></trkpt><trkpt lat="32.782698" lon="-16.926899"><ele>963.6</ele></trkpt><trkpt lat="32.78277" lon="-16.926888"><ele>960.8</ele></trkpt><trkpt lat="32.782918" lon="-16.926955"><ele>954.9</ele></trkpt><trkpt lat="32.783028" lon="-16.926907"><ele>950.7</ele></trkpt><trkpt lat="32.783108" lon="-16.926923"><ele>947.6</ele></trkpt><trkpt lat="32.783195" lon="-16.926992"><ele>943</ele></trkpt><trkpt lat="32.783415" lon="-16.927163"><ele>943</ele></trkpt><trkpt lat="32.783587" lon="-16.927112"><ele>943</ele></trkpt><trkpt lat="32.783692" lon="-16.927142"><ele>943</ele></trkpt><trkpt lat="32.784338" lon="-16.925825"><ele>943</ele></trkpt><trkpt lat="32.784577" lon="-16.925268"><ele>943</ele></trkpt><trkpt lat="32.784823" lon="-16.924531"><ele>937</ele></trkpt><trkpt lat="32.784999" lon="-16.924097"><ele>937</ele></trkpt><trkpt lat="32.78509" lon="-16.923826"><ele>937</ele></trkpt><trkpt lat="32.785171" lon="-16.923512"><ele>937</ele></trkpt><trkpt lat="32.785227" lon="-16.923244"><ele>937</ele></trkpt><trkpt lat="32.785156" lon="-16.92314"><ele>937</ele></trkpt><trkpt lat="32.784993" lon="-16.923009"><ele>915.5</ele></trkpt><trkpt lat="32.784822" lon="-16.922995"><ele>898</ele></trkpt><trkpt lat="32.784611" lon="-16.923091"><ele>929.2</ele></trkpt><trkpt lat="32.784023" lon="-16.923644"><ele>929.2</ele></trkpt><trkpt lat="32.783766" lon="-16.923704"><ele>927.9</ele></trkpt><trkpt lat="32.783547" lon="-16.92364"><ele>932.1</ele></trkpt><trkpt lat="32.783272" lon="-16.923646"><ele>937</ele></trkpt><trkpt lat="32.783248" lon="-16.923625"><ele>937</ele></trkpt><trkpt lat="32.783135" lon="-16.92349"><ele>901.6</ele></trkpt><trkpt lat="32.782939" lon="-16.922358"><ele>880.9</ele></trkpt><trkpt lat="32.78272" lon="-16.922126"><ele>876.1</ele></trkpt><trkpt lat="32.782344" lon="-16.922082"><ele>874.4</ele></trkpt><trkpt lat="32.78211" lon="-16.922254"><ele>874.5</ele></trkpt><trkpt lat="32.78183" lon="-16.922302"><ele>877.3</ele></trkpt><trkpt lat="32.781735" lon="-16.922253"><ele>877.6</ele></trkpt><trkpt lat="32.781731" lon="-16.922122"><ele>877.5</ele></trkpt><trkpt lat="32.781811" lon="-16.92202"><ele>878.2</ele></trkpt><trkpt lat="32.781808" lon="-16.921876"><ele>878.2</ele></trkpt><trkpt lat="32.78187" lon="-16.921604"><ele>878.5</ele></trkpt><trkpt lat="32.781842" lon="-16.921404"><ele>878.7</ele></trkpt><trkpt lat="32.781775" lon="-16.921234"><ele>879.2</ele></trkpt><trkpt lat="32.781681" lon="-16.921174"><ele>882.2</ele></trkpt><trkpt lat="32.781534" lon="-16.921186"><ele>883.2</ele></trkpt><trkpt lat="32.780869" lon="-16.921349"><ele>890.2</ele></trkpt><trkpt lat="32.779924" lon="-16.921547"><ele>906.9</ele></trkpt><trkpt lat="32.77971" lon="-16.921675"><ele>918</ele></trkpt><trkpt lat="32.779542" lon="-16.921587"><ele>918</ele></trkpt><trkpt lat="32.779214" lon="-16.921752"><ele>918</ele></trkpt><trkpt lat="32.77914" lon="-16.921629"><ele>918</ele></trkpt><trkpt lat="32.779133" lon="-16.921603"><ele>918</ele></trkpt><trkpt lat="32.779617" lon="-16.921196"><ele>942</ele></trkpt><trkpt lat="32.780026" lon="-16.920945"><ele>950</ele></trkpt><trkpt lat="32.780492" lon="-16.920589"><ele>938</ele></trkpt><trkpt lat="32.780501" lon="-16.92043"><ele>930.4</ele></trkpt><trkpt lat="32.781042" lon="-16.919947"><ele>912.3</ele></trkpt><trkpt lat="32.781157" lon="-16.919697"><ele>902.7</ele></trkpt><trkpt lat="32.781345" lon="-16.919511"><ele>902.7</ele></trkpt><trkpt lat="32.781571" lon="-16.919517"><ele>899.7</ele></trkpt><trkpt lat="32.781735" lon="-16.919587"><ele>897.1</ele></trkpt><trkpt lat="32.781906" lon="-16.919501"><ele>891.7</ele></trkpt><trkpt lat="32.782108" lon="-16.919326"><ele>871.3</ele></trkpt><trkpt lat="32.782295" lon="-16.919287"><ele>864</ele></trkpt><trkpt lat="32.78254" lon="-16.919373"><ele>856.8</ele></trkpt><trkpt lat="32.782797" lon="-16.919612"><ele>851.6</ele></trkpt><trkpt lat="32.782955" lon="-16.919654"><ele>843.3</ele></trkpt><trkpt lat="32.783236" lon="-16.919633"><ele>836.1</ele></trkpt><trkpt lat="32.783335" lon="-16.919532"><ele>831.8</ele></trkpt><trkpt lat="32.783246" lon="-16.918878"><ele>832.4</ele></trkpt><trkpt lat="32.783333" lon="-16.91872"><ele>833.6</ele></trkpt><trkpt lat="32.783454" lon="-16.918622"><ele>831.1</ele></trkpt><trkpt lat="32.783591" lon="-16.918459"><ele>828.9</ele></trkpt><trkpt lat="32.783717" lon="-16.918422"><ele>823.9</ele></trkpt><trkpt lat="32.783976" lon="-16.91827"><ele>818.5</ele></trkpt><trkpt lat="32.784081" lon="-16.917904"><ele>816.9</ele></trkpt><trkpt lat="32.784613" lon="-16.91763"><ele>809.4</ele></trkpt><trkpt lat="32.784638" lon="-16.917422"><ele>801.5</ele></trkpt><trkpt lat="32.784594" lon="-16.917273"><ele>798.3</ele></trkpt><trkpt lat="32.784245" lon="-16.916727"><ele>792.3</ele></trkpt><trkpt lat="32.784269" lon="-16.916112"><ele>787.3</ele></trkpt><trkpt lat="32.784213" lon="-16.916082"><ele>786.7</ele></trkpt><trkpt lat="32.783929" lon="-16.91617"><ele>788.6</ele></trkpt><trkpt lat="32.783655" lon="-16.916286"><ele>770</ele></trkpt><trkpt lat="32.783635" lon="-16.916296"><ele>770</ele></trkpt><trkpt lat="32.783471" lon="-16.916518"><ele>823.6</ele></trkpt><trkpt lat="32.783158" lon="-16.916694"><ele>843.6</ele></trkpt><trkpt lat="32.78291" lon="-16.916598"><ele>843.6</ele></trkpt><trkpt lat="32.782542" lon="-16.916809"><ele>853</ele></trkpt><trkpt lat="32.782085" lon="-16.916863"><ele>874</ele></trkpt><trkpt lat="32.781735" lon="-16.916804"><ele>874.3</ele></trkpt><trkpt lat="32.78136" lon="-16.916847"><ele>884.1</ele></trkpt><trkpt lat="32.780855" lon="-16.917222"><ele>944</ele></trkpt><trkpt lat="32.78084" lon="-16.917201"><ele>944</ele></trkpt><trkpt lat="32.780804" lon="-16.91696"><ele>944</ele></trkpt><trkpt lat="32.780806" lon="-16.916941"><ele>944</ele></trkpt><trkpt lat="32.781354" lon="-16.916573"><ele>838.2</ele></trkpt><trkpt lat="32.781608" lon="-16.916255"><ele>835.5</ele></trkpt><trkpt lat="32.781916" lon="-16.916131"><ele>837.8</ele></trkpt><trkpt lat="32.782112" lon="-16.915928"><ele>838.6</ele></trkpt><trkpt lat="32.782306" lon="-16.915665"><ele>845.3</ele></trkpt><trkpt lat="32.782309" lon="-16.915349"><ele>855.6</ele></trkpt><trkpt lat="32.782449" lon="-16.915139"><ele>864.4</ele></trkpt><trkpt lat="32.782714" lon="-16.914649"><ele>873</ele></trkpt><trkpt lat="32.782812" lon="-16.914558"><ele>872.1</ele></trkpt><trkpt lat="32.782933" lon="-16.9145"><ele>874</ele></trkpt><trkpt lat="32.783029" lon="-16.91431"><ele>875.9</ele></trkpt><trkpt lat="32.783089" lon="-16.914145"><ele>875.1</ele></trkpt><trkpt lat="32.783083" lon="-16.913962"><ele>876.3</ele></trkpt><trkpt lat="32.783008" lon="-16.913816"><ele>884</ele></trkpt><trkpt lat="32.78299" lon="-16.913753"><ele>884</ele></trkpt><trkpt lat="32.782961" lon="-16.913703"><ele>884</ele></trkpt><trkpt lat="32.782924" lon="-16.913615"><ele>884</ele></trkpt><trkpt lat="32.783076" lon="-16.91336"><ele>884</ele></trkpt><trkpt lat="32.783108" lon="-16.913296"><ele>884</ele></trkpt><trkpt lat="32.783203" lon="-16.91315"><ele>851.4</ele></trkpt><trkpt lat="32.783243" lon="-16.912997"><ele>856.6</ele></trkpt><trkpt lat="32.783189" lon="-16.912709"><ele>862.4</ele></trkpt><trkpt lat="32.783259" lon="-16.912511"><ele>860</ele></trkpt><trkpt lat="32.78324" lon="-16.91225"><ele>860.2</ele></trkpt><trkpt lat="32.783335" lon="-16.911898"><ele>860.6</ele></trkpt><trkpt lat="32.783541" lon="-16.91177"><ele>858.5</ele></trkpt><trkpt lat="32.784139" lon="-16.911476"><ele>860.9</ele></trkpt><trkpt lat="32.784552" lon="-16.911097"><ele>861.5</ele></trkpt><trkpt lat="32.784642" lon="-16.910867"><ele>861.9</ele></trkpt><trkpt lat="32.784881" lon="-16.910649"><ele>863.7</ele></trkpt><trkpt lat="32.784901" lon="-16.910569"><ele>864.7</ele></trkpt><trkpt lat="32.784909" lon="-16.910369"><ele>882</ele></trkpt><trkpt lat="32.78487" lon="-16.910115"><ele>868.2</ele></trkpt><trkpt lat="32.784948" lon="-16.90983"><ele>856.7</ele></trkpt><trkpt lat="32.78507" lon="-16.909676"><ele>852.5</ele></trkpt><trkpt lat="32.785548" lon="-16.909366"><ele>841.4</ele></trkpt><trkpt lat="32.785873" lon="-16.908745"><ele>831</ele></trkpt><trkpt lat="32.786109" lon="-16.908387"><ele>825.2</ele></trkpt><trkpt lat="32.786193" lon="-16.908152"><ele>825.4</ele></trkpt><trkpt lat="32.786207" lon="-16.907842"><ele>824.1</ele></trkpt><trkpt lat="32.786175" lon="-16.90756"><ele>824.2</ele></trkpt><trkpt lat="32.786054" lon="-16.907291"><ele>824.4</ele></trkpt><trkpt lat="32.785745" lon="-16.907088"><ele>823.8</ele></trkpt><trkpt lat="32.78561" lon="-16.907099"><ele>823.9</ele></trkpt><trkpt lat="32.785504" lon="-16.907161"><ele>824</ele></trkpt><trkpt lat="32.785392" lon="-16.907294"><ele>824.7</ele></trkpt><trkpt lat="32.785343" lon="-16.907321"><ele>823</ele></trkpt><trkpt lat="32.785275" lon="-16.907317"><ele>850.3</ele></trkpt><trkpt lat="32.78521" lon="-16.907249"><ele>850</ele></trkpt><trkpt lat="32.785048" lon="-16.906961"><ele>849.8</ele></trkpt><trkpt lat="32.784799" lon="-16.906771"><ele>849.5</ele></trkpt><trkpt lat="32.784594" lon="-16.906707"><ele>849.1</ele></trkpt><trkpt lat="32.784402" lon="-16.906584"><ele>848.8</ele></trkpt><trkpt lat="32.784241" lon="-16.906508"><ele>848.4</ele></trkpt><trkpt lat="32.784079" lon="-16.90658"><ele>850.5</ele></trkpt><trkpt lat="32.784037" lon="-16.906703"><ele>853</ele></trkpt><trkpt lat="32.784026" lon="-16.906524"><ele>842.3</ele></trkpt><trkpt lat="32.784085" lon="-16.906344"><ele>821</ele></trkpt><trkpt lat="32.783956" lon="-16.906321"><ele>821</ele></trkpt><trkpt lat="32.783841" lon="-16.9062"><ele>821</ele></trkpt><trkpt lat="32.783884" lon="-16.906178"><ele>821</ele></trkpt><trkpt lat="32.783912" lon="-16.906138"><ele>821</ele></trkpt><trkpt lat="32.783921" lon="-16.906063"><ele>821</ele></trkpt><trkpt lat="32.783892" lon="-16.906002"><ele>821</ele></trkpt><trkpt lat="32.783915" lon="-16.905972"><ele>821</ele></trkpt><trkpt lat="32.784039" lon="-16.905845"><ele>821</ele></trkpt><trkpt lat="32.784104" lon="-16.90581"><ele>821</ele></trkpt><trkpt lat="32.784294" lon="-16.905736"><ele>821</ele></trkpt><trkpt lat="32.784297" lon="-16.905727"><ele>821</ele></trkpt></trkseg></trk></gpx>