<gpx xmlns="http://www.topografix.com/GPX/1/1" xmlns:xsi="http://www.w3.org/2001/XMLSchema-instance" xsi:schemaLocation="http://www.topografix.com/GPX/1/1 http://www.topografix.com/GPX/1/1/gpx.xsd" version="1.1" creator="togpx"><metadata/><wpt lat="46.15630080488247" lon="10.955064296722414"><name></name><desc>label=Footpath to take-off site, Molveno,TN,Italy</desc></wpt><wpt lat="46.17107880139438" lon="10.940650105476381"><name></name><desc>label=Cima  Sophia, Molveno,TN,Italy</desc></wpt><wpt lat="46.15376464656143" lon="10.956802368164064"><name></name><desc>label=Footpath to take-off site, Molveno,TN,Italy</desc></wpt><wpt lat="46.15225032780776" lon="10.962528884410858"><name></name><desc>label=Sentiero Sciury, Molveno,TN,Italy</desc></wpt><wpt lat="46.150769413833665" lon="10.961195826530458"><name></name><desc>label=Rifugio Pradel, Molveno,TN,Italy</desc></wpt><wpt lat="46.14612387934942" lon="10.964301824569704"><name></name><desc>label=Via Antonio Fogazzaro, Molveno,TN,Italy</desc></wpt><wpt lat="46.14416148780096" lon="10.968298316001892"><name></name><desc>label=Aurora, Molveno,TN,Italy</desc></wpt><wpt lat="46.14360955257387" lon="10.96587896347046"><name></name><desc>label=Via Cima Tosa, Molveno,TN,Italy</desc></wpt><wpt lat="46.14309477971509" lon="10.965924561023714"><name></name><desc>label=Via Cima Tosa, Molveno,TN,Italy</desc></wpt><wpt lat="46.143053895021794" lon="10.966337621212007"><name></name><desc>label=Via Damiano Chiesa, Molveno,TN,Italy</desc></wpt><trk><name></name><desc>ascent=1123.3
descent=1743.3
opacity=0.9</desc><trkseg><trkpt lat="46.156301" lon="10.955064"><ele>1490</ele></trkpt><trkpt lat="46.156592" lon="10.954947"><ele>1476</ele></trkpt><trkpt lat="46.156917" lon="10.954501"><ele>1480.3</ele></trkpt><trkpt lat="46.157397" lon="10.954265"><ele>1482</ele></trkpt><trkpt lat="46.157508" lon="10.954194"><ele>1474.6</ele></trkpt><trkpt lat="46.157736" lon="10.953905"><ele>1468.5</ele></trkpt><trkpt lat="46.157852" lon="10.953781"><ele>1469.8</ele></trkpt><trkpt lat="46.157921" lon="10.953746"><ele>1462</ele></trkpt><trkpt lat="46.158041" lon="10.953713"><ele>1462</ele></trkpt><trkpt lat="46.158225" lon="10.953785"><ele>1496.3</ele></trkpt><trkpt lat="46.158467" lon="10.95382"><ele>1501.2</ele></trkpt><trkpt lat="46.158691" lon="10.953898"><ele>1499.9</ele></trkpt><trkpt lat="46.158905" lon="10.953889"><ele>1498.5</ele></trkpt><trkpt lat="46.159086" lon="10.953915"><ele>1510</ele></trkpt><trkpt lat="46.159143" lon="10.953961"><ele>1537.2</ele></trkpt><trkpt lat="46.159284" lon="10.954"><ele>1541</ele></trkpt><trkpt lat="46.159459" lon="10.954146"><ele>1545</ele></trkpt><trkpt lat="46.15964" lon="10.954206"><ele>1549.3</ele></trkpt><trkpt lat="46.159749" lon="10.954137"><ele>1550.1</ele></trkpt><trkpt lat="46.159914" lon="10.954087"><ele>1551.2</ele></trkpt><trkpt lat="46.159957" lon="10.954182"><ele>1555.6</ele></trkpt><trkpt lat="46.16" lon="10.954175"><ele>1556.4</ele></trkpt><trkpt lat="46.160033" lon="10.954264"><ele>1566.9</ele></trkpt><trkpt lat="46.16012" lon="10.954295"><ele>1570.2</ele></trkpt><trkpt lat="46.160159" lon="10.954343"><ele>1572.3</ele></trkpt><trkpt lat="46.160172" lon="10.954445"><ele>1572.6</ele></trkpt><trkpt lat="46.16024" lon="10.954418"><ele>1574</ele></trkpt><trkpt lat="46.160292" lon="10.954587"><ele>1575.1</ele></trkpt><trkpt lat="46.160441" lon="10.954645"><ele>1578.7</ele></trkpt><trkpt lat="46.160587" lon="10.954777"><ele>1583.9</ele></trkpt><trkpt lat="46.160611" lon="10.954893"><ele>1586.6</ele></trkpt><trkpt lat="46.160661" lon="10.95493"><ele>1588.6</ele></trkpt><trkpt lat="46.160677" lon="10.955036"><ele>1590.1</ele></trkpt><trkpt lat="46.160717" lon="10.955087"><ele>1593.4</ele></trkpt><trkpt lat="46.160714" lon="10.955145"><ele>1594</ele></trkpt><trkpt lat="46.16075" lon="10.955252"><ele>1597.3</ele></trkpt><trkpt lat="46.160831" lon="10.955357"><ele>1601.8</ele></trkpt><trkpt lat="46.160877" lon="10.955459"><ele>1603.7</ele></trkpt><trkpt lat="46.160908" lon="10.955624"><ele>1607.2</ele></trkpt><trkpt lat="46.16095" lon="10.955595"><ele>1607.1</ele></trkpt><trkpt lat="46.16097" lon="10.955475"><ele>1604.2</ele></trkpt><trkpt lat="46.161015" lon="10.955456"><ele>1605.7</ele></trkpt><trkpt lat="46.161049" lon="10.955359"><ele>1603.7</ele></trkpt><trkpt lat="46.161109" lon="10.955306"><ele>1604.6</ele></trkpt><trkpt lat="46.161155" lon="10.95535"><ele>1607</ele></trkpt><trkpt lat="46.161181" lon="10.955418"><ele>1606.9</ele></trkpt><trkpt lat="46.161229" lon="10.955341"><ele>1606.8</ele></trkpt><trkpt lat="46.161293" lon="10.95528"><ele>1607.5</ele></trkpt><trkpt lat="46.161329" lon="10.955306"><ele>1607.4</ele></trkpt><trkpt lat="46.161364" lon="10.955453"><ele>1609.9</ele></trkpt><trkpt lat="46.161375" lon="10.955652"><ele>1612.6</ele></trkpt><trkpt lat="46.16145" lon="10.955894"><ele>1615.3</ele></trkpt><trkpt lat="46.161458" lon="10.956003"><ele>1616</ele></trkpt><trkpt lat="46.161503" lon="10.956145"><ele>1618.3</ele></trkpt><trkpt lat="46.161573" lon="10.956274"><ele>1624.1</ele></trkpt><trkpt lat="46.161616" lon="10.956283"><ele>1625.6</ele></trkpt><trkpt lat="46.161667" lon="10.956387"><ele>1629.1</ele></trkpt><trkpt lat="46.161692" lon="10.956503"><ele>1632.5</ele></trkpt><trkpt lat="46.161773" lon="10.956642"><ele>1644.3</ele></trkpt><trkpt lat="46.161948" lon="10.956852"><ele>1672.6</ele></trkpt><trkpt lat="46.162161" lon="10.957442"><ele>1705.4</ele></trkpt><trkpt lat="46.162265" lon="10.95763"><ele>1710.5</ele></trkpt><trkpt lat="46.162364" lon="10.957736"><ele>1716.1</ele></trkpt><trkpt lat="46.162384" lon="10.957781"><ele>1719.6</ele></trkpt><trkpt lat="46.16246" lon="10.957832"><ele>1727.3</ele></trkpt><trkpt lat="46.162581" lon="10.957874"><ele>1731.7</ele></trkpt><trkpt lat="46.162686" lon="10.957878"><ele>1734.6</ele></trkpt><trkpt lat="46.162749" lon="10.957846"><ele>1734.7</ele></trkpt><trkpt lat="46.162766" lon="10.957705"><ele>1736.5</ele></trkpt><trkpt lat="46.162833" lon="10.957656"><ele>1739.8</ele></trkpt><trkpt lat="46.162874" lon="10.957677"><ele>1740</ele></trkpt><trkpt lat="46.162936" lon="10.957751"><ele>1741.5</ele></trkpt><trkpt lat="46.163017" lon="10.957681"><ele>1743.2</ele></trkpt><trkpt lat="46.163062" lon="10.957674"><ele>1744.9</ele></trkpt><trkpt lat="46.163098" lon="10.957574"><ele>1745.3</ele></trkpt><trkpt lat="46.163108" lon="10.957434"><ele>1745.7</ele></trkpt><trkpt lat="46.16322" lon="10.957297"><ele>1745.8</ele></trkpt><trkpt lat="46.163229" lon="10.957229"><ele>1745.9</ele></trkpt><trkpt lat="46.163194" lon="10.957173"><ele>1746</ele></trkpt><trkpt lat="46.163348" lon="10.957044"><ele>1748.1</ele></trkpt><trkpt lat="46.163442" lon="10.956839"><ele>1746.7</ele></trkpt><trkpt lat="46.163331" lon="10.956757"><ele>1742</ele></trkpt><trkpt lat="46.163248" lon="10.956635"><ele>1740</ele></trkpt><trkpt lat="46.163261" lon="10.956488"><ele>1740.2</ele></trkpt><trkpt lat="46.163333" lon="10.956341"><ele>1749.1</ele></trkpt><trkpt lat="46.163373" lon="10.956115"><ele>1751.4</ele></trkpt><trkpt lat="46.163471" lon="10.955949"><ele>1749.7</ele></trkpt><trkpt lat="46.163604" lon="10.955898"><ele>1794</ele></trkpt><trkpt lat="46.163661" lon="10.955758"><ele>1794.8</ele></trkpt><trkpt lat="46.163744" lon="10.955649"><ele>1797.2</ele></trkpt><trkpt lat="46.16384" lon="10.955575"><ele>1797.4</ele></trkpt><trkpt lat="46.163896" lon="10.955471"><ele>1797.9</ele></trkpt><trkpt lat="46.163972" lon="10.95539"><ele>1797.4</ele></trkpt><trkpt lat="46.163972" lon="10.95537"><ele>1798.2</ele></trkpt><trkpt lat="46.164036" lon="10.955318"><ele>1798.7</ele></trkpt><trkpt lat="46.164108" lon="10.955194"><ele>1798.2</ele></trkpt><trkpt lat="46.164099" lon="10.955157"><ele>1798.6</ele></trkpt><trkpt lat="46.164134" lon="10.955023"><ele>1799.3</ele></trkpt><trkpt lat="46.164145" lon="10.955049"><ele>1800</ele></trkpt><trkpt lat="46.164194" lon="10.954939"><ele>1801.8</ele></trkpt><trkpt lat="46.164173" lon="10.95492"><ele>1801.5</ele></trkpt><trkpt lat="46.164235" lon="10.954843"><ele>1804</ele></trkpt><trkpt lat="46.164336" lon="10.954791"><ele>1806.3</ele></trkpt><trkpt lat="46.16438" lon="10.954799"><ele>1806.1</ele></trkpt><trkpt lat="46.164461" lon="10.954687"><ele>1807.1</ele></trkpt><trkpt lat="46.164486" lon="10.95469"><ele>1808.2</ele></trkpt><trkpt lat="46.164532" lon="10.954572"><ele>1808.7</ele></trkpt><trkpt lat="46.164524" lon="10.954517"><ele>1808.6</ele></trkpt><trkpt lat="46.16455" lon="10.954427"><ele>1809.3</ele></trkpt><trkpt lat="46.164575" lon="10.954394"><ele>1809.8</ele></trkpt><trkpt lat="46.164589" lon="10.954307"><ele>1811.5</ele></trkpt><trkpt lat="46.164641" lon="10.954246"><ele>1812.9</ele></trkpt><trkpt lat="46.164667" lon="10.954104"><ele>1813.6</ele></trkpt><trkpt lat="46.164658" lon="10.954089"><ele>1814</ele></trkpt><trkpt lat="46.164691" lon="10.953979"><ele>1815.2</ele></trkpt><trkpt lat="46.164689" lon="10.953892"><ele>1816.4</ele></trkpt><trkpt lat="46.164709" lon="10.953848"><ele>1816.9</ele></trkpt><trkpt lat="46.164748" lon="10.953849"><ele>1817.4</ele></trkpt><trkpt lat="46.164756" lon="10.953808"><ele>1817.5</ele></trkpt><trkpt lat="46.164723" lon="10.953745"><ele>1818.8</ele></trkpt><trkpt lat="46.164742" lon="10.95364"><ele>1819.3</ele></trkpt><trkpt lat="46.164736" lon="10.953542"><ele>1819.4</ele></trkpt><trkpt lat="46.164762" lon="10.953541"><ele>1819.9</ele></trkpt><trkpt lat="46.164774" lon="10.953519"><ele>1820.5</ele></trkpt><trkpt lat="46.164826" lon="10.953538"><ele>1822.6</ele></trkpt><trkpt lat="46.165038" lon="10.953452"><ele>1828.4</ele></trkpt><trkpt lat="46.165094" lon="10.953379"><ele>1829.8</ele></trkpt><trkpt lat="46.165111" lon="10.953391"><ele>1829.2</ele></trkpt><trkpt lat="46.165147" lon="10.953358"><ele>1831</ele></trkpt><trkpt lat="46.16515" lon="10.953308"><ele>1831.9</ele></trkpt><trkpt lat="46.165225" lon="10.953246"><ele>1833.5</ele></trkpt><trkpt lat="46.165281" lon="10.953129"><ele>1836.2</ele></trkpt><trkpt lat="46.165301" lon="10.95314"><ele>1836.1</ele></trkpt><trkpt lat="46.165347" lon="10.952784"><ele>1839.7</ele></trkpt><trkpt lat="46.165325" lon="10.952688"><ele>1840.1</ele></trkpt><trkpt lat="46.165338" lon="10.952666"><ele>1840.8</ele></trkpt><trkpt lat="46.165433" lon="10.952709"><ele>1841.2</ele></trkpt><trkpt lat="46.165531" lon="10.952664"><ele>1841.9</ele></trkpt><trkpt lat="46.16572" lon="10.952496"><ele>1845.5</ele></trkpt><trkpt lat="46.165775" lon="10.952421"><ele>1847.5</ele></trkpt><trkpt lat="46.16579" lon="10.952367"><ele>1848.9</ele></trkpt><trkpt lat="46.165851" lon="10.95233"><ele>1851.1</ele></trkpt><trkpt lat="46.165948" lon="10.952017"><ele>1855.2</ele></trkpt><trkpt lat="46.166014" lon="10.951937"><ele>1860.8</ele></trkpt><trkpt lat="46.166071" lon="10.951911"><ele>1860.4</ele></trkpt><trkpt lat="46.166103" lon="10.951863"><ele>1862.6</ele></trkpt><trkpt lat="46.166145" lon="10.951746"><ele>1866</ele></trkpt><trkpt lat="46.166173" lon="10.951734"><ele>1866.2</ele></trkpt><trkpt lat="46.166196" lon="10.951663"><ele>1868.5</ele></trkpt><trkpt lat="46.166266" lon="10.951626"><ele>1872.9</ele></trkpt><trkpt lat="46.166318" lon="10.951548"><ele>1878.2</ele></trkpt><trkpt lat="46.166311" lon="10.951506"><ele>1878.6</ele></trkpt><trkpt lat="46.166348" lon="10.951447"><ele>1882.4</ele></trkpt><trkpt lat="46.166362" lon="10.951485"><ele>1882.2</ele></trkpt><trkpt lat="46.166397" lon="10.951497"><ele>1884.2</ele></trkpt><trkpt lat="46.166416" lon="10.951473"><ele>1885.5</ele></trkpt><trkpt lat="46.166416" lon="10.95143"><ele>1886.8</ele></trkpt><trkpt lat="46.166483" lon="10.951375"><ele>1888.4</ele></trkpt><trkpt lat="46.166517" lon="10.951299"><ele>1890.6</ele></trkpt><trkpt lat="46.16652" lon="10.951152"><ele>1892.9</ele></trkpt><trkpt lat="46.166559" lon="10.95097"><ele>1896.1</ele></trkpt><trkpt lat="46.166596" lon="10.950962"><ele>1896.8</ele></trkpt><trkpt lat="46.166656" lon="10.950899"><ele>1901.2</ele></trkpt><trkpt lat="46.166645" lon="10.950734"><ele>1904.9</ele></trkpt><trkpt lat="46.166659" lon="10.950704"><ele>1906</ele></trkpt><trkpt lat="46.166667" lon="10.950561"><ele>1909.3</ele></trkpt><trkpt lat="46.166701" lon="10.950479"><ele>1908.3</ele></trkpt><trkpt lat="46.166749" lon="10.950494"><ele>1908.3</ele></trkpt><trkpt lat="46.166789" lon="10.950403"><ele>1908.1</ele></trkpt><trkpt lat="46.166861" lon="10.950322"><ele>1908.6</ele></trkpt><trkpt lat="46.167005" lon="10.950262"><ele>1907.2</ele></trkpt><trkpt lat="46.167062" lon="10.950144"><ele>1907.3</ele></trkpt><trkpt lat="46.16711" lon="10.95012"><ele>1906.8</ele></trkpt><trkpt lat="46.167141" lon="10.950057"><ele>1904.9</ele></trkpt><trkpt lat="46.167205" lon="10.950091"><ele>1903.6</ele></trkpt><trkpt lat="46.167207" lon="10.950034"><ele>1903.3</ele></trkpt><trkpt lat="46.16735" lon="10.949845"><ele>1904.8</ele></trkpt><trkpt lat="46.16741" lon="10.949801"><ele>1905.9</ele></trkpt><trkpt lat="46.167427" lon="10.949729"><ele>1906.7</ele></trkpt><trkpt lat="46.167416" lon="10.949677"><ele>1907.4</ele></trkpt><trkpt lat="46.167491" lon="10.949586"><ele>1908.2</ele></trkpt><trkpt lat="46.167507" lon="10.949504"><ele>1909.4</ele></trkpt><trkpt lat="46.167548" lon="10.94944"><ele>1956</ele></trkpt><trkpt lat="46.167576" lon="10.94942"><ele>1973</ele></trkpt><trkpt lat="46.167658" lon="10.949438"><ele>1973.9</ele></trkpt><trkpt lat="46.167661" lon="10.949473"><ele>1974.3</ele></trkpt><trkpt lat="46.167692" lon="10.949452"><ele>1974.8</ele></trkpt><trkpt lat="46.167766" lon="10.949532"><ele>1975.7</ele></trkpt><trkpt lat="46.167767" lon="10.949576"><ele>1976.2</ele></trkpt><trkpt lat="46.167844" lon="10.94964"><ele>1977.2</ele></trkpt><trkpt lat="46.167898" lon="10.949597"><ele>1977.8</ele></trkpt><trkpt lat="46.168053" lon="10.949543"><ele>1978.9</ele></trkpt><trkpt lat="46.168214" lon="10.94943"><ele>1980.6</ele></trkpt><trkpt lat="46.168253" lon="10.949432"><ele>1981.2</ele></trkpt><trkpt lat="46.168337" lon="10.949334"><ele>1983.2</ele></trkpt><trkpt lat="46.168351" lon="10.949275"><ele>1983.4</ele></trkpt><trkpt lat="46.168383" lon="10.949253"><ele>1983.6</ele></trkpt><trkpt lat="46.168368" lon="10.949072"><ele>1984.3</ele></trkpt><trkpt lat="46.168442" lon="10.948957"><ele>1983.4</ele></trkpt><trkpt lat="46.168437" lon="10.94889"><ele>1983.1</ele></trkpt><trkpt lat="46.168478" lon="10.948897"><ele>1982.8</ele></trkpt><trkpt lat="46.168511" lon="10.948867"><ele>1982.5</ele></trkpt><trkpt lat="46.168554" lon="10.948889"><ele>1981.9</ele></trkpt><trkpt lat="46.168633" lon="10.948843"><ele>1981.6</ele></trkpt><trkpt lat="46.168636" lon="10.948858"><ele>1981.2</ele></trkpt><trkpt lat="46.168714" lon="10.948872"><ele>1980.5</ele></trkpt><trkpt lat="46.16875" lon="10.948931"><ele>1980.2</ele></trkpt><trkpt lat="46.168819" lon="10.948973"><ele>1995</ele></trkpt><trkpt lat="46.168894" lon="10.948879"><ele>2016.4</ele></trkpt><trkpt lat="46.168875" lon="10.948705"><ele>2017.4</ele></trkpt><trkpt lat="46.168881" lon="10.948319"><ele>2019.6</ele></trkpt><trkpt lat="46.168865" lon="10.94816"><ele>2020.3</ele></trkpt><trkpt lat="46.168925" lon="10.948108"><ele>2023.9</ele></trkpt><trkpt lat="46.169063" lon="10.948096"><ele>2029.2</ele></trkpt><trkpt lat="46.169107" lon="10.94813"><ele>2030.2</ele></trkpt><trkpt lat="46.169257" lon="10.948339"><ele>2032.7</ele></trkpt><trkpt lat="46.169387" lon="10.948342"><ele>2036.1</ele></trkpt><trkpt lat="46.169547" lon="10.948289"><ele>2039.1</ele></trkpt><trkpt lat="46.169697" lon="10.948206"><ele>2044.3</ele></trkpt><trkpt lat="46.169717" lon="10.948163"><ele>2044.5</ele></trkpt><trkpt lat="46.169788" lon="10.94815"><ele>2046.2</ele></trkpt><trkpt lat="46.169831" lon="10.948219"><ele>2046.4</ele></trkpt><trkpt lat="46.169983" lon="10.948345"><ele>2049.4</ele></trkpt><trkpt lat="46.170081" lon="10.948402"><ele>2050.5</ele></trkpt><trkpt lat="46.170152" lon="10.948383"><ele>2053.4</ele></trkpt><trkpt lat="46.170254" lon="10.948292"><ele>2061.8</ele></trkpt><trkpt lat="46.17033" lon="10.948117"><ele>2064.3</ele></trkpt><trkpt lat="46.170372" lon="10.948057"><ele>2064.1</ele></trkpt><trkpt lat="46.170561" lon="10.947922"><ele>2081.1</ele></trkpt><trkpt lat="46.170666" lon="10.947911"><ele>2085.5</ele></trkpt><trkpt lat="46.170709" lon="10.947865"><ele>2087.6</ele></trkpt><trkpt lat="46.170882" lon="10.947959"><ele>2090.3</ele></trkpt><trkpt lat="46.170934" lon="10.947967"><ele>2090.2</ele></trkpt><trkpt lat="46.170999" lon="10.947916"><ele>2090</ele></trkpt><trkpt lat="46.171079" lon="10.947922"><ele>2092.9</ele></trkpt><trkpt lat="46.171174" lon="10.947849"><ele>2098.2</ele></trkpt><trkpt lat="46.171275" lon="10.947869"><ele>2098.3</ele></trkpt><trkpt lat="46.171398" lon="10.947947"><ele>2102</ele></trkpt><trkpt lat="46.171493" lon="10.94804"><ele>2104.2</ele></trkpt><trkpt lat="46.171703" lon="10.948392"><ele>2109.9</ele></trkpt><trkpt lat="46.171753" lon="10.948353"><ele>2110.1</ele></trkpt><trkpt lat="46.171808" lon="10.948169"><ele>2113.8</ele></trkpt><trkpt lat="46.171826" lon="10.947894"><ele>2112.7</ele></trkpt><trkpt lat="46.171806" lon="10.947503"><ele>2115.2</ele></trkpt><trkpt lat="46.171779" lon="10.947336"><ele>2118.9</ele></trkpt><trkpt lat="46.17183" lon="10.94728"><ele>2117.5</ele></trkpt><trkpt lat="46.171875" lon="10.947174"><ele>2118.8</ele></trkpt><trkpt lat="46.172201" lon="10.946726"><ele>2138.7</ele></trkpt><trkpt lat="46.172319" lon="10.946404"><ele>2158.5</ele></trkpt><trkpt lat="46.172509" lon="10.946146"><ele>2174</ele></trkpt><trkpt lat="46.172608" lon="10.945821"><ele>2187.8</ele></trkpt><trkpt lat="46.173053" lon="10.945292"><ele>2241.1</ele></trkpt><trkpt lat="46.173231" lon="10.945023"><ele>2246.6</ele></trkpt><trkpt lat="46.173382" lon="10.944937"><ele>2251.9</ele></trkpt><trkpt lat="46.173601" lon="10.944521"><ele>2257.2</ele></trkpt><trkpt lat="46.173731" lon="10.944171"><ele>2261.7</ele></trkpt><trkpt lat="46.173806" lon="10.944081"><ele>2262.8</ele></trkpt><trkpt lat="46.173835" lon="10.943992"><ele>2265.1</ele></trkpt><trkpt lat="46.173769" lon="10.943891"><ele>2264.9</ele></trkpt><trkpt lat="46.173656" lon="10.943863"><ele>2264.7</ele></trkpt><trkpt lat="46.173542" lon="10.943975"><ele>2261.8</ele></trkpt><trkpt lat="46.1734" lon="10.944041"><ele>2261.4</ele></trkpt><trkpt lat="46.172945" lon="10.944028"><ele>2256.5</ele></trkpt><trkpt lat="46.172941" lon="10.943946"><ele>2255.5</ele></trkpt><trkpt lat="46.172813" lon="10.943677"><ele>2258.1</ele></trkpt><trkpt lat="46.17272" lon="10.943583"><ele>2257.2</ele></trkpt><trkpt lat="46.172526" lon="10.943537"><ele>2275</ele></trkpt><trkpt lat="46.172314" lon="10.943435"><ele>2268.9</ele></trkpt><trkpt lat="46.172215" lon="10.943354"><ele>2269.9</ele></trkpt><trkpt lat="46.172163" lon="10.943269"><ele>2271</ele></trkpt><trkpt lat="46.172024" lon="10.9429"><ele>2273.2</ele></trkpt><trkpt lat="46.171902" lon="10.942661"><ele>2278.5</ele></trkpt><trkpt lat="46.171691" lon="10.942503"><ele>2280.8</ele></trkpt><trkpt lat="46.171616" lon="10.942265"><ele>2272.6</ele></trkpt><trkpt lat="46.17143" lon="10.94206"><ele>2266</ele></trkpt><trkpt lat="46.171153" lon="10.941436"><ele>2233.2</ele></trkpt><trkpt lat="46.171074" lon="10.941341"><ele>2210.4</ele></trkpt><trkpt lat="46.171007" lon="10.941315"><ele>2202.7</ele></trkpt><trkpt lat="46.171074" lon="10.941341"><ele>2210.4</ele></trkpt><trkpt lat="46.171153" lon="10.941436"><ele>2233.2</ele></trkpt><trkpt lat="46.17143" lon="10.94206"><ele>2266</ele></trkpt><trkpt lat="46.171616" lon="10.942265"><ele>2272.6</ele></trkpt><trkpt lat="46.171691" lon="10.942503"><ele>2280.8</ele></trkpt><trkpt lat="46.171902" lon="10.942661"><ele>2278.5</ele></trkpt><trkpt lat="46.172024" lon="10.9429"><ele>2273.2</ele></trkpt><trkpt lat="46.172163" lon="10.943269"><ele>2271</ele></trkpt><trkpt lat="46.172215" lon="10.943354"><ele>2269.9</ele></trkpt><trkpt lat="46.172314" lon="10.943435"><ele>2268.9</ele></trkpt><trkpt lat="46.172526" lon="10.943537"><ele>2275</ele></trkpt><trkpt lat="46.17272" lon="10.943583"><ele>2257.2</ele></trkpt><trkpt lat="46.172813" lon="10.943677"><ele>2258.1</ele></trkpt><trkpt lat="46.172941" lon="10.943946"><ele>2255.5</ele></trkpt><trkpt lat="46.172945" lon="10.944028"><ele>2256.5</ele></trkpt><trkpt lat="46.1734" lon="10.944041"><ele>2261.4</ele></trkpt><trkpt lat="46.173542" lon="10.943975"><ele>2261.8</ele></trkpt><trkpt lat="46.173656" lon="10.943863"><ele>2264.7</ele></trkpt><trkpt lat="46.173769" lon="10.943891"><ele>2264.9</ele></trkpt><trkpt lat="46.173835" lon="10.943992"><ele>2265.1</ele></trkpt><trkpt lat="46.173806" lon="10.944081"><ele>2262.8</ele></trkpt><trkpt lat="46.173731" lon="10.944171"><ele>2261.7</ele></trkpt><trkpt lat="46.173601" lon="10.944521"><ele>2257.2</ele></trkpt><trkpt lat="46.173382" lon="10.944937"><ele>2251.9</ele></trkpt><trkpt lat="46.173231" lon="10.945023"><ele>2246.6</ele></trkpt><trkpt lat="46.173053" lon="10.945292"><ele>2241.1</ele></trkpt><trkpt lat="46.172608" lon="10.945821"><ele>2187.8</ele></trkpt><trkpt lat="46.172509" lon="10.946146"><ele>2174</ele></trkpt><trkpt lat="46.172319" lon="10.946404"><ele>2158.5</ele></trkpt><trkpt lat="46.172201" lon="10.946726"><ele>2138.7</ele></trkpt><trkpt lat="46.171875" lon="10.947174"><ele>2118.8</ele></trkpt><trkpt lat="46.17183" lon="10.94728"><ele>2117.5</ele></trkpt><trkpt lat="46.171779" lon="10.947336"><ele>2118.9</ele></trkpt><trkpt lat="46.171806" lon="10.947503"><ele>2115.2</ele></trkpt><trkpt lat="46.171826" lon="10.947894"><ele>2112.7</ele></trkpt><trkpt lat="46.171808" lon="10.948169"><ele>2113.8</ele></trkpt><trkpt lat="46.171753" lon="10.948353"><ele>2110.1</ele></trkpt><trkpt lat="46.171703" lon="10.948392"><ele>2109.9</ele></trkpt><trkpt lat="46.171493" lon="10.94804"><ele>2104.2</ele></trkpt><trkpt lat="46.171398" lon="10.947947"><ele>2102</ele></trkpt><trkpt lat="46.171275" lon="10.947869"><ele>2098.3</ele></trkpt><trkpt lat="46.171174" lon="10.947849"><ele>2098.2</ele></trkpt><trkpt lat="46.171079" lon="10.947922"><ele>2092.9</ele></trkpt><trkpt lat="46.170999" lon="10.947916"><ele>2090</ele></trkpt><trkpt lat="46.170934" lon="10.947967"><ele>2090.2</ele></trkpt><trkpt lat="46.170882" lon="10.947959"><ele>2090.3</ele></trkpt><trkpt lat="46.170709" lon="10.947865"><ele>2087.6</ele></trkpt><trkpt lat="46.170666" lon="10.947911"><ele>2085.5</ele></trkpt><trkpt lat="46.170561" lon="10.947922"><ele>2081.1</ele></trkpt><trkpt lat="46.170372" lon="10.948057"><ele>2064.1</ele></trkpt><trkpt lat="46.17033" lon="10.948117"><ele>2064.3</ele></trkpt><trkpt lat="46.170254" lon="10.948292"><ele>2061.8</ele></trkpt><trkpt lat="46.170152" lon="10.948383"><ele>2053.4</ele></trkpt><trkpt lat="46.170081" lon="10.948402"><ele>2050.5</ele></trkpt><trkpt lat="46.169983" lon="10.948345"><ele>2049.4</ele></trkpt><trkpt lat="46.169831" lon="10.948219"><ele>2046.4</ele></trkpt><trkpt lat="46.169788" lon="10.94815"><ele>2046.2</ele></trkpt><trkpt lat="46.169717" lon="10.948163"><ele>2044.5</ele></trkpt><trkpt lat="46.169697" lon="10.948206"><ele>2044.3</ele></trkpt><trkpt lat="46.169547" lon="10.948289"><ele>2039.1</ele></trkpt><trkpt lat="46.169387" lon="10.948342"><ele>2036.1</ele></trkpt><trkpt lat="46.169257" lon="10.948339"><ele>2032.7</ele></trkpt><trkpt lat="46.169107" lon="10.94813"><ele>2030.2</ele></trkpt><trkpt lat="46.169063" lon="10.948096"><ele>2029.2</ele></trkpt><trkpt lat="46.168925" lon="10.948108"><ele>2023.9</ele></trkpt><trkpt lat="46.168865" lon="10.94816"><ele>2020.3</ele></trkpt><trkpt lat="46.168881" lon="10.948319"><ele>2019.6</ele></trkpt><trkpt lat="46.168875" lon="10.948705"><ele>2017.4</ele></trkpt><trkpt lat="46.168894" lon="10.948879"><ele>2016.4</ele></trkpt><trkpt lat="46.168819" lon="10.948973"><ele>1995</ele></trkpt><trkpt lat="46.16875" lon="10.948931"><ele>1980.2</ele></trkpt><trkpt lat="46.168714" lon="10.948872"><ele>1980.5</ele></trkpt><trkpt lat="46.168636" lon="10.948858"><ele>1981.2</ele></trkpt><trkpt lat="46.168633" lon="10.948843"><ele>1981.6</ele></trkpt><trkpt lat="46.168554" lon="10.948889"><ele>1981.9</ele></trkpt><trkpt lat="46.168511" lon="10.948867"><ele>1982.5</ele></trkpt><trkpt lat="46.168478" lon="10.948897"><ele>1982.8</ele></trkpt><trkpt lat="46.168437" lon="10.94889"><ele>1983.1</ele></trkpt><trkpt lat="46.168442" lon="10.948957"><ele>1983.4</ele></trkpt><trkpt lat="46.168368" lon="10.949072"><ele>1984.3</ele></trkpt><trkpt lat="46.168383" lon="10.949253"><ele>1983.6</ele></trkpt><trkpt lat="46.168351" lon="10.949275"><ele>1983.4</ele></trkpt><trkpt lat="46.168337" lon="10.949334"><ele>1983.2</ele></trkpt><trkpt lat="46.168253" lon="10.949432"><ele>1981.2</ele></trkpt><trkpt lat="46.168214" lon="10.94943"><ele>1980.6</ele></trkpt><trkpt lat="46.168053" lon="10.949543"><ele>1978.9</ele></trkpt><trkpt lat="46.167898" lon="10.949597"><ele>1977.8</ele></trkpt><trkpt lat="46.167844" lon="10.94964"><ele>1977.2</ele></trkpt><trkpt lat="46.167767" lon="10.949576"><ele>1976.2</ele></trkpt><trkpt lat="46.167766" lon="10.949532"><ele>1975.7</ele></trkpt><trkpt lat="46.167692" lon="10.949452"><ele>1974.8</ele></trkpt><trkpt lat="46.167661" lon="10.949473"><ele>1974.3</ele></trkpt><trkpt lat="46.167658" lon="10.949438"><ele>1973.9</ele></trkpt><trkpt lat="46.167576" lon="10.94942"><ele>1973</ele></trkpt><trkpt lat="46.167548" lon="10.94944"><ele>1956</ele></trkpt><trkpt lat="46.167507" lon="10.949504"><ele>1909.4</ele></trkpt><trkpt lat="46.167491" lon="10.949586"><ele>1908.2</ele></trkpt><trkpt lat="46.167416" lon="10.949677"><ele>1907.4</ele></trkpt><trkpt lat="46.167427" lon="10.949729"><ele>1906.7</ele></trkpt><trkpt lat="46.16741" lon="10.949801"><ele>1905.9</ele></trkpt><trkpt lat="46.16735" lon="10.949845"><ele>1904.8</ele></trkpt><trkpt lat="46.167207" lon="10.950034"><ele>1903.3</ele></trkpt><trkpt lat="46.167205" lon="10.950091"><ele>1903.6</ele></trkpt><trkpt lat="46.167141" lon="10.950057"><ele>1904.9</ele></trkpt><trkpt lat="46.16711" lon="10.95012"><ele>1906.8</ele></trkpt><trkpt lat="46.167062" lon="10.950144"><ele>1907.3</ele></trkpt><trkpt lat="46.167005" lon="10.950262"><ele>1907.2</ele></trkpt><trkpt lat="46.166861" lon="10.950322"><ele>1908.6</ele></trkpt><trkpt lat="46.166789" lon="10.950403"><ele>1908.1</ele></trkpt><trkpt lat="46.166749" lon="10.950494"><ele>1908.3</ele></trkpt><trkpt lat="46.166701" lon="10.950479"><ele>1908.3</ele></trkpt><trkpt lat="46.166667" lon="10.950561"><ele>1909.3</ele></trkpt><trkpt lat="46.166659" lon="10.950704"><ele>1906</ele></trkpt><trkpt lat="46.166645" lon="10.950734"><ele>1904.9</ele></trkpt><trkpt lat="46.166656" lon="10.950899"><ele>1901.2</ele></trkpt><trkpt lat="46.166596" lon="10.950962"><ele>1896.8</ele></trkpt><trkpt lat="46.166559" lon="10.95097"><ele>1896.1</ele></trkpt><trkpt lat="46.16652" lon="10.951152"><ele>1892.9</ele></trkpt><trkpt lat="46.166517" lon="10.951299"><ele>1890.6</ele></trkpt><trkpt lat="46.166483" lon="10.951375"><ele>1888.4</ele></trkpt><trkpt lat="46.166416" lon="10.95143"><ele>1886.8</ele></trkpt><trkpt lat="46.166416" lon="10.951473"><ele>1885.5</ele></trkpt><trkpt lat="46.166397" lon="10.951497"><ele>1884.2</ele></trkpt><trkpt lat="46.166362" lon="10.951485"><ele>1882.2</ele></trkpt><trkpt lat="46.166348" lon="10.951447"><ele>1882.4</ele></trkpt><trkpt lat="46.166311" lon="10.951506"><ele>1878.6</ele></trkpt><trkpt lat="46.166318" lon="10.951548"><ele>1878.2</ele></trkpt><trkpt lat="46.166266" lon="10.951626"><ele>1872.9</ele></trkpt><trkpt lat="46.166196" lon="10.951663"><ele>1868.5</ele></trkpt><trkpt lat="46.166173" lon="10.951734"><ele>1866.2</ele></trkpt><trkpt lat="46.166145" lon="10.951746"><ele>1866</ele></trkpt><trkpt lat="46.166103" lon="10.951863"><ele>1862.6</ele></trkpt><trkpt lat="46.166071" lon="10.951911"><ele>1860.4</ele></trkpt><trkpt lat="46.166014" lon="10.951937"><ele>1860.8</ele></trkpt><trkpt lat="46.165948" lon="10.952017"><ele>1855.2</ele></trkpt><trkpt lat="46.165851" lon="10.95233"><ele>1851.1</ele></trkpt><trkpt lat="46.16579" lon="10.952367"><ele>1848.9</ele></trkpt><trkpt lat="46.165775" lon="10.952421"><ele>1847.5</ele></trkpt><trkpt lat="46.16572" lon="10.952496"><ele>1845.5</ele></trkpt><trkpt lat="46.165531" lon="10.952664"><ele>1841.9</ele></trkpt><trkpt lat="46.165433" lon="10.952709"><ele>1841.2</ele></trkpt><trkpt lat="46.165338" lon="10.952666"><ele>1840.8</ele></trkpt><trkpt lat="46.165325" lon="10.952688"><ele>1840.1</ele></trkpt><trkpt lat="46.165347" lon="10.952784"><ele>1839.7</ele></trkpt><trkpt lat="46.165301" lon="10.95314"><ele>1836.1</ele></trkpt><trkpt lat="46.165281" lon="10.953129"><ele>1836.2</ele></trkpt><trkpt lat="46.165225" lon="10.953246"><ele>1833.5</ele></trkpt><trkpt lat="46.16515" lon="10.953308"><ele>1831.9</ele></trkpt><trkpt lat="46.165147" lon="10.953358"><ele>1831</ele></trkpt><trkpt lat="46.165111" lon="10.953391"><ele>1829.2</ele></trkpt><trkpt lat="46.165094" lon="10.953379"><ele>1829.8</ele></trkpt><trkpt lat="46.165038" lon="10.953452"><ele>1828.4</ele></trkpt><trkpt lat="46.164826" lon="10.953538"><ele>1822.6</ele></trkpt><trkpt lat="46.164774" lon="10.953519"><ele>1820.5</ele></trkpt><trkpt lat="46.164762" lon="10.953541"><ele>1819.9</ele></trkpt><trkpt lat="46.164736" lon="10.953542"><ele>1819.4</ele></trkpt><trkpt lat="46.164742" lon="10.95364"><ele>1819.3</ele></trkpt><trkpt lat="46.164723" lon="10.953745"><ele>1818.8</ele></trkpt><trkpt lat="46.164756" lon="10.953808"><ele>1817.5</ele></trkpt><trkpt lat="46.164748" lon="10.953849"><ele>1817.4</ele></trkpt><trkpt lat="46.164709" lon="10.953848"><ele>1816.9</ele></trkpt><trkpt lat="46.164689" lon="10.953892"><ele>1816.4</ele></trkpt><trkpt lat="46.164691" lon="10.953979"><ele>1815.2</ele></trkpt><trkpt lat="46.164658" lon="10.954089"><ele>1814</ele></trkpt><trkpt lat="46.164667" lon="10.954104"><ele>1813.6</ele></trkpt><trkpt lat="46.164641" lon="10.954246"><ele>1812.9</ele></trkpt><trkpt lat="46.164589" lon="10.954307"><ele>1811.5</ele></trkpt><trkpt lat="46.164575" lon="10.954394"><ele>1809.8</ele></trkpt><trkpt lat="46.16455" lon="10.954427"><ele>1809.3</ele></trkpt><trkpt lat="46.164524" lon="10.954517"><ele>1808.6</ele></trkpt><trkpt lat="46.164532" lon="10.954572"><ele>1808.7</ele></trkpt><trkpt lat="46.164486" lon="10.95469"><ele>1808.2</ele></trkpt><trkpt lat="46.164461" lon="10.954687"><ele>1807.1</ele></trkpt><trkpt lat="46.16438" lon="10.954799"><ele>1806.1</ele></trkpt><trkpt lat="46.164336" lon="10.954791"><ele>1806.3</ele></trkpt><trkpt lat="46.164235" lon="10.954843"><ele>1804</ele></trkpt><trkpt lat="46.164173" lon="10.95492"><ele>1801.5</ele></trkpt><trkpt lat="46.164194" lon="10.954939"><ele>1801.8</ele></trkpt><trkpt lat="46.164145" lon="10.955049"><ele>1800</ele></trkpt><trkpt lat="46.164134" lon="10.955023"><ele>1799.3</ele></trkpt><trkpt lat="46.164099" lon="10.955157"><ele>1798.6</ele></trkpt><trkpt lat="46.164108" lon="10.955194"><ele>1798.2</ele></trkpt><trkpt lat="46.164036" lon="10.955318"><ele>1798.7</ele></trkpt><trkpt lat="46.163972" lon="10.95537"><ele>1798.2</ele></trkpt><trkpt lat="46.163972" lon="10.95539"><ele>1797.4</ele></trkpt><trkpt lat="46.163896" lon="10.955471"><ele>1797.9</ele></trkpt><trkpt lat="46.16384" lon="10.955575"><ele>1797.4</ele></trkpt><trkpt lat="46.163744" lon="10.955649"><ele>1797.2</ele></trkpt><trkpt lat="46.163661" lon="10.955758"><ele>1794.8</ele></trkpt><trkpt lat="46.163604" lon="10.955898"><ele>1794</ele></trkpt><trkpt lat="46.163471" lon="10.955949"><ele>1749.7</ele></trkpt><trkpt lat="46.163373" lon="10.956115"><ele>1751.4</ele></trkpt><trkpt lat="46.163333" lon="10.956341"><ele>1749.1</ele></trkpt><trkpt lat="46.163261" lon="10.956488"><ele>1740.2</ele></trkpt><trkpt lat="46.163248" lon="10.956635"><ele>1740</ele></trkpt><trkpt lat="46.163331" lon="10.956757"><ele>1742</ele></trkpt><trkpt lat="46.163442" lon="10.956839"><ele>1746.7</ele></trkpt><trkpt lat="46.163348" lon="10.957044"><ele>1748.1</ele></trkpt><trkpt lat="46.163194" lon="10.957173"><ele>1746</ele></trkpt><trkpt lat="46.163229" lon="10.957229"><ele>1745.9</ele></trkpt><trkpt lat="46.16322" lon="10.957297"><ele>1745.8</ele></trkpt><trkpt lat="46.163108" lon="10.957434"><ele>1745.7</ele></trkpt><trkpt lat="46.163098" lon="10.957574"><ele>1745.3</ele></trkpt><trkpt lat="46.163062" lon="10.957674"><ele>1744.9</ele></trkpt><trkpt lat="46.163017" lon="10.957681"><ele>1743.2</ele></trkpt><trkpt lat="46.162936" lon="10.957751"><ele>1741.5</ele></trkpt><trkpt lat="46.162874" lon="10.957677"><ele>1740</ele></trkpt><trkpt lat="46.162833" lon="10.957656"><ele>1739.8</ele></trkpt><trkpt lat="46.162766" lon="10.957705"><ele>1736.5</ele></trkpt><trkpt lat="46.162749" lon="10.957846"><ele>1734.7</ele></trkpt><trkpt lat="46.162686" lon="10.957878"><ele>1734.6</ele></trkpt><trkpt lat="46.162581" lon="10.957874"><ele>1731.7</ele></trkpt><trkpt lat="46.16246" lon="10.957832"><ele>1727.3</ele></trkpt><trkpt lat="46.162384" lon="10.957781"><ele>1719.6</ele></trkpt><trkpt lat="46.162364" lon="10.957736"><ele>1716.1</ele></trkpt><trkpt lat="46.162265" lon="10.95763"><ele>1710.5</ele></trkpt><trkpt lat="46.162161" lon="10.957442"><ele>1705.4</ele></trkpt><trkpt lat="46.161948" lon="10.956852"><ele>1672.6</ele></trkpt><trkpt lat="46.161773" lon="10.956642"><ele>1644.3</ele></trkpt><trkpt lat="46.161692" lon="10.956503"><ele>1632.5</ele></trkpt><trkpt lat="46.161667" lon="10.956387"><ele>1629.1</ele></trkpt><trkpt lat="46.161616" lon="10.956283"><ele>1625.6</ele></trkpt><trkpt lat="46.161573" lon="10.956274"><ele>1624.1</ele></trkpt><trkpt lat="46.161503" lon="10.956145"><ele>1618.3</ele></trkpt><trkpt lat="46.161458" lon="10.956003"><ele>1616</ele></trkpt><trkpt lat="46.16145" lon="10.955894"><ele>1615.3</ele></trkpt><trkpt lat="46.161375" lon="10.955652"><ele>1612.6</ele></trkpt><trkpt lat="46.161364" lon="10.955453"><ele>1609.9</ele></trkpt><trkpt lat="46.161329" lon="10.955306"><ele>1607.4</ele></trkpt><trkpt lat="46.161293" lon="10.95528"><ele>1607.5</ele></trkpt><trkpt lat="46.161229" lon="10.955341"><ele>1606.8</ele></trkpt><trkpt lat="46.161181" lon="10.955418"><ele>1606.9</ele></trkpt><trkpt lat="46.161155" lon="10.95535"><ele>1607</ele></trkpt><trkpt lat="46.161109" lon="10.955306"><ele>1604.6</ele></trkpt><trkpt lat="46.161049" lon="10.955359"><ele>1603.7</ele></trkpt><trkpt lat="46.161015" lon="10.955456"><ele>1605.7</ele></trkpt><trkpt lat="46.16097" lon="10.955475"><ele>1604.2</ele></trkpt><trkpt lat="46.16095" lon="10.955595"><ele>1607.1</ele></trkpt><trkpt lat="46.160908" lon="10.955624"><ele>1607.2</ele></trkpt><trkpt lat="46.160877" lon="10.955459"><ele>1603.7</ele></trkpt><trkpt lat="46.160831" lon="10.955357"><ele>1601.8</ele></trkpt><trkpt lat="46.16075" lon="10.955252"><ele>1597.3</ele></trkpt><trkpt lat="46.160714" lon="10.955145"><ele>1594</ele></trkpt><trkpt lat="46.160717" lon="10.955087"><ele>1593.4</ele></trkpt><trkpt lat="46.160677" lon="10.955036"><ele>1590.1</ele></trkpt><trkpt lat="46.160661" lon="10.95493"><ele>1588.6</ele></trkpt><trkpt lat="46.160611" lon="10.954893"><ele>1586.6</ele></trkpt><trkpt lat="46.160587" lon="10.954777"><ele>1583.9</ele></trkpt><trkpt lat="46.160441" lon="10.954645"><ele>1578.7</ele></trkpt><trkpt lat="46.160292" lon="10.954587"><ele>1575.1</ele></trkpt><trkpt lat="46.16024" lon="10.954418"><ele>1574</ele></trkpt><trkpt lat="46.160172" lon="10.954445"><ele>1572.6</ele></trkpt><trkpt lat="46.160159" lon="10.954343"><ele>1572.3</ele></trkpt><trkpt lat="46.16012" lon="10.954295"><ele>1570.2</ele></trkpt><trkpt lat="46.160033" lon="10.954264"><ele>1566.9</ele></trkpt><trkpt lat="46.16" lon="10.954175"><ele>1556.4</ele></trkpt><trkpt lat="46.159957" lon="10.954182"><ele>1555.6</ele></trkpt><trkpt lat="46.159914" lon="10.954087"><ele>1551.2</ele></trkpt><trkpt lat="46.159749" lon="10.954137"><ele>1550.1</ele></trkpt><trkpt lat="46.15964" lon="10.954206"><ele>1549.3</ele></trkpt><trkpt lat="46.159459" lon="10.954146"><ele>1545</ele></trkpt><trkpt lat="46.159284" lon="10.954"><ele>1541</ele></trkpt><trkpt lat="46.159143" lon="10.953961"><ele>1537.2</ele></trkpt><trkpt lat="46.159086" lon="10.953915"><ele>1510</ele></trkpt><trkpt lat="46.158905" lon="10.953889"><ele>1498.5</ele></trkpt><trkpt lat="46.158691" lon="10.953898"><ele>1499.9</ele></trkpt><trkpt lat="46.158467" lon="10.95382"><ele>1501.2</ele></trkpt><trkpt lat="46.158225" lon="10.953785"><ele>1496.3</ele></trkpt><trkpt lat="46.158041" lon="10.953713"><ele>1462</ele></trkpt><trkpt lat="46.157921" lon="10.953746"><ele>1462</ele></trkpt><trkpt lat="46.157852" lon="10.953781"><ele>1469.8</ele></trkpt><trkpt lat="46.157736" lon="10.953905"><ele>1468.5</ele></trkpt><trkpt lat="46.157508" lon="10.954194"><ele>1474.6</ele></trkpt><trkpt lat="46.157397" lon="10.954265"><ele>1482</ele></trkpt><trkpt lat="46.156917" lon="10.954501"><ele>1480.3</ele></trkpt><trkpt lat="46.156592" lon="10.954947"><ele>1476</ele></trkpt><trkpt lat="46.156297" lon="10.955066"><ele>1504</ele></trkpt><trkpt lat="46.156091" lon="10.95507"><ele>1504.4</ele></trkpt><trkpt lat="46.15592" lon="10.955135"><ele>1504.3</ele></trkpt><trkpt lat="46.155682" lon="10.955273"><ele>1504.5</ele></trkpt><trkpt lat="46.155639" lon="10.955249"><ele>1505</ele></trkpt><trkpt lat="46.155598" lon="10.955226"><ele>1505</ele></trkpt><trkpt lat="46.155422" lon="10.955271"><ele>1505</ele></trkpt><trkpt lat="46.155293" lon="10.955328"><ele>1505</ele></trkpt><trkpt lat="46.155097" lon="10.955417"><ele>1497</ele></trkpt><trkpt lat="46.15495" lon="10.955329"><ele>1494.7</ele></trkpt><trkpt lat="46.154909" lon="10.955344"><ele>1474</ele></trkpt><trkpt lat="46.154817" lon="10.955372"><ele>1474</ele></trkpt><trkpt lat="46.154615" lon="10.955228"><ele>1474</ele></trkpt><trkpt lat="46.154446" lon="10.955184"><ele>1474</ele></trkpt><trkpt lat="46.154419" lon="10.95532"><ele>1471</ele></trkpt><trkpt lat="46.154456" lon="10.955976"><ele>1456</ele></trkpt><trkpt lat="46.154666" lon="10.957017"><ele>1452</ele></trkpt><trkpt lat="46.15485" lon="10.957358"><ele>1448.9</ele></trkpt><trkpt lat="46.154864" lon="10.957479"><ele>1448.4</ele></trkpt><trkpt lat="46.154829" lon="10.957545"><ele>1447.5</ele></trkpt><trkpt lat="46.154785" lon="10.957567"><ele>1446.9</ele></trkpt><trkpt lat="46.15467" lon="10.957497"><ele>1446.4</ele></trkpt><trkpt lat="46.154387" lon="10.957143"><ele>1447.3</ele></trkpt><trkpt lat="46.154257" lon="10.956907"><ele>1447.7</ele></trkpt><trkpt lat="46.154051" lon="10.956663"><ele>1447.4</ele></trkpt><trkpt lat="46.153936" lon="10.956588"><ele>1448.2</ele></trkpt><trkpt lat="46.153856" lon="10.956604"><ele>1448.7</ele></trkpt><trkpt lat="46.153778" lon="10.956663"><ele>1449.2</ele></trkpt><trkpt lat="46.153733" lon="10.956777"><ele>1449.4</ele></trkpt><trkpt lat="46.153718" lon="10.956816"><ele>1449.7</ele></trkpt><trkpt lat="46.153707" lon="10.956883"><ele>1449.1</ele></trkpt><trkpt lat="46.153739" lon="10.957084"><ele>1448.6</ele></trkpt><trkpt lat="46.153965" lon="10.957854"><ele>1446.7</ele></trkpt><trkpt lat="46.154081" lon="10.95815"><ele>1446.3</ele></trkpt><trkpt lat="46.154194" lon="10.958372"><ele>1442.7</ele></trkpt><trkpt lat="46.154242" lon="10.958664"><ele>1435.5</ele></trkpt><trkpt lat="46.154177" lon="10.9589"><ele>1432.7</ele></trkpt><trkpt lat="46.15417" lon="10.958994"><ele>1431.3</ele></trkpt><trkpt lat="46.154196" lon="10.959176"><ele>1428.8</ele></trkpt><trkpt lat="46.154305" lon="10.959587"><ele>1425.5</ele></trkpt><trkpt lat="46.154393" lon="10.95982"><ele>1423.9</ele></trkpt><trkpt lat="46.154456" lon="10.960043"><ele>1423.7</ele></trkpt><trkpt lat="46.154439" lon="10.960187"><ele>1421.9</ele></trkpt><trkpt lat="46.154383" lon="10.960271"><ele>1421.6</ele></trkpt><trkpt lat="46.15425" lon="10.960294"><ele>1419.9</ele></trkpt><trkpt lat="46.154108" lon="10.960212"><ele>1418.2</ele></trkpt><trkpt lat="46.153923" lon="10.960211"><ele>1416.2</ele></trkpt><trkpt lat="46.153715" lon="10.960436"><ele>1414.3</ele></trkpt><trkpt lat="46.153301" lon="10.960587"><ele>1404.3</ele></trkpt><trkpt lat="46.153133" lon="10.960515"><ele>1398.6</ele></trkpt><trkpt lat="46.152932" lon="10.960377"><ele>1395.9</ele></trkpt><trkpt lat="46.152871" lon="10.960293"><ele>1394.5</ele></trkpt><trkpt lat="46.152745" lon="10.960199"><ele>1392.9</ele></trkpt><trkpt lat="46.152648" lon="10.960157"><ele>1393</ele></trkpt><trkpt lat="46.152573" lon="10.96016"><ele>1391.1</ele></trkpt><trkpt lat="46.152219" lon="10.960275"><ele>1390.9</ele></trkpt><trkpt lat="46.152186" lon="10.960366"><ele>1367</ele></trkpt><trkpt lat="46.152159" lon="10.960889"><ele>1364.7</ele></trkpt><trkpt lat="46.152126" lon="10.961035"><ele>1364.8</ele></trkpt><trkpt lat="46.15207" lon="10.961126"><ele>1364.9</ele></trkpt><trkpt lat="46.152045" lon="10.961242"><ele>1364</ele></trkpt><trkpt lat="46.15213" lon="10.961747"><ele>1354</ele></trkpt><trkpt lat="46.152209" lon="10.961876"><ele>1354</ele></trkpt><trkpt lat="46.152324" lon="10.96206"><ele>1354</ele></trkpt><trkpt lat="46.152406" lon="10.962199"><ele>1354</ele></trkpt><trkpt lat="46.152246" lon="10.962525"><ele>1354</ele></trkpt><trkpt lat="46.152406" lon="10.962199"><ele>1354</ele></trkpt><trkpt lat="46.152324" lon="10.96206"><ele>1354</ele></trkpt><trkpt lat="46.152209" lon="10.961876"><ele>1354</ele></trkpt><trkpt lat="46.15213" lon="10.961747"><ele>1354</ele></trkpt><trkpt lat="46.151976" lon="10.961681"><ele>1346.2</ele></trkpt><trkpt lat="46.151858" lon="10.961723"><ele>1347.1</ele></trkpt><trkpt lat="46.151802" lon="10.96178"><ele>1347.8</ele></trkpt><trkpt lat="46.151492" lon="10.961855"><ele>1346.3</ele></trkpt><trkpt lat="46.151343" lon="10.961672"><ele>1344.9</ele></trkpt><trkpt lat="46.151087" lon="10.961259"><ele>1332</ele></trkpt><trkpt lat="46.151012" lon="10.961163"><ele>1318.6</ele></trkpt><trkpt lat="46.150903" lon="10.961164"><ele>1321.3</ele></trkpt><trkpt lat="46.150814" lon="10.961193"><ele>1289</ele></trkpt><trkpt lat="46.150769" lon="10.961195"><ele>1263.4</ele></trkpt><trkpt lat="46.150688" lon="10.961198"><ele>1237.7</ele></trkpt><trkpt lat="46.150542" lon="10.961332"><ele>1238.4</ele></trkpt><trkpt lat="46.150438" lon="10.961298"><ele>1239.1</ele></trkpt><trkpt lat="46.150397" lon="10.961508"><ele>1240.2</ele></trkpt><trkpt lat="46.150321" lon="10.961415"><ele>1240.5</ele></trkpt><trkpt lat="46.150177" lon="10.96135"><ele>1239.7</ele></trkpt><trkpt lat="46.150162" lon="10.961194"><ele>1240.9</ele></trkpt><trkpt lat="46.150046" lon="10.961253"><ele>1239.7</ele></trkpt><trkpt lat="46.149991" lon="10.961179"><ele>1238.7</ele></trkpt><trkpt lat="46.149978" lon="10.961306"><ele>1236.6</ele></trkpt><trkpt lat="46.149905" lon="10.961231"><ele>1236.9</ele></trkpt><trkpt lat="46.149936" lon="10.961343"><ele>1235.9</ele></trkpt><trkpt lat="46.149833" lon="10.961246"><ele>1234.9</ele></trkpt><trkpt lat="46.149853" lon="10.961375"><ele>1234</ele></trkpt><trkpt lat="46.14979" lon="10.961307"><ele>1233</ele></trkpt><trkpt lat="46.149809" lon="10.961406"><ele>1233.3</ele></trkpt><trkpt lat="46.149749" lon="10.961321"><ele>1233.6</ele></trkpt><trkpt lat="46.149745" lon="10.961467"><ele>1232.6</ele></trkpt><trkpt lat="46.149671" lon="10.961355"><ele>1232.9</ele></trkpt><trkpt lat="46.149676" lon="10.961457"><ele>1233.2</ele></trkpt><trkpt lat="46.149606" lon="10.961427"><ele>1232</ele></trkpt><trkpt lat="46.149614" lon="10.961539"><ele>1230.9</ele></trkpt><trkpt lat="46.149524" lon="10.961535"><ele>1228.3</ele></trkpt><trkpt lat="46.149536" lon="10.961628"><ele>1227.2</ele></trkpt><trkpt lat="46.149523" lon="10.961651"><ele>1227.6</ele></trkpt><trkpt lat="46.149554" lon="10.961892"><ele>1226.5</ele></trkpt><trkpt lat="46.149472" lon="10.961852"><ele>1223.4</ele></trkpt><trkpt lat="46.149411" lon="10.961983"><ele>1220.8</ele></trkpt><trkpt lat="46.149321" lon="10.961881"><ele>1218.2</ele></trkpt><trkpt lat="46.149292" lon="10.961924"><ele>1216.8</ele></trkpt><trkpt lat="46.149289" lon="10.962023"><ele>1217</ele></trkpt><trkpt lat="46.149203" lon="10.961935"><ele>1214.2</ele></trkpt><trkpt lat="46.149184" lon="10.96209"><ele>1211.4</ele></trkpt><trkpt lat="46.149107" lon="10.961945"><ele>1209.3</ele></trkpt><trkpt lat="46.149104" lon="10.962113"><ele>1205.5</ele></trkpt><trkpt lat="46.149029" lon="10.962033"><ele>1201.6</ele></trkpt><trkpt lat="46.149036" lon="10.962189"><ele>1197.7</ele></trkpt><trkpt lat="46.148891" lon="10.962049"><ele>1192.4</ele></trkpt><trkpt lat="46.148913" lon="10.962175"><ele>1190.4</ele></trkpt><trkpt lat="46.148818" lon="10.962121"><ele>1185.3</ele></trkpt><trkpt lat="46.148837" lon="10.962249"><ele>1184</ele></trkpt><trkpt lat="46.148789" lon="10.962178"><ele>1182.2</ele></trkpt><trkpt lat="46.14879" lon="10.962348"><ele>1178.2</ele></trkpt><trkpt lat="46.148714" lon="10.962222"><ele>1176.9</ele></trkpt><trkpt lat="46.148701" lon="10.962386"><ele>1172.5</ele></trkpt><trkpt lat="46.148621" lon="10.962262"><ele>1169.7</ele></trkpt><trkpt lat="46.148612" lon="10.962484"><ele>1162.6</ele></trkpt><trkpt lat="46.148407" lon="10.962232"><ele>1155.3</ele></trkpt><trkpt lat="46.148416" lon="10.962364"><ele>1153.9</ele></trkpt><trkpt lat="46.148398" lon="10.962573"><ele>1148.2</ele></trkpt><trkpt lat="46.148327" lon="10.962474"><ele>1144.6</ele></trkpt><trkpt lat="46.148313" lon="10.962744"><ele>1135.6</ele></trkpt><trkpt lat="46.148219" lon="10.962537"><ele>1134.8</ele></trkpt><trkpt lat="46.148226" lon="10.962817"><ele>1129.2</ele></trkpt><trkpt lat="46.148109" lon="10.962707"><ele>1126.7</ele></trkpt><trkpt lat="46.14808" lon="10.962658"><ele>1124.1</ele></trkpt><trkpt lat="46.148039" lon="10.962841"><ele>1113.7</ele></trkpt><trkpt lat="46.147934" lon="10.96277"><ele>1110.1</ele></trkpt><trkpt lat="46.14795" lon="10.962984"><ele>1104.5</ele></trkpt><trkpt lat="46.147843" lon="10.962843"><ele>1101.1</ele></trkpt><trkpt lat="46.147862" lon="10.96304"><ele>1099.6</ele></trkpt><trkpt lat="46.1478" lon="10.962914"><ele>1099.4</ele></trkpt><trkpt lat="46.147735" lon="10.962863"><ele>1097.9</ele></trkpt><trkpt lat="46.147734" lon="10.96307"><ele>1096.3</ele></trkpt><trkpt lat="46.147655" lon="10.962978"><ele>1094.8</ele></trkpt><trkpt lat="46.147651" lon="10.963085"><ele>1094.6</ele></trkpt><trkpt lat="46.147588" lon="10.96306"><ele>1091.5</ele></trkpt><trkpt lat="46.147601" lon="10.963184"><ele>1089.9</ele></trkpt><trkpt lat="46.147513" lon="10.963109"><ele>1086.6</ele></trkpt><trkpt lat="46.147511" lon="10.96321"><ele>1086.5</ele></trkpt><trkpt lat="46.147443" lon="10.963159"><ele>1084</ele></trkpt><trkpt lat="46.147441" lon="10.963281"><ele>1081.4</ele></trkpt><trkpt lat="46.147358" lon="10.963168"><ele>1080.6</ele></trkpt><trkpt lat="46.147358" lon="10.963358"><ele>1077.4</ele></trkpt><trkpt lat="46.147286" lon="10.963268"><ele>1076.7</ele></trkpt><trkpt lat="46.147265" lon="10.963412"><ele>1071.3</ele></trkpt><trkpt lat="46.147212" lon="10.963299"><ele>1070.7</ele></trkpt><trkpt lat="46.147209" lon="10.963397"><ele>1067.3</ele></trkpt><trkpt lat="46.147153" lon="10.963361"><ele>1064.4</ele></trkpt><trkpt lat="46.147133" lon="10.963436"><ele>1062</ele></trkpt><trkpt lat="46.147136" lon="10.963894"><ele>1058.8</ele></trkpt><trkpt lat="46.146985" lon="10.963809"><ele>1055.6</ele></trkpt><trkpt lat="46.146879" lon="10.963617"><ele>1054.7</ele></trkpt><trkpt lat="46.146851" lon="10.963522"><ele>1053.8</ele></trkpt><trkpt lat="46.146803" lon="10.963605"><ele>1052.9</ele></trkpt><trkpt lat="46.146775" lon="10.963516"><ele>1052</ele></trkpt><trkpt lat="46.14674" lon="10.963591"><ele>1050.2</ele></trkpt><trkpt lat="46.146681" lon="10.963499"><ele>1048.4</ele></trkpt><trkpt lat="46.146674" lon="10.963554"><ele>1047.6</ele></trkpt><trkpt lat="46.14662" lon="10.963431"><ele>991</ele></trkpt><trkpt lat="46.146628" lon="10.964194"><ele>966</ele></trkpt><trkpt lat="46.146519" lon="10.963945"><ele>986.7</ele></trkpt><trkpt lat="46.146417" lon="10.963786"><ele>987</ele></trkpt><trkpt lat="46.146388" lon="10.963944"><ele>987.4</ele></trkpt><trkpt lat="46.146318" lon="10.963841"><ele>987.6</ele></trkpt><trkpt lat="46.146313" lon="10.96401"><ele>988.1</ele></trkpt><trkpt lat="46.146225" lon="10.963909"><ele>988.4</ele></trkpt><trkpt lat="46.146218" lon="10.963976"><ele>988.6</ele></trkpt><trkpt lat="46.146173" lon="10.963948"><ele>988.7</ele></trkpt><trkpt lat="46.146142" lon="10.964056"><ele>988.9</ele></trkpt><trkpt lat="46.146117" lon="10.963995"><ele>991</ele></trkpt><trkpt lat="46.146105" lon="10.9643"><ele>977.3</ele></trkpt><trkpt lat="46.146067" lon="10.965273"><ele>963.7</ele></trkpt><trkpt lat="46.146034" lon="10.96538"><ele>950</ele></trkpt><trkpt lat="46.146065" lon="10.965664"><ele>947.7</ele></trkpt><trkpt lat="46.146119" lon="10.965945"><ele>943</ele></trkpt><trkpt lat="46.146024" lon="10.965792"><ele>948.6</ele></trkpt><trkpt lat="46.145948" lon="10.965757"><ele>948.3</ele></trkpt><trkpt lat="46.145895" lon="10.965762"><ele>950</ele></trkpt><trkpt lat="46.145809" lon="10.965819"><ele>915</ele></trkpt><trkpt lat="46.145787" lon="10.965843"><ele>917</ele></trkpt><trkpt lat="46.145643" lon="10.966027"><ele>916.3</ele></trkpt><trkpt lat="46.145537" lon="10.966131"><ele>916.2</ele></trkpt><trkpt lat="46.145423" lon="10.966199"><ele>916.2</ele></trkpt><trkpt lat="46.145267" lon="10.966352"><ele>916.1</ele></trkpt><trkpt lat="46.1452" lon="10.966455"><ele>916</ele></trkpt><trkpt lat="46.144995" lon="10.966865"><ele>896</ele></trkpt><trkpt lat="46.144825" lon="10.967111"><ele>900.8</ele></trkpt><trkpt lat="46.14453" lon="10.967682"><ele>906</ele></trkpt><trkpt lat="46.144356" lon="10.968027"><ele>906</ele></trkpt><trkpt lat="46.144269" lon="10.968238"><ele>891.8</ele></trkpt><trkpt lat="46.144227" lon="10.968286"><ele>890.7</ele></trkpt><trkpt lat="46.144203" lon="10.9683"><ele>889.5</ele></trkpt><trkpt lat="46.144163" lon="10.968287"><ele>888.2</ele></trkpt><trkpt lat="46.14415" lon="10.968282"><ele>886.8</ele></trkpt><trkpt lat="46.144122" lon="10.968194"><ele>888.1</ele></trkpt><trkpt lat="46.144187" lon="10.967087"><ele>891.2</ele></trkpt><trkpt lat="46.144283" lon="10.966081"><ele>891</ele></trkpt><trkpt lat="46.144188" lon="10.965994"><ele>891</ele></trkpt><trkpt lat="46.14415" lon="10.965979"><ele>876</ele></trkpt><trkpt lat="46.144115" lon="10.965966"><ele>876</ele></trkpt><trkpt lat="46.144062" lon="10.965954"><ele>876</ele></trkpt><trkpt lat="46.143966" lon="10.966017"><ele>876</ele></trkpt><trkpt lat="46.143878" lon="10.965924"><ele>876</ele></trkpt><trkpt lat="46.143838" lon="10.966028"><ele>876</ele></trkpt><trkpt lat="46.143711" lon="10.965973"><ele>876</ele></trkpt><trkpt lat="46.14363" lon="10.965886"><ele>876</ele></trkpt><trkpt lat="46.143611" lon="10.965874"><ele>876</ele></trkpt><trkpt lat="46.143594" lon="10.965863"><ele>876</ele></trkpt><trkpt lat="46.14353" lon="10.96583"><ele>876</ele></trkpt><trkpt lat="46.143485" lon="10.965833"><ele>876</ele></trkpt><trkpt lat="46.143383" lon="10.965869"><ele>876</ele></trkpt><trkpt lat="46.143293" lon="10.965865"><ele>870</ele></trkpt><trkpt lat="46.143259" lon="10.965788"><ele>867.3</ele></trkpt><trkpt lat="46.143196" lon="10.965784"><ele>866</ele></trkpt><trkpt lat="46.143098" lon="10.965922"><ele>870</ele></trkpt><trkpt lat="46.143096" lon="10.965926"><ele>870</ele></trkpt><trkpt lat="46.143048" lon="10.965993"><ele>870</ele></trkpt><trkpt lat="46.143047" lon="10.966176"><ele>870</ele></trkpt><trkpt lat="46.142992" lon="10.96626"><ele>870</ele></trkpt><trkpt lat="46.143055" lon="10.966336"><ele>870</ele></trkpt></trkseg></trk></gpx>