<gpx xmlns="http://www.topografix.com/GPX/1/1" xmlns:xsi="http://www.w3.org/2001/XMLSchema-instance" xsi:schemaLocation="http://www.topografix.com/GPX/1/1 http://www.topografix.com/GPX/1/1/gpx.xsd" version="1.1" creator="togpx"><metadata/><wpt lat="47.39186718211216" lon="11.266806721687319"><name></name><desc>label=Bahnhofstraße, Scharnitz,TR,Austria</desc></wpt><wpt lat="47.38696065386336" lon="11.267842054367065"><name></name><desc>label=Inrain 261, Scharnitz,TR,Austria</desc></wpt><wpt lat="47.38138895699516" lon="11.289535760879518"><name></name><desc>label=Hinterautalstraße 386, Scharnitz,TR,Austria</desc></wpt><wpt lat="47.375442500563224" lon="11.310848593711853"><name></name><desc>label=Gleirschklammweg, Scharnitz,TR,Austria</desc></wpt><wpt lat="47.37474864308129" lon="11.308590173721315"><name></name><desc>label=Gleirschklammweg, Scharnitz,TR,Austria</desc></wpt><wpt lat="47.37054170957471" lon="11.309770345687868"><name></name><desc>label=Gleirschklammweg, Scharnitz,TR,Austria</desc></wpt><wpt lat="47.35320182420855" lon="11.320778131484987"><name></name><desc>label=Wengertalweg, Scharnitz,TR,Austria</desc></wpt><wpt lat="47.33749762598861" lon="11.342903673648836"><name></name><desc>label=Gleirschtalweg, Innsbruck,TR,Austria</desc></wpt><wpt lat="47.305169464275885" lon="11.350464820861816"><name></name><desc>label=Brandjochsteig, Innsbruck,TR,Austria</desc></wpt><wpt lat="47.298484995339415" lon="11.368671655654909"><name></name><desc>label=Höttinger-Alm, Innsbruck,TR,Austria</desc></wpt><wpt lat="47.28735871020857" lon="11.372491121292114"><name></name><desc>label=Roßfallweg, Innsbruck,TR,Austria</desc></wpt><wpt lat="47.28541555441539" lon="11.37415945529938"><name></name><desc>label=Roßfallweg, Innsbruck,TR,Austria</desc></wpt><wpt lat="47.284352974617136" lon="11.376959681510927"><name></name><desc>label=AV215, Innsbruck,TR,Austria</desc></wpt><wpt lat="47.27232650438737" lon="11.385046541690826"><name></name><desc>label=Schulgasse, Innsbruck,TR,Austria</desc></wpt><wpt lat="47.26583445929678" lon="11.397304236888885"><name></name><desc>label=Wilhelm-Greil-Straße 10, Innsbruck,TR,Austria</desc></wpt><wpt lat="47.26513552050692" lon="11.397521495819092"><name></name><desc>label=Bozner Platz, Innsbruck,TR,Austria</desc></wpt><wpt lat="47.264822451181374" lon="11.399914026260378"><name></name><desc>label=Philamonie - Briefmarken und Münzenfachgeschäft, Innsbruck,TR,Austria</desc></wpt><wpt lat="47.2631424021851" lon="11.400445103645325"><name></name><desc>label=press&amp;more, Innsbruck,TR,Austria</desc></wpt><wpt lat="47.26265457732031" lon="11.40072137117386"><name></name><desc>label=Innsbruck Hbf, Innsbruck,TR,Austria</desc></wpt><trk><name></name><desc>ascent=1773.6
descent=2153.6
opacity=0.9</desc><trkseg><trkpt lat="47.391952" lon="11.266693"><ele>965</ele></trkpt><trkpt lat="47.392082" lon="11.266737"><ele>965</ele></trkpt><trkpt lat="47.392143" lon="11.266433"><ele>965</ele></trkpt><trkpt lat="47.391953" lon="11.266381"><ele>965</ele></trkpt><trkpt lat="47.391781" lon="11.266321"><ele>965.3</ele></trkpt><trkpt lat="47.391548" lon="11.266325"><ele>966</ele></trkpt><trkpt lat="47.391501" lon="11.266326"><ele>966</ele></trkpt><trkpt lat="47.39141" lon="11.2663"><ele>966.3</ele></trkpt><trkpt lat="47.3908" lon="11.265988"><ele>967</ele></trkpt><trkpt lat="47.390722" lon="11.265801"><ele>962</ele></trkpt><trkpt lat="47.390738" lon="11.265715"><ele>962</ele></trkpt><trkpt lat="47.390734" lon="11.265571"><ele>962</ele></trkpt><trkpt lat="47.390668" lon="11.26555"><ele>962</ele></trkpt><trkpt lat="47.390583" lon="11.265572"><ele>962</ele></trkpt><trkpt lat="47.390423" lon="11.265125"><ele>962</ele></trkpt><trkpt lat="47.390273" lon="11.265004"><ele>962</ele></trkpt><trkpt lat="47.390315" lon="11.264668"><ele>958</ele></trkpt><trkpt lat="47.39012" lon="11.264656"><ele>958</ele></trkpt><trkpt lat="47.390111" lon="11.264659"><ele>958</ele></trkpt><trkpt lat="47.389609" lon="11.264837"><ele>962.1</ele></trkpt><trkpt lat="47.389534" lon="11.264853"><ele>962</ele></trkpt><trkpt lat="47.389401" lon="11.264838"><ele>963</ele></trkpt><trkpt lat="47.389321" lon="11.26481"><ele>963</ele></trkpt><trkpt lat="47.389245" lon="11.264933"><ele>963</ele></trkpt><trkpt lat="47.389227" lon="11.264988"><ele>963</ele></trkpt><trkpt lat="47.389184" lon="11.265126"><ele>965</ele></trkpt><trkpt lat="47.389139" lon="11.265303"><ele>964.1</ele></trkpt><trkpt lat="47.38908" lon="11.265386"><ele>964.1</ele></trkpt><trkpt lat="47.389024" lon="11.265368"><ele>964.1</ele></trkpt><trkpt lat="47.388908" lon="11.265235"><ele>964.2</ele></trkpt><trkpt lat="47.388865" lon="11.265253"><ele>964</ele></trkpt><trkpt lat="47.388784" lon="11.265305"><ele>964</ele></trkpt><trkpt lat="47.388769" lon="11.265316"><ele>964</ele></trkpt><trkpt lat="47.388675" lon="11.265367"><ele>964</ele></trkpt><trkpt lat="47.388557" lon="11.265521"><ele>964</ele></trkpt><trkpt lat="47.388514" lon="11.265638"><ele>964</ele></trkpt><trkpt lat="47.388418" lon="11.26577"><ele>964</ele></trkpt><trkpt lat="47.38809" lon="11.266214"><ele>965</ele></trkpt><trkpt lat="47.388008" lon="11.266392"><ele>965.5</ele></trkpt><trkpt lat="47.388006" lon="11.266456"><ele>965.6</ele></trkpt><trkpt lat="47.387986" lon="11.266511"><ele>965.6</ele></trkpt><trkpt lat="47.387375" lon="11.267106"><ele>965</ele></trkpt><trkpt lat="47.387184" lon="11.267301"><ele>965</ele></trkpt><trkpt lat="47.387063" lon="11.267458"><ele>965</ele></trkpt><trkpt lat="47.386967" lon="11.267845"><ele>965.7</ele></trkpt><trkpt lat="47.386936" lon="11.267968"><ele>966.4</ele></trkpt><trkpt lat="47.386833" lon="11.268266"><ele>967</ele></trkpt><trkpt lat="47.386756" lon="11.268478"><ele>969.9</ele></trkpt><trkpt lat="47.386705" lon="11.268526"><ele>969.2</ele></trkpt><trkpt lat="47.386336" lon="11.268572"><ele>968</ele></trkpt><trkpt lat="47.386359" lon="11.268982"><ele>971.1</ele></trkpt><trkpt lat="47.386427" lon="11.269529"><ele>970.2</ele></trkpt><trkpt lat="47.386464" lon="11.269669"><ele>969.8</ele></trkpt><trkpt lat="47.386698" lon="11.270166"><ele>970.8</ele></trkpt><trkpt lat="47.386732" lon="11.270317"><ele>971.8</ele></trkpt><trkpt lat="47.38674" lon="11.270457"><ele>972.6</ele></trkpt><trkpt lat="47.386724" lon="11.270667"><ele>981</ele></trkpt><trkpt lat="47.386679" lon="11.27082"><ele>975.9</ele></trkpt><trkpt lat="47.386604" lon="11.270962"><ele>975.2</ele></trkpt><trkpt lat="47.386142" lon="11.271388"><ele>974</ele></trkpt><trkpt lat="47.385809" lon="11.271749"><ele>973.7</ele></trkpt><trkpt lat="47.385686" lon="11.27205"><ele>972</ele></trkpt><trkpt lat="47.385528" lon="11.272167"><ele>972</ele></trkpt><trkpt lat="47.385384" lon="11.272232"><ele>972</ele></trkpt><trkpt lat="47.385096" lon="11.272426"><ele>972</ele></trkpt><trkpt lat="47.384789" lon="11.272574"><ele>979</ele></trkpt><trkpt lat="47.384485" lon="11.272515"><ele>988</ele></trkpt><trkpt lat="47.384409" lon="11.272552"><ele>987.1</ele></trkpt><trkpt lat="47.38429" lon="11.272759"><ele>986.3</ele></trkpt><trkpt lat="47.384215" lon="11.272804"><ele>984.9</ele></trkpt><trkpt lat="47.384139" lon="11.272764"><ele>987.7</ele></trkpt><trkpt lat="47.384042" lon="11.272638"><ele>1018</ele></trkpt><trkpt lat="47.383801" lon="11.273323"><ele>1018</ele></trkpt><trkpt lat="47.38376" lon="11.273545"><ele>1001</ele></trkpt><trkpt lat="47.383728" lon="11.274277"><ele>985.4</ele></trkpt><trkpt lat="47.383843" lon="11.275482"><ele>983.7</ele></trkpt><trkpt lat="47.383847" lon="11.275829"><ele>981.8</ele></trkpt><trkpt lat="47.383799" lon="11.276088"><ele>981.3</ele></trkpt><trkpt lat="47.383751" lon="11.276227"><ele>981.5</ele></trkpt><trkpt lat="47.38341" lon="11.27697"><ele>978</ele></trkpt><trkpt lat="47.383052" lon="11.278008"><ele>976.5</ele></trkpt><trkpt lat="47.382836" lon="11.27872"><ele>976.6</ele></trkpt><trkpt lat="47.382755" lon="11.27893"><ele>976.5</ele></trkpt><trkpt lat="47.382052" lon="11.279909"><ele>978</ele></trkpt><trkpt lat="47.381884" lon="11.280144"><ele>978</ele></trkpt><trkpt lat="47.38157" lon="11.280581"><ele>987</ele></trkpt><trkpt lat="47.381093" lon="11.281294"><ele>981</ele></trkpt><trkpt lat="47.380976" lon="11.281468"><ele>981</ele></trkpt><trkpt lat="47.380893" lon="11.281685"><ele>981</ele></trkpt><trkpt lat="47.38077" lon="11.281985"><ele>988.2</ele></trkpt><trkpt lat="47.380528" lon="11.282472"><ele>990</ele></trkpt><trkpt lat="47.3803" lon="11.283083"><ele>985</ele></trkpt><trkpt lat="47.380232" lon="11.283346"><ele>982</ele></trkpt><trkpt lat="47.380184" lon="11.283732"><ele>983.3</ele></trkpt><trkpt lat="47.380186" lon="11.283873"><ele>983.5</ele></trkpt><trkpt lat="47.380207" lon="11.284009"><ele>983.7</ele></trkpt><trkpt lat="47.380336" lon="11.284407"><ele>983.9</ele></trkpt><trkpt lat="47.38038" lon="11.284731"><ele>986</ele></trkpt><trkpt lat="47.380384" lon="11.284759"><ele>986</ele></trkpt><trkpt lat="47.380395" lon="11.284977"><ele>986</ele></trkpt><trkpt lat="47.3804" lon="11.285348"><ele>988.7</ele></trkpt><trkpt lat="47.380356" lon="11.285878"><ele>991</ele></trkpt><trkpt lat="47.380383" lon="11.286152"><ele>993.8</ele></trkpt><trkpt lat="47.380481" lon="11.286468"><ele>995.5</ele></trkpt><trkpt lat="47.380544" lon="11.286614"><ele>995.9</ele></trkpt><trkpt lat="47.380807" lon="11.287568"><ele>998</ele></trkpt><trkpt lat="47.380917" lon="11.28782"><ele>999.3</ele></trkpt><trkpt lat="47.38101" lon="11.287966"><ele>999.6</ele></trkpt><trkpt lat="47.381064" lon="11.288146"><ele>999.5</ele></trkpt><trkpt lat="47.38114" lon="11.288649"><ele>1000.6</ele></trkpt><trkpt lat="47.381177" lon="11.288808"><ele>1001.1</ele></trkpt><trkpt lat="47.381352" lon="11.289274"><ele>1001.8</ele></trkpt><trkpt lat="47.381392" lon="11.289433"><ele>1002</ele></trkpt><trkpt lat="47.381401" lon="11.289533"><ele>1002.1</ele></trkpt><trkpt lat="47.381479" lon="11.290403"><ele>1002.2</ele></trkpt><trkpt lat="47.381581" lon="11.290768"><ele>1004</ele></trkpt><trkpt lat="47.381631" lon="11.291047"><ele>1004</ele></trkpt><trkpt lat="47.381644" lon="11.291236"><ele>1004</ele></trkpt><trkpt lat="47.38169" lon="11.291678"><ele>1022.7</ele></trkpt><trkpt lat="47.38181" lon="11.292198"><ele>1021.1</ele></trkpt><trkpt lat="47.381817" lon="11.292382"><ele>1020.4</ele></trkpt><trkpt lat="47.3818" lon="11.292554"><ele>1025</ele></trkpt><trkpt lat="47.381799" lon="11.292773"><ele>1027</ele></trkpt><trkpt lat="47.38187" lon="11.29346"><ele>1029.9</ele></trkpt><trkpt lat="47.38189" lon="11.294367"><ele>1031.2</ele></trkpt><trkpt lat="47.381951" lon="11.294837"><ele>1029.2</ele></trkpt><trkpt lat="47.381956" lon="11.295076"><ele>1030</ele></trkpt><trkpt lat="47.381933" lon="11.29527"><ele>1031.1</ele></trkpt><trkpt lat="47.381869" lon="11.295484"><ele>1031.5</ele></trkpt><trkpt lat="47.381798" lon="11.295723"><ele>1032.1</ele></trkpt><trkpt lat="47.381579" lon="11.296239"><ele>1035.4</ele></trkpt><trkpt lat="47.381556" lon="11.296418"><ele>1036.3</ele></trkpt><trkpt lat="47.381608" lon="11.296635"><ele>1038.2</ele></trkpt><trkpt lat="47.381703" lon="11.296753"><ele>1039.1</ele></trkpt><trkpt lat="47.381767" lon="11.29687"><ele>1039.5</ele></trkpt><trkpt lat="47.381848" lon="11.297249"><ele>1039.8</ele></trkpt><trkpt lat="47.38206" lon="11.297806"><ele>1040.2</ele></trkpt><trkpt lat="47.382059" lon="11.297908"><ele>1040.2</ele></trkpt><trkpt lat="47.382018" lon="11.297985"><ele>1039.8</ele></trkpt><trkpt lat="47.381928" lon="11.298024"><ele>1038.8</ele></trkpt><trkpt lat="47.381795" lon="11.298006"><ele>1038.5</ele></trkpt><trkpt lat="47.38168" lon="11.297953"><ele>1037.5</ele></trkpt><trkpt lat="47.381549" lon="11.297857"><ele>1037</ele></trkpt><trkpt lat="47.381402" lon="11.297844"><ele>1037.4</ele></trkpt><trkpt lat="47.381347" lon="11.297882"><ele>1037.7</ele></trkpt><trkpt lat="47.381208" lon="11.298116"><ele>1038.3</ele></trkpt><trkpt lat="47.381128" lon="11.298305"><ele>1038.7</ele></trkpt><trkpt lat="47.381031" lon="11.298646"><ele>1038.8</ele></trkpt><trkpt lat="47.380978" lon="11.29874"><ele>1038.6</ele></trkpt><trkpt lat="47.380911" lon="11.29884"><ele>1037.9</ele></trkpt><trkpt lat="47.380646" lon="11.299055"><ele>1037</ele></trkpt><trkpt lat="47.380532" lon="11.299204"><ele>1037.5</ele></trkpt><trkpt lat="47.380249" lon="11.299737"><ele>1036.7</ele></trkpt><trkpt lat="47.379806" lon="11.300282"><ele>1037.1</ele></trkpt><trkpt lat="47.379751" lon="11.300405"><ele>1037.7</ele></trkpt><trkpt lat="47.379651" lon="11.300904"><ele>1039.5</ele></trkpt><trkpt lat="47.379608" lon="11.301213"><ele>1040.1</ele></trkpt><trkpt lat="47.379587" lon="11.301529"><ele>1040.6</ele></trkpt><trkpt lat="47.37954" lon="11.301818"><ele>1038.9</ele></trkpt><trkpt lat="47.37946" lon="11.302086"><ele>1038.2</ele></trkpt><trkpt lat="47.379269" lon="11.302582"><ele>1038.2</ele></trkpt><trkpt lat="47.379171" lon="11.303061"><ele>1038.3</ele></trkpt><trkpt lat="47.379027" lon="11.303631"><ele>1042.3</ele></trkpt><trkpt lat="47.378885" lon="11.303961"><ele>1044.8</ele></trkpt><trkpt lat="47.378805" lon="11.304201"><ele>1046.5</ele></trkpt><trkpt lat="47.378657" lon="11.304525"><ele>1047.4</ele></trkpt><trkpt lat="47.378613" lon="11.304786"><ele>1047.6</ele></trkpt><trkpt lat="47.378502" lon="11.305101"><ele>1048.9</ele></trkpt><trkpt lat="47.378468" lon="11.305367"><ele>1060</ele></trkpt><trkpt lat="47.378393" lon="11.305574"><ele>1043.4</ele></trkpt><trkpt lat="47.378206" lon="11.305903"><ele>1043.3</ele></trkpt><trkpt lat="47.378159" lon="11.306053"><ele>1043.7</ele></trkpt><trkpt lat="47.378108" lon="11.306468"><ele>1045</ele></trkpt><trkpt lat="47.378064" lon="11.306553"><ele>1045.5</ele></trkpt><trkpt lat="47.377852" lon="11.306726"><ele>1057</ele></trkpt><trkpt lat="47.377347" lon="11.307293"><ele>1046</ele></trkpt><trkpt lat="47.377249" lon="11.307439"><ele>1046.8</ele></trkpt><trkpt lat="47.377186" lon="11.307588"><ele>1048</ele></trkpt><trkpt lat="47.377064" lon="11.308099"><ele>1048.7</ele></trkpt><trkpt lat="47.376949" lon="11.308399"><ele>1048.7</ele></trkpt><trkpt lat="47.376849" lon="11.308596"><ele>1048.7</ele></trkpt><trkpt lat="47.376687" lon="11.308988"><ele>1047.9</ele></trkpt><trkpt lat="47.376652" lon="11.309101"><ele>1040</ele></trkpt><trkpt lat="47.3766" lon="11.309465"><ele>1036</ele></trkpt><trkpt lat="47.376474" lon="11.309932"><ele>1037.6</ele></trkpt><trkpt lat="47.376476" lon="11.31007"><ele>1037.8</ele></trkpt><trkpt lat="47.376507" lon="11.310189"><ele>1037.7</ele></trkpt><trkpt lat="47.376626" lon="11.31048"><ele>1037.7</ele></trkpt><trkpt lat="47.376633" lon="11.310562"><ele>1037.7</ele></trkpt><trkpt lat="47.376601" lon="11.310638"><ele>1037.7</ele></trkpt><trkpt lat="47.376554" lon="11.310665"><ele>1037.6</ele></trkpt><trkpt lat="47.376343" lon="11.310645"><ele>1037.6</ele></trkpt><trkpt lat="47.376268" lon="11.310664"><ele>1038</ele></trkpt><trkpt lat="47.376213" lon="11.310643"><ele>1041.6</ele></trkpt><trkpt lat="47.376164" lon="11.310697"><ele>1040.8</ele></trkpt><trkpt lat="47.376" lon="11.31114"><ele>1050</ele></trkpt><trkpt lat="47.375976" lon="11.311061"><ele>1035.1</ele></trkpt><trkpt lat="47.375934" lon="11.311062"><ele>1035.5</ele></trkpt><trkpt lat="47.375867" lon="11.311153"><ele>1036.4</ele></trkpt><trkpt lat="47.375791" lon="11.310685"><ele>1036.9</ele></trkpt><trkpt lat="47.375767" lon="11.310771"><ele>1036.7</ele></trkpt><trkpt lat="47.375532" lon="11.311195"><ele>1035.6</ele></trkpt><trkpt lat="47.375504" lon="11.311169"><ele>1035.1</ele></trkpt><trkpt lat="47.37549" lon="11.311042"><ele>1034.6</ele></trkpt><trkpt lat="47.375446" lon="11.310858"><ele>1034.4</ele></trkpt><trkpt lat="47.375441" lon="11.310852"><ele>1034.3</ele></trkpt><trkpt lat="47.3754" lon="11.310807"><ele>1034.3</ele></trkpt><trkpt lat="47.375255" lon="11.310993"><ele>1034.1</ele></trkpt><trkpt lat="47.375204" lon="11.31085"><ele>1033.8</ele></trkpt><trkpt lat="47.3751" lon="11.311219"><ele>1031.9</ele></trkpt><trkpt lat="47.375085" lon="11.311245"><ele>1031.7</ele></trkpt><trkpt lat="47.375077" lon="11.311235"><ele>1031.6</ele></trkpt><trkpt lat="47.37505" lon="11.311322"><ele>1031.4</ele></trkpt><trkpt lat="47.375012" lon="11.311315"><ele>1030.8</ele></trkpt><trkpt lat="47.374985" lon="11.311281"><ele>1030.8</ele></trkpt><trkpt lat="47.374972" lon="11.311227"><ele>1030.8</ele></trkpt><trkpt lat="47.374951" lon="11.311001"><ele>1030.7</ele></trkpt><trkpt lat="47.374957" lon="11.310925"><ele>1030.7</ele></trkpt><trkpt lat="47.374974" lon="11.310887"><ele>1030.6</ele></trkpt><trkpt lat="47.374958" lon="11.310785"><ele>1030.9</ele></trkpt><trkpt lat="47.374985" lon="11.310747"><ele>1031</ele></trkpt><trkpt lat="47.375018" lon="11.310577"><ele>1029</ele></trkpt><trkpt lat="47.375019" lon="11.31036"><ele>1029</ele></trkpt><trkpt lat="47.374997" lon="11.310294"><ele>1036.6</ele></trkpt><trkpt lat="47.374903" lon="11.310216"><ele>1036.7</ele></trkpt><trkpt lat="47.374844" lon="11.310123"><ele>1036.9</ele></trkpt><trkpt lat="47.374757" lon="11.310075"><ele>1037</ele></trkpt><trkpt lat="47.374583" lon="11.310082"><ele>1037.3</ele></trkpt><trkpt lat="47.374498" lon="11.310164"><ele>1037.4</ele></trkpt><trkpt lat="47.374364" lon="11.310228"><ele>1037.6</ele></trkpt><trkpt lat="47.374335" lon="11.310191"><ele>1037.7</ele></trkpt><trkpt lat="47.37429" lon="11.310193"><ele>1037.7</ele></trkpt><trkpt lat="47.374318" lon="11.310067"><ele>1037.8</ele></trkpt><trkpt lat="47.374398" lon="11.309886"><ele>1037.4</ele></trkpt><trkpt lat="47.374402" lon="11.309754"><ele>1037.2</ele></trkpt><trkpt lat="47.374481" lon="11.309654"><ele>1036.9</ele></trkpt><trkpt lat="47.374405" lon="11.309577"><ele>1036.8</ele></trkpt><trkpt lat="47.374497" lon="11.309552"><ele>1036.6</ele></trkpt><trkpt lat="47.374395" lon="11.309455"><ele>1030</ele></trkpt><trkpt lat="47.374297" lon="11.309277"><ele>1029.4</ele></trkpt><trkpt lat="47.374416" lon="11.30923"><ele>1029.5</ele></trkpt><trkpt lat="47.374479" lon="11.309171"><ele>1029.6</ele></trkpt><trkpt lat="47.374426" lon="11.309144"><ele>1029.3</ele></trkpt><trkpt lat="47.374521" lon="11.309021"><ele>1028</ele></trkpt><trkpt lat="47.374594" lon="11.308965"><ele>1028</ele></trkpt><trkpt lat="47.374699" lon="11.308844"><ele>1028</ele></trkpt><trkpt lat="47.374724" lon="11.308816"><ele>1028</ele></trkpt><trkpt lat="47.374738" lon="11.308727"><ele>1028</ele></trkpt><trkpt lat="47.374743" lon="11.30859"><ele>1028</ele></trkpt><trkpt lat="47.374738" lon="11.308727"><ele>1028</ele></trkpt><trkpt lat="47.374724" lon="11.308816"><ele>1028</ele></trkpt><trkpt lat="47.374699" lon="11.308844"><ele>1028</ele></trkpt><trkpt lat="47.374582" lon="11.308736"><ele>1028</ele></trkpt><trkpt lat="47.374518" lon="11.308644"><ele>1028</ele></trkpt><trkpt lat="47.374371" lon="11.308666"><ele>1028</ele></trkpt><trkpt lat="47.3742" lon="11.308729"><ele>1028</ele></trkpt><trkpt lat="47.374181" lon="11.308819"><ele>1028</ele></trkpt><trkpt lat="47.373896" lon="11.308806"><ele>1048.1</ele></trkpt><trkpt lat="47.373839" lon="11.308779"><ele>1047.3</ele></trkpt><trkpt lat="47.373761" lon="11.308789"><ele>1046.4</ele></trkpt><trkpt lat="47.373657" lon="11.30876"><ele>1053</ele></trkpt><trkpt lat="47.373515" lon="11.308774"><ele>1053</ele></trkpt><trkpt lat="47.373481" lon="11.308805"><ele>1053</ele></trkpt><trkpt lat="47.373437" lon="11.308873"><ele>1053</ele></trkpt><trkpt lat="47.37339" lon="11.308912"><ele>1068.7</ele></trkpt><trkpt lat="47.373321" lon="11.308922"><ele>1071.2</ele></trkpt><trkpt lat="47.373173" lon="11.308901"><ele>1069.9</ele></trkpt><trkpt lat="47.373002" lon="11.308722"><ele>1074</ele></trkpt><trkpt lat="47.37295" lon="11.3086"><ele>1074</ele></trkpt><trkpt lat="47.372855" lon="11.308458"><ele>1074</ele></trkpt><trkpt lat="47.37283" lon="11.308306"><ele>1094</ele></trkpt><trkpt lat="47.372825" lon="11.30827"><ele>1089.6</ele></trkpt><trkpt lat="47.372719" lon="11.308162"><ele>1087.9</ele></trkpt><trkpt lat="47.372598" lon="11.308268"><ele>1086.5</ele></trkpt><trkpt lat="47.372558" lon="11.308336"><ele>1085.6</ele></trkpt><trkpt lat="47.372524" lon="11.308334"><ele>1074</ele></trkpt><trkpt lat="47.372422" lon="11.308275"><ele>1122</ele></trkpt><trkpt lat="47.372279" lon="11.308146"><ele>1122</ele></trkpt><trkpt lat="47.372152" lon="11.308154"><ele>1122</ele></trkpt><trkpt lat="47.372045" lon="11.308052"><ele>1122</ele></trkpt><trkpt lat="47.371932" lon="11.308028"><ele>1122</ele></trkpt><trkpt lat="47.371783" lon="11.308166"><ele>1125.8</ele></trkpt><trkpt lat="47.371771" lon="11.308203"><ele>1126.1</ele></trkpt><trkpt lat="47.371727" lon="11.308216"><ele>1126.9</ele></trkpt><trkpt lat="47.37169" lon="11.308196"><ele>1127.8</ele></trkpt><trkpt lat="47.371623" lon="11.308262"><ele>1157</ele></trkpt><trkpt lat="47.37159" lon="11.308313"><ele>1137.2</ele></trkpt><trkpt lat="47.371584" lon="11.308388"><ele>1133.9</ele></trkpt><trkpt lat="47.37154" lon="11.30853"><ele>1123</ele></trkpt><trkpt lat="47.371536" lon="11.308694"><ele>1099.6</ele></trkpt><trkpt lat="47.371553" lon="11.308866"><ele>1099</ele></trkpt><trkpt lat="47.37153" lon="11.308951"><ele>1098.1</ele></trkpt><trkpt lat="47.371482" lon="11.308996"><ele>1096.3</ele></trkpt><trkpt lat="47.371357" lon="11.309181"><ele>1093.2</ele></trkpt><trkpt lat="47.371192" lon="11.309479"><ele>1095.6</ele></trkpt><trkpt lat="47.371031" lon="11.309608"><ele>1097.5</ele></trkpt><trkpt lat="47.370964" lon="11.30978"><ele>1098</ele></trkpt><trkpt lat="47.370935" lon="11.3098"><ele>1098.3</ele></trkpt><trkpt lat="47.370873" lon="11.309898"><ele>1098.7</ele></trkpt><trkpt lat="47.370779" lon="11.309938"><ele>1099.5</ele></trkpt><trkpt lat="47.370744" lon="11.3099"><ele>1099.8</ele></trkpt><trkpt lat="47.370686" lon="11.309902"><ele>1100.6</ele></trkpt><trkpt lat="47.370618" lon="11.309828"><ele>1101.4</ele></trkpt><trkpt lat="47.370573" lon="11.309832"><ele>1101.7</ele></trkpt><trkpt lat="47.370543" lon="11.309769"><ele>1101.8</ele></trkpt><trkpt lat="47.370541" lon="11.309765"><ele>1101.9</ele></trkpt><trkpt lat="47.370261" lon="11.309758"><ele>1102.6</ele></trkpt><trkpt lat="47.37019" lon="11.309515"><ele>1103.2</ele></trkpt><trkpt lat="47.370022" lon="11.309271"><ele>1104.9</ele></trkpt><trkpt lat="47.369979" lon="11.30913"><ele>1105.2</ele></trkpt><trkpt lat="47.369957" lon="11.309101"><ele>1105.4</ele></trkpt><trkpt lat="47.369901" lon="11.309109"><ele>1105.3</ele></trkpt><trkpt lat="47.369839" lon="11.309088"><ele>1105.5</ele></trkpt><trkpt lat="47.369777" lon="11.30913"><ele>1105.4</ele></trkpt><trkpt lat="47.369732" lon="11.309114"><ele>1105.2</ele></trkpt><trkpt lat="47.369621" lon="11.308933"><ele>1105.2</ele></trkpt><trkpt lat="47.369572" lon="11.30882"><ele>1104.9</ele></trkpt><trkpt lat="47.36956" lon="11.30873"><ele>1104.7</ele></trkpt><trkpt lat="47.369521" lon="11.308687"><ele>1118</ele></trkpt><trkpt lat="47.36943" lon="11.30865"><ele>1118</ele></trkpt><trkpt lat="47.369393" lon="11.30868"><ele>1112.6</ele></trkpt><trkpt lat="47.369304" lon="11.308688"><ele>1112</ele></trkpt><trkpt lat="47.369218" lon="11.308649"><ele>1111.1</ele></trkpt><trkpt lat="47.369133" lon="11.308551"><ele>1110.5</ele></trkpt><trkpt lat="47.369117" lon="11.308548"><ele>1110.5</ele></trkpt><trkpt lat="47.369055" lon="11.308612"><ele>1110.8</ele></trkpt><trkpt lat="47.368962" lon="11.308552"><ele>1111</ele></trkpt><trkpt lat="47.368904" lon="11.308547"><ele>1111.2</ele></trkpt><trkpt lat="47.368874" lon="11.308522"><ele>1109</ele></trkpt><trkpt lat="47.368785" lon="11.308474"><ele>1109</ele></trkpt><trkpt lat="47.36851" lon="11.308574"><ele>1107</ele></trkpt><trkpt lat="47.368362" lon="11.308763"><ele>1107.3</ele></trkpt><trkpt lat="47.368321" lon="11.308779"><ele>1107.6</ele></trkpt><trkpt lat="47.368354" lon="11.308688"><ele>1107.6</ele></trkpt><trkpt lat="47.368303" lon="11.308695"><ele>1108</ele></trkpt><trkpt lat="47.368235" lon="11.308779"><ele>1108.6</ele></trkpt><trkpt lat="47.368002" lon="11.308878"><ele>1109.5</ele></trkpt><trkpt lat="47.367983" lon="11.308929"><ele>1109.6</ele></trkpt><trkpt lat="47.367955" lon="11.308947"><ele>1109.8</ele></trkpt><trkpt lat="47.367878" lon="11.308901"><ele>1110.2</ele></trkpt><trkpt lat="47.367818" lon="11.308915"><ele>1110.3</ele></trkpt><trkpt lat="47.367722" lon="11.308875"><ele>1110.3</ele></trkpt><trkpt lat="47.367704" lon="11.308748"><ele>1110.6</ele></trkpt><trkpt lat="47.367597" lon="11.308475"><ele>1110.8</ele></trkpt><trkpt lat="47.367585" lon="11.308354"><ele>1111.1</ele></trkpt><trkpt lat="47.367467" lon="11.308284"><ele>1111.1</ele></trkpt><trkpt lat="47.367441" lon="11.308249"><ele>1111</ele></trkpt><trkpt lat="47.36744" lon="11.308211"><ele>1110.9</ele></trkpt><trkpt lat="47.367264" lon="11.308146"><ele>1111.1</ele></trkpt><trkpt lat="47.367127" lon="11.308113"><ele>1111.1</ele></trkpt><trkpt lat="47.367086" lon="11.30812"><ele>1111.1</ele></trkpt><trkpt lat="47.36707" lon="11.308148"><ele>1111.1</ele></trkpt><trkpt lat="47.367024" lon="11.308122"><ele>1111.1</ele></trkpt><trkpt lat="47.366988" lon="11.308143"><ele>1110.9</ele></trkpt><trkpt lat="47.366965" lon="11.308185"><ele>1110.7</ele></trkpt><trkpt lat="47.366793" lon="11.308197"><ele>1110.5</ele></trkpt><trkpt lat="47.366742" lon="11.308224"><ele>1110.4</ele></trkpt><trkpt lat="47.366502" lon="11.308403"><ele>1110.1</ele></trkpt><trkpt lat="47.366436" lon="11.308372"><ele>1110.3</ele></trkpt><trkpt lat="47.366303" lon="11.308425"><ele>1105</ele></trkpt><trkpt lat="47.366344" lon="11.3085"><ele>1105</ele></trkpt><trkpt lat="47.366339" lon="11.308643"><ele>1105</ele></trkpt><trkpt lat="47.366233" lon="11.308706"><ele>1124.2</ele></trkpt><trkpt lat="47.36599" lon="11.308611"><ele>1125.2</ele></trkpt><trkpt lat="47.365937" lon="11.30862"><ele>1125.6</ele></trkpt><trkpt lat="47.365913" lon="11.308637"><ele>1126</ele></trkpt><trkpt lat="47.365981" lon="11.308744"><ele>1126.9</ele></trkpt><trkpt lat="47.365982" lon="11.30878"><ele>1127.4</ele></trkpt><trkpt lat="47.365913" lon="11.308722"><ele>1128.3</ele></trkpt><trkpt lat="47.365643" lon="11.308669"><ele>1128.8</ele></trkpt><trkpt lat="47.365537" lon="11.308705"><ele>1128.6</ele></trkpt><trkpt lat="47.365449" lon="11.308786"><ele>1128.4</ele></trkpt><trkpt lat="47.365325" lon="11.308793"><ele>1128</ele></trkpt><trkpt lat="47.365297" lon="11.308843"><ele>1127.7</ele></trkpt><trkpt lat="47.365299" lon="11.308906"><ele>1127.6</ele></trkpt><trkpt lat="47.365344" lon="11.308987"><ele>1127.1</ele></trkpt><trkpt lat="47.365292" lon="11.30906"><ele>1126.3</ele></trkpt><trkpt lat="47.365314" lon="11.309097"><ele>1126.2</ele></trkpt><trkpt lat="47.365299" lon="11.30917"><ele>1125.8</ele></trkpt><trkpt lat="47.365077" lon="11.309279"><ele>1126</ele></trkpt><trkpt lat="47.364901" lon="11.309341"><ele>1126.9</ele></trkpt><trkpt lat="47.364823" lon="11.30935"><ele>1127.2</ele></trkpt><trkpt lat="47.364793" lon="11.309333"><ele>1122</ele></trkpt><trkpt lat="47.364761" lon="11.309329"><ele>1122</ele></trkpt><trkpt lat="47.364683" lon="11.309354"><ele>1128.4</ele></trkpt><trkpt lat="47.364666" lon="11.309455"><ele>1128.8</ele></trkpt><trkpt lat="47.364668" lon="11.309539"><ele>1129</ele></trkpt><trkpt lat="47.364641" lon="11.309592"><ele>1131</ele></trkpt><trkpt lat="47.364628" lon="11.309753"><ele>1131.6</ele></trkpt><trkpt lat="47.364613" lon="11.309769"><ele>1132.3</ele></trkpt><trkpt lat="47.364543" lon="11.309753"><ele>1133.6</ele></trkpt><trkpt lat="47.36433" lon="11.309821"><ele>1136.7</ele></trkpt><trkpt lat="47.364208" lon="11.309777"><ele>1137.6</ele></trkpt><trkpt lat="47.364171" lon="11.309728"><ele>1138</ele></trkpt><trkpt lat="47.364176" lon="11.30954"><ele>1138.6</ele></trkpt><trkpt lat="47.364134" lon="11.309453"><ele>1138.9</ele></trkpt><trkpt lat="47.36399" lon="11.309579"><ele>1138.9</ele></trkpt><trkpt lat="47.363924" lon="11.309751"><ele>1138.9</ele></trkpt><trkpt lat="47.363915" lon="11.309811"><ele>1138.7</ele></trkpt><trkpt lat="47.363872" lon="11.309751"><ele>1138.7</ele></trkpt><trkpt lat="47.363721" lon="11.30962"><ele>1138.9</ele></trkpt><trkpt lat="47.363609" lon="11.309655"><ele>1139</ele></trkpt><trkpt lat="47.363532" lon="11.30972"><ele>1139.1</ele></trkpt><trkpt lat="47.363404" lon="11.309721"><ele>1139.6</ele></trkpt><trkpt lat="47.363352" lon="11.309701"><ele>1140</ele></trkpt><trkpt lat="47.363275" lon="11.309833"><ele>1140.3</ele></trkpt><trkpt lat="47.363139" lon="11.309923"><ele>1138.7</ele></trkpt><trkpt lat="47.363082" lon="11.30999"><ele>1138.3</ele></trkpt><trkpt lat="47.363042" lon="11.310208"><ele>1137.9</ele></trkpt><trkpt lat="47.362988" lon="11.310336"><ele>1137.9</ele></trkpt><trkpt lat="47.362893" lon="11.310498"><ele>1137.7</ele></trkpt><trkpt lat="47.362887" lon="11.310537"><ele>1137.7</ele></trkpt><trkpt lat="47.362966" lon="11.310775"><ele>1137.6</ele></trkpt><trkpt lat="47.362975" lon="11.311067"><ele>1137.8</ele></trkpt><trkpt lat="47.362993" lon="11.311224"><ele>1116</ele></trkpt><trkpt lat="47.36309" lon="11.311204"><ele>1116</ele></trkpt><trkpt lat="47.36322" lon="11.311169"><ele>1116</ele></trkpt><trkpt lat="47.363268" lon="11.311137"><ele>1110.7</ele></trkpt><trkpt lat="47.363404" lon="11.31094"><ele>1109.4</ele></trkpt><trkpt lat="47.363548" lon="11.310794"><ele>1108.5</ele></trkpt><trkpt lat="47.363597" lon="11.310765"><ele>1108.4</ele></trkpt><trkpt lat="47.363629" lon="11.310811"><ele>1108.3</ele></trkpt><trkpt lat="47.363634" lon="11.310875"><ele>1108.1</ele></trkpt><trkpt lat="47.36361" lon="11.310942"><ele>1108.4</ele></trkpt><trkpt lat="47.363522" lon="11.311003"><ele>1109.2</ele></trkpt><trkpt lat="47.363447" lon="11.311109"><ele>1109.9</ele></trkpt><trkpt lat="47.363406" lon="11.31123"><ele>1110.7</ele></trkpt><trkpt lat="47.363375" lon="11.311413"><ele>1111.4</ele></trkpt><trkpt lat="47.363329" lon="11.311567"><ele>1111.9</ele></trkpt><trkpt lat="47.363274" lon="11.311685"><ele>1112.4</ele></trkpt><trkpt lat="47.363072" lon="11.311874"><ele>1113.4</ele></trkpt><trkpt lat="47.363026" lon="11.311968"><ele>1113.5</ele></trkpt><trkpt lat="47.362984" lon="11.312016"><ele>1113.8</ele></trkpt><trkpt lat="47.362873" lon="11.312065"><ele>1114.1</ele></trkpt><trkpt lat="47.362759" lon="11.312207"><ele>1115</ele></trkpt><trkpt lat="47.362709" lon="11.312241"><ele>1115.2</ele></trkpt><trkpt lat="47.362628" lon="11.312237"><ele>1116.7</ele></trkpt><trkpt lat="47.362548" lon="11.312193"><ele>1117.1</ele></trkpt><trkpt lat="47.362474" lon="11.31219"><ele>1117.3</ele></trkpt><trkpt lat="47.362376" lon="11.312223"><ele>1117.3</ele></trkpt><trkpt lat="47.362295" lon="11.312326"><ele>1117.3</ele></trkpt><trkpt lat="47.36227" lon="11.312462"><ele>1120.1</ele></trkpt><trkpt lat="47.362226" lon="11.312542"><ele>1120.2</ele></trkpt><trkpt lat="47.36208" lon="11.312611"><ele>1120.4</ele></trkpt><trkpt lat="47.362025" lon="11.312664"><ele>1120.8</ele></trkpt><trkpt lat="47.361933" lon="11.312874"><ele>1121</ele></trkpt><trkpt lat="47.361812" lon="11.312933"><ele>1121.4</ele></trkpt><trkpt lat="47.361751" lon="11.312989"><ele>1121.6</ele></trkpt><trkpt lat="47.36162" lon="11.313273"><ele>1122.1</ele></trkpt><trkpt lat="47.36159" lon="11.313393"><ele>1122.2</ele></trkpt><trkpt lat="47.361604" lon="11.313638"><ele>1123.1</ele></trkpt><trkpt lat="47.361598" lon="11.313779"><ele>1123.5</ele></trkpt><trkpt lat="47.361557" lon="11.313982"><ele>1124</ele></trkpt><trkpt lat="47.361571" lon="11.314062"><ele>1124.6</ele></trkpt><trkpt lat="47.361598" lon="11.314087"><ele>1124.9</ele></trkpt><trkpt lat="47.361633" lon="11.314084"><ele>1125.3</ele></trkpt><trkpt lat="47.361669" lon="11.314032"><ele>1125.3</ele></trkpt><trkpt lat="47.361708" lon="11.313879"><ele>1124.7</ele></trkpt><trkpt lat="47.361718" lon="11.313613"><ele>1123.6</ele></trkpt><trkpt lat="47.361735" lon="11.313523"><ele>1123</ele></trkpt><trkpt lat="47.361791" lon="11.313447"><ele>1122.1</ele></trkpt><trkpt lat="47.361841" lon="11.313432"><ele>1121.8</ele></trkpt><trkpt lat="47.361922" lon="11.313457"><ele>1135</ele></trkpt><trkpt lat="47.361839" lon="11.313505"><ele>1136</ele></trkpt><trkpt lat="47.361801" lon="11.313591"><ele>1135.9</ele></trkpt><trkpt lat="47.361757" lon="11.314168"><ele>1137</ele></trkpt><trkpt lat="47.361722" lon="11.314245"><ele>1138.2</ele></trkpt><trkpt lat="47.361669" lon="11.314278"><ele>1139.3</ele></trkpt><trkpt lat="47.361537" lon="11.314304"><ele>1138.3</ele></trkpt><trkpt lat="47.361467" lon="11.314349"><ele>1137.5</ele></trkpt><trkpt lat="47.361276" lon="11.314694"><ele>1128</ele></trkpt><trkpt lat="47.361218" lon="11.314749"><ele>1128</ele></trkpt><trkpt lat="47.360718" lon="11.314956"><ele>1132.9</ele></trkpt><trkpt lat="47.360614" lon="11.31498"><ele>1132.5</ele></trkpt><trkpt lat="47.360478" lon="11.314964"><ele>1132.2</ele></trkpt><trkpt lat="47.360283" lon="11.315012"><ele>1132.5</ele></trkpt><trkpt lat="47.36021" lon="11.315073"><ele>1133.6</ele></trkpt><trkpt lat="47.359988" lon="11.315699"><ele>1136.2</ele></trkpt><trkpt lat="47.359912" lon="11.31575"><ele>1136.1</ele></trkpt><trkpt lat="47.359853" lon="11.315707"><ele>1136</ele></trkpt><trkpt lat="47.359739" lon="11.315438"><ele>1135.9</ele></trkpt><trkpt lat="47.359686" lon="11.315377"><ele>1135.8</ele></trkpt><trkpt lat="47.359387" lon="11.315445"><ele>1136.3</ele></trkpt><trkpt lat="47.359298" lon="11.315544"><ele>1136.9</ele></trkpt><trkpt lat="47.359093" lon="11.316501"><ele>1138.2</ele></trkpt><trkpt lat="47.359076" lon="11.316931"><ele>1141.3</ele></trkpt><trkpt lat="47.359029" lon="11.317031"><ele>1159</ele></trkpt><trkpt lat="47.358977" lon="11.317044"><ele>1149.5</ele></trkpt><trkpt lat="47.358925" lon="11.317028"><ele>1150.2</ele></trkpt><trkpt lat="47.358792" lon="11.316826"><ele>1150</ele></trkpt><trkpt lat="47.358677" lon="11.316607"><ele>1148.9</ele></trkpt><trkpt lat="47.358545" lon="11.316423"><ele>1147.9</ele></trkpt><trkpt lat="47.358438" lon="11.316331"><ele>1147.2</ele></trkpt><trkpt lat="47.358331" lon="11.316345"><ele>1146.8</ele></trkpt><trkpt lat="47.358087" lon="11.316456"><ele>1146.4</ele></trkpt><trkpt lat="47.35798" lon="11.316472"><ele>1146.2</ele></trkpt><trkpt lat="47.357874" lon="11.316448"><ele>1146</ele></trkpt><trkpt lat="47.357602" lon="11.316322"><ele>1144</ele></trkpt><trkpt lat="47.357365" lon="11.316369"><ele>1143.5</ele></trkpt><trkpt lat="47.357281" lon="11.316341"><ele>1143.7</ele></trkpt><trkpt lat="47.357122" lon="11.31622"><ele>1144</ele></trkpt><trkpt lat="47.357063" lon="11.316209"><ele>1144.3</ele></trkpt><trkpt lat="47.356897" lon="11.316288"><ele>1144.4</ele></trkpt><trkpt lat="47.356778" lon="11.316501"><ele>1144.4</ele></trkpt><trkpt lat="47.356659" lon="11.317179"><ele>1144.8</ele></trkpt><trkpt lat="47.356577" lon="11.317405"><ele>1145.1</ele></trkpt><trkpt lat="47.356477" lon="11.317542"><ele>1145</ele></trkpt><trkpt lat="47.356379" lon="11.317606"><ele>1144.7</ele></trkpt><trkpt lat="47.356183" lon="11.317619"><ele>1144.5</ele></trkpt><trkpt lat="47.356064" lon="11.317678"><ele>1144.1</ele></trkpt><trkpt lat="47.355945" lon="11.317848"><ele>1143.9</ele></trkpt><trkpt lat="47.355748" lon="11.317991"><ele>1144.7</ele></trkpt><trkpt lat="47.355545" lon="11.318374"><ele>1144.4</ele></trkpt><trkpt lat="47.355331" lon="11.318578"><ele>1144.1</ele></trkpt><trkpt lat="47.355268" lon="11.318696"><ele>1144.3</ele></trkpt><trkpt lat="47.355119" lon="11.319187"><ele>1144.7</ele></trkpt><trkpt lat="47.355019" lon="11.319369"><ele>1144.6</ele></trkpt><trkpt lat="47.354129" lon="11.320334"><ele>1142.6</ele></trkpt><trkpt lat="47.353981" lon="11.320414"><ele>1141.7</ele></trkpt><trkpt lat="47.35386" lon="11.320444"><ele>1139</ele></trkpt><trkpt lat="47.353717" lon="11.320493"><ele>1143.8</ele></trkpt><trkpt lat="47.353298" lon="11.320732"><ele>1143.9</ele></trkpt><trkpt lat="47.3532" lon="11.320769"><ele>1144.2</ele></trkpt><trkpt lat="47.353166" lon="11.320782"><ele>1144.4</ele></trkpt><trkpt lat="47.352956" lon="11.320761"><ele>1145.3</ele></trkpt><trkpt lat="47.352833" lon="11.320663"><ele>1149</ele></trkpt><trkpt lat="47.352718" lon="11.320519"><ele>1154.3</ele></trkpt><trkpt lat="47.352582" lon="11.320392"><ele>1153.3</ele></trkpt><trkpt lat="47.352447" lon="11.320308"><ele>1166</ele></trkpt><trkpt lat="47.352295" lon="11.320295"><ele>1166</ele></trkpt><trkpt lat="47.352003" lon="11.320368"><ele>1166</ele></trkpt><trkpt lat="47.351914" lon="11.320386"><ele>1166</ele></trkpt><trkpt lat="47.351401" lon="11.320609"><ele>1170.7</ele></trkpt><trkpt lat="47.351312" lon="11.320669"><ele>1172.8</ele></trkpt><trkpt lat="47.351185" lon="11.320835"><ele>1170.3</ele></trkpt><trkpt lat="47.351066" lon="11.321021"><ele>1168.5</ele></trkpt><trkpt lat="47.350875" lon="11.321436"><ele>1167</ele></trkpt><trkpt lat="47.350732" lon="11.321906"><ele>1166.4</ele></trkpt><trkpt lat="47.350607" lon="11.322162"><ele>1166.1</ele></trkpt><trkpt lat="47.350462" lon="11.322299"><ele>1162.4</ele></trkpt><trkpt lat="47.350007" lon="11.322463"><ele>1162.9</ele></trkpt><trkpt lat="47.34959" lon="11.322672"><ele>1165.8</ele></trkpt><trkpt lat="47.349485" lon="11.322756"><ele>1166.3</ele></trkpt><trkpt lat="47.349362" lon="11.322927"><ele>1166</ele></trkpt><trkpt lat="47.349191" lon="11.323157"><ele>1173.6</ele></trkpt><trkpt lat="47.348689" lon="11.323437"><ele>1174.1</ele></trkpt><trkpt lat="47.348208" lon="11.323662"><ele>1176.6</ele></trkpt><trkpt lat="47.348099" lon="11.323784"><ele>1179.1</ele></trkpt><trkpt lat="47.348031" lon="11.323949"><ele>1179.9</ele></trkpt><trkpt lat="47.347953" lon="11.324215"><ele>1179.9</ele></trkpt><trkpt lat="47.347836" lon="11.324397"><ele>1178.6</ele></trkpt><trkpt lat="47.347538" lon="11.324542"><ele>1179</ele></trkpt><trkpt lat="47.347252" lon="11.324739"><ele>1179.5</ele></trkpt><trkpt lat="47.34684" lon="11.325284"><ele>1173.7</ele></trkpt><trkpt lat="47.346721" lon="11.325483"><ele>1172</ele></trkpt><trkpt lat="47.346399" lon="11.326196"><ele>1181.9</ele></trkpt><trkpt lat="47.346054" lon="11.326521"><ele>1182.5</ele></trkpt><trkpt lat="47.345956" lon="11.326661"><ele>1182.3</ele></trkpt><trkpt lat="47.345823" lon="11.327018"><ele>1184.8</ele></trkpt><trkpt lat="47.345539" lon="11.327375"><ele>1186.6</ele></trkpt><trkpt lat="47.345394" lon="11.327638"><ele>1186.5</ele></trkpt><trkpt lat="47.345302" lon="11.328018"><ele>1185.8</ele></trkpt><trkpt lat="47.344896" lon="11.328732"><ele>1186.4</ele></trkpt><trkpt lat="47.344699" lon="11.329231"><ele>1184</ele></trkpt><trkpt lat="47.344553" lon="11.329472"><ele>1183.7</ele></trkpt><trkpt lat="47.344376" lon="11.329693"><ele>1183.4</ele></trkpt><trkpt lat="47.343912" lon="11.330125"><ele>1184</ele></trkpt><trkpt lat="47.343724" lon="11.330326"><ele>1184</ele></trkpt><trkpt lat="47.342793" lon="11.331872"><ele>1183</ele></trkpt><trkpt lat="47.342644" lon="11.332339"><ele>1188</ele></trkpt><trkpt lat="47.342494" lon="11.332514"><ele>1198</ele></trkpt><trkpt lat="47.342436" lon="11.332578"><ele>1198</ele></trkpt><trkpt lat="47.342385" lon="11.332634"><ele>1198</ele></trkpt><trkpt lat="47.342326" lon="11.3327"><ele>1198</ele></trkpt><trkpt lat="47.341908" lon="11.333549"><ele>1208.5</ele></trkpt><trkpt lat="47.34146" lon="11.334247"><ele>1223.4</ele></trkpt><trkpt lat="47.340502" lon="11.334863"><ele>1235</ele></trkpt><trkpt lat="47.340405" lon="11.335014"><ele>1234.6</ele></trkpt><trkpt lat="47.34022" lon="11.335539"><ele>1235.5</ele></trkpt><trkpt lat="47.340165" lon="11.335613"><ele>1235.4</ele></trkpt><trkpt lat="47.340074" lon="11.335658"><ele>1235.4</ele></trkpt><trkpt lat="47.339899" lon="11.335704"><ele>1236.6</ele></trkpt><trkpt lat="47.339771" lon="11.335808"><ele>1237.7</ele></trkpt><trkpt lat="47.339682" lon="11.335961"><ele>1238.5</ele></trkpt><trkpt lat="47.33959" lon="11.336313"><ele>1239.1</ele></trkpt><trkpt lat="47.339406" lon="11.336781"><ele>1240.2</ele></trkpt><trkpt lat="47.339262" lon="11.336948"><ele>1240.6</ele></trkpt><trkpt lat="47.339175" lon="11.337105"><ele>1240.9</ele></trkpt><trkpt lat="47.339137" lon="11.337242"><ele>1242.8</ele></trkpt><trkpt lat="47.339126" lon="11.337435"><ele>1243.7</ele></trkpt><trkpt lat="47.339141" lon="11.337578"><ele>1244.2</ele></trkpt><trkpt lat="47.33918" lon="11.337735"><ele>1243.6</ele></trkpt><trkpt lat="47.339266" lon="11.337924"><ele>1243.2</ele></trkpt><trkpt lat="47.339344" lon="11.338193"><ele>1242.7</ele></trkpt><trkpt lat="47.339383" lon="11.338548"><ele>1242.8</ele></trkpt><trkpt lat="47.339348" lon="11.338876"><ele>1243.3</ele></trkpt><trkpt lat="47.339256" lon="11.339042"><ele>1244.5</ele></trkpt><trkpt lat="47.339121" lon="11.339203"><ele>1245.3</ele></trkpt><trkpt lat="47.338977" lon="11.339462"><ele>1243.6</ele></trkpt><trkpt lat="47.338921" lon="11.339798"><ele>1243.9</ele></trkpt><trkpt lat="47.338845" lon="11.339895"><ele>1245.1</ele></trkpt><trkpt lat="47.3387" lon="11.33997"><ele>1246.3</ele></trkpt><trkpt lat="47.338464" lon="11.340036"><ele>1247.5</ele></trkpt><trkpt lat="47.33835" lon="11.340147"><ele>1248.9</ele></trkpt><trkpt lat="47.338239" lon="11.340318"><ele>1262</ele></trkpt><trkpt lat="47.338184" lon="11.34055"><ele>1261.1</ele></trkpt><trkpt lat="47.33818" lon="11.340852"><ele>1261.5</ele></trkpt><trkpt lat="47.338326" lon="11.341071"><ele>1262.2</ele></trkpt><trkpt lat="47.33842" lon="11.341136"><ele>1257</ele></trkpt><trkpt lat="47.33842" lon="11.341338"><ele>1261.6</ele></trkpt><trkpt lat="47.338246" lon="11.342027"><ele>1262.5</ele></trkpt><trkpt lat="47.33815" lon="11.342687"><ele>1270</ele></trkpt><trkpt lat="47.337786" lon="11.342784"><ele>1270</ele></trkpt><trkpt lat="47.337604" lon="11.342794"><ele>1270</ele></trkpt><trkpt lat="47.337526" lon="11.342905"><ele>1273</ele></trkpt><trkpt lat="47.337498" lon="11.342905"><ele>1276</ele></trkpt><trkpt lat="47.337526" lon="11.342905"><ele>1273</ele></trkpt><trkpt lat="47.337604" lon="11.342794"><ele>1270</ele></trkpt><trkpt lat="47.337441" lon="11.342736"><ele>1282.7</ele></trkpt><trkpt lat="47.33713" lon="11.342528"><ele>1283.6</ele></trkpt><trkpt lat="47.336634" lon="11.342476"><ele>1285</ele></trkpt><trkpt lat="47.336389" lon="11.342506"><ele>1287.4</ele></trkpt><trkpt lat="47.336272" lon="11.342504"><ele>1288.4</ele></trkpt><trkpt lat="47.336193" lon="11.342479"><ele>1291.1</ele></trkpt><trkpt lat="47.335902" lon="11.342185"><ele>1294.2</ele></trkpt><trkpt lat="47.335431" lon="11.341839"><ele>1305.1</ele></trkpt><trkpt lat="47.335317" lon="11.341706"><ele>1306.5</ele></trkpt><trkpt lat="47.335144" lon="11.341367"><ele>1309</ele></trkpt><trkpt lat="47.335089" lon="11.341356"><ele>1308.8</ele></trkpt><trkpt lat="47.334866" lon="11.341405"><ele>1314.1</ele></trkpt><trkpt lat="47.334466" lon="11.341323"><ele>1320.9</ele></trkpt><trkpt lat="47.334386" lon="11.341338"><ele>1321.9</ele></trkpt><trkpt lat="47.334261" lon="11.341411"><ele>1322.6</ele></trkpt><trkpt lat="47.334164" lon="11.34153"><ele>1324.7</ele></trkpt><trkpt lat="47.334049" lon="11.341726"><ele>1326.7</ele></trkpt><trkpt lat="47.33377" lon="11.341981"><ele>1333</ele></trkpt><trkpt lat="47.333665" lon="11.342127"><ele>1334.6</ele></trkpt><trkpt lat="47.333593" lon="11.342256"><ele>1334.9</ele></trkpt><trkpt lat="47.333535" lon="11.342585"><ele>1334.5</ele></trkpt><trkpt lat="47.333472" lon="11.342796"><ele>1333.8</ele></trkpt><trkpt lat="47.333393" lon="11.342938"><ele>1333.8</ele></trkpt><trkpt lat="47.333174" lon="11.343195"><ele>1333</ele></trkpt><trkpt lat="47.333046" lon="11.343298"><ele>1334.3</ele></trkpt><trkpt lat="47.33274" lon="11.343434"><ele>1335.5</ele></trkpt><trkpt lat="47.332438" lon="11.343614"><ele>1338.1</ele></trkpt><trkpt lat="47.331832" lon="11.344011"><ele>1347.6</ele></trkpt><trkpt lat="47.331677" lon="11.344303"><ele>1347.8</ele></trkpt><trkpt lat="47.331533" lon="11.344399"><ele>1350.3</ele></trkpt><trkpt lat="47.331424" lon="11.344419"><ele>1351.3</ele></trkpt><trkpt lat="47.3312" lon="11.344413"><ele>1352.8</ele></trkpt><trkpt lat="47.330977" lon="11.344453"><ele>1353</ele></trkpt><trkpt lat="47.330876" lon="11.34451"><ele>1353.3</ele></trkpt><trkpt lat="47.330789" lon="11.344611"><ele>1354.2</ele></trkpt><trkpt lat="47.330588" lon="11.345004"><ele>1355.3</ele></trkpt><trkpt lat="47.330353" lon="11.345368"><ele>1358.6</ele></trkpt><trkpt lat="47.330209" lon="11.345456"><ele>1360</ele></trkpt><trkpt lat="47.330061" lon="11.345492"><ele>1376.5</ele></trkpt><trkpt lat="47.32999" lon="11.345483"><ele>1377</ele></trkpt><trkpt lat="47.32971" lon="11.345374"><ele>1378.2</ele></trkpt><trkpt lat="47.329558" lon="11.345374"><ele>1378.7</ele></trkpt><trkpt lat="47.329344" lon="11.345459"><ele>1378.3</ele></trkpt><trkpt lat="47.329128" lon="11.345575"><ele>1380</ele></trkpt><trkpt lat="47.329031" lon="11.345596"><ele>1380.5</ele></trkpt><trkpt lat="47.328895" lon="11.345687"><ele>1381</ele></trkpt><trkpt lat="47.328756" lon="11.345744"><ele>1384.2</ele></trkpt><trkpt lat="47.328657" lon="11.345726"><ele>1386</ele></trkpt><trkpt lat="47.328494" lon="11.345649"><ele>1388.3</ele></trkpt><trkpt lat="47.328407" lon="11.345648"><ele>1388.4</ele></trkpt><trkpt lat="47.328246" lon="11.345714"><ele>1390.4</ele></trkpt><trkpt lat="47.327876" lon="11.345948"><ele>1395.6</ele></trkpt><trkpt lat="47.327545" lon="11.345921"><ele>1401.8</ele></trkpt><trkpt lat="47.327228" lon="11.346077"><ele>1406.6</ele></trkpt><trkpt lat="47.326796" lon="11.346469"><ele>1410.8</ele></trkpt><trkpt lat="47.326628" lon="11.346669"><ele>1410.9</ele></trkpt><trkpt lat="47.326498" lon="11.346872"><ele>1413.8</ele></trkpt><trkpt lat="47.326003" lon="11.346812"><ele>1420.9</ele></trkpt><trkpt lat="47.325562" lon="11.346835"><ele>1427.2</ele></trkpt><trkpt lat="47.32517" lon="11.346624"><ele>1433.3</ele></trkpt><trkpt lat="47.324964" lon="11.346415"><ele>1439.6</ele></trkpt><trkpt lat="47.324853" lon="11.346382"><ele>1441.7</ele></trkpt><trkpt lat="47.324723" lon="11.346406"><ele>1442.7</ele></trkpt><trkpt lat="47.324437" lon="11.346678"><ele>1444.3</ele></trkpt><trkpt lat="47.324282" lon="11.346776"><ele>1444.2</ele></trkpt><trkpt lat="47.324072" lon="11.346871"><ele>1445.9</ele></trkpt><trkpt lat="47.324001" lon="11.346972"><ele>1446.2</ele></trkpt><trkpt lat="47.323876" lon="11.347273"><ele>1447.8</ele></trkpt><trkpt lat="47.323813" lon="11.34731"><ele>1448.5</ele></trkpt><trkpt lat="47.323602" lon="11.347303"><ele>1449.7</ele></trkpt><trkpt lat="47.323528" lon="11.347327"><ele>1450</ele></trkpt><trkpt lat="47.323449" lon="11.347397"><ele>1450.3</ele></trkpt><trkpt lat="47.323181" lon="11.347552"><ele>1454.6</ele></trkpt><trkpt lat="47.322904" lon="11.347747"><ele>1458.6</ele></trkpt><trkpt lat="47.322754" lon="11.347829"><ele>1459.7</ele></trkpt><trkpt lat="47.322589" lon="11.347884"><ele>1461.1</ele></trkpt><trkpt lat="47.322202" lon="11.348215"><ele>1467.2</ele></trkpt><trkpt lat="47.322095" lon="11.348334"><ele>1467.5</ele></trkpt><trkpt lat="47.322043" lon="11.348367"><ele>1467.9</ele></trkpt><trkpt lat="47.321939" lon="11.34838"><ele>1471</ele></trkpt><trkpt lat="47.321865" lon="11.348445"><ele>1473.4</ele></trkpt><trkpt lat="47.321762" lon="11.348468"><ele>1473.1</ele></trkpt><trkpt lat="47.321633" lon="11.348568"><ele>1473.1</ele></trkpt><trkpt lat="47.321527" lon="11.348581"><ele>1473.3</ele></trkpt><trkpt lat="47.321472" lon="11.348621"><ele>1473.7</ele></trkpt><trkpt lat="47.321073" lon="11.349113"><ele>1474.9</ele></trkpt><trkpt lat="47.320925" lon="11.349369"><ele>1474.2</ele></trkpt><trkpt lat="47.320878" lon="11.349398"><ele>1473.8</ele></trkpt><trkpt lat="47.3208" lon="11.349404"><ele>1475.2</ele></trkpt><trkpt lat="47.320154" lon="11.349323"><ele>1478.9</ele></trkpt><trkpt lat="47.319874" lon="11.349165"><ele>1485.9</ele></trkpt><trkpt lat="47.319542" lon="11.348915"><ele>1503.4</ele></trkpt><trkpt lat="47.318747" lon="11.34823"><ele>1534.1</ele></trkpt><trkpt lat="47.318617" lon="11.348204"><ele>1539.5</ele></trkpt><trkpt lat="47.318432" lon="11.348133"><ele>1542.4</ele></trkpt><trkpt lat="47.318334" lon="11.348035"><ele>1545.1</ele></trkpt><trkpt lat="47.318006" lon="11.348052"><ele>1554.6</ele></trkpt><trkpt lat="47.317809" lon="11.347833"><ele>1560.9</ele></trkpt><trkpt lat="47.317532" lon="11.347668"><ele>1565.5</ele></trkpt><trkpt lat="47.317504" lon="11.347672"><ele>1564.6</ele></trkpt><trkpt lat="47.317488" lon="11.347633"><ele>1564.8</ele></trkpt><trkpt lat="47.317423" lon="11.347648"><ele>1568.1</ele></trkpt><trkpt lat="47.31731" lon="11.347536"><ele>1571.4</ele></trkpt><trkpt lat="47.317261" lon="11.347537"><ele>1571.4</ele></trkpt><trkpt lat="47.31714" lon="11.347486"><ele>1575</ele></trkpt><trkpt lat="47.317047" lon="11.347502"><ele>1576.9</ele></trkpt><trkpt lat="47.31688" lon="11.347741"><ele>1586.3</ele></trkpt><trkpt lat="47.316877" lon="11.347848"><ele>1586.9</ele></trkpt><trkpt lat="47.31673" lon="11.347939"><ele>1590.6</ele></trkpt><trkpt lat="47.316673" lon="11.347927"><ele>1590.2</ele></trkpt><trkpt lat="47.316622" lon="11.347959"><ele>1592.3</ele></trkpt><trkpt lat="47.316667" lon="11.348037"><ele>1590.5</ele></trkpt><trkpt lat="47.316637" lon="11.348239"><ele>1592.6</ele></trkpt><trkpt lat="47.316567" lon="11.34837"><ele>1593.4</ele></trkpt><trkpt lat="47.316482" lon="11.348342"><ele>1595.6</ele></trkpt><trkpt lat="47.316492" lon="11.348422"><ele>1596.3</ele></trkpt><trkpt lat="47.316384" lon="11.348362"><ele>1597</ele></trkpt><trkpt lat="47.316248" lon="11.348495"><ele>1604</ele></trkpt><trkpt lat="47.31608" lon="11.348541"><ele>1609.1</ele></trkpt><trkpt lat="47.31603" lon="11.348623"><ele>1611.5</ele></trkpt><trkpt lat="47.315989" lon="11.348637"><ele>1613.3</ele></trkpt><trkpt lat="47.315967" lon="11.348703"><ele>1615.1</ele></trkpt><trkpt lat="47.315931" lon="11.348716"><ele>1615.5</ele></trkpt><trkpt lat="47.315904" lon="11.348658"><ele>1615.9</ele></trkpt><trkpt lat="47.315832" lon="11.348705"><ele>1618.9</ele></trkpt><trkpt lat="47.315813" lon="11.348678"><ele>1621.1</ele></trkpt><trkpt lat="47.315792" lon="11.348689"><ele>1623.3</ele></trkpt><trkpt lat="47.315668" lon="11.348785"><ele>1631.5</ele></trkpt><trkpt lat="47.315657" lon="11.348902"><ele>1687</ele></trkpt><trkpt lat="47.31563" lon="11.34876"><ele>1701.4</ele></trkpt><trkpt lat="47.31564" lon="11.347762"><ele>1702.1</ele></trkpt><trkpt lat="47.315537" lon="11.347346"><ele>1707.7</ele></trkpt><trkpt lat="47.315607" lon="11.347106"><ele>1710.7</ele></trkpt><trkpt lat="47.315597" lon="11.346813"><ele>1713.8</ele></trkpt><trkpt lat="47.315693" lon="11.3465"><ele>1716.8</ele></trkpt><trkpt lat="47.315491" lon="11.346099"><ele>1720</ele></trkpt><trkpt lat="47.315408" lon="11.345609"><ele>1724.7</ele></trkpt><trkpt lat="47.315474" lon="11.345502"><ele>1725.3</ele></trkpt><trkpt lat="47.315458" lon="11.345169"><ele>1730</ele></trkpt><trkpt lat="47.315053" lon="11.344658"><ele>1754</ele></trkpt><trkpt lat="47.314958" lon="11.344761"><ele>1816.6</ele></trkpt><trkpt lat="47.314945" lon="11.344656"><ele>1815.6</ele></trkpt><trkpt lat="47.3148" lon="11.344945"><ele>1817.3</ele></trkpt><trkpt lat="47.314618" lon="11.344905"><ele>1816.6</ele></trkpt><trkpt lat="47.314517" lon="11.345228"><ele>1815.8</ele></trkpt><trkpt lat="47.314361" lon="11.345258"><ele>1819.9</ele></trkpt><trkpt lat="47.314358" lon="11.345049"><ele>1820.7</ele></trkpt><trkpt lat="47.31425" lon="11.344932"><ele>1821.5</ele></trkpt><trkpt lat="47.314131" lon="11.34507"><ele>1821.1</ele></trkpt><trkpt lat="47.313981" lon="11.34518"><ele>1820.7</ele></trkpt><trkpt lat="47.313784" lon="11.345207"><ele>1820.2</ele></trkpt><trkpt lat="47.313616" lon="11.345339"><ele>1825.4</ele></trkpt><trkpt lat="47.313504" lon="11.345306"><ele>1830.2</ele></trkpt><trkpt lat="47.313485" lon="11.34524"><ele>1830.4</ele></trkpt><trkpt lat="47.31303" lon="11.345191"><ele>1843.9</ele></trkpt><trkpt lat="47.312195" lon="11.345262"><ele>1871.6</ele></trkpt><trkpt lat="47.312042" lon="11.345427"><ele>1883.3</ele></trkpt><trkpt lat="47.31177" lon="11.345609"><ele>1880.8</ele></trkpt><trkpt lat="47.311496" lon="11.346213"><ele>1909</ele></trkpt><trkpt lat="47.311436" lon="11.346519"><ele>1920.9</ele></trkpt><trkpt lat="47.311207" lon="11.346808"><ele>1925.4</ele></trkpt><trkpt lat="47.311121" lon="11.347019"><ele>1926.4</ele></trkpt><trkpt lat="47.310835" lon="11.347269"><ele>1925.3</ele></trkpt><trkpt lat="47.310222" lon="11.347312"><ele>1930.4</ele></trkpt><trkpt lat="47.309973" lon="11.34728"><ele>1943.8</ele></trkpt><trkpt lat="47.309928" lon="11.34723"><ele>1943</ele></trkpt><trkpt lat="47.3098" lon="11.347232"><ele>1944.9</ele></trkpt><trkpt lat="47.309248" lon="11.347589"><ele>1965.3</ele></trkpt><trkpt lat="47.308798" lon="11.347785"><ele>1989.7</ele></trkpt><trkpt lat="47.308687" lon="11.347719"><ele>1991.7</ele></trkpt><trkpt lat="47.30841" lon="11.34782"><ele>2036</ele></trkpt><trkpt lat="47.3075" lon="11.347754"><ele>2096.8</ele></trkpt><trkpt lat="47.30724" lon="11.347948"><ele>2115.1</ele></trkpt><trkpt lat="47.306986" lon="11.347961"><ele>2136.3</ele></trkpt><trkpt lat="47.306968" lon="11.347838"><ele>2133.9</ele></trkpt><trkpt lat="47.306691" lon="11.347605"><ele>2136.6</ele></trkpt><trkpt lat="47.306601" lon="11.347583"><ele>2138.5</ele></trkpt><trkpt lat="47.306285" lon="11.347221"><ele>2138.6</ele></trkpt><trkpt lat="47.30629" lon="11.347571"><ele>2140.4</ele></trkpt><trkpt lat="47.305859" lon="11.347453"><ele>2146.2</ele></trkpt><trkpt lat="47.305856" lon="11.347794"><ele>2147.7</ele></trkpt><trkpt lat="47.305724" lon="11.347717"><ele>2155</ele></trkpt><trkpt lat="47.305644" lon="11.34786"><ele>2161.7</ele></trkpt><trkpt lat="47.305659" lon="11.34811"><ele>2167.8</ele></trkpt><trkpt lat="47.305503" lon="11.348539"><ele>2206</ele></trkpt><trkpt lat="47.305346" lon="11.349475"><ele>2198.8</ele></trkpt><trkpt lat="47.305286" lon="11.349676"><ele>2199</ele></trkpt><trkpt lat="47.305319" lon="11.349819"><ele>2199.2</ele></trkpt><trkpt lat="47.305284" lon="11.349971"><ele>2199.3</ele></trkpt><trkpt lat="47.305286" lon="11.35014"><ele>2200</ele></trkpt><trkpt lat="47.30521" lon="11.350207"><ele>2200.7</ele></trkpt><trkpt lat="47.305198" lon="11.35035"><ele>2201.3</ele></trkpt><trkpt lat="47.30515" lon="11.350292"><ele>2201.9</ele></trkpt><trkpt lat="47.305097" lon="11.350292"><ele>2202.5</ele></trkpt><trkpt lat="47.305069" lon="11.350319"><ele>2203.1</ele></trkpt><trkpt lat="47.305017" lon="11.350239"><ele>2203.6</ele></trkpt><trkpt lat="47.305033" lon="11.350149"><ele>2204.1</ele></trkpt><trkpt lat="47.304965" lon="11.349907"><ele>2202.3</ele></trkpt><trkpt lat="47.304987" lon="11.34985"><ele>2200.6</ele></trkpt><trkpt lat="47.304988" lon="11.349723"><ele>2199</ele></trkpt><trkpt lat="47.304908" lon="11.349574"><ele>2197.4</ele></trkpt><trkpt lat="47.304925" lon="11.34948"><ele>2195.9</ele></trkpt><trkpt lat="47.304896" lon="11.349361"><ele>2194.4</ele></trkpt><trkpt lat="47.304911" lon="11.349177"><ele>2193</ele></trkpt><trkpt lat="47.304844" lon="11.348813"><ele>2192.1</ele></trkpt><trkpt lat="47.304769" lon="11.348681"><ele>2182</ele></trkpt><trkpt lat="47.304763" lon="11.348578"><ele>2182</ele></trkpt><trkpt lat="47.304743" lon="11.348541"><ele>2182</ele></trkpt><trkpt lat="47.304635" lon="11.348399"><ele>2175.4</ele></trkpt><trkpt lat="47.304642" lon="11.348467"><ele>2175.6</ele></trkpt><trkpt lat="47.304565" lon="11.34843"><ele>2175.7</ele></trkpt><trkpt lat="47.304585" lon="11.34849"><ele>2175.9</ele></trkpt><trkpt lat="47.304538" lon="11.348507"><ele>2176.1</ele></trkpt><trkpt lat="47.304556" lon="11.348574"><ele>2176.2</ele></trkpt><trkpt lat="47.304517" lon="11.348564"><ele>2176.4</ele></trkpt><trkpt lat="47.304524" lon="11.348614"><ele>2176.5</ele></trkpt><trkpt lat="47.30447" lon="11.348588"><ele>2176.6</ele></trkpt><trkpt lat="47.304449" lon="11.348534"><ele>2176.8</ele></trkpt><trkpt lat="47.304384" lon="11.348582"><ele>2176.9</ele></trkpt><trkpt lat="47.304318" lon="11.348551"><ele>2177</ele></trkpt><trkpt lat="47.304341" lon="11.348626"><ele>2177.2</ele></trkpt><trkpt lat="47.304209" lon="11.348511"><ele>2177.4</ele></trkpt><trkpt lat="47.304246" lon="11.348657"><ele>2177.5</ele></trkpt><trkpt lat="47.304184" lon="11.348607"><ele>2177.6</ele></trkpt><trkpt lat="47.30421" lon="11.348697"><ele>2177.8</ele></trkpt><trkpt lat="47.304157" lon="11.34863"><ele>2177.5</ele></trkpt><trkpt lat="47.304169" lon="11.348743"><ele>2177.6</ele></trkpt><trkpt lat="47.304111" lon="11.348704"><ele>2177.4</ele></trkpt><trkpt lat="47.304107" lon="11.348825"><ele>2177.1</ele></trkpt><trkpt lat="47.304054" lon="11.348743"><ele>2176.9</ele></trkpt><trkpt lat="47.304047" lon="11.348881"><ele>2176.7</ele></trkpt><trkpt lat="47.30408" lon="11.348917"><ele>2176.5</ele></trkpt><trkpt lat="47.303996" lon="11.348928"><ele>2176.2</ele></trkpt><trkpt lat="47.30405" lon="11.348987"><ele>2176</ele></trkpt><trkpt lat="47.303939" lon="11.349001"><ele>2175.8</ele></trkpt><trkpt lat="47.303903" lon="11.348958"><ele>2175.6</ele></trkpt><trkpt lat="47.303795" lon="11.349099"><ele>2175.4</ele></trkpt><trkpt lat="47.303699" lon="11.34912"><ele>2175.2</ele></trkpt><trkpt lat="47.303665" lon="11.349163"><ele>2175</ele></trkpt><trkpt lat="47.303538" lon="11.34918"><ele>2173.6</ele></trkpt><trkpt lat="47.303526" lon="11.349234"><ele>2172.3</ele></trkpt><trkpt lat="47.303467" lon="11.349239"><ele>2125</ele></trkpt><trkpt lat="47.303474" lon="11.34931"><ele>2109.9</ele></trkpt><trkpt lat="47.303441" lon="11.34931"><ele>2110.4</ele></trkpt><trkpt lat="47.303454" lon="11.349412"><ele>2111</ele></trkpt><trkpt lat="47.303417" lon="11.349407"><ele>2110.6</ele></trkpt><trkpt lat="47.303433" lon="11.349467"><ele>2112</ele></trkpt><trkpt lat="47.303374" lon="11.349435"><ele>2111.5</ele></trkpt><trkpt lat="47.303391" lon="11.349507"><ele>2111.9</ele></trkpt><trkpt lat="47.303282" lon="11.349529"><ele>2108.1</ele></trkpt><trkpt lat="47.303226" lon="11.349509"><ele>2108.2</ele></trkpt><trkpt lat="47.30324" lon="11.34961"><ele>2108.2</ele></trkpt><trkpt lat="47.303185" lon="11.349589"><ele>2108.3</ele></trkpt><trkpt lat="47.303203" lon="11.349653"><ele>2108.3</ele></trkpt><trkpt lat="47.303152" lon="11.349656"><ele>2108.4</ele></trkpt><trkpt lat="47.303165" lon="11.349706"><ele>2108.4</ele></trkpt><trkpt lat="47.303013" lon="11.349696"><ele>2108.5</ele></trkpt><trkpt lat="47.303022" lon="11.349787"><ele>2108.6</ele></trkpt><trkpt lat="47.302852" lon="11.349663"><ele>2108.7</ele></trkpt><trkpt lat="47.302718" lon="11.349698"><ele>2108.7</ele></trkpt><trkpt lat="47.302735" lon="11.349752"><ele>2108.8</ele></trkpt><trkpt lat="47.302481" lon="11.349749"><ele>2107.5</ele></trkpt><trkpt lat="47.302452" lon="11.349794"><ele>2106.3</ele></trkpt><trkpt lat="47.302402" lon="11.349823"><ele>2105.1</ele></trkpt><trkpt lat="47.302364" lon="11.349797"><ele>2103.9</ele></trkpt><trkpt lat="47.302119" lon="11.349939"><ele>2097.7</ele></trkpt><trkpt lat="47.302192" lon="11.350038"><ele>2098.6</ele></trkpt><trkpt lat="47.30207" lon="11.350091"><ele>2088.5</ele></trkpt><trkpt lat="47.302028" lon="11.350189"><ele>2015</ele></trkpt><trkpt lat="47.302112" lon="11.350298"><ele>1972.3</ele></trkpt><trkpt lat="47.302214" lon="11.350674"><ele>1970.4</ele></trkpt><trkpt lat="47.302225" lon="11.351065"><ele>1969.3</ele></trkpt><trkpt lat="47.302281" lon="11.351191"><ele>1968.1</ele></trkpt><trkpt lat="47.302374" lon="11.351272"><ele>1968.1</ele></trkpt><trkpt lat="47.302375" lon="11.351363"><ele>1968.2</ele></trkpt><trkpt lat="47.302394" lon="11.351417"><ele>1968.2</ele></trkpt><trkpt lat="47.302505" lon="11.351445"><ele>1969.5</ele></trkpt><trkpt lat="47.302489" lon="11.351495"><ele>1967.7</ele></trkpt><trkpt lat="47.302435" lon="11.351533"><ele>1967.7</ele></trkpt><trkpt lat="47.302378" lon="11.35168"><ele>1964.4</ele></trkpt><trkpt lat="47.302391" lon="11.351867"><ele>1961.3</ele></trkpt><trkpt lat="47.302432" lon="11.351996"><ele>1958.6</ele></trkpt><trkpt lat="47.302433" lon="11.35215"><ele>1955.3</ele></trkpt><trkpt lat="47.302484" lon="11.352325"><ele>1951.9</ele></trkpt><trkpt lat="47.302546" lon="11.352365"><ele>1951.1</ele></trkpt><trkpt lat="47.302525" lon="11.352503"><ele>1951.9</ele></trkpt><trkpt lat="47.302565" lon="11.3528"><ele>1947.5</ele></trkpt><trkpt lat="47.302656" lon="11.353097"><ele>1942.4</ele></trkpt><trkpt lat="47.302666" lon="11.353445"><ele>1925.4</ele></trkpt><trkpt lat="47.302623" lon="11.353541"><ele>1922</ele></trkpt><trkpt lat="47.302647" lon="11.353633"><ele>1921</ele></trkpt><trkpt lat="47.302649" lon="11.353836"><ele>1920.8</ele></trkpt><trkpt lat="47.302715" lon="11.354307"><ele>1908.5</ele></trkpt><trkpt lat="47.302819" lon="11.354681"><ele>1903.3</ele></trkpt><trkpt lat="47.302832" lon="11.354865"><ele>1902</ele></trkpt><trkpt lat="47.302918" lon="11.355045"><ele>1901.9</ele></trkpt><trkpt lat="47.303137" lon="11.355242"><ele>1900.3</ele></trkpt><trkpt lat="47.303043" lon="11.355325"><ele>1900.3</ele></trkpt><trkpt lat="47.302738" lon="11.355385"><ele>1900.1</ele></trkpt><trkpt lat="47.302671" lon="11.355368"><ele>1900.1</ele></trkpt><trkpt lat="47.302662" lon="11.355415"><ele>1900.1</ele></trkpt><trkpt lat="47.302821" lon="11.355588"><ele>1898.3</ele></trkpt><trkpt lat="47.302943" lon="11.355786"><ele>1896.4</ele></trkpt><trkpt lat="47.30294" lon="11.355828"><ele>1896.5</ele></trkpt><trkpt lat="47.302855" lon="11.355853"><ele>1895.7</ele></trkpt><trkpt lat="47.302856" lon="11.355899"><ele>1894.8</ele></trkpt><trkpt lat="47.302805" lon="11.355927"><ele>1894</ele></trkpt><trkpt lat="47.302748" lon="11.355909"><ele>1893.3</ele></trkpt><trkpt lat="47.302688" lon="11.355941"><ele>1891.8</ele></trkpt><trkpt lat="47.302712" lon="11.355996"><ele>1891.1</ele></trkpt><trkpt lat="47.302791" lon="11.356087"><ele>1890.4</ele></trkpt><trkpt lat="47.302899" lon="11.356088"><ele>1889.8</ele></trkpt><trkpt lat="47.303027" lon="11.356035"><ele>1889.2</ele></trkpt><trkpt lat="47.303064" lon="11.356045"><ele>1873</ele></trkpt><trkpt lat="47.302913" lon="11.356181"><ele>1851.3</ele></trkpt><trkpt lat="47.302783" lon="11.356245"><ele>1853.2</ele></trkpt><trkpt lat="47.302712" lon="11.356312"><ele>1854.8</ele></trkpt><trkpt lat="47.302421" lon="11.356324"><ele>1852.4</ele></trkpt><trkpt lat="47.302338" lon="11.356288"><ele>1850.2</ele></trkpt><trkpt lat="47.302192" lon="11.3563"><ele>1848.2</ele></trkpt><trkpt lat="47.302207" lon="11.356359"><ele>1846.3</ele></trkpt><trkpt lat="47.302138" lon="11.356379"><ele>1844.6</ele></trkpt><trkpt lat="47.301998" lon="11.356314"><ele>1843.1</ele></trkpt><trkpt lat="47.301912" lon="11.35621"><ele>1826</ele></trkpt><trkpt lat="47.301886" lon="11.356244"><ele>1787.6</ele></trkpt><trkpt lat="47.301965" lon="11.35643"><ele>1787.2</ele></trkpt><trkpt lat="47.302102" lon="11.356607"><ele>1787</ele></trkpt><trkpt lat="47.302278" lon="11.356785"><ele>1787.4</ele></trkpt><trkpt lat="47.30234" lon="11.356801"><ele>1788.4</ele></trkpt><trkpt lat="47.302489" lon="11.356924"><ele>1789.4</ele></trkpt><trkpt lat="47.302432" lon="11.356948"><ele>1788.6</ele></trkpt><trkpt lat="47.301968" lon="11.356995"><ele>1785.7</ele></trkpt><trkpt lat="47.301967" lon="11.357048"><ele>1786.6</ele></trkpt><trkpt lat="47.302169" lon="11.35737"><ele>1782.3</ele></trkpt><trkpt lat="47.302299" lon="11.357517"><ele>1781.7</ele></trkpt><trkpt lat="47.302296" lon="11.357573"><ele>1781</ele></trkpt><trkpt lat="47.30233" lon="11.357658"><ele>1781.2</ele></trkpt><trkpt lat="47.302141" lon="11.357632"><ele>1780.5</ele></trkpt><trkpt lat="47.302341" lon="11.357935"><ele>1779.8</ele></trkpt><trkpt lat="47.302189" lon="11.357974"><ele>1779.1</ele></trkpt><trkpt lat="47.302129" lon="11.358024"><ele>1779.3</ele></trkpt><trkpt lat="47.301899" lon="11.35811"><ele>1779.5</ele></trkpt><trkpt lat="47.301816" lon="11.358174"><ele>1779.7</ele></trkpt><trkpt lat="47.301758" lon="11.358162"><ele>1780</ele></trkpt><trkpt lat="47.301612" lon="11.358218"><ele>1773.2</ele></trkpt><trkpt lat="47.301612" lon="11.35825"><ele>1771.4</ele></trkpt><trkpt lat="47.301712" lon="11.358383"><ele>1771.2</ele></trkpt><trkpt lat="47.301889" lon="11.358468"><ele>1773.7</ele></trkpt><trkpt lat="47.301907" lon="11.358509"><ele>1773.4</ele></trkpt><trkpt lat="47.301854" lon="11.358517"><ele>1770.4</ele></trkpt><trkpt lat="47.301944" lon="11.358697"><ele>1767.7</ele></trkpt><trkpt lat="47.301884" lon="11.35873"><ele>1762.9</ele></trkpt><trkpt lat="47.301834" lon="11.358721"><ele>1761.5</ele></trkpt><trkpt lat="47.30171" lon="11.358778"><ele>1757.6</ele></trkpt><trkpt lat="47.301587" lon="11.358723"><ele>1755.8</ele></trkpt><trkpt lat="47.301614" lon="11.358819"><ele>1755.3</ele></trkpt><trkpt lat="47.301561" lon="11.358854"><ele>1754.8</ele></trkpt><trkpt lat="47.301648" lon="11.35905"><ele>1751</ele></trkpt><trkpt lat="47.301708" lon="11.359072"><ele>1751.2</ele></trkpt><trkpt lat="47.301741" lon="11.359138"><ele>1751.3</ele></trkpt><trkpt lat="47.301805" lon="11.359172"><ele>1750.7</ele></trkpt><trkpt lat="47.301793" lon="11.359212"><ele>1750.2</ele></trkpt><trkpt lat="47.301739" lon="11.359223"><ele>1749.6</ele></trkpt><trkpt lat="47.301718" lon="11.359276"><ele>1745.9</ele></trkpt><trkpt lat="47.301635" lon="11.3593"><ele>1744</ele></trkpt><trkpt lat="47.301593" lon="11.359362"><ele>1740.8</ele></trkpt><trkpt lat="47.301484" lon="11.359378"><ele>1737.1</ele></trkpt><trkpt lat="47.301438" lon="11.359431"><ele>1735</ele></trkpt><trkpt lat="47.300829" lon="11.35963"><ele>1716.5</ele></trkpt><trkpt lat="47.300812" lon="11.35971"><ele>1709.8</ele></trkpt><trkpt lat="47.30085" lon="11.359759"><ele>1709.7</ele></trkpt><trkpt lat="47.300878" lon="11.359914"><ele>1708.2</ele></trkpt><trkpt lat="47.300852" lon="11.359978"><ele>1706.6</ele></trkpt><trkpt lat="47.300803" lon="11.359925"><ele>1703.7</ele></trkpt><trkpt lat="47.300638" lon="11.359928"><ele>1700.7</ele></trkpt><trkpt lat="47.300592" lon="11.360006"><ele>1697</ele></trkpt><trkpt lat="47.300643" lon="11.360477"><ele>1676.3</ele></trkpt><trkpt lat="47.300447" lon="11.36054"><ele>1668.6</ele></trkpt><trkpt lat="47.300295" lon="11.360654"><ele>1662.5</ele></trkpt><trkpt lat="47.300119" lon="11.360652"><ele>1661.4</ele></trkpt><trkpt lat="47.300034" lon="11.360549"><ele>1660.3</ele></trkpt><trkpt lat="47.300015" lon="11.360621"><ele>1659.3</ele></trkpt><trkpt lat="47.300134" lon="11.360884"><ele>1622</ele></trkpt><trkpt lat="47.300364" lon="11.361088"><ele>1612.3</ele></trkpt><trkpt lat="47.300615" lon="11.361092"><ele>1612.2</ele></trkpt><trkpt lat="47.300673" lon="11.36117"><ele>1612.7</ele></trkpt><trkpt lat="47.300697" lon="11.361239"><ele>1612.4</ele></trkpt><trkpt lat="47.300696" lon="11.361478"><ele>1612.3</ele></trkpt><trkpt lat="47.300773" lon="11.361625"><ele>1613.2</ele></trkpt><trkpt lat="47.300751" lon="11.361714"><ele>1612.3</ele></trkpt><trkpt lat="47.300719" lon="11.361738"><ele>1611.5</ele></trkpt><trkpt lat="47.30068" lon="11.361937"><ele>1610.7</ele></trkpt><trkpt lat="47.300665" lon="11.362189"><ele>1608.4</ele></trkpt><trkpt lat="47.300781" lon="11.362415"><ele>1607.8</ele></trkpt><trkpt lat="47.300935" lon="11.362568"><ele>1607.1</ele></trkpt><trkpt lat="47.301075" lon="11.362742"><ele>1607.1</ele></trkpt><trkpt lat="47.301079" lon="11.362806"><ele>1606.3</ele></trkpt><trkpt lat="47.301163" lon="11.362894"><ele>1606.3</ele></trkpt><trkpt lat="47.301226" lon="11.362998"><ele>1604.6</ele></trkpt><trkpt lat="47.301227" lon="11.363049"><ele>1604.7</ele></trkpt><trkpt lat="47.301045" lon="11.363397"><ele>1601</ele></trkpt><trkpt lat="47.300066" lon="11.364346"><ele>1561</ele></trkpt><trkpt lat="47.299983" lon="11.364432"><ele>1520</ele></trkpt><trkpt lat="47.299945" lon="11.364564"><ele>1520.1</ele></trkpt><trkpt lat="47.299887" lon="11.364661"><ele>1519.7</ele></trkpt><trkpt lat="47.299803" lon="11.364691"><ele>1518.8</ele></trkpt><trkpt lat="47.29978" lon="11.36512"><ele>1515.4</ele></trkpt><trkpt lat="47.299647" lon="11.365555"><ele>1515.8</ele></trkpt><trkpt lat="47.299646" lon="11.365619"><ele>1516.1</ele></trkpt><trkpt lat="47.299578" lon="11.365598"><ele>1516.4</ele></trkpt><trkpt lat="47.299567" lon="11.365782"><ele>1516.8</ele></trkpt><trkpt lat="47.29951" lon="11.365857"><ele>1516.8</ele></trkpt><trkpt lat="47.299477" lon="11.366059"><ele>1516.9</ele></trkpt><trkpt lat="47.29936" lon="11.366058"><ele>1515</ele></trkpt><trkpt lat="47.299305" lon="11.366142"><ele>1515.2</ele></trkpt><trkpt lat="47.299135" lon="11.366261"><ele>1512.7</ele></trkpt><trkpt lat="47.29913" lon="11.366387"><ele>1508.6</ele></trkpt><trkpt lat="47.298977" lon="11.366286"><ele>1506.2</ele></trkpt><trkpt lat="47.298946" lon="11.366383"><ele>1503.7</ele></trkpt><trkpt lat="47.29887" lon="11.366317"><ele>1502.1</ele></trkpt><trkpt lat="47.29881" lon="11.366386"><ele>1475</ele></trkpt><trkpt lat="47.298724" lon="11.366645"><ele>1475</ele></trkpt><trkpt lat="47.298561" lon="11.366511"><ele>1475</ele></trkpt><trkpt lat="47.298542" lon="11.366428"><ele>1475</ele></trkpt><trkpt lat="47.29851" lon="11.366522"><ele>1475</ele></trkpt><trkpt lat="47.298426" lon="11.366403"><ele>1475</ele></trkpt><trkpt lat="47.298402" lon="11.366322"><ele>1475</ele></trkpt><trkpt lat="47.298378" lon="11.366476"><ele>1471.7</ele></trkpt><trkpt lat="47.298344" lon="11.366477"><ele>1472.2</ele></trkpt><trkpt lat="47.298298" lon="11.366582"><ele>1465.3</ele></trkpt><trkpt lat="47.298391" lon="11.366811"><ele>1466.8</ele></trkpt><trkpt lat="47.298403" lon="11.36691"><ele>1476</ele></trkpt><trkpt lat="47.298384" lon="11.366936"><ele>1470.9</ele></trkpt><trkpt lat="47.298403" lon="11.367042"><ele>1471</ele></trkpt><trkpt lat="47.298375" lon="11.367119"><ele>1471.1</ele></trkpt><trkpt lat="47.298416" lon="11.367157"><ele>1471.2</ele></trkpt><trkpt lat="47.298381" lon="11.367187"><ele>1471.4</ele></trkpt><trkpt lat="47.29838" lon="11.367215"><ele>1471.5</ele></trkpt><trkpt lat="47.298583" lon="11.367296"><ele>1471.9</ele></trkpt><trkpt lat="47.298628" lon="11.367384"><ele>1472.3</ele></trkpt><trkpt lat="47.298667" lon="11.367387"><ele>1472.4</ele></trkpt><trkpt lat="47.29866" lon="11.367443"><ele>1472.7</ele></trkpt><trkpt lat="47.298707" lon="11.367459"><ele>1472.8</ele></trkpt><trkpt lat="47.29872" lon="11.367521"><ele>1472.2</ele></trkpt><trkpt lat="47.298745" lon="11.367525"><ele>1471.8</ele></trkpt><trkpt lat="47.298756" lon="11.367569"><ele>1471.5</ele></trkpt><trkpt lat="47.298888" lon="11.367696"><ele>1470.3</ele></trkpt><trkpt lat="47.298934" lon="11.367794"><ele>1470</ele></trkpt><trkpt lat="47.298938" lon="11.367811"><ele>1469.7</ele></trkpt><trkpt lat="47.298914" lon="11.367836"><ele>1469.4</ele></trkpt><trkpt lat="47.298981" lon="11.36795"><ele>1468.9</ele></trkpt><trkpt lat="47.298983" lon="11.368012"><ele>1468.3</ele></trkpt><trkpt lat="47.298964" lon="11.36804"><ele>1468.1</ele></trkpt><trkpt lat="47.298893" lon="11.36804"><ele>1467.8</ele></trkpt><trkpt lat="47.298791" lon="11.368101"><ele>1457</ele></trkpt><trkpt lat="47.298743" lon="11.368114"><ele>1457</ele></trkpt><trkpt lat="47.298636" lon="11.368224"><ele>1457</ele></trkpt><trkpt lat="47.298611" lon="11.368244"><ele>1410.6</ele></trkpt><trkpt lat="47.298592" lon="11.368326"><ele>1412</ele></trkpt><trkpt lat="47.298637" lon="11.368415"><ele>1412</ele></trkpt><trkpt lat="47.298581" lon="11.368482"><ele>1411.9</ele></trkpt><trkpt lat="47.298592" lon="11.368591"><ele>1411.9</ele></trkpt><trkpt lat="47.2985" lon="11.368632"><ele>1411.8</ele></trkpt><trkpt lat="47.298479" lon="11.368662"><ele>1411.8</ele></trkpt><trkpt lat="47.298474" lon="11.368669"><ele>1411.8</ele></trkpt><trkpt lat="47.298421" lon="11.368674"><ele>1411.8</ele></trkpt><trkpt lat="47.298405" lon="11.368708"><ele>1411.8</ele></trkpt><trkpt lat="47.298368" lon="11.368725"><ele>1411.7</ele></trkpt><trkpt lat="47.298339" lon="11.36879"><ele>1411.7</ele></trkpt><trkpt lat="47.298306" lon="11.368805"><ele>1411.3</ele></trkpt><trkpt lat="47.298276" lon="11.368885"><ele>1410.6</ele></trkpt><trkpt lat="47.298292" lon="11.368928"><ele>1410.2</ele></trkpt><trkpt lat="47.298343" lon="11.368967"><ele>1410.3</ele></trkpt><trkpt lat="47.298566" lon="11.369045"><ele>1410.3</ele></trkpt><trkpt lat="47.298585" lon="11.369099"><ele>1410.4</ele></trkpt><trkpt lat="47.298605" lon="11.369301"><ele>1408.6</ele></trkpt><trkpt lat="47.29854" lon="11.369578"><ele>1407</ele></trkpt><trkpt lat="47.298487" lon="11.369731"><ele>1405.4</ele></trkpt><trkpt lat="47.298185" lon="11.37008"><ele>1336</ele></trkpt><trkpt lat="47.298222" lon="11.369973"><ele>1330.6</ele></trkpt><trkpt lat="47.298222" lon="11.369902"><ele>1332.2</ele></trkpt><trkpt lat="47.298187" lon="11.36989"><ele>1332.3</ele></trkpt><trkpt lat="47.298163" lon="11.369906"><ele>1333.7</ele></trkpt><trkpt lat="47.298142" lon="11.36987"><ele>1335</ele></trkpt><trkpt lat="47.298048" lon="11.369818"><ele>1338.7</ele></trkpt><trkpt lat="47.297616" lon="11.370264"><ele>1326.8</ele></trkpt><trkpt lat="47.297187" lon="11.370462"><ele>1323.6</ele></trkpt><trkpt lat="47.29718" lon="11.37041"><ele>1322.4</ele></trkpt><trkpt lat="47.297165" lon="11.370403"><ele>1321.8</ele></trkpt><trkpt lat="47.297134" lon="11.370434"><ele>1319.4</ele></trkpt><trkpt lat="47.297055" lon="11.370412"><ele>1318.9</ele></trkpt><trkpt lat="47.297025" lon="11.370379"><ele>1318.5</ele></trkpt><trkpt lat="47.296897" lon="11.370455"><ele>1303.6</ele></trkpt><trkpt lat="47.296754" lon="11.370475"><ele>1284.6</ele></trkpt><trkpt lat="47.296596" lon="11.370351"><ele>1282</ele></trkpt><trkpt lat="47.29614" lon="11.370445"><ele>1274.8</ele></trkpt><trkpt lat="47.295683" lon="11.370697"><ele>1262.3</ele></trkpt><trkpt lat="47.295697" lon="11.37073"><ele>1262.6</ele></trkpt><trkpt lat="47.295646" lon="11.370779"><ele>1262.9</ele></trkpt><trkpt lat="47.295625" lon="11.370781"><ele>1263.2</ele></trkpt><trkpt lat="47.295565" lon="11.370707"><ele>1251</ele></trkpt><trkpt lat="47.295514" lon="11.370751"><ele>1250.7</ele></trkpt><trkpt lat="47.295411" lon="11.370703"><ele>1246.8</ele></trkpt><trkpt lat="47.295346" lon="11.370738"><ele>1243.4</ele></trkpt><trkpt lat="47.295327" lon="11.37071"><ele>1243.1</ele></trkpt><trkpt lat="47.295203" lon="11.37079"><ele>1241.8</ele></trkpt><trkpt lat="47.295188" lon="11.37077"><ele>1242.5</ele></trkpt><trkpt lat="47.29509" lon="11.370803"><ele>1239.6</ele></trkpt><trkpt lat="47.295047" lon="11.370843"><ele>1235.5</ele></trkpt><trkpt lat="47.294805" lon="11.370917"><ele>1226.9</ele></trkpt><trkpt lat="47.294414" lon="11.371136"><ele>1224.2</ele></trkpt><trkpt lat="47.29429" lon="11.371167"><ele>1220</ele></trkpt><trkpt lat="47.294316" lon="11.371057"><ele>1221.3</ele></trkpt><trkpt lat="47.294397" lon="11.370979"><ele>1222.4</ele></trkpt><trkpt lat="47.294373" lon="11.37096"><ele>1222.1</ele></trkpt><trkpt lat="47.294359" lon="11.370905"><ele>1221.4</ele></trkpt><trkpt lat="47.294333" lon="11.370918"><ele>1219</ele></trkpt><trkpt lat="47.29431" lon="11.370903"><ele>1218.7</ele></trkpt><trkpt lat="47.294284" lon="11.370844"><ele>1217.4</ele></trkpt><trkpt lat="47.294265" lon="11.370859"><ele>1216</ele></trkpt><trkpt lat="47.294091" lon="11.370844"><ele>1209.1</ele></trkpt><trkpt lat="47.294047" lon="11.370876"><ele>1205.5</ele></trkpt><trkpt lat="47.293932" lon="11.370856"><ele>1201.4</ele></trkpt><trkpt lat="47.293791" lon="11.37088"><ele>1197.6</ele></trkpt><trkpt lat="47.293765" lon="11.370871"><ele>1195.4</ele></trkpt><trkpt lat="47.293733" lon="11.370762"><ele>1192.8</ele></trkpt><trkpt lat="47.293749" lon="11.3707"><ele>1194.5</ele></trkpt><trkpt lat="47.29374" lon="11.37064"><ele>1192.3</ele></trkpt><trkpt lat="47.293675" lon="11.370619"><ele>1190.7</ele></trkpt><trkpt lat="47.293686" lon="11.370744"><ele>1190.3</ele></trkpt><trkpt lat="47.293669" lon="11.370772"><ele>1190</ele></trkpt><trkpt lat="47.293455" lon="11.370687"><ele>1189.2</ele></trkpt><trkpt lat="47.293286" lon="11.370693"><ele>1187.8</ele></trkpt><trkpt lat="47.292764" lon="11.370304"><ele>1138</ele></trkpt><trkpt lat="47.292009" lon="11.36971"><ele>1096.8</ele></trkpt><trkpt lat="47.291657" lon="11.369468"><ele>1090</ele></trkpt><trkpt lat="47.291425" lon="11.36926"><ele>1063</ele></trkpt><trkpt lat="47.291003" lon="11.369265"><ele>1052.2</ele></trkpt><trkpt lat="47.290504" lon="11.36944"><ele>1046.9</ele></trkpt><trkpt lat="47.289757" lon="11.369927"><ele>1035.9</ele></trkpt><trkpt lat="47.28953" lon="11.370158"><ele>1026.8</ele></trkpt><trkpt lat="47.289116" lon="11.370788"><ele>1003</ele></trkpt><trkpt lat="47.288996" lon="11.370964"><ele>993.4</ele></trkpt><trkpt lat="47.288807" lon="11.371308"><ele>992.5</ele></trkpt><trkpt lat="47.288431" lon="11.371638"><ele>989</ele></trkpt><trkpt lat="47.288096" lon="11.371889"><ele>972.1</ele></trkpt><trkpt lat="47.28773" lon="11.372263"><ele>969.9</ele></trkpt><trkpt lat="47.287484" lon="11.372384"><ele>966.1</ele></trkpt><trkpt lat="47.287356" lon="11.372483"><ele>967.1</ele></trkpt><trkpt lat="47.287291" lon="11.372533"><ele>968.1</ele></trkpt><trkpt lat="47.287015" lon="11.372397"><ele>964.4</ele></trkpt><trkpt lat="47.286802" lon="11.37247"><ele>961.9</ele></trkpt><trkpt lat="47.286503" lon="11.372883"><ele>960</ele></trkpt><trkpt lat="47.286384" lon="11.373166"><ele>947</ele></trkpt><trkpt lat="47.286242" lon="11.373164"><ele>947</ele></trkpt><trkpt lat="47.286171" lon="11.37322"><ele>938.4</ele></trkpt><trkpt lat="47.285984" lon="11.373174"><ele>937.5</ele></trkpt><trkpt lat="47.285909" lon="11.373217"><ele>936.6</ele></trkpt><trkpt lat="47.285716" lon="11.373591"><ele>934.7</ele></trkpt><trkpt lat="47.285627" lon="11.373801"><ele>935.2</ele></trkpt><trkpt lat="47.285557" lon="11.374015"><ele>934.6</ele></trkpt><trkpt lat="47.285446" lon="11.374072"><ele>935</ele></trkpt><trkpt lat="47.285419" lon="11.374162"><ele>934.9</ele></trkpt><trkpt lat="47.285414" lon="11.374181"><ele>934.7</ele></trkpt><trkpt lat="47.285229" lon="11.374375"><ele>934.3</ele></trkpt><trkpt lat="47.285041" lon="11.374839"><ele>930.5</ele></trkpt><trkpt lat="47.284954" lon="11.375109"><ele>929.7</ele></trkpt><trkpt lat="47.28493" lon="11.375557"><ele>929.5</ele></trkpt><trkpt lat="47.284986" lon="11.376024"><ele>929.2</ele></trkpt><trkpt lat="47.284956" lon="11.37637"><ele>928.1</ele></trkpt><trkpt lat="47.284933" lon="11.376444"><ele>925</ele></trkpt><trkpt lat="47.284999" lon="11.376579"><ele>925</ele></trkpt><trkpt lat="47.284663" lon="11.376739"><ele>911.3</ele></trkpt><trkpt lat="47.284508" lon="11.376909"><ele>906.9</ele></trkpt><trkpt lat="47.284353" lon="11.376958"><ele>906.2</ele></trkpt><trkpt lat="47.284195" lon="11.377008"><ele>905.5</ele></trkpt><trkpt lat="47.284088" lon="11.377205"><ele>903.8</ele></trkpt><trkpt lat="47.283525" lon="11.377387"><ele>901.6</ele></trkpt><trkpt lat="47.283388" lon="11.377525"><ele>886</ele></trkpt><trkpt lat="47.283311" lon="11.377572"><ele>877</ele></trkpt><trkpt lat="47.283112" lon="11.377792"><ele>877.8</ele></trkpt><trkpt lat="47.282889" lon="11.377918"><ele>874</ele></trkpt><trkpt lat="47.282841" lon="11.377966"><ele>874</ele></trkpt><trkpt lat="47.282642" lon="11.37846"><ele>869</ele></trkpt><trkpt lat="47.282604" lon="11.37855"><ele>864.8</ele></trkpt><trkpt lat="47.282473" lon="11.378738"><ele>864</ele></trkpt><trkpt lat="47.282247" lon="11.37919"><ele>866</ele></trkpt><trkpt lat="47.282076" lon="11.379379"><ele>866</ele></trkpt><trkpt lat="47.281911" lon="11.379642"><ele>866</ele></trkpt><trkpt lat="47.281818" lon="11.379786"><ele>866</ele></trkpt><trkpt lat="47.281742" lon="11.379953"><ele>866</ele></trkpt><trkpt lat="47.281737" lon="11.380068"><ele>862</ele></trkpt><trkpt lat="47.281627" lon="11.380211"><ele>846.5</ele></trkpt><trkpt lat="47.281248" lon="11.380263"><ele>848.2</ele></trkpt><trkpt lat="47.281072" lon="11.380323"><ele>843</ele></trkpt><trkpt lat="47.281012" lon="11.380266"><ele>843</ele></trkpt><trkpt lat="47.280998" lon="11.380207"><ele>843</ele></trkpt><trkpt lat="47.280781" lon="11.380381"><ele>832</ele></trkpt><trkpt lat="47.280619" lon="11.380602"><ele>832.8</ele></trkpt><trkpt lat="47.280241" lon="11.380849"><ele>827</ele></trkpt><trkpt lat="47.280005" lon="11.381025"><ele>827</ele></trkpt><trkpt lat="47.279814" lon="11.381325"><ele>810</ele></trkpt><trkpt lat="47.27961" lon="11.381586"><ele>810</ele></trkpt><trkpt lat="47.279447" lon="11.381724"><ele>810</ele></trkpt><trkpt lat="47.279212" lon="11.381865"><ele>810</ele></trkpt><trkpt lat="47.27906" lon="11.381953"><ele>785</ele></trkpt><trkpt lat="47.278868" lon="11.382092"><ele>780.6</ele></trkpt><trkpt lat="47.278796" lon="11.382201"><ele>781.1</ele></trkpt><trkpt lat="47.278353" lon="11.382338"><ele>781.5</ele></trkpt><trkpt lat="47.277899" lon="11.382323"><ele>779.8</ele></trkpt><trkpt lat="47.277733" lon="11.382164"><ele>779</ele></trkpt><trkpt lat="47.277561" lon="11.38232"><ele>773</ele></trkpt><trkpt lat="47.277512" lon="11.382474"><ele>767.9</ele></trkpt><trkpt lat="47.277511" lon="11.38266"><ele>769.5</ele></trkpt><trkpt lat="47.277468" lon="11.382976"><ele>767.3</ele></trkpt><trkpt lat="47.277365" lon="11.383198"><ele>766.4</ele></trkpt><trkpt lat="47.277044" lon="11.383484"><ele>766</ele></trkpt><trkpt lat="47.276884" lon="11.383722"><ele>765.6</ele></trkpt><trkpt lat="47.276806" lon="11.383794"><ele>762</ele></trkpt><trkpt lat="47.276632" lon="11.384016"><ele>751</ele></trkpt><trkpt lat="47.276529" lon="11.384006"><ele>747.7</ele></trkpt><trkpt lat="47.276426" lon="11.384146"><ele>748.1</ele></trkpt><trkpt lat="47.276288" lon="11.384432"><ele>749</ele></trkpt><trkpt lat="47.276094" lon="11.38463"><ele>749.9</ele></trkpt><trkpt lat="47.275933" lon="11.384726"><ele>750.7</ele></trkpt><trkpt lat="47.275802" lon="11.384735"><ele>748.8</ele></trkpt><trkpt lat="47.275711" lon="11.384717"><ele>733</ele></trkpt><trkpt lat="47.275617" lon="11.384642"><ele>727.7</ele></trkpt><trkpt lat="47.275494" lon="11.384463"><ele>728.7</ele></trkpt><trkpt lat="47.275334" lon="11.384352"><ele>729.2</ele></trkpt><trkpt lat="47.275245" lon="11.3842"><ele>729.5</ele></trkpt><trkpt lat="47.275117" lon="11.384043"><ele>729.5</ele></trkpt><trkpt lat="47.274966" lon="11.383809"><ele>709</ele></trkpt><trkpt lat="47.274953" lon="11.38375"><ele>709</ele></trkpt><trkpt lat="47.274994" lon="11.383609"><ele>709</ele></trkpt><trkpt lat="47.274961" lon="11.383493"><ele>709</ele></trkpt><trkpt lat="47.274901" lon="11.383463"><ele>699.2</ele></trkpt><trkpt lat="47.274736" lon="11.383595"><ele>700.9</ele></trkpt><trkpt lat="47.274619" lon="11.3836"><ele>701.7</ele></trkpt><trkpt lat="47.274468" lon="11.383535"><ele>702.3</ele></trkpt><trkpt lat="47.274381" lon="11.383546"><ele>702.9</ele></trkpt><trkpt lat="47.274315" lon="11.383507"><ele>703.5</ele></trkpt><trkpt lat="47.274132" lon="11.383158"><ele>699.8</ele></trkpt><trkpt lat="47.274092" lon="11.383015"><ele>663</ele></trkpt><trkpt lat="47.274015" lon="11.382995"><ele>663</ele></trkpt><trkpt lat="47.273992" lon="11.383185"><ele>666.4</ele></trkpt><trkpt lat="47.27388" lon="11.3834"><ele>664.7</ele></trkpt><trkpt lat="47.273868" lon="11.383596"><ele>665.5</ele></trkpt><trkpt lat="47.273896" lon="11.38377"><ele>666.3</ele></trkpt><trkpt lat="47.273972" lon="11.383909"><ele>667</ele></trkpt><trkpt lat="47.27401" lon="11.384043"><ele>667.7</ele></trkpt><trkpt lat="47.27399" lon="11.384182"><ele>667.7</ele></trkpt><trkpt lat="47.273878" lon="11.384359"><ele>667.7</ele></trkpt><trkpt lat="47.273603" lon="11.384527"><ele>667.8</ele></trkpt><trkpt lat="47.273434" lon="11.384583"><ele>667.8</ele></trkpt><trkpt lat="47.273359" lon="11.384668"><ele>667.8</ele></trkpt><trkpt lat="47.27331" lon="11.385009"><ele>630</ele></trkpt><trkpt lat="47.273115" lon="11.384411"><ele>634.5</ele></trkpt><trkpt lat="47.272947" lon="11.384165"><ele>635</ele></trkpt><trkpt lat="47.27277" lon="11.383963"><ele>637</ele></trkpt><trkpt lat="47.272628" lon="11.383873"><ele>637</ele></trkpt><trkpt lat="47.27255" lon="11.383852"><ele>633</ele></trkpt><trkpt lat="47.272308" lon="11.383896"><ele>625</ele></trkpt><trkpt lat="47.272309" lon="11.38404"><ele>625</ele></trkpt><trkpt lat="47.272311" lon="11.384161"><ele>625</ele></trkpt><trkpt lat="47.272313" lon="11.384353"><ele>622.3</ele></trkpt><trkpt lat="47.272348" lon="11.384537"><ele>621</ele></trkpt><trkpt lat="47.272416" lon="11.384826"><ele>621</ele></trkpt><trkpt lat="47.272406" lon="11.384959"><ele>621</ele></trkpt><trkpt lat="47.27233" lon="11.385052"><ele>618.5</ele></trkpt><trkpt lat="47.272257" lon="11.385142"><ele>616</ele></trkpt><trkpt lat="47.272176" lon="11.385216"><ele>616</ele></trkpt><trkpt lat="47.271873" lon="11.385491"><ele>616</ele></trkpt><trkpt lat="47.271806" lon="11.385556"><ele>616</ele></trkpt><trkpt lat="47.271516" lon="11.386196"><ele>606</ele></trkpt><trkpt lat="47.271464" lon="11.386309"><ele>606</ele></trkpt><trkpt lat="47.27145" lon="11.38634"><ele>606</ele></trkpt><trkpt lat="47.27131" lon="11.386472"><ele>606</ele></trkpt><trkpt lat="47.271245" lon="11.386521"><ele>601.4</ele></trkpt><trkpt lat="47.271008" lon="11.386795"><ele>601.8</ele></trkpt><trkpt lat="47.270825" lon="11.387074"><ele>592</ele></trkpt><trkpt lat="47.270382" lon="11.387799"><ele>591</ele></trkpt><trkpt lat="47.270073" lon="11.388292"><ele>591</ele></trkpt><trkpt lat="47.269934" lon="11.388458"><ele>584</ele></trkpt><trkpt lat="47.269647" lon="11.388801"><ele>584</ele></trkpt><trkpt lat="47.269451" lon="11.389"><ele>584</ele></trkpt><trkpt lat="47.269438" lon="11.389012"><ele>584</ele></trkpt><trkpt lat="47.269117" lon="11.389338"><ele>578.4</ele></trkpt><trkpt lat="47.269034" lon="11.389521"><ele>578.4</ele></trkpt><trkpt lat="47.269021" lon="11.389654"><ele>578.4</ele></trkpt><trkpt lat="47.269056" lon="11.389872"><ele>578.3</ele></trkpt><trkpt lat="47.268974" lon="11.390338"><ele>575</ele></trkpt><trkpt lat="47.268893" lon="11.390578"><ele>575</ele></trkpt><trkpt lat="47.26893" lon="11.390636"><ele>575</ele></trkpt><trkpt lat="47.268892" lon="11.390687"><ele>575</ele></trkpt><trkpt lat="47.268392" lon="11.391367"><ele>574</ele></trkpt><trkpt lat="47.26838" lon="11.391404"><ele>574</ele></trkpt><trkpt lat="47.268399" lon="11.391429"><ele>574</ele></trkpt><trkpt lat="47.268411" lon="11.391501"><ele>574</ele></trkpt><trkpt lat="47.268443" lon="11.391535"><ele>574</ele></trkpt><trkpt lat="47.268442" lon="11.391557"><ele>574</ele></trkpt><trkpt lat="47.268441" lon="11.391579"><ele>574</ele></trkpt><trkpt lat="47.268435" lon="11.391689"><ele>580</ele></trkpt><trkpt lat="47.268429" lon="11.391803"><ele>580</ele></trkpt><trkpt lat="47.268383" lon="11.39201"><ele>580</ele></trkpt><trkpt lat="47.268438" lon="11.392271"><ele>580</ele></trkpt><trkpt lat="47.268486" lon="11.392482"><ele>580</ele></trkpt><trkpt lat="47.268506" lon="11.392571"><ele>583.3</ele></trkpt><trkpt lat="47.268516" lon="11.393209"><ele>585</ele></trkpt><trkpt lat="47.268159" lon="11.393324"><ele>584</ele></trkpt><trkpt lat="47.267993" lon="11.393372"><ele>587</ele></trkpt><trkpt lat="47.267282" lon="11.393566"><ele>582</ele></trkpt><trkpt lat="47.267244" lon="11.393577"><ele>582</ele></trkpt><trkpt lat="47.267022" lon="11.39364"><ele>582</ele></trkpt><trkpt lat="47.26672" lon="11.393748"><ele>582</ele></trkpt><trkpt lat="47.266679" lon="11.393762"><ele>582</ele></trkpt><trkpt lat="47.266222" lon="11.393925"><ele>581</ele></trkpt><trkpt lat="47.266033" lon="11.393993"><ele>581.3</ele></trkpt><trkpt lat="47.265822" lon="11.394105"><ele>582</ele></trkpt><trkpt lat="47.265845" lon="11.394269"><ele>583</ele></trkpt><trkpt lat="47.265897" lon="11.394545"><ele>583</ele></trkpt><trkpt lat="47.265949" lon="11.39486"><ele>583</ele></trkpt><trkpt lat="47.266129" lon="11.395924"><ele>587</ele></trkpt><trkpt lat="47.266048" lon="11.396548"><ele>587</ele></trkpt><trkpt lat="47.265946" lon="11.396682"><ele>588.3</ele></trkpt><trkpt lat="47.265875" lon="11.397193"><ele>589</ele></trkpt><trkpt lat="47.265856" lon="11.397316"><ele>589</ele></trkpt><trkpt lat="47.265834" lon="11.397309"><ele>587.5</ele></trkpt><trkpt lat="47.265182" lon="11.397115"><ele>586</ele></trkpt><trkpt lat="47.265165" lon="11.397248"><ele>586</ele></trkpt><trkpt lat="47.265129" lon="11.39752"><ele>585</ele></trkpt><trkpt lat="47.26507" lon="11.39798"><ele>584</ele></trkpt><trkpt lat="47.26505" lon="11.398125"><ele>584</ele></trkpt><trkpt lat="47.264973" lon="11.398693"><ele>588</ele></trkpt><trkpt lat="47.264866" lon="11.399476"><ele>585</ele></trkpt><trkpt lat="47.264807" lon="11.399909"><ele>584.5</ele></trkpt><trkpt lat="47.264787" lon="11.40005"><ele>584</ele></trkpt><trkpt lat="47.264773" lon="11.400085"><ele>584</ele></trkpt><trkpt lat="47.264731" lon="11.400121"><ele>584</ele></trkpt><trkpt lat="47.264651" lon="11.400112"><ele>584</ele></trkpt><trkpt lat="47.264636" lon="11.400108"><ele>584</ele></trkpt><trkpt lat="47.264615" lon="11.40026"><ele>584</ele></trkpt><trkpt lat="47.264606" lon="11.40032"><ele>584</ele></trkpt><trkpt lat="47.264393" lon="11.400257"><ele>584</ele></trkpt><trkpt lat="47.26435" lon="11.400568"><ele>584</ele></trkpt><trkpt lat="47.264193" lon="11.400526"><ele>584</ele></trkpt><trkpt lat="47.263537" lon="11.400338"><ele>584</ele></trkpt><trkpt lat="47.263527" lon="11.400428"><ele>584</ele></trkpt><trkpt lat="47.263523" lon="11.400461"><ele>584</ele></trkpt><trkpt lat="47.263519" lon="11.400491"><ele>584</ele></trkpt><trkpt lat="47.263364" lon="11.400449"><ele>584</ele></trkpt><trkpt lat="47.263304" lon="11.400431"><ele>584.8</ele></trkpt><trkpt lat="47.263268" lon="11.400481"><ele>584.9</ele></trkpt><trkpt lat="47.263142" lon="11.400448"><ele>584.9</ele></trkpt><trkpt lat="47.262978" lon="11.400406"><ele>585</ele></trkpt><trkpt lat="47.262969" lon="11.400473"><ele>584.9</ele></trkpt><trkpt lat="47.262786" lon="11.400425"><ele>584.7</ele></trkpt><trkpt lat="47.262772" lon="11.400544"><ele>584.9</ele></trkpt><trkpt lat="47.262744" lon="11.400749"><ele>584.7</ele></trkpt><trkpt lat="47.262698" lon="11.400736"><ele>585</ele></trkpt><trkpt lat="47.26266" lon="11.400722"><ele>585</ele></trkpt></trkseg></trk></gpx>