<gpx xmlns="http://www.topografix.com/GPX/1/1" xmlns:xsi="http://www.w3.org/2001/XMLSchema-instance" xsi:schemaLocation="http://www.topografix.com/GPX/1/1 http://www.topografix.com/GPX/1/1/gpx.xsd" version="1.1" creator="togpx"><metadata/><wpt lat="47.63854881301916" lon="12.01134502887726"><name></name><desc>label=Wasserfall, Bayrischzell,BY,Germany</desc></wpt><wpt lat="47.650934489160825" lon="12.039030790328981"><name></name><desc>label=Stopselzieher, Oberaudorf,BY,Germany</desc></wpt><wpt lat="47.64467515645227" lon="12.083308696746828"><name></name><desc>label=Großhuber, Oberaudorf,BY,Germany</desc></wpt><wpt lat="47.64392340784665" lon="12.093715667724611"><name></name><desc>label=Bergwachthütte, Oberaudorf,BY,Germany</desc></wpt><wpt lat="47.641277744993005" lon="12.100989818573"><name></name><desc>label=Ludwig Steiner, Oberaudorf,BY,Germany</desc></wpt><wpt lat="47.637648776382505" lon="12.107083797454836"><name></name><desc>label=Kleiner Brünnberg, Oberaudorf,BY,Germany</desc></wpt><wpt lat="47.63019486512741" lon="12.138379812240602"><name></name><desc>label=Karr, Kiefersfelden,BY,Germany</desc></wpt><wpt lat="47.6319807195717" lon="12.15493440628052"><name></name><desc>label=Mühlauer Straße, Kiefersfelden,BY,Germany</desc></wpt><wpt lat="47.631865038541235" lon="12.157444953918459"><name></name><desc>label=Mühlauer Straße, Kiefersfelden,BY,Germany</desc></wpt><wpt lat="47.63268926029589" lon="12.16240167617798"><name></name><desc>label=Gfaller Stausee, Kiefersfelden,BY,Germany</desc></wpt><wpt lat="47.645105238529666" lon="12.175244092941286"><name></name><desc>label=Kufsteiner Straße 23, Oberaudorf,BY,Germany</desc></wpt><wpt lat="47.64655809465538" lon="12.174552083015442"><name></name><desc>label=Sabine März Glaserei &amp; Haushaltswaren, Oberaudorf,BY,Germany</desc></wpt><wpt lat="47.647844669824195" lon="12.174047827720644"><name></name><desc>label=Am Anger, Oberaudorf,BY,Germany</desc></wpt><wpt lat="47.65019367194458" lon="12.17365086078644"><name></name><desc>label=Nahkauf, Oberaudorf,BY,Germany</desc></wpt><wpt lat="47.65254618202317" lon="12.175287008285524"><name></name><desc>label=Oberaudorf, BY,Germany</desc></wpt><trk><name></name><desc>ascent=1337.2
descent=1735.2
opacity=0.9</desc><trkseg><trkpt lat="47.63855" lon="12.011341"><ele>880</ele></trkpt><trkpt lat="47.638613" lon="12.011383"><ele>880</ele></trkpt><trkpt lat="47.638734" lon="12.01155"><ele>880</ele></trkpt><trkpt lat="47.638976" lon="12.011857"><ele>856</ele></trkpt><trkpt lat="47.639138" lon="12.012155"><ele>858.6</ele></trkpt><trkpt lat="47.639146" lon="12.01224"><ele>850</ele></trkpt><trkpt lat="47.639585" lon="12.012181"><ele>845.9</ele></trkpt><trkpt lat="47.63975" lon="12.012178"><ele>844</ele></trkpt><trkpt lat="47.639901" lon="12.012183"><ele>844</ele></trkpt><trkpt lat="47.639958" lon="12.012182"><ele>844</ele></trkpt><trkpt lat="47.639884" lon="12.012302"><ele>841.3</ele></trkpt><trkpt lat="47.639785" lon="12.012663"><ele>833</ele></trkpt><trkpt lat="47.639773" lon="12.012799"><ele>833</ele></trkpt><trkpt lat="47.639665" lon="12.013226"><ele>833</ele></trkpt><trkpt lat="47.639582" lon="12.013516"><ele>835</ele></trkpt><trkpt lat="47.639389" lon="12.014092"><ele>837</ele></trkpt><trkpt lat="47.639338" lon="12.014371"><ele>845</ele></trkpt><trkpt lat="47.639525" lon="12.014656"><ele>853.9</ele></trkpt><trkpt lat="47.639637" lon="12.014872"><ele>853.2</ele></trkpt><trkpt lat="47.639836" lon="12.014941"><ele>852.6</ele></trkpt><trkpt lat="47.639989" lon="12.014863"><ele>853</ele></trkpt><trkpt lat="47.640201" lon="12.014715"><ele>854.8</ele></trkpt><trkpt lat="47.64034" lon="12.014725"><ele>855.2</ele></trkpt><trkpt lat="47.640439" lon="12.014821"><ele>855.6</ele></trkpt><trkpt lat="47.640486" lon="12.014944"><ele>856</ele></trkpt><trkpt lat="47.640604" lon="12.014853"><ele>857.7</ele></trkpt><trkpt lat="47.640661" lon="12.014714"><ele>857.9</ele></trkpt><trkpt lat="47.640825" lon="12.014478"><ele>860.7</ele></trkpt><trkpt lat="47.641125" lon="12.014336"><ele>866.7</ele></trkpt><trkpt lat="47.641427" lon="12.014335"><ele>871.5</ele></trkpt><trkpt lat="47.64178" lon="12.014366"><ele>878.5</ele></trkpt><trkpt lat="47.64213" lon="12.014167"><ele>886.3</ele></trkpt><trkpt lat="47.642352" lon="12.014014"><ele>887.7</ele></trkpt><trkpt lat="47.642486" lon="12.013616"><ele>888.5</ele></trkpt><trkpt lat="47.642665" lon="12.013212"><ele>893.2</ele></trkpt><trkpt lat="47.643136" lon="12.013259"><ele>896.1</ele></trkpt><trkpt lat="47.643256" lon="12.013132"><ele>898.3</ele></trkpt><trkpt lat="47.643295" lon="12.012945"><ele>900.9</ele></trkpt><trkpt lat="47.643633" lon="12.012394"><ele>910.6</ele></trkpt><trkpt lat="47.643819" lon="12.012256"><ele>909.7</ele></trkpt><trkpt lat="47.644077" lon="12.012227"><ele>913.9</ele></trkpt><trkpt lat="47.644276" lon="12.012374"><ele>943.8</ele></trkpt><trkpt lat="47.644428" lon="12.01265"><ele>948.3</ele></trkpt><trkpt lat="47.644621" lon="12.012817"><ele>952.8</ele></trkpt><trkpt lat="47.644819" lon="12.012807"><ele>956.9</ele></trkpt><trkpt lat="47.645323" lon="12.012915"><ele>953.1</ele></trkpt><trkpt lat="47.645489" lon="12.012994"><ele>956.2</ele></trkpt><trkpt lat="47.645495" lon="12.013122"><ele>958.3</ele></trkpt><trkpt lat="47.645376" lon="12.013181"><ele>958.6</ele></trkpt><trkpt lat="47.64519" lon="12.01322"><ele>966.5</ele></trkpt><trkpt lat="47.645005" lon="12.013348"><ele>967.9</ele></trkpt><trkpt lat="47.644587" lon="12.013525"><ele>961.9</ele></trkpt><trkpt lat="47.644415" lon="12.013692"><ele>954.7</ele></trkpt><trkpt lat="47.644216" lon="12.013712"><ele>980.8</ele></trkpt><trkpt lat="47.643998" lon="12.013682"><ele>982.2</ele></trkpt><trkpt lat="47.643978" lon="12.013791"><ele>980.9</ele></trkpt><trkpt lat="47.644163" lon="12.013909"><ele>978.4</ele></trkpt><trkpt lat="47.644614" lon="12.014066"><ele>978.5</ele></trkpt><trkpt lat="47.64478" lon="12.014204"><ele>983.8</ele></trkpt><trkpt lat="47.645018" lon="12.014302"><ele>988.6</ele></trkpt><trkpt lat="47.645197" lon="12.014499"><ele>995.1</ele></trkpt><trkpt lat="47.645429" lon="12.014922"><ele>1036.3</ele></trkpt><trkpt lat="47.645628" lon="12.015197"><ele>1046.8</ele></trkpt><trkpt lat="47.645979" lon="12.015885"><ele>1065.2</ele></trkpt><trkpt lat="47.646231" lon="12.016122"><ele>1072.3</ele></trkpt><trkpt lat="47.646668" lon="12.016446"><ele>1078.6</ele></trkpt><trkpt lat="47.646827" lon="12.016653"><ele>1081.2</ele></trkpt><trkpt lat="47.646927" lon="12.017017"><ele>1083.7</ele></trkpt><trkpt lat="47.647066" lon="12.017243"><ele>1086</ele></trkpt><trkpt lat="47.647264" lon="12.017243"><ele>1086.8</ele></trkpt><trkpt lat="47.64751" lon="12.01742"><ele>1090</ele></trkpt><trkpt lat="47.647715" lon="12.017616"><ele>1090.4</ele></trkpt><trkpt lat="47.647688" lon="12.017843"><ele>1092.2</ele></trkpt><trkpt lat="47.647708" lon="12.018079"><ele>1093.7</ele></trkpt><trkpt lat="47.647828" lon="12.018236"><ele>1095.4</ele></trkpt><trkpt lat="47.648013" lon="12.018226"><ele>1096.2</ele></trkpt><trkpt lat="47.648311" lon="12.018118"><ele>1097.1</ele></trkpt><trkpt lat="47.648563" lon="12.01799"><ele>1099.3</ele></trkpt><trkpt lat="47.648769" lon="12.018039"><ele>1100.3</ele></trkpt><trkpt lat="47.649007" lon="12.018275"><ele>1110</ele></trkpt><trkpt lat="47.649153" lon="12.018395"><ele>1142.7</ele></trkpt><trkpt lat="47.649229" lon="12.018509"><ele>1143.9</ele></trkpt><trkpt lat="47.64928" lon="12.018779"><ele>1147.2</ele></trkpt><trkpt lat="47.649276" lon="12.018981"><ele>1157.4</ele></trkpt><trkpt lat="47.649343" lon="12.019107"><ele>1161.5</ele></trkpt><trkpt lat="47.649424" lon="12.019402"><ele>1169.3</ele></trkpt><trkpt lat="47.649365" lon="12.019723"><ele>1171.7</ele></trkpt><trkpt lat="47.649416" lon="12.020309"><ele>1186.1</ele></trkpt><trkpt lat="47.649551" lon="12.020517"><ele>1195.4</ele></trkpt><trkpt lat="47.649551" lon="12.020787"><ele>1205.4</ele></trkpt><trkpt lat="47.649479" lon="12.020919"><ele>1206.6</ele></trkpt><trkpt lat="47.649432" lon="12.020957"><ele>1206.9</ele></trkpt><trkpt lat="47.649454" lon="12.021077"><ele>1212.8</ele></trkpt><trkpt lat="47.649513" lon="12.021102"><ele>1215.4</ele></trkpt><trkpt lat="47.649509" lon="12.021234"><ele>1217.5</ele></trkpt><trkpt lat="47.649462" lon="12.021354"><ele>1220.7</ele></trkpt><trkpt lat="47.649407" lon="12.02158"><ele>1223.5</ele></trkpt><trkpt lat="47.649428" lon="12.021744"><ele>1230.8</ele></trkpt><trkpt lat="47.649623" lon="12.022065"><ele>1235.4</ele></trkpt><trkpt lat="47.649623" lon="12.022229"><ele>1237.6</ele></trkpt><trkpt lat="47.649538" lon="12.02231"><ele>1242.6</ele></trkpt><trkpt lat="47.649615" lon="12.022493"><ele>1245.7</ele></trkpt><trkpt lat="47.649721" lon="12.02248"><ele>1246.4</ele></trkpt><trkpt lat="47.649763" lon="12.022531"><ele>1249</ele></trkpt><trkpt lat="47.649746" lon="12.022676"><ele>1251</ele></trkpt><trkpt lat="47.649683" lon="12.022751"><ele>1250.8</ele></trkpt><trkpt lat="47.649683" lon="12.022934"><ele>1257.9</ele></trkpt><trkpt lat="47.649602" lon="12.023047"><ele>1258</ele></trkpt><trkpt lat="47.649572" lon="12.023185"><ele>1261.6</ele></trkpt><trkpt lat="47.649602" lon="12.023563"><ele>1272.5</ele></trkpt><trkpt lat="47.649551" lon="12.023714"><ele>1274.6</ele></trkpt><trkpt lat="47.649543" lon="12.023928"><ele>1281.9</ele></trkpt><trkpt lat="47.649479" lon="12.024098"><ele>1288.8</ele></trkpt><trkpt lat="47.649517" lon="12.024274"><ele>1291.1</ele></trkpt><trkpt lat="47.649449" lon="12.024621"><ele>1304.3</ele></trkpt><trkpt lat="47.649496" lon="12.024797"><ele>1309.1</ele></trkpt><trkpt lat="47.649441" lon="12.025225"><ele>1327</ele></trkpt><trkpt lat="47.6495" lon="12.025464"><ele>1332.1</ele></trkpt><trkpt lat="47.649657" lon="12.025892"><ele>1347.3</ele></trkpt><trkpt lat="47.649645" lon="12.025999"><ele>1350.9</ele></trkpt><trkpt lat="47.649683" lon="12.026276"><ele>1360</ele></trkpt><trkpt lat="47.649759" lon="12.02654"><ele>1365.6</ele></trkpt><trkpt lat="47.64981" lon="12.026943"><ele>1372.8</ele></trkpt><trkpt lat="47.649878" lon="12.027069"><ele>1375.6</ele></trkpt><trkpt lat="47.649984" lon="12.027478"><ele>1387.2</ele></trkpt><trkpt lat="47.64995" lon="12.027661"><ele>1389.4</ele></trkpt><trkpt lat="47.64995" lon="12.027806"><ele>1392.2</ele></trkpt><trkpt lat="47.650018" lon="12.027843"><ele>1393.4</ele></trkpt><trkpt lat="47.649988" lon="12.028007"><ele>1397.5</ele></trkpt><trkpt lat="47.650047" lon="12.028164"><ele>1397</ele></trkpt><trkpt lat="47.650026" lon="12.028271"><ele>1399.5</ele></trkpt><trkpt lat="47.650119" lon="12.02846"><ele>1404.5</ele></trkpt><trkpt lat="47.650179" lon="12.028737"><ele>1413.9</ele></trkpt><trkpt lat="47.650242" lon="12.028844"><ele>1415.8</ele></trkpt><trkpt lat="47.650323" lon="12.028838"><ele>1416</ele></trkpt><trkpt lat="47.650391" lon="12.028951"><ele>1420.2</ele></trkpt><trkpt lat="47.650374" lon="12.029027"><ele>1420.7</ele></trkpt><trkpt lat="47.650293" lon="12.029052"><ele>1421.1</ele></trkpt><trkpt lat="47.650247" lon="12.029197"><ele>1427.1</ele></trkpt><trkpt lat="47.650221" lon="12.029442"><ele>1428.6</ele></trkpt><trkpt lat="47.650287" lon="12.029896"><ele>1446.3</ele></trkpt><trkpt lat="47.650383" lon="12.030211"><ele>1454.3</ele></trkpt><trkpt lat="47.650393" lon="12.030376"><ele>1454.4</ele></trkpt><trkpt lat="47.650377" lon="12.030471"><ele>1456.3</ele></trkpt><trkpt lat="47.650234" lon="12.030219"><ele>1452.9</ele></trkpt><trkpt lat="47.65016" lon="12.030227"><ele>1453</ele></trkpt><trkpt lat="47.650208" lon="12.03051"><ele>1458.1</ele></trkpt><trkpt lat="47.650213" lon="12.030856"><ele>1465.5</ele></trkpt><trkpt lat="47.650303" lon="12.031069"><ele>1472.8</ele></trkpt><trkpt lat="47.650414" lon="12.031163"><ele>1472.7</ele></trkpt><trkpt lat="47.650558" lon="12.031194"><ele>1474.5</ele></trkpt><trkpt lat="47.650542" lon="12.031407"><ele>1476.5</ele></trkpt><trkpt lat="47.650489" lon="12.031556"><ele>1476.5</ele></trkpt><trkpt lat="47.650398" lon="12.03158"><ele>1476.6</ele></trkpt><trkpt lat="47.650287" lon="12.031391"><ele>1474.7</ele></trkpt><trkpt lat="47.650192" lon="12.031273"><ele>1474.7</ele></trkpt><trkpt lat="47.649964" lon="12.031265"><ele>1474.7</ele></trkpt><trkpt lat="47.649943" lon="12.031682"><ele>1477.3</ele></trkpt><trkpt lat="47.650001" lon="12.032445"><ele>1480.9</ele></trkpt><trkpt lat="47.650155" lon="12.03276"><ele>1481.3</ele></trkpt><trkpt lat="47.65034" lon="12.033043"><ele>1523</ele></trkpt><trkpt lat="47.650409" lon="12.033429"><ele>1551.7</ele></trkpt><trkpt lat="47.650489" lon="12.033759"><ele>1553.5</ele></trkpt><trkpt lat="47.650584" lon="12.034019"><ele>1555.8</ele></trkpt><trkpt lat="47.650568" lon="12.034263"><ele>1557.1</ele></trkpt><trkpt lat="47.650658" lon="12.034515"><ele>1558.9</ele></trkpt><trkpt lat="47.650748" lon="12.034955"><ele>1564.7</ele></trkpt><trkpt lat="47.650891" lon="12.035089"><ele>1565.8</ele></trkpt><trkpt lat="47.651061" lon="12.035349"><ele>1568.5</ele></trkpt><trkpt lat="47.651066" lon="12.035585"><ele>1571.4</ele></trkpt><trkpt lat="47.651215" lon="12.035695"><ele>1573.4</ele></trkpt><trkpt lat="47.651363" lon="12.035727"><ele>1576.4</ele></trkpt><trkpt lat="47.651485" lon="12.035797"><ele>1578.2</ele></trkpt><trkpt lat="47.65148" lon="12.03601"><ele>1579</ele></trkpt><trkpt lat="47.651517" lon="12.036207"><ele>1580.1</ele></trkpt><trkpt lat="47.651559" lon="12.036317"><ele>1581.3</ele></trkpt><trkpt lat="47.65157" lon="12.036474"><ele>1581.3</ele></trkpt><trkpt lat="47.651655" lon="12.036631"><ele>1582.4</ele></trkpt><trkpt lat="47.651655" lon="12.036883"><ele>1583.7</ele></trkpt><trkpt lat="47.651851" lon="12.03708"><ele>1583.9</ele></trkpt><trkpt lat="47.652084" lon="12.037371"><ele>1601</ele></trkpt><trkpt lat="47.651835" lon="12.037772"><ele>1621.7</ele></trkpt><trkpt lat="47.651665" lon="12.037961"><ele>1622.3</ele></trkpt><trkpt lat="47.651432" lon="12.03815"><ele>1623.1</ele></trkpt><trkpt lat="47.651284" lon="12.038378"><ele>1624</ele></trkpt><trkpt lat="47.650981" lon="12.03893"><ele>1624.7</ele></trkpt><trkpt lat="47.65095" lon="12.039051"><ele>1632</ele></trkpt><trkpt lat="47.650932" lon="12.039042"><ele>1641.9</ele></trkpt><trkpt lat="47.65066" lon="12.038903"><ele>1651.8</ele></trkpt><trkpt lat="47.650581" lon="12.038791"><ele>1653.2</ele></trkpt><trkpt lat="47.650345" lon="12.038812"><ele>1655.4</ele></trkpt><trkpt lat="47.650266" lon="12.038906"><ele>1656.3</ele></trkpt><trkpt lat="47.650174" lon="12.038941"><ele>1657.2</ele></trkpt><trkpt lat="47.649998" lon="12.038866"><ele>1658.1</ele></trkpt><trkpt lat="47.649875" lon="12.038775"><ele>1657.9</ele></trkpt><trkpt lat="47.649769" lon="12.038657"><ele>1657.6</ele></trkpt><trkpt lat="47.649675" lon="12.038483"><ele>1657</ele></trkpt><trkpt lat="47.649632" lon="12.038451"><ele>1658.1</ele></trkpt><trkpt lat="47.649306" lon="12.038396"><ele>1657.9</ele></trkpt><trkpt lat="47.649254" lon="12.038331"><ele>1666</ele></trkpt><trkpt lat="47.649166" lon="12.038344"><ele>1701.7</ele></trkpt><trkpt lat="47.649101" lon="12.038208"><ele>1703.3</ele></trkpt><trkpt lat="47.649052" lon="12.038187"><ele>1701.7</ele></trkpt><trkpt lat="47.648937" lon="12.037973"><ele>1699.8</ele></trkpt><trkpt lat="47.648888" lon="12.037962"><ele>1713</ele></trkpt><trkpt lat="47.648832" lon="12.037852"><ele>1729</ele></trkpt><trkpt lat="47.648764" lon="12.037767"><ele>1732.1</ele></trkpt><trkpt lat="47.648712" lon="12.03759"><ele>1733.9</ele></trkpt><trkpt lat="47.648668" lon="12.037524"><ele>1735.1</ele></trkpt><trkpt lat="47.648575" lon="12.037454"><ele>1736.3</ele></trkpt><trkpt lat="47.648348" lon="12.037058"><ele>1741.3</ele></trkpt><trkpt lat="47.64826" lon="12.03701"><ele>1743.2</ele></trkpt><trkpt lat="47.648165" lon="12.03689"><ele>1742.2</ele></trkpt><trkpt lat="47.648123" lon="12.036772"><ele>1741.1</ele></trkpt><trkpt lat="47.648058" lon="12.036679"><ele>1740</ele></trkpt><trkpt lat="47.647894" lon="12.036347"><ele>1740.1</ele></trkpt><trkpt lat="47.647853" lon="12.03631"><ele>1739.6</ele></trkpt><trkpt lat="47.647773" lon="12.036369"><ele>1747</ele></trkpt><trkpt lat="47.647656" lon="12.036518"><ele>1813.5</ele></trkpt><trkpt lat="47.647495" lon="12.036684"><ele>1821.1</ele></trkpt><trkpt lat="47.647402" lon="12.036706"><ele>1820.4</ele></trkpt><trkpt lat="47.647372" lon="12.036877"><ele>1820.1</ele></trkpt><trkpt lat="47.647307" lon="12.037047"><ele>1819.3</ele></trkpt><trkpt lat="47.647283" lon="12.037165"><ele>1818.8</ele></trkpt><trkpt lat="47.647249" lon="12.037225"><ele>1818.4</ele></trkpt><trkpt lat="47.647204" lon="12.037237"><ele>1817.9</ele></trkpt><trkpt lat="47.64715" lon="12.037214"><ele>1817.4</ele></trkpt><trkpt lat="47.647068" lon="12.037384"><ele>1816.3</ele></trkpt><trkpt lat="47.64702" lon="12.03741"><ele>1815.7</ele></trkpt><trkpt lat="47.646965" lon="12.037601"><ele>1824</ele></trkpt><trkpt lat="47.646911" lon="12.037574"><ele>1821.3</ele></trkpt><trkpt lat="47.646901" lon="12.037657"><ele>1820.9</ele></trkpt><trkpt lat="47.646816" lon="12.037584"><ele>1820.5</ele></trkpt><trkpt lat="47.646655" lon="12.037681"><ele>1819.6</ele></trkpt><trkpt lat="47.646563" lon="12.037634"><ele>1852</ele></trkpt><trkpt lat="47.646473" lon="12.037745"><ele>1799</ele></trkpt><trkpt lat="47.646438" lon="12.037882"><ele>1793.6</ele></trkpt><trkpt lat="47.646386" lon="12.037945"><ele>1791.5</ele></trkpt><trkpt lat="47.64632" lon="12.038115"><ele>1788.1</ele></trkpt><trkpt lat="47.646268" lon="12.03819"><ele>1786.3</ele></trkpt><trkpt lat="47.646249" lon="12.038417"><ele>1785.6</ele></trkpt><trkpt lat="47.646084" lon="12.038883"><ele>1783.7</ele></trkpt><trkpt lat="47.646049" lon="12.038881"><ele>1782.8</ele></trkpt><trkpt lat="47.64592" lon="12.039052"><ele>1782</ele></trkpt><trkpt lat="47.645883" lon="12.039139"><ele>1781.2</ele></trkpt><trkpt lat="47.645831" lon="12.039169"><ele>1780.3</ele></trkpt><trkpt lat="47.645696" lon="12.039457"><ele>1781</ele></trkpt><trkpt lat="47.645641" lon="12.039501"><ele>1781.2</ele></trkpt><trkpt lat="47.645528" lon="12.039686"><ele>1781.3</ele></trkpt><trkpt lat="47.645514" lon="12.039792"><ele>1780.8</ele></trkpt><trkpt lat="47.645379" lon="12.040015"><ele>1781.1</ele></trkpt><trkpt lat="47.645384" lon="12.040076"><ele>1781</ele></trkpt><trkpt lat="47.645316" lon="12.040351"><ele>1781</ele></trkpt><trkpt lat="47.645226" lon="12.040509"><ele>1780.5</ele></trkpt><trkpt lat="47.645189" lon="12.040612"><ele>1780.5</ele></trkpt><trkpt lat="47.645183" lon="12.040695"><ele>1780.4</ele></trkpt><trkpt lat="47.645137" lon="12.040895"><ele>1780.9</ele></trkpt><trkpt lat="47.644879" lon="12.041557"><ele>1785.6</ele></trkpt><trkpt lat="47.644884" lon="12.041684"><ele>1788</ele></trkpt><trkpt lat="47.644711" lon="12.042011"><ele>1788.8</ele></trkpt><trkpt lat="47.644673" lon="12.042168"><ele>1788.3</ele></trkpt><trkpt lat="47.644613" lon="12.042317"><ele>1787.8</ele></trkpt><trkpt lat="47.644567" lon="12.042583"><ele>1787.7</ele></trkpt><trkpt lat="47.644472" lon="12.042881"><ele>1787</ele></trkpt><trkpt lat="47.644422" lon="12.042948"><ele>1786.5</ele></trkpt><trkpt lat="47.644394" lon="12.043081"><ele>1786</ele></trkpt><trkpt lat="47.644355" lon="12.043115"><ele>1785.5</ele></trkpt><trkpt lat="47.644266" lon="12.043305"><ele>1784.9</ele></trkpt><trkpt lat="47.644199" lon="12.04339"><ele>1784.1</ele></trkpt><trkpt lat="47.644196" lon="12.043512"><ele>1782.4</ele></trkpt><trkpt lat="47.644151" lon="12.043539"><ele>1780.8</ele></trkpt><trkpt lat="47.644033" lon="12.043792"><ele>1781.4</ele></trkpt><trkpt lat="47.644037" lon="12.043961"><ele>1782.1</ele></trkpt><trkpt lat="47.643995" lon="12.044124"><ele>1764</ele></trkpt><trkpt lat="47.644001" lon="12.044215"><ele>1770.7</ele></trkpt><trkpt lat="47.644025" lon="12.044263"><ele>1770.7</ele></trkpt><trkpt lat="47.643994" lon="12.044402"><ele>1771.3</ele></trkpt><trkpt lat="47.644035" lon="12.04447"><ele>1771.7</ele></trkpt><trkpt lat="47.644037" lon="12.044618"><ele>1772.1</ele></trkpt><trkpt lat="47.644005" lon="12.044787"><ele>1772</ele></trkpt><trkpt lat="47.644016" lon="12.045089"><ele>1771.7</ele></trkpt><trkpt lat="47.644097" lon="12.045352"><ele>1771.6</ele></trkpt><trkpt lat="47.644064" lon="12.045422"><ele>1771</ele></trkpt><trkpt lat="47.644147" lon="12.045622"><ele>1769.3</ele></trkpt><trkpt lat="47.644103" lon="12.045738"><ele>1769.3</ele></trkpt><trkpt lat="47.644181" lon="12.045952"><ele>1767.8</ele></trkpt><trkpt lat="47.644172" lon="12.046015"><ele>1766.7</ele></trkpt><trkpt lat="47.644214" lon="12.046139"><ele>1766.5</ele></trkpt><trkpt lat="47.644195" lon="12.046262"><ele>1765.1</ele></trkpt><trkpt lat="47.64424" lon="12.046417"><ele>1762.4</ele></trkpt><trkpt lat="47.644227" lon="12.046617"><ele>1758.9</ele></trkpt><trkpt lat="47.644305" lon="12.046908"><ele>1757.4</ele></trkpt><trkpt lat="47.644249" lon="12.047208"><ele>1753.7</ele></trkpt><trkpt lat="47.644284" lon="12.047346"><ele>1749.6</ele></trkpt><trkpt lat="47.644281" lon="12.047383"><ele>1747.1</ele></trkpt><trkpt lat="47.644346" lon="12.047532"><ele>1745.5</ele></trkpt><trkpt lat="47.644328" lon="12.047567"><ele>1743.6</ele></trkpt><trkpt lat="47.644317" lon="12.047824"><ele>1739.4</ele></trkpt><trkpt lat="47.644382" lon="12.047961"><ele>1736.2</ele></trkpt><trkpt lat="47.644369" lon="12.048139"><ele>1733.3</ele></trkpt><trkpt lat="47.644434" lon="12.048388"><ele>1725.5</ele></trkpt><trkpt lat="47.644412" lon="12.048582"><ele>1721.2</ele></trkpt><trkpt lat="47.644542" lon="12.048908"><ele>1710.9</ele></trkpt><trkpt lat="47.644523" lon="12.049101"><ele>1707.4</ele></trkpt><trkpt lat="47.644522" lon="12.049325"><ele>1704.1</ele></trkpt><trkpt lat="47.644595" lon="12.049518"><ele>1701.1</ele></trkpt><trkpt lat="47.644595" lon="12.049695"><ele>1697.7</ele></trkpt><trkpt lat="47.644657" lon="12.049869"><ele>1695.9</ele></trkpt><trkpt lat="47.64464" lon="12.050173"><ele>1692</ele></trkpt><trkpt lat="47.644698" lon="12.05027"><ele>1692.5</ele></trkpt><trkpt lat="47.644779" lon="12.050324"><ele>1693.1</ele></trkpt><trkpt lat="47.644801" lon="12.05043"><ele>1692</ele></trkpt><trkpt lat="47.644792" lon="12.050529"><ele>1690.9</ele></trkpt><trkpt lat="47.644823" lon="12.050591"><ele>1691.5</ele></trkpt><trkpt lat="47.644811" lon="12.050705"><ele>1692.1</ele></trkpt><trkpt lat="47.644846" lon="12.050777"><ele>1692.8</ele></trkpt><trkpt lat="47.644841" lon="12.050898"><ele>1692.4</ele></trkpt><trkpt lat="47.644868" lon="12.050944"><ele>1665</ele></trkpt><trkpt lat="47.64492" lon="12.051287"><ele>1684.8</ele></trkpt><trkpt lat="47.644993" lon="12.051326"><ele>1686.9</ele></trkpt><trkpt lat="47.645101" lon="12.0516"><ele>1688.5</ele></trkpt><trkpt lat="47.645099" lon="12.051837"><ele>1705</ele></trkpt><trkpt lat="47.645175" lon="12.052161"><ele>1711</ele></trkpt><trkpt lat="47.645164" lon="12.052371"><ele>1711.3</ele></trkpt><trkpt lat="47.64519" lon="12.052394"><ele>1711.5</ele></trkpt><trkpt lat="47.645219" lon="12.052462"><ele>1711.5</ele></trkpt><trkpt lat="47.645247" lon="12.052465"><ele>1711.5</ele></trkpt><trkpt lat="47.645254" lon="12.052488"><ele>1711.7</ele></trkpt><trkpt lat="47.64522" lon="12.052557"><ele>1711.7</ele></trkpt><trkpt lat="47.645203" lon="12.05265"><ele>1711.6</ele></trkpt><trkpt lat="47.645279" lon="12.052863"><ele>1710.6</ele></trkpt><trkpt lat="47.645325" lon="12.05334"><ele>1710.2</ele></trkpt><trkpt lat="47.645395" lon="12.053456"><ele>1710.1</ele></trkpt><trkpt lat="47.645443" lon="12.053649"><ele>1710</ele></trkpt><trkpt lat="47.645509" lon="12.053725"><ele>1709.8</ele></trkpt><trkpt lat="47.6455" lon="12.053788"><ele>1709.7</ele></trkpt><trkpt lat="47.645534" lon="12.053906"><ele>1709.6</ele></trkpt><trkpt lat="47.645526" lon="12.054093"><ele>1709.3</ele></trkpt><trkpt lat="47.645535" lon="12.054131"><ele>1709.1</ele></trkpt><trkpt lat="47.645583" lon="12.054147"><ele>1708.8</ele></trkpt><trkpt lat="47.645599" lon="12.054243"><ele>1708.7</ele></trkpt><trkpt lat="47.645584" lon="12.054313"><ele>1708.7</ele></trkpt><trkpt lat="47.645628" lon="12.05463"><ele>1708.6</ele></trkpt><trkpt lat="47.64565" lon="12.054671"><ele>1708.6</ele></trkpt><trkpt lat="47.645724" lon="12.05468"><ele>1708.7</ele></trkpt><trkpt lat="47.645759" lon="12.054727"><ele>1708.9</ele></trkpt><trkpt lat="47.645758" lon="12.054833"><ele>1709</ele></trkpt><trkpt lat="47.645792" lon="12.054844"><ele>1706</ele></trkpt><trkpt lat="47.645597" lon="12.055121"><ele>1674</ele></trkpt><trkpt lat="47.645538" lon="12.055223"><ele>1673.3</ele></trkpt><trkpt lat="47.645518" lon="12.055311"><ele>1672.7</ele></trkpt><trkpt lat="47.645378" lon="12.055356"><ele>1671.3</ele></trkpt><trkpt lat="47.645356" lon="12.055402"><ele>1670.5</ele></trkpt><trkpt lat="47.645361" lon="12.055492"><ele>1669.7</ele></trkpt><trkpt lat="47.645294" lon="12.055628"><ele>1668.9</ele></trkpt><trkpt lat="47.645287" lon="12.055879"><ele>1668.1</ele></trkpt><trkpt lat="47.64524" lon="12.056016"><ele>1668.1</ele></trkpt><trkpt lat="47.645196" lon="12.056043"><ele>1668.2</ele></trkpt><trkpt lat="47.645172" lon="12.056014"><ele>1668.2</ele></trkpt><trkpt lat="47.64515" lon="12.056031"><ele>1668.3</ele></trkpt><trkpt lat="47.645121" lon="12.056111"><ele>1668.3</ele></trkpt><trkpt lat="47.645078" lon="12.056171"><ele>1668.4</ele></trkpt><trkpt lat="47.645053" lon="12.056289"><ele>1668.4</ele></trkpt><trkpt lat="47.645013" lon="12.056304"><ele>1668.5</ele></trkpt><trkpt lat="47.644983" lon="12.056357"><ele>1668.5</ele></trkpt><trkpt lat="47.644928" lon="12.056317"><ele>1618</ele></trkpt><trkpt lat="47.644894" lon="12.056331"><ele>1594.4</ele></trkpt><trkpt lat="47.644902" lon="12.056459"><ele>1592.9</ele></trkpt><trkpt lat="47.644815" lon="12.056622"><ele>1591.3</ele></trkpt><trkpt lat="47.644871" lon="12.056827"><ele>1588.3</ele></trkpt><trkpt lat="47.644907" lon="12.057042"><ele>1586.8</ele></trkpt><trkpt lat="47.644875" lon="12.057207"><ele>1585.3</ele></trkpt><trkpt lat="47.644919" lon="12.057348"><ele>1583.5</ele></trkpt><trkpt lat="47.644887" lon="12.057446"><ele>1581.8</ele></trkpt><trkpt lat="47.644821" lon="12.057497"><ele>1581.2</ele></trkpt><trkpt lat="47.644855" lon="12.057721"><ele>1578.6</ele></trkpt><trkpt lat="47.644821" lon="12.057791"><ele>1578.7</ele></trkpt><trkpt lat="47.644887" lon="12.058013"><ele>1578.7</ele></trkpt><trkpt lat="47.644847" lon="12.05823"><ele>1577.4</ele></trkpt><trkpt lat="47.64488" lon="12.059047"><ele>1565.9</ele></trkpt><trkpt lat="47.644797" lon="12.0593"><ele>1563.8</ele></trkpt><trkpt lat="47.644798" lon="12.059426"><ele>1562</ele></trkpt><trkpt lat="47.644724" lon="12.059662"><ele>1560.3</ele></trkpt><trkpt lat="47.644638" lon="12.059656"><ele>1560.3</ele></trkpt><trkpt lat="47.644664" lon="12.060263"><ele>1551</ele></trkpt><trkpt lat="47.644718" lon="12.060415"><ele>1551.2</ele></trkpt><trkpt lat="47.644666" lon="12.060759"><ele>1549.3</ele></trkpt><trkpt lat="47.644615" lon="12.060941"><ele>1547.1</ele></trkpt><trkpt lat="47.644669" lon="12.061406"><ele>1544.8</ele></trkpt><trkpt lat="47.644579" lon="12.061671"><ele>1540.6</ele></trkpt><trkpt lat="47.644555" lon="12.062475"><ele>1535.7</ele></trkpt><trkpt lat="47.64449" lon="12.06292"><ele>1533.2</ele></trkpt><trkpt lat="47.644538" lon="12.063244"><ele>1530.6</ele></trkpt><trkpt lat="47.644506" lon="12.063474"><ele>1529</ele></trkpt><trkpt lat="47.644584" lon="12.06402"><ele>1527.1</ele></trkpt><trkpt lat="47.644531" lon="12.064222"><ele>1525.4</ele></trkpt><trkpt lat="47.644548" lon="12.064447"><ele>1525.5</ele></trkpt><trkpt lat="47.644615" lon="12.064862"><ele>1523</ele></trkpt><trkpt lat="47.644555" lon="12.065074"><ele>1520.9</ele></trkpt><trkpt lat="47.644533" lon="12.065266"><ele>1519.2</ele></trkpt><trkpt lat="47.644618" lon="12.065792"><ele>1517.4</ele></trkpt><trkpt lat="47.644611" lon="12.066495"><ele>1514.4</ele></trkpt><trkpt lat="47.644637" lon="12.066722"><ele>1514.2</ele></trkpt><trkpt lat="47.64458" lon="12.066947"><ele>1514.3</ele></trkpt><trkpt lat="47.644595" lon="12.067127"><ele>1504</ele></trkpt><trkpt lat="47.64463" lon="12.06762"><ele>1488.5</ele></trkpt><trkpt lat="47.644625" lon="12.067777"><ele>1487.5</ele></trkpt><trkpt lat="47.644669" lon="12.067938"><ele>1487.1</ele></trkpt><trkpt lat="47.644655" lon="12.068171"><ele>1486.2</ele></trkpt><trkpt lat="47.644712" lon="12.068421"><ele>1483.9</ele></trkpt><trkpt lat="47.644744" lon="12.068501"><ele>1483.9</ele></trkpt><trkpt lat="47.644763" lon="12.068694"><ele>1482.2</ele></trkpt><trkpt lat="47.644734" lon="12.06897"><ele>1479.9</ele></trkpt><trkpt lat="47.644855" lon="12.069207"><ele>1478.1</ele></trkpt><trkpt lat="47.644901" lon="12.069397"><ele>1477.2</ele></trkpt><trkpt lat="47.644867" lon="12.069716"><ele>1476.1</ele></trkpt><trkpt lat="47.644895" lon="12.069991"><ele>1474</ele></trkpt><trkpt lat="47.644892" lon="12.070276"><ele>1472.3</ele></trkpt><trkpt lat="47.644958" lon="12.070634"><ele>1471.3</ele></trkpt><trkpt lat="47.644914" lon="12.070911"><ele>1444</ele></trkpt><trkpt lat="47.644868" lon="12.071609"><ele>1451</ele></trkpt><trkpt lat="47.644836" lon="12.071902"><ele>1451.9</ele></trkpt><trkpt lat="47.644858" lon="12.072282"><ele>1452</ele></trkpt><trkpt lat="47.644962" lon="12.072954"><ele>1452.8</ele></trkpt><trkpt lat="47.644947" lon="12.073031"><ele>1456</ele></trkpt><trkpt lat="47.644879" lon="12.073316"><ele>1457.6</ele></trkpt><trkpt lat="47.644854" lon="12.073645"><ele>1457.8</ele></trkpt><trkpt lat="47.645075" lon="12.074271"><ele>1457.3</ele></trkpt><trkpt lat="47.645183" lon="12.074645"><ele>1457.4</ele></trkpt><trkpt lat="47.645198" lon="12.074793"><ele>1457</ele></trkpt><trkpt lat="47.645221" lon="12.074946"><ele>1434</ele></trkpt><trkpt lat="47.645224" lon="12.075121"><ele>1430.7</ele></trkpt><trkpt lat="47.645314" lon="12.075548"><ele>1430.1</ele></trkpt><trkpt lat="47.645413" lon="12.075861"><ele>1429.4</ele></trkpt><trkpt lat="47.645399" lon="12.076329"><ele>1431</ele></trkpt><trkpt lat="47.645416" lon="12.076529"><ele>1418</ele></trkpt><trkpt lat="47.645396" lon="12.076857"><ele>1394.4</ele></trkpt><trkpt lat="47.645407" lon="12.077252"><ele>1390</ele></trkpt><trkpt lat="47.645569" lon="12.077467"><ele>1386.3</ele></trkpt><trkpt lat="47.645623" lon="12.077718"><ele>1385</ele></trkpt><trkpt lat="47.645572" lon="12.078071"><ele>1384.4</ele></trkpt><trkpt lat="47.645597" lon="12.078386"><ele>1383.8</ele></trkpt><trkpt lat="47.645568" lon="12.078643"><ele>1381.2</ele></trkpt><trkpt lat="47.645591" lon="12.078885"><ele>1380.3</ele></trkpt><trkpt lat="47.645589" lon="12.079113"><ele>1380.8</ele></trkpt><trkpt lat="47.645636" lon="12.07933"><ele>1360</ele></trkpt><trkpt lat="47.645432" lon="12.080057"><ele>1344.2</ele></trkpt><trkpt lat="47.645308" lon="12.080584"><ele>1344</ele></trkpt><trkpt lat="47.645284" lon="12.080818"><ele>1343.8</ele></trkpt><trkpt lat="47.645247" lon="12.080994"><ele>1330</ele></trkpt><trkpt lat="47.645241" lon="12.081109"><ele>1324.8</ele></trkpt><trkpt lat="47.64519" lon="12.081318"><ele>1325.3</ele></trkpt><trkpt lat="47.645176" lon="12.08149"><ele>1325.8</ele></trkpt><trkpt lat="47.645196" lon="12.081692"><ele>1324.9</ele></trkpt><trkpt lat="47.645304" lon="12.081957"><ele>1324.1</ele></trkpt><trkpt lat="47.6454" lon="12.082105"><ele>1322.8</ele></trkpt><trkpt lat="47.645409" lon="12.082162"><ele>1317</ele></trkpt><trkpt lat="47.645351" lon="12.082259"><ele>1313.6</ele></trkpt><trkpt lat="47.645258" lon="12.082353"><ele>1314</ele></trkpt><trkpt lat="47.645036" lon="12.082504"><ele>1315.1</ele></trkpt><trkpt lat="47.644825" lon="12.082741"><ele>1313.3</ele></trkpt><trkpt lat="47.644675" lon="12.08304"><ele>1311.7</ele></trkpt><trkpt lat="47.644674" lon="12.083309"><ele>1311</ele></trkpt><trkpt lat="47.644674" lon="12.083312"><ele>1310.3</ele></trkpt><trkpt lat="47.644654" lon="12.083643"><ele>1310.5</ele></trkpt><trkpt lat="47.644782" lon="12.085735"><ele>1309</ele></trkpt><trkpt lat="47.644663" lon="12.086264"><ele>1310.7</ele></trkpt><trkpt lat="47.644596" lon="12.086723"><ele>1311</ele></trkpt><trkpt lat="47.644536" lon="12.087498"><ele>1311.8</ele></trkpt><trkpt lat="47.644509" lon="12.08836"><ele>1314.4</ele></trkpt><trkpt lat="47.64432" lon="12.089724"><ele>1318.3</ele></trkpt><trkpt lat="47.644306" lon="12.089861"><ele>1318</ele></trkpt><trkpt lat="47.64432" lon="12.090151"><ele>1318.3</ele></trkpt><trkpt lat="47.644308" lon="12.090344"><ele>1319</ele></trkpt><trkpt lat="47.644182" lon="12.091176"><ele>1320</ele></trkpt><trkpt lat="47.644188" lon="12.091291"><ele>1319.5</ele></trkpt><trkpt lat="47.644242" lon="12.091608"><ele>1319.3</ele></trkpt><trkpt lat="47.644203" lon="12.092595"><ele>1314.3</ele></trkpt><trkpt lat="47.644169" lon="12.092914"><ele>1311.5</ele></trkpt><trkpt lat="47.644098" lon="12.093229"><ele>1305.2</ele></trkpt><trkpt lat="47.64399" lon="12.093561"><ele>1300</ele></trkpt><trkpt lat="47.643952" lon="12.09373"><ele>1298.1</ele></trkpt><trkpt lat="47.64392" lon="12.093879"><ele>1296.2</ele></trkpt><trkpt lat="47.643907" lon="12.094008"><ele>1295</ele></trkpt><trkpt lat="47.64395" lon="12.094297"><ele>1292.8</ele></trkpt><trkpt lat="47.643951" lon="12.094428"><ele>1292.6</ele></trkpt><trkpt lat="47.643919" lon="12.094611"><ele>1291.4</ele></trkpt><trkpt lat="47.643828" lon="12.094737"><ele>1291.3</ele></trkpt><trkpt lat="47.643522" lon="12.095025"><ele>1290.4</ele></trkpt><trkpt lat="47.643356" lon="12.095221"><ele>1291.9</ele></trkpt><trkpt lat="47.643296" lon="12.095378"><ele>1291.5</ele></trkpt><trkpt lat="47.643266" lon="12.095529"><ele>1290.5</ele></trkpt><trkpt lat="47.643273" lon="12.095678"><ele>1290.2</ele></trkpt><trkpt lat="47.643308" lon="12.095899"><ele>1289.8</ele></trkpt><trkpt lat="47.643418" lon="12.096201"><ele>1290.8</ele></trkpt><trkpt lat="47.643584" lon="12.096528"><ele>1305</ele></trkpt><trkpt lat="47.643618" lon="12.096653"><ele>1302.6</ele></trkpt><trkpt lat="47.643614" lon="12.096795"><ele>1302.3</ele></trkpt><trkpt lat="47.643566" lon="12.09698"><ele>1301.9</ele></trkpt><trkpt lat="47.643521" lon="12.097302"><ele>1301.7</ele></trkpt><trkpt lat="47.643485" lon="12.098044"><ele>1300</ele></trkpt><trkpt lat="47.64326" lon="12.098472"><ele>1277.7</ele></trkpt><trkpt lat="47.643045" lon="12.098656"><ele>1278.8</ele></trkpt><trkpt lat="47.642979" lon="12.098764"><ele>1279.4</ele></trkpt><trkpt lat="47.642891" lon="12.099306"><ele>1284</ele></trkpt><trkpt lat="47.642759" lon="12.099543"><ele>1284</ele></trkpt><trkpt lat="47.642647" lon="12.099645"><ele>1284</ele></trkpt><trkpt lat="47.642557" lon="12.099688"><ele>1265.8</ele></trkpt><trkpt lat="47.64231" lon="12.099714"><ele>1261.7</ele></trkpt><trkpt lat="47.642111" lon="12.099845"><ele>1261.8</ele></trkpt><trkpt lat="47.641983" lon="12.099964"><ele>1262.1</ele></trkpt><trkpt lat="47.641834" lon="12.100201"><ele>1260.9</ele></trkpt><trkpt lat="47.641333" lon="12.100914"><ele>1258.7</ele></trkpt><trkpt lat="47.641271" lon="12.100976"><ele>1258.7</ele></trkpt><trkpt lat="47.64105" lon="12.101199"><ele>1258.8</ele></trkpt><trkpt lat="47.640986" lon="12.101249"><ele>1258.5</ele></trkpt><trkpt lat="47.64089" lon="12.101273"><ele>1258.5</ele></trkpt><trkpt lat="47.640703" lon="12.101261"><ele>1259.1</ele></trkpt><trkpt lat="47.640564" lon="12.101312"><ele>1260</ele></trkpt><trkpt lat="47.640412" lon="12.101442"><ele>1261.3</ele></trkpt><trkpt lat="47.640296" lon="12.101588"><ele>1262.9</ele></trkpt><trkpt lat="47.640092" lon="12.10197"><ele>1264.3</ele></trkpt><trkpt lat="47.640026" lon="12.102153"><ele>1264.2</ele></trkpt><trkpt lat="47.639941" lon="12.102588"><ele>1264.7</ele></trkpt><trkpt lat="47.639795" lon="12.102865"><ele>1265.1</ele></trkpt><trkpt lat="47.639675" lon="12.102974"><ele>1265.3</ele></trkpt><trkpt lat="47.639489" lon="12.102963"><ele>1265.3</ele></trkpt><trkpt lat="47.639427" lon="12.102981"><ele>1265.2</ele></trkpt><trkpt lat="47.639314" lon="12.103251"><ele>1267</ele></trkpt><trkpt lat="47.639269" lon="12.103308"><ele>1256.5</ele></trkpt><trkpt lat="47.639066" lon="12.103464"><ele>1253.9</ele></trkpt><trkpt lat="47.638998" lon="12.103487"><ele>1246</ele></trkpt><trkpt lat="47.638744" lon="12.103489"><ele>1246</ele></trkpt><trkpt lat="47.638583" lon="12.103421"><ele>1246</ele></trkpt><trkpt lat="47.638552" lon="12.103459"><ele>1246</ele></trkpt><trkpt lat="47.638548" lon="12.103548"><ele>1246</ele></trkpt><trkpt lat="47.638595" lon="12.103767"><ele>1246</ele></trkpt><trkpt lat="47.63869" lon="12.103966"><ele>1238.5</ele></trkpt><trkpt lat="47.638756" lon="12.104176"><ele>1236.6</ele></trkpt><trkpt lat="47.638835" lon="12.104348"><ele>1231</ele></trkpt><trkpt lat="47.638889" lon="12.104445"><ele>1229</ele></trkpt><trkpt lat="47.638899" lon="12.104532"><ele>1228.9</ele></trkpt><trkpt lat="47.638884" lon="12.10476"><ele>1228.5</ele></trkpt><trkpt lat="47.638832" lon="12.104853"><ele>1228.4</ele></trkpt><trkpt lat="47.638756" lon="12.104878"><ele>1228.2</ele></trkpt><trkpt lat="47.638653" lon="12.104869"><ele>1228</ele></trkpt><trkpt lat="47.638459" lon="12.104757"><ele>1227.8</ele></trkpt><trkpt lat="47.638386" lon="12.104747"><ele>1227.5</ele></trkpt><trkpt lat="47.638312" lon="12.104782"><ele>1227.3</ele></trkpt><trkpt lat="47.638263" lon="12.10485"><ele>1227.4</ele></trkpt><trkpt lat="47.638253" lon="12.104953"><ele>1227.5</ele></trkpt><trkpt lat="47.638275" lon="12.105269"><ele>1218</ele></trkpt><trkpt lat="47.638247" lon="12.105401"><ele>1211</ele></trkpt><trkpt lat="47.638196" lon="12.105543"><ele>1209.8</ele></trkpt><trkpt lat="47.637815" lon="12.106513"><ele>1201.1</ele></trkpt><trkpt lat="47.637683" lon="12.106982"><ele>1200.3</ele></trkpt><trkpt lat="47.637647" lon="12.107082"><ele>1198.1</ele></trkpt><trkpt lat="47.637483" lon="12.107538"><ele>1196</ele></trkpt><trkpt lat="47.637461" lon="12.107704"><ele>1195.4</ele></trkpt><trkpt lat="47.637492" lon="12.10791"><ele>1194.8</ele></trkpt><trkpt lat="47.637533" lon="12.108041"><ele>1165</ele></trkpt><trkpt lat="47.637581" lon="12.108361"><ele>1149.2</ele></trkpt><trkpt lat="47.637572" lon="12.1085"><ele>1149.4</ele></trkpt><trkpt lat="47.63747" lon="12.108851"><ele>1146.8</ele></trkpt><trkpt lat="47.637456" lon="12.109048"><ele>1141.3</ele></trkpt><trkpt lat="47.637545" lon="12.109343"><ele>1137.7</ele></trkpt><trkpt lat="47.637565" lon="12.109474"><ele>1133.5</ele></trkpt><trkpt lat="47.637553" lon="12.109664"><ele>1133.5</ele></trkpt><trkpt lat="47.637502" lon="12.109849"><ele>1131.1</ele></trkpt><trkpt lat="47.63724" lon="12.11019"><ele>1125.1</ele></trkpt><trkpt lat="47.637029" lon="12.110417"><ele>1122.8</ele></trkpt><trkpt lat="47.636781" lon="12.110616"><ele>1121.2</ele></trkpt><trkpt lat="47.636734" lon="12.110707"><ele>1119.7</ele></trkpt><trkpt lat="47.636724" lon="12.110815"><ele>1118.1</ele></trkpt><trkpt lat="47.636739" lon="12.110929"><ele>1114.1</ele></trkpt><trkpt lat="47.636804" lon="12.111056"><ele>1110.9</ele></trkpt><trkpt lat="47.636943" lon="12.111174"><ele>1110.9</ele></trkpt><trkpt lat="47.637187" lon="12.11129"><ele>1106.7</ele></trkpt><trkpt lat="47.637354" lon="12.111424"><ele>1097.1</ele></trkpt><trkpt lat="47.637683" lon="12.111899"><ele>1092.7</ele></trkpt><trkpt lat="47.637772" lon="12.112129"><ele>1080.9</ele></trkpt><trkpt lat="47.637787" lon="12.11228"><ele>1079.2</ele></trkpt><trkpt lat="47.637758" lon="12.112895"><ele>1074.8</ele></trkpt><trkpt lat="47.637782" lon="12.113076"><ele>1075.4</ele></trkpt><trkpt lat="47.63782" lon="12.113171"><ele>1073.4</ele></trkpt><trkpt lat="47.637858" lon="12.113171"><ele>1074</ele></trkpt><trkpt lat="47.638004" lon="12.113017"><ele>1075.2</ele></trkpt><trkpt lat="47.638042" lon="12.113005"><ele>1020</ele></trkpt><trkpt lat="47.638072" lon="12.113021"><ele>1047.3</ele></trkpt><trkpt lat="47.638103" lon="12.113074"><ele>1037.9</ele></trkpt><trkpt lat="47.638267" lon="12.114383"><ele>1022.6</ele></trkpt><trkpt lat="47.638374" lon="12.114882"><ele>1018.4</ele></trkpt><trkpt lat="47.638366" lon="12.115018"><ele>1016.6</ele></trkpt><trkpt lat="47.638298" lon="12.115322"><ele>1010.1</ele></trkpt><trkpt lat="47.638097" lon="12.115557"><ele>1005.3</ele></trkpt><trkpt lat="47.637799" lon="12.11687"><ele>983.9</ele></trkpt><trkpt lat="47.637595" lon="12.117125"><ele>977.5</ele></trkpt><trkpt lat="47.637123" lon="12.11745"><ele>967</ele></trkpt><trkpt lat="47.63665" lon="12.117654"><ele>957.8</ele></trkpt><trkpt lat="47.636364" lon="12.117863"><ele>953.4</ele></trkpt><trkpt lat="47.636095" lon="12.11812"><ele>944.7</ele></trkpt><trkpt lat="47.635746" lon="12.118006"><ele>937.9</ele></trkpt><trkpt lat="47.635119" lon="12.118251"><ele>927.5</ele></trkpt><trkpt lat="47.63488" lon="12.118238"><ele>921.6</ele></trkpt><trkpt lat="47.634572" lon="12.118255"><ele>916.6</ele></trkpt><trkpt lat="47.63448" lon="12.118332"><ele>915.4</ele></trkpt><trkpt lat="47.634404" lon="12.118467"><ele>911.1</ele></trkpt><trkpt lat="47.634222" lon="12.11865"><ele>908</ele></trkpt><trkpt lat="47.63371" lon="12.118948"><ele>902.6</ele></trkpt><trkpt lat="47.63298" lon="12.119171"><ele>890.3</ele></trkpt><trkpt lat="47.632694" lon="12.119379"><ele>870</ele></trkpt><trkpt lat="47.632629" lon="12.119546"><ele>871</ele></trkpt><trkpt lat="47.632542" lon="12.119772"><ele>865.2</ele></trkpt><trkpt lat="47.632344" lon="12.119964"><ele>864</ele></trkpt><trkpt lat="47.631997" lon="12.120169"><ele>856</ele></trkpt><trkpt lat="47.631829" lon="12.12026"><ele>857.1</ele></trkpt><trkpt lat="47.631605" lon="12.120263"><ele>856.8</ele></trkpt><trkpt lat="47.631385" lon="12.120349"><ele>856</ele></trkpt><trkpt lat="47.631203" lon="12.120581"><ele>855.4</ele></trkpt><trkpt lat="47.631049" lon="12.120852"><ele>854.7</ele></trkpt><trkpt lat="47.630841" lon="12.121155"><ele>854.7</ele></trkpt><trkpt lat="47.630777" lon="12.121291"><ele>854.9</ele></trkpt><trkpt lat="47.630756" lon="12.121468"><ele>854.4</ele></trkpt><trkpt lat="47.630751" lon="12.121806"><ele>853.7</ele></trkpt><trkpt lat="47.630719" lon="12.122028"><ele>853.5</ele></trkpt><trkpt lat="47.630771" lon="12.122482"><ele>852.2</ele></trkpt><trkpt lat="47.630775" lon="12.12307"><ele>850.3</ele></trkpt><trkpt lat="47.630726" lon="12.12331"><ele>848.3</ele></trkpt><trkpt lat="47.630686" lon="12.12379"><ele>847.4</ele></trkpt><trkpt lat="47.630541" lon="12.124451"><ele>845.3</ele></trkpt><trkpt lat="47.630507" lon="12.124738"><ele>844.4</ele></trkpt><trkpt lat="47.630529" lon="12.125001"><ele>844.2</ele></trkpt><trkpt lat="47.630599" lon="12.125215"><ele>836</ele></trkpt><trkpt lat="47.630581" lon="12.125421"><ele>836</ele></trkpt><trkpt lat="47.630518" lon="12.125484"><ele>836</ele></trkpt><trkpt lat="47.63028" lon="12.125593"><ele>836</ele></trkpt><trkpt lat="47.630171" lon="12.125764"><ele>836</ele></trkpt><trkpt lat="47.630187" lon="12.12605"><ele>834.3</ele></trkpt><trkpt lat="47.630455" lon="12.126703"><ele>835.1</ele></trkpt><trkpt lat="47.6305" lon="12.127558"><ele>834.4</ele></trkpt><trkpt lat="47.630477" lon="12.127764"><ele>823</ele></trkpt><trkpt lat="47.630379" lon="12.128005"><ele>818</ele></trkpt><trkpt lat="47.630205" lon="12.128339"><ele>817</ele></trkpt><trkpt lat="47.630157" lon="12.128391"><ele>808</ele></trkpt><trkpt lat="47.630169" lon="12.129229"><ele>799.5</ele></trkpt><trkpt lat="47.630125" lon="12.129588"><ele>798.1</ele></trkpt><trkpt lat="47.629581" lon="12.131541"><ele>791.4</ele></trkpt><trkpt lat="47.629618" lon="12.131839"><ele>791.1</ele></trkpt><trkpt lat="47.629835" lon="12.131924"><ele>790.9</ele></trkpt><trkpt lat="47.630078" lon="12.131953"><ele>769</ele></trkpt><trkpt lat="47.630009" lon="12.13215"><ele>773.9</ele></trkpt><trkpt lat="47.62998" lon="12.132313"><ele>774.4</ele></trkpt><trkpt lat="47.629801" lon="12.132768"><ele>768.5</ele></trkpt><trkpt lat="47.629534" lon="12.133266"><ele>757.5</ele></trkpt><trkpt lat="47.629442" lon="12.133524"><ele>753.7</ele></trkpt><trkpt lat="47.629401" lon="12.133841"><ele>752.4</ele></trkpt><trkpt lat="47.629326" lon="12.134073"><ele>748.9</ele></trkpt><trkpt lat="47.629315" lon="12.134459"><ele>746.4</ele></trkpt><trkpt lat="47.629344" lon="12.134785"><ele>744.9</ele></trkpt><trkpt lat="47.629436" lon="12.135034"><ele>743.2</ele></trkpt><trkpt lat="47.629594" lon="12.135276"><ele>744.7</ele></trkpt><trkpt lat="47.629668" lon="12.135326"><ele>734</ele></trkpt><trkpt lat="47.629824" lon="12.135558"><ele>732.3</ele></trkpt><trkpt lat="47.62991" lon="12.135618"><ele>732.1</ele></trkpt><trkpt lat="47.630067" lon="12.135987"><ele>731.9</ele></trkpt><trkpt lat="47.630124" lon="12.136167"><ele>732</ele></trkpt><trkpt lat="47.630142" lon="12.13645"><ele>731.8</ele></trkpt><trkpt lat="47.630373" lon="12.137025"><ele>731.2</ele></trkpt><trkpt lat="47.630466" lon="12.13736"><ele>730.7</ele></trkpt><trkpt lat="47.63046" lon="12.137497"><ele>729.9</ele></trkpt><trkpt lat="47.630495" lon="12.137703"><ele>729.1</ele></trkpt><trkpt lat="47.6305" lon="12.137884"><ele>728</ele></trkpt><trkpt lat="47.630454" lon="12.138038"><ele>727.1</ele></trkpt><trkpt lat="47.630191" lon="12.138374"><ele>726.1</ele></trkpt><trkpt lat="47.630165" lon="12.138407"><ele>725</ele></trkpt><trkpt lat="47.63009" lon="12.138656"><ele>722.8</ele></trkpt><trkpt lat="47.630078" lon="12.138862"><ele>721.8</ele></trkpt><trkpt lat="47.630194" lon="12.139343"><ele>719</ele></trkpt><trkpt lat="47.630263" lon="12.139806"><ele>719.3</ele></trkpt><trkpt lat="47.630159" lon="12.140201"><ele>713</ele></trkpt><trkpt lat="47.63013" lon="12.140441"><ele>710.4</ele></trkpt><trkpt lat="47.630124" lon="12.140647"><ele>708.5</ele></trkpt><trkpt lat="47.630049" lon="12.140974"><ele>704.3</ele></trkpt><trkpt lat="47.629945" lon="12.141211"><ele>702.2</ele></trkpt><trkpt lat="47.629933" lon="12.141502"><ele>696.1</ele></trkpt><trkpt lat="47.629968" lon="12.141703"><ele>692.1</ele></trkpt><trkpt lat="47.630038" lon="12.141866"><ele>687.6</ele></trkpt><trkpt lat="47.630124" lon="12.141995"><ele>686.3</ele></trkpt><trkpt lat="47.630159" lon="12.142141"><ele>686.5</ele></trkpt><trkpt lat="47.630177" lon="12.142347"><ele>682.5</ele></trkpt><trkpt lat="47.630119" lon="12.142596"><ele>675.5</ele></trkpt><trkpt lat="47.630044" lon="12.142785"><ele>672.3</ele></trkpt><trkpt lat="47.629951" lon="12.142913"><ele>670.8</ele></trkpt><trkpt lat="47.62987" lon="12.143085"><ele>668.3</ele></trkpt><trkpt lat="47.629667" lon="12.143377"><ele>665.6</ele></trkpt><trkpt lat="47.629592" lon="12.143523"><ele>664.3</ele></trkpt><trkpt lat="47.629465" lon="12.143677"><ele>663.1</ele></trkpt><trkpt lat="47.629425" lon="12.14384"><ele>658.6</ele></trkpt><trkpt lat="47.629453" lon="12.143995"><ele>658.6</ele></trkpt><trkpt lat="47.629535" lon="12.144112"><ele>656.9</ele></trkpt><trkpt lat="47.629651" lon="12.144226"><ele>656.7</ele></trkpt><trkpt lat="47.629716" lon="12.144403"><ele>658.3</ele></trkpt><trkpt lat="47.6297" lon="12.14461"><ele>658.7</ele></trkpt><trkpt lat="47.629711" lon="12.14484"><ele>635</ele></trkpt><trkpt lat="47.629723" lon="12.145047"><ele>628.3</ele></trkpt><trkpt lat="47.629788" lon="12.145359"><ele>625</ele></trkpt><trkpt lat="47.629942" lon="12.145622"><ele>625</ele></trkpt><trkpt lat="47.630227" lon="12.146426"><ele>619.6</ele></trkpt><trkpt lat="47.630585" lon="12.14708"><ele>619.9</ele></trkpt><trkpt lat="47.63087" lon="12.147501"><ele>617.5</ele></trkpt><trkpt lat="47.631112" lon="12.147899"><ele>617.4</ele></trkpt><trkpt lat="47.631503" lon="12.148612"><ele>612</ele></trkpt><trkpt lat="47.632391" lon="12.149821"><ele>614.7</ele></trkpt><trkpt lat="47.632452" lon="12.149971"><ele>616</ele></trkpt><trkpt lat="47.632579" lon="12.150479"><ele>611</ele></trkpt><trkpt lat="47.632752" lon="12.151047"><ele>611.3</ele></trkpt><trkpt lat="47.632882" lon="12.151961"><ele>609</ele></trkpt><trkpt lat="47.632944" lon="12.152415"><ele>609</ele></trkpt><trkpt lat="47.632953" lon="12.152533"><ele>609</ele></trkpt><trkpt lat="47.632953" lon="12.152709"><ele>609</ele></trkpt><trkpt lat="47.632953" lon="12.152801"><ele>608.1</ele></trkpt><trkpt lat="47.632891" lon="12.153045"><ele>608</ele></trkpt><trkpt lat="47.632765" lon="12.153378"><ele>607.9</ele></trkpt><trkpt lat="47.632515" lon="12.153785"><ele>609.1</ele></trkpt><trkpt lat="47.632381" lon="12.153968"><ele>609.7</ele></trkpt><trkpt lat="47.632225" lon="12.154257"><ele>613</ele></trkpt><trkpt lat="47.632189" lon="12.154312"><ele>613.3</ele></trkpt><trkpt lat="47.632048" lon="12.154715"><ele>613.8</ele></trkpt><trkpt lat="47.632004" lon="12.154944"><ele>613.9</ele></trkpt><trkpt lat="47.631955" lon="12.155198"><ele>613.9</ele></trkpt><trkpt lat="47.631872" lon="12.155986"><ele>614.2</ele></trkpt><trkpt lat="47.631869" lon="12.156406"><ele>616</ele></trkpt><trkpt lat="47.631873" lon="12.156996"><ele>626</ele></trkpt><trkpt lat="47.631923" lon="12.15743"><ele>627.7</ele></trkpt><trkpt lat="47.632008" lon="12.158163"><ele>629.4</ele></trkpt><trkpt lat="47.632132" lon="12.159581"><ele>636</ele></trkpt><trkpt lat="47.632202" lon="12.160244"><ele>628.5</ele></trkpt><trkpt lat="47.632255" lon="12.160404"><ele>626.5</ele></trkpt><trkpt lat="47.632746" lon="12.161244"><ele>622</ele></trkpt><trkpt lat="47.632794" lon="12.161396"><ele>620</ele></trkpt><trkpt lat="47.632816" lon="12.161541"><ele>620.5</ele></trkpt><trkpt lat="47.632804" lon="12.161753"><ele>620.7</ele></trkpt><trkpt lat="47.632714" lon="12.162409"><ele>619.5</ele></trkpt><trkpt lat="47.632685" lon="12.162623"><ele>618.2</ele></trkpt><trkpt lat="47.6328" lon="12.163327"><ele>616.7</ele></trkpt><trkpt lat="47.632816" lon="12.163607"><ele>615.9</ele></trkpt><trkpt lat="47.632805" lon="12.164103"><ele>613.7</ele></trkpt><trkpt lat="47.632817" lon="12.164242"><ele>612.7</ele></trkpt><trkpt lat="47.632975" lon="12.164758"><ele>611.1</ele></trkpt><trkpt lat="47.633044" lon="12.165688"><ele>609.6</ele></trkpt><trkpt lat="47.633075" lon="12.165844"><ele>609.2</ele></trkpt><trkpt lat="47.633179" lon="12.166158"><ele>602</ele></trkpt><trkpt lat="47.633259" lon="12.166628"><ele>601.5</ele></trkpt><trkpt lat="47.633345" lon="12.166805"><ele>601.8</ele></trkpt><trkpt lat="47.633426" lon="12.16688"><ele>602</ele></trkpt><trkpt lat="47.63356" lon="12.166912"><ele>613.8</ele></trkpt><trkpt lat="47.633676" lon="12.166903"><ele>616</ele></trkpt><trkpt lat="47.633925" lon="12.166774"><ele>616.9</ele></trkpt><trkpt lat="47.634029" lon="12.166689"><ele>617.9</ele></trkpt><trkpt lat="47.634179" lon="12.166603"><ele>617.7</ele></trkpt><trkpt lat="47.634428" lon="12.166405"><ele>615.9</ele></trkpt><trkpt lat="47.634538" lon="12.166345"><ele>614.8</ele></trkpt><trkpt lat="47.63474" lon="12.166277"><ele>613.1</ele></trkpt><trkpt lat="47.634879" lon="12.166242"><ele>612.2</ele></trkpt><trkpt lat="47.63518" lon="12.166234"><ele>610.8</ele></trkpt><trkpt lat="47.635342" lon="12.166174"><ele>608.2</ele></trkpt><trkpt lat="47.635636" lon="12.166156"><ele>607.4</ele></trkpt><trkpt lat="47.63607" lon="12.165993"><ele>606.7</ele></trkpt><trkpt lat="47.636519" lon="12.165892"><ele>606.8</ele></trkpt><trkpt lat="47.636909" lon="12.165699"><ele>610</ele></trkpt><trkpt lat="47.637126" lon="12.165679"><ele>616</ele></trkpt><trkpt lat="47.637269" lon="12.165724"><ele>580.8</ele></trkpt><trkpt lat="47.637496" lon="12.165879"><ele>569.3</ele></trkpt><trkpt lat="47.637898" lon="12.166092"><ele>564.8</ele></trkpt><trkpt lat="47.638199" lon="12.166223"><ele>565.7</ele></trkpt><trkpt lat="47.638403" lon="12.166473"><ele>559.8</ele></trkpt><trkpt lat="47.638498" lon="12.1667"><ele>554.9</ele></trkpt><trkpt lat="47.638581" lon="12.167203"><ele>535</ele></trkpt><trkpt lat="47.638655" lon="12.167907"><ele>529</ele></trkpt><trkpt lat="47.638645" lon="12.168207"><ele>526</ele></trkpt><trkpt lat="47.638701" lon="12.168585"><ele>510.6</ele></trkpt><trkpt lat="47.638828" lon="12.168902"><ele>510</ele></trkpt><trkpt lat="47.638971" lon="12.169134"><ele>510</ele></trkpt><trkpt lat="47.639024" lon="12.169369"><ele>509.4</ele></trkpt><trkpt lat="47.639101" lon="12.170053"><ele>510.2</ele></trkpt><trkpt lat="47.639148" lon="12.170301"><ele>509.9</ele></trkpt><trkpt lat="47.63921" lon="12.170431"><ele>511.5</ele></trkpt><trkpt lat="47.639424" lon="12.170751"><ele>517</ele></trkpt><trkpt lat="47.639558" lon="12.170936"><ele>514</ele></trkpt><trkpt lat="47.639958" lon="12.171022"><ele>516.4</ele></trkpt><trkpt lat="47.640479" lon="12.171446"><ele>518.9</ele></trkpt><trkpt lat="47.64135" lon="12.171865"><ele>518.7</ele></trkpt><trkpt lat="47.641816" lon="12.172021"><ele>508</ele></trkpt><trkpt lat="47.642128" lon="12.172084"><ele>508</ele></trkpt><trkpt lat="47.642167" lon="12.172098"><ele>508</ele></trkpt><trkpt lat="47.642168" lon="12.172157"><ele>511.2</ele></trkpt><trkpt lat="47.642471" lon="12.172411"><ele>511.8</ele></trkpt><trkpt lat="47.642566" lon="12.172612"><ele>512.1</ele></trkpt><trkpt lat="47.642642" lon="12.172864"><ele>511.7</ele></trkpt><trkpt lat="47.642692" lon="12.173109"><ele>511.2</ele></trkpt><trkpt lat="47.642686" lon="12.173397"><ele>510.7</ele></trkpt><trkpt lat="47.64272" lon="12.173638"><ele>510.7</ele></trkpt><trkpt lat="47.64276" lon="12.17373"><ele>510.8</ele></trkpt><trkpt lat="47.64278" lon="12.173829"><ele>510</ele></trkpt><trkpt lat="47.642769" lon="12.173908"><ele>510</ele></trkpt><trkpt lat="47.642725" lon="12.174199"><ele>502.8</ele></trkpt><trkpt lat="47.642732" lon="12.174507"><ele>500</ele></trkpt><trkpt lat="47.642941" lon="12.174577"><ele>499.5</ele></trkpt><trkpt lat="47.643094" lon="12.174696"><ele>499.6</ele></trkpt><trkpt lat="47.643233" lon="12.174898"><ele>499.7</ele></trkpt><trkpt lat="47.64331" lon="12.175079"><ele>498.8</ele></trkpt><trkpt lat="47.643444" lon="12.175317"><ele>499</ele></trkpt><trkpt lat="47.643684" lon="12.175548"><ele>499</ele></trkpt><trkpt lat="47.643929" lon="12.175655"><ele>499</ele></trkpt><trkpt lat="47.644076" lon="12.175693"><ele>499</ele></trkpt><trkpt lat="47.644194" lon="12.175714"><ele>510</ele></trkpt><trkpt lat="47.644461" lon="12.175791"><ele>510</ele></trkpt><trkpt lat="47.644542" lon="12.17577"><ele>510</ele></trkpt><trkpt lat="47.644956" lon="12.175361"><ele>510</ele></trkpt><trkpt lat="47.645094" lon="12.175244"><ele>496.7</ele></trkpt><trkpt lat="47.645104" lon="12.175239"><ele>493.3</ele></trkpt><trkpt lat="47.645189" lon="12.1752"><ele>490</ele></trkpt><trkpt lat="47.645318" lon="12.175179"><ele>490</ele></trkpt><trkpt lat="47.645643" lon="12.175124"><ele>488.9</ele></trkpt><trkpt lat="47.645846" lon="12.175059"><ele>485</ele></trkpt><trkpt lat="47.645944" lon="12.17492"><ele>485</ele></trkpt><trkpt lat="47.646086" lon="12.174649"><ele>485</ele></trkpt><trkpt lat="47.646169" lon="12.17459"><ele>484.4</ele></trkpt><trkpt lat="47.646373" lon="12.174545"><ele>484.5</ele></trkpt><trkpt lat="47.646557" lon="12.174532"><ele>483.8</ele></trkpt><trkpt lat="47.64673" lon="12.17452"><ele>483</ele></trkpt><trkpt lat="47.646866" lon="12.174469"><ele>483</ele></trkpt><trkpt lat="47.646977" lon="12.174364"><ele>483</ele></trkpt><trkpt lat="47.647056" lon="12.1742"><ele>483</ele></trkpt><trkpt lat="47.647141" lon="12.173875"><ele>483</ele></trkpt><trkpt lat="47.647253" lon="12.173626"><ele>483</ele></trkpt><trkpt lat="47.647366" lon="12.173424"><ele>483</ele></trkpt><trkpt lat="47.647413" lon="12.173477"><ele>483</ele></trkpt><trkpt lat="47.647437" lon="12.173539"><ele>483</ele></trkpt><trkpt lat="47.647468" lon="12.173724"><ele>483</ele></trkpt><trkpt lat="47.647476" lon="12.173846"><ele>483</ele></trkpt><trkpt lat="47.647457" lon="12.174048"><ele>483</ele></trkpt><trkpt lat="47.647845" lon="12.17405"><ele>482</ele></trkpt><trkpt lat="47.647997" lon="12.174051"><ele>481</ele></trkpt><trkpt lat="47.6486" lon="12.173969"><ele>482.4</ele></trkpt><trkpt lat="47.648856" lon="12.173967"><ele>482.3</ele></trkpt><trkpt lat="47.649448" lon="12.17402"><ele>482</ele></trkpt><trkpt lat="47.64946" lon="12.173659"><ele>482</ele></trkpt><trkpt lat="47.649515" lon="12.173659"><ele>482</ele></trkpt><trkpt lat="47.65003" lon="12.173653"><ele>483</ele></trkpt><trkpt lat="47.650194" lon="12.17365"><ele>482.5</ele></trkpt><trkpt lat="47.650967" lon="12.17364"><ele>482</ele></trkpt><trkpt lat="47.651186" lon="12.173639"><ele>482</ele></trkpt><trkpt lat="47.652707" lon="12.173622"><ele>483</ele></trkpt><trkpt lat="47.65276" lon="12.173621"><ele>483</ele></trkpt><trkpt lat="47.652762" lon="12.174036"><ele>483</ele></trkpt><trkpt lat="47.652767" lon="12.174203"><ele>482</ele></trkpt><trkpt lat="47.652769" lon="12.174469"><ele>482</ele></trkpt><trkpt lat="47.652798" lon="12.174715"><ele>482</ele></trkpt><trkpt lat="47.65282" lon="12.174761"><ele>482</ele></trkpt><trkpt lat="47.652905" lon="12.174807"><ele>482</ele></trkpt><trkpt lat="47.652861" lon="12.175161"><ele>482</ele></trkpt><trkpt lat="47.652856" lon="12.175195"><ele>482</ele></trkpt><trkpt lat="47.65284" lon="12.1752"><ele>482</ele></trkpt><trkpt lat="47.652617" lon="12.175125"><ele>482</ele></trkpt><trkpt lat="47.652614" lon="12.175144"><ele>482</ele></trkpt><trkpt lat="47.65256" lon="12.175128"><ele>482</ele></trkpt><trkpt lat="47.652464" lon="12.175093"><ele>481</ele></trkpt><trkpt lat="47.652447" lon="12.175087"><ele>481</ele></trkpt><trkpt lat="47.652416" lon="12.1753"><ele>481</ele></trkpt><trkpt lat="47.652433" lon="12.175306"><ele>481</ele></trkpt><trkpt lat="47.652529" lon="12.175342"><ele>482</ele></trkpt><trkpt lat="47.652543" lon="12.175345"><ele>482</ele></trkpt><trkpt lat="47.65255" lon="12.175294"><ele>482</ele></trkpt></trkseg></trk></gpx>