<gpx xmlns="http://www.topografix.com/GPX/1/1" xmlns:xsi="http://www.w3.org/2001/XMLSchema-instance" xsi:schemaLocation="http://www.topografix.com/GPX/1/1 http://www.topografix.com/GPX/1/1/gpx.xsd" version="1.1" creator="togpx"><metadata/><wpt lat="47.99881382034111" lon="11.170574426651003"><name></name><desc>label=Herrsching, Herrsching am Ammersee,BY,Germany</desc></wpt><wpt lat="47.99732412362378" lon="11.16733968257904"><name></name><desc>label=Keramikstraße, Herrsching am Ammersee,BY,Germany</desc></wpt><wpt lat="47.995496942894384" lon="11.168450117111208"><name></name><desc>label=Dampfersteg Herrsching, Ammersee,BY,Germany</desc></wpt><wpt lat="47.9818502724224" lon="11.172065734863283"><name></name><desc>label=Herrsching, Strittholzstraße,Herrsching am Ammersee,BY,Germany</desc></wpt><wpt lat="47.97418163719664" lon="11.182518303394318"><name></name><desc>label=Kloster Andechs, Andechs,BY,Germany</desc></wpt><wpt lat="47.97363396221332" lon="11.182762384414675"><name></name><desc>label=Bergstraße 9, Andechs,BY,Germany</desc></wpt><wpt lat="47.97384944158841" lon="11.182824075222015"><name></name><desc>label=Kloster Andechs, Andechs,BY,Germany</desc></wpt><wpt lat="47.97410622000283" lon="11.183153986930849"><name></name><desc>label=Kloster Andechs, Andechs,BY,Germany</desc></wpt><wpt lat="47.972807949612154" lon="11.184929609298708"><name></name><desc>label=Franz-Wastian-Weg, Andechs,BY,Germany</desc></wpt><wpt lat="47.970028140591154" lon="11.184704303741455"><name></name><desc>label=Andechser Straße, Andechs,BY,Germany</desc></wpt><wpt lat="47.96574679836489" lon="11.185283660888674"><name></name><desc>label=Starnberger Straße 2, Andechs,BY,Germany</desc></wpt><wpt lat="47.960531126856" lon="11.18637800216675"><name></name><desc>label=Am Eisweiher, Andechs,BY,Germany</desc></wpt><wpt lat="47.953719787787435" lon="11.207470893859863"><name></name><desc>label=St. Stephan, Andechs,BY,Germany</desc></wpt><wpt lat="47.91010019993314" lon="11.277015209198"><name></name><desc>label=Kirchenstraße, Tutzing,BY,Germany</desc></wpt><wpt lat="47.90725948189192" lon="11.272889971733095"><name></name><desc>label=Tutzing, BY,Germany</desc></wpt><trk><name></name><desc>ascent=454.7
descent=382.2
opacity=0.9</desc><trkseg><trkpt lat="47.998816" lon="11.17055"><ele>539.5</ele></trkpt><trkpt lat="47.998162" lon="11.170402"><ele>540</ele></trkpt><trkpt lat="47.998157" lon="11.170447"><ele>540</ele></trkpt><trkpt lat="47.998315" lon="11.170482"><ele>540</ele></trkpt><trkpt lat="47.998313" lon="11.170503"><ele>540</ele></trkpt><trkpt lat="47.998098" lon="11.170464"><ele>540</ele></trkpt><trkpt lat="47.998133" lon="11.170255"><ele>540</ele></trkpt><trkpt lat="47.998136" lon="11.170232"><ele>540</ele></trkpt><trkpt lat="47.998142" lon="11.170176"><ele>540</ele></trkpt><trkpt lat="47.998146" lon="11.170137"><ele>540</ele></trkpt><trkpt lat="47.998062" lon="11.170088"><ele>539.7</ele></trkpt><trkpt lat="47.998035" lon="11.169953"><ele>539.6</ele></trkpt><trkpt lat="47.997993" lon="11.169854"><ele>539.6</ele></trkpt><trkpt lat="47.997922" lon="11.169803"><ele>539.5</ele></trkpt><trkpt lat="47.997779" lon="11.169634"><ele>539.5</ele></trkpt><trkpt lat="47.997647" lon="11.169301"><ele>539.4</ele></trkpt><trkpt lat="47.99751" lon="11.169129"><ele>539.4</ele></trkpt><trkpt lat="47.997432" lon="11.168972"><ele>538</ele></trkpt><trkpt lat="47.99738" lon="11.168995"><ele>538</ele></trkpt><trkpt lat="47.997316" lon="11.168807"><ele>539.5</ele></trkpt><trkpt lat="47.997224" lon="11.168144"><ele>539.9</ele></trkpt><trkpt lat="47.997238" lon="11.167889"><ele>541</ele></trkpt><trkpt lat="47.99731" lon="11.167675"><ele>540.7</ele></trkpt><trkpt lat="47.997325" lon="11.16734"><ele>540.3</ele></trkpt><trkpt lat="47.99731" lon="11.167675"><ele>540.7</ele></trkpt><trkpt lat="47.997238" lon="11.167889"><ele>541</ele></trkpt><trkpt lat="47.997051" lon="11.167902"><ele>541</ele></trkpt><trkpt lat="47.996888" lon="11.167937"><ele>541</ele></trkpt><trkpt lat="47.996572" lon="11.167858"><ele>537.4</ele></trkpt><trkpt lat="47.996303" lon="11.167713"><ele>536</ele></trkpt><trkpt lat="47.996022" lon="11.16767"><ele>536</ele></trkpt><trkpt lat="47.995942" lon="11.167771"><ele>536</ele></trkpt><trkpt lat="47.995924" lon="11.167799"><ele>536</ele></trkpt><trkpt lat="47.995503" lon="11.168459"><ele>534.5</ele></trkpt><trkpt lat="47.995436" lon="11.168565"><ele>533</ele></trkpt><trkpt lat="47.994952" lon="11.169025"><ele>531</ele></trkpt><trkpt lat="47.993699" lon="11.169955"><ele>531</ele></trkpt><trkpt lat="47.993131" lon="11.170222"><ele>534</ele></trkpt><trkpt lat="47.992692" lon="11.170426"><ele>533</ele></trkpt><trkpt lat="47.991423" lon="11.170755"><ele>531</ele></trkpt><trkpt lat="47.991333" lon="11.170779"><ele>531</ele></trkpt><trkpt lat="47.990865" lon="11.1708"><ele>531</ele></trkpt><trkpt lat="47.990686" lon="11.170806"><ele>535.2</ele></trkpt><trkpt lat="47.990168" lon="11.170664"><ele>535.2</ele></trkpt><trkpt lat="47.989738" lon="11.170491"><ele>539</ele></trkpt><trkpt lat="47.98965" lon="11.170781"><ele>539</ele></trkpt><trkpt lat="47.98944" lon="11.170597"><ele>539</ele></trkpt><trkpt lat="47.989311" lon="11.170778"><ele>542.9</ele></trkpt><trkpt lat="47.988929" lon="11.171011"><ele>543.8</ele></trkpt><trkpt lat="47.988791" lon="11.17106"><ele>550</ele></trkpt><trkpt lat="47.988463" lon="11.171077"><ele>553.6</ele></trkpt><trkpt lat="47.988085" lon="11.171043"><ele>563</ele></trkpt><trkpt lat="47.987898" lon="11.171057"><ele>569.7</ele></trkpt><trkpt lat="47.987658" lon="11.171133"><ele>569.8</ele></trkpt><trkpt lat="47.987516" lon="11.171227"><ele>569.4</ele></trkpt><trkpt lat="47.987243" lon="11.171472"><ele>570.1</ele></trkpt><trkpt lat="47.986894" lon="11.171654"><ele>571.4</ele></trkpt><trkpt lat="47.98678" lon="11.171651"><ele>572.7</ele></trkpt><trkpt lat="47.986551" lon="11.17151"><ele>585</ele></trkpt><trkpt lat="47.986401" lon="11.171457"><ele>585</ele></trkpt><trkpt lat="47.986166" lon="11.171454"><ele>585</ele></trkpt><trkpt lat="47.985899" lon="11.171542"><ele>585</ele></trkpt><trkpt lat="47.985701" lon="11.171645"><ele>585</ele></trkpt><trkpt lat="47.985597" lon="11.171643"><ele>585</ele></trkpt><trkpt lat="47.985307" lon="11.171554"><ele>585</ele></trkpt><trkpt lat="47.985096" lon="11.171454"><ele>585</ele></trkpt><trkpt lat="47.984479" lon="11.171177"><ele>586.2</ele></trkpt><trkpt lat="47.984289" lon="11.171148"><ele>586.2</ele></trkpt><trkpt lat="47.983793" lon="11.171258"><ele>586.4</ele></trkpt><trkpt lat="47.983523" lon="11.171357"><ele>587</ele></trkpt><trkpt lat="47.983447" lon="11.171393"><ele>587</ele></trkpt><trkpt lat="47.983314" lon="11.171471"><ele>589</ele></trkpt><trkpt lat="47.983149" lon="11.171602"><ele>590.7</ele></trkpt><trkpt lat="47.982872" lon="11.171915"><ele>593</ele></trkpt><trkpt lat="47.98281" lon="11.172035"><ele>601</ele></trkpt><trkpt lat="47.982691" lon="11.172162"><ele>599.8</ele></trkpt><trkpt lat="47.982608" lon="11.172214"><ele>600.1</ele></trkpt><trkpt lat="47.982401" lon="11.172277"><ele>602</ele></trkpt><trkpt lat="47.981878" lon="11.172265"><ele>605.1</ele></trkpt><trkpt lat="47.981826" lon="11.17225"><ele>608</ele></trkpt><trkpt lat="47.98134" lon="11.172107"><ele>610.9</ele></trkpt><trkpt lat="47.981234" lon="11.17211"><ele>612.3</ele></trkpt><trkpt lat="47.980906" lon="11.172227"><ele>615.5</ele></trkpt><trkpt lat="47.980781" lon="11.17224"><ele>616</ele></trkpt><trkpt lat="47.980054" lon="11.172157"><ele>623</ele></trkpt><trkpt lat="47.979862" lon="11.172086"><ele>625.2</ele></trkpt><trkpt lat="47.979601" lon="11.172055"><ele>625.3</ele></trkpt><trkpt lat="47.979193" lon="11.171891"><ele>626</ele></trkpt><trkpt lat="47.978797" lon="11.171964"><ele>626.6</ele></trkpt><trkpt lat="47.978506" lon="11.172068"><ele>626.3</ele></trkpt><trkpt lat="47.978288" lon="11.172193"><ele>625.9</ele></trkpt><trkpt lat="47.978075" lon="11.172346"><ele>625.4</ele></trkpt><trkpt lat="47.977917" lon="11.172509"><ele>626.5</ele></trkpt><trkpt lat="47.977809" lon="11.172712"><ele>635</ele></trkpt><trkpt lat="47.977513" lon="11.173184"><ele>639.5</ele></trkpt><trkpt lat="47.977356" lon="11.173368"><ele>640.5</ele></trkpt><trkpt lat="47.977123" lon="11.17355"><ele>641</ele></trkpt><trkpt lat="47.976733" lon="11.173698"><ele>641.9</ele></trkpt><trkpt lat="47.976597" lon="11.173772"><ele>642.8</ele></trkpt><trkpt lat="47.976267" lon="11.174089"><ele>644</ele></trkpt><trkpt lat="47.975913" lon="11.174369"><ele>657.3</ele></trkpt><trkpt lat="47.975325" lon="11.174728"><ele>659.9</ele></trkpt><trkpt lat="47.974882" lon="11.174971"><ele>663</ele></trkpt><trkpt lat="47.974648" lon="11.175152"><ele>667.7</ele></trkpt><trkpt lat="47.974255" lon="11.17566"><ele>668.4</ele></trkpt><trkpt lat="47.974077" lon="11.175965"><ele>672.8</ele></trkpt><trkpt lat="47.973818" lon="11.17622"><ele>687</ele></trkpt><trkpt lat="47.972883" lon="11.177132"><ele>692</ele></trkpt><trkpt lat="47.972803" lon="11.1773"><ele>690.4</ele></trkpt><trkpt lat="47.972696" lon="11.177651"><ele>690.1</ele></trkpt><trkpt lat="47.972478" lon="11.178273"><ele>690.2</ele></trkpt><trkpt lat="47.972426" lon="11.17836"><ele>688</ele></trkpt><trkpt lat="47.972056" lon="11.178406"><ele>687.7</ele></trkpt><trkpt lat="47.971924" lon="11.178443"><ele>687.8</ele></trkpt><trkpt lat="47.971484" lon="11.178677"><ele>687</ele></trkpt><trkpt lat="47.971169" lon="11.178836"><ele>687</ele></trkpt><trkpt lat="47.971279" lon="11.179181"><ele>683.9</ele></trkpt><trkpt lat="47.971351" lon="11.179655"><ele>684.2</ele></trkpt><trkpt lat="47.97136" lon="11.179865"><ele>683</ele></trkpt><trkpt lat="47.971365" lon="11.18002"><ele>679.3</ele></trkpt><trkpt lat="47.971333" lon="11.18031"><ele>678</ele></trkpt><trkpt lat="47.971307" lon="11.180448"><ele>678</ele></trkpt><trkpt lat="47.971274" lon="11.180536"><ele>678</ele></trkpt><trkpt lat="47.971179" lon="11.180741"><ele>678</ele></trkpt><trkpt lat="47.971139" lon="11.180793"><ele>678</ele></trkpt><trkpt lat="47.971096" lon="11.180811"><ele>678</ele></trkpt><trkpt lat="47.970904" lon="11.180781"><ele>678</ele></trkpt><trkpt lat="47.970769" lon="11.180791"><ele>680.1</ele></trkpt><trkpt lat="47.970716" lon="11.180821"><ele>681</ele></trkpt><trkpt lat="47.97064" lon="11.18099"><ele>670</ele></trkpt><trkpt lat="47.970707" lon="11.181326"><ele>670</ele></trkpt><trkpt lat="47.970773" lon="11.181394"><ele>668.8</ele></trkpt><trkpt lat="47.970859" lon="11.181559"><ele>668.3</ele></trkpt><trkpt lat="47.97089" lon="11.181582"><ele>667</ele></trkpt><trkpt lat="47.970948" lon="11.181617"><ele>667</ele></trkpt><trkpt lat="47.971059" lon="11.181641"><ele>667</ele></trkpt><trkpt lat="47.971124" lon="11.181579"><ele>667</ele></trkpt><trkpt lat="47.971575" lon="11.181539"><ele>667</ele></trkpt><trkpt lat="47.971858" lon="11.181823"><ele>671.6</ele></trkpt><trkpt lat="47.971937" lon="11.18196"><ele>671.3</ele></trkpt><trkpt lat="47.972047" lon="11.182209"><ele>673</ele></trkpt><trkpt lat="47.972103" lon="11.182247"><ele>673.7</ele></trkpt><trkpt lat="47.97221" lon="11.182242"><ele>673.8</ele></trkpt><trkpt lat="47.972256" lon="11.18222"><ele>673.9</ele></trkpt><trkpt lat="47.972487" lon="11.181938"><ele>674.1</ele></trkpt><trkpt lat="47.972631" lon="11.181894"><ele>674.3</ele></trkpt><trkpt lat="47.972828" lon="11.181901"><ele>676</ele></trkpt><trkpt lat="47.972982" lon="11.181982"><ele>676</ele></trkpt><trkpt lat="47.973118" lon="11.182368"><ele>676</ele></trkpt><trkpt lat="47.973189" lon="11.182483"><ele>677</ele></trkpt><trkpt lat="47.973295" lon="11.182503"><ele>679</ele></trkpt><trkpt lat="47.973371" lon="11.18242"><ele>691</ele></trkpt><trkpt lat="47.973659" lon="11.182418"><ele>691</ele></trkpt><trkpt lat="47.973683" lon="11.182421"><ele>691</ele></trkpt><trkpt lat="47.974077" lon="11.182489"><ele>691</ele></trkpt><trkpt lat="47.974156" lon="11.182456"><ele>691</ele></trkpt><trkpt lat="47.974177" lon="11.182522"><ele>701</ele></trkpt><trkpt lat="47.974188" lon="11.182554"><ele>711</ele></trkpt><trkpt lat="47.974192" lon="11.182568"><ele>711</ele></trkpt><trkpt lat="47.974096" lon="11.182607"><ele>694</ele></trkpt><trkpt lat="47.974012" lon="11.18263"><ele>694</ele></trkpt><trkpt lat="47.973948" lon="11.182648"><ele>694</ele></trkpt><trkpt lat="47.973668" lon="11.182688"><ele>694</ele></trkpt><trkpt lat="47.973613" lon="11.182742"><ele>694</ele></trkpt><trkpt lat="47.973618" lon="11.182769"><ele>694</ele></trkpt><trkpt lat="47.973613" lon="11.182742"><ele>694</ele></trkpt><trkpt lat="47.973668" lon="11.182688"><ele>694</ele></trkpt><trkpt lat="47.973679" lon="11.182746"><ele>694</ele></trkpt><trkpt lat="47.973713" lon="11.182793"><ele>694</ele></trkpt><trkpt lat="47.97385" lon="11.182818"><ele>694</ele></trkpt><trkpt lat="47.973921" lon="11.182832"><ele>694</ele></trkpt><trkpt lat="47.973948" lon="11.182648"><ele>694</ele></trkpt><trkpt lat="47.974012" lon="11.18263"><ele>694</ele></trkpt><trkpt lat="47.974096" lon="11.182607"><ele>694</ele></trkpt><trkpt lat="47.974192" lon="11.182568"><ele>711</ele></trkpt><trkpt lat="47.974278" lon="11.182923"><ele>711</ele></trkpt><trkpt lat="47.974254" lon="11.182949"><ele>711</ele></trkpt><trkpt lat="47.974107" lon="11.183155"><ele>702.5</ele></trkpt><trkpt lat="47.974038" lon="11.183252"><ele>694</ele></trkpt><trkpt lat="47.973983" lon="11.1833"><ele>694</ele></trkpt><trkpt lat="47.973945" lon="11.18333"><ele>694</ele></trkpt><trkpt lat="47.973933" lon="11.183346"><ele>693</ele></trkpt><trkpt lat="47.973893" lon="11.183415"><ele>693</ele></trkpt><trkpt lat="47.9738" lon="11.183554"><ele>693</ele></trkpt><trkpt lat="47.973793" lon="11.183581"><ele>693</ele></trkpt><trkpt lat="47.973785" lon="11.18361"><ele>693</ele></trkpt><trkpt lat="47.973773" lon="11.183623"><ele>693</ele></trkpt><trkpt lat="47.973703" lon="11.183708"><ele>693</ele></trkpt><trkpt lat="47.973648" lon="11.183774"><ele>693</ele></trkpt><trkpt lat="47.973572" lon="11.183894"><ele>693</ele></trkpt><trkpt lat="47.973521" lon="11.184034"><ele>693</ele></trkpt><trkpt lat="47.973514" lon="11.184332"><ele>686</ele></trkpt><trkpt lat="47.973515" lon="11.184361"><ele>686</ele></trkpt><trkpt lat="47.973532" lon="11.184763"><ele>686</ele></trkpt><trkpt lat="47.973466" lon="11.184973"><ele>686</ele></trkpt><trkpt lat="47.973356" lon="11.185132"><ele>677</ele></trkpt><trkpt lat="47.973074" lon="11.185028"><ele>673</ele></trkpt><trkpt lat="47.972806" lon="11.184941"><ele>673.5</ele></trkpt><trkpt lat="47.971787" lon="11.18461"><ele>674</ele></trkpt><trkpt lat="47.971741" lon="11.184595"><ele>674</ele></trkpt><trkpt lat="47.971111" lon="11.184397"><ele>675</ele></trkpt><trkpt lat="47.970949" lon="11.18435"><ele>675</ele></trkpt><trkpt lat="47.970753" lon="11.184291"><ele>671</ele></trkpt><trkpt lat="47.970566" lon="11.184267"><ele>671</ele></trkpt><trkpt lat="47.970369" lon="11.18427"><ele>671</ele></trkpt><trkpt lat="47.970216" lon="11.184331"><ele>671</ele></trkpt><trkpt lat="47.970125" lon="11.184491"><ele>670.3</ele></trkpt><trkpt lat="47.970033" lon="11.184709"><ele>670.4</ele></trkpt><trkpt lat="47.970015" lon="11.184751"><ele>670.4</ele></trkpt><trkpt lat="47.969875" lon="11.184985"><ele>669</ele></trkpt><trkpt lat="47.969747" lon="11.185099"><ele>669.8</ele></trkpt><trkpt lat="47.969522" lon="11.185191"><ele>669.8</ele></trkpt><trkpt lat="47.969248" lon="11.18521"><ele>670</ele></trkpt><trkpt lat="47.969135" lon="11.185161"><ele>672</ele></trkpt><trkpt lat="47.968692" lon="11.184969"><ele>672</ele></trkpt><trkpt lat="47.968581" lon="11.18492"><ele>672</ele></trkpt><trkpt lat="47.968395" lon="11.184877"><ele>672</ele></trkpt><trkpt lat="47.968116" lon="11.184842"><ele>669</ele></trkpt><trkpt lat="47.967676" lon="11.184873"><ele>668.2</ele></trkpt><trkpt lat="47.96758" lon="11.184863"><ele>668</ele></trkpt><trkpt lat="47.967492" lon="11.184834"><ele>667.8</ele></trkpt><trkpt lat="47.967416" lon="11.18476"><ele>667</ele></trkpt><trkpt lat="47.967329" lon="11.184686"><ele>667</ele></trkpt><trkpt lat="47.96725" lon="11.184669"><ele>667</ele></trkpt><trkpt lat="47.967113" lon="11.184707"><ele>667</ele></trkpt><trkpt lat="47.967011" lon="11.184772"><ele>667</ele></trkpt><trkpt lat="47.966884" lon="11.184415"><ele>667</ele></trkpt><trkpt lat="47.966456" lon="11.184903"><ele>666</ele></trkpt><trkpt lat="47.96635" lon="11.184991"><ele>667</ele></trkpt><trkpt lat="47.966196" lon="11.185065"><ele>669</ele></trkpt><trkpt lat="47.965857" lon="11.185227"><ele>668.2</ele></trkpt><trkpt lat="47.965763" lon="11.18529"><ele>668</ele></trkpt><trkpt lat="47.965754" lon="11.185299"><ele>667.5</ele></trkpt><trkpt lat="47.965241" lon="11.185798"><ele>667</ele></trkpt><trkpt lat="47.964928" lon="11.186147"><ele>667.3</ele></trkpt><trkpt lat="47.964547" lon="11.186668"><ele>667</ele></trkpt><trkpt lat="47.964435" lon="11.186844"><ele>667</ele></trkpt><trkpt lat="47.964355" lon="11.186906"><ele>667</ele></trkpt><trkpt lat="47.964263" lon="11.186927"><ele>667</ele></trkpt><trkpt lat="47.964093" lon="11.186877"><ele>667.5</ele></trkpt><trkpt lat="47.963679" lon="11.186629"><ele>666</ele></trkpt><trkpt lat="47.96333" lon="11.186444"><ele>667.3</ele></trkpt><trkpt lat="47.96322" lon="11.186414"><ele>667.5</ele></trkpt><trkpt lat="47.963001" lon="11.186394"><ele>669</ele></trkpt><trkpt lat="47.96255" lon="11.186392"><ele>669</ele></trkpt><trkpt lat="47.962353" lon="11.186397"><ele>671.1</ele></trkpt><trkpt lat="47.961594" lon="11.186488"><ele>672</ele></trkpt><trkpt lat="47.961504" lon="11.1865"><ele>672</ele></trkpt><trkpt lat="47.961092" lon="11.186475"><ele>672</ele></trkpt><trkpt lat="47.960987" lon="11.186455"><ele>672</ele></trkpt><trkpt lat="47.960866" lon="11.186433"><ele>672</ele></trkpt><trkpt lat="47.960608" lon="11.186396"><ele>671.7</ele></trkpt><trkpt lat="47.960531" lon="11.186396"><ele>671.6</ele></trkpt><trkpt lat="47.960608" lon="11.186396"><ele>671.7</ele></trkpt><trkpt lat="47.960866" lon="11.186433"><ele>672</ele></trkpt><trkpt lat="47.960987" lon="11.186455"><ele>672</ele></trkpt><trkpt lat="47.961092" lon="11.186475"><ele>672</ele></trkpt><trkpt lat="47.959783" lon="11.187261"><ele>675.8</ele></trkpt><trkpt lat="47.959403" lon="11.187441"><ele>675.8</ele></trkpt><trkpt lat="47.959188" lon="11.187621"><ele>678</ele></trkpt><trkpt lat="47.959002" lon="11.187923"><ele>678.9</ele></trkpt><trkpt lat="47.958787" lon="11.188191"><ele>678.7</ele></trkpt><trkpt lat="47.958608" lon="11.188381"><ele>678.6</ele></trkpt><trkpt lat="47.958067" lon="11.18885"><ele>682</ele></trkpt><trkpt lat="47.957893" lon="11.188976"><ele>682</ele></trkpt><trkpt lat="47.957526" lon="11.189267"><ele>683.9</ele></trkpt><trkpt lat="47.957272" lon="11.189575"><ele>684.5</ele></trkpt><trkpt lat="47.957097" lon="11.189984"><ele>685.3</ele></trkpt><trkpt lat="47.956619" lon="11.191269"><ele>688.8</ele></trkpt><trkpt lat="47.95649" lon="11.191533"><ele>689.6</ele></trkpt><trkpt lat="47.956287" lon="11.191806"><ele>690.8</ele></trkpt><trkpt lat="47.955903" lon="11.192214"><ele>691.7</ele></trkpt><trkpt lat="47.955642" lon="11.192739"><ele>692.4</ele></trkpt><trkpt lat="47.955506" lon="11.192935"><ele>692.7</ele></trkpt><trkpt lat="47.955432" lon="11.19301"><ele>691</ele></trkpt><trkpt lat="47.955071" lon="11.193375"><ele>694</ele></trkpt><trkpt lat="47.954941" lon="11.193715"><ele>692</ele></trkpt><trkpt lat="47.954877" lon="11.194002"><ele>692.1</ele></trkpt><trkpt lat="47.954629" lon="11.195847"><ele>694.6</ele></trkpt><trkpt lat="47.954425" lon="11.197064"><ele>701</ele></trkpt><trkpt lat="47.954277" lon="11.19809"><ele>701</ele></trkpt><trkpt lat="47.954238" lon="11.198456"><ele>704.2</ele></trkpt><trkpt lat="47.954225" lon="11.198735"><ele>704.3</ele></trkpt><trkpt lat="47.954245" lon="11.19909"><ele>704.3</ele></trkpt><trkpt lat="47.954284" lon="11.199362"><ele>704.5</ele></trkpt><trkpt lat="47.954293" lon="11.1996"><ele>704.7</ele></trkpt><trkpt lat="47.954279" lon="11.199915"><ele>704.9</ele></trkpt><trkpt lat="47.954142" lon="11.201099"><ele>706.6</ele></trkpt><trkpt lat="47.954071" lon="11.201391"><ele>707</ele></trkpt><trkpt lat="47.954" lon="11.201551"><ele>707.2</ele></trkpt><trkpt lat="47.953825" lon="11.201777"><ele>708.3</ele></trkpt><trkpt lat="47.95374" lon="11.201848"><ele>708.8</ele></trkpt><trkpt lat="47.953333" lon="11.202068"><ele>709.8</ele></trkpt><trkpt lat="47.953098" lon="11.202218"><ele>710.2</ele></trkpt><trkpt lat="47.95287" lon="11.202399"><ele>710.8</ele></trkpt><trkpt lat="47.952692" lon="11.202578"><ele>711.4</ele></trkpt><trkpt lat="47.952519" lon="11.202781"><ele>711.5</ele></trkpt><trkpt lat="47.952398" lon="11.202977"><ele>711.3</ele></trkpt><trkpt lat="47.952213" lon="11.203491"><ele>710</ele></trkpt><trkpt lat="47.952172" lon="11.203875"><ele>710.3</ele></trkpt><trkpt lat="47.95218" lon="11.204391"><ele>710.1</ele></trkpt><trkpt lat="47.952208" lon="11.204748"><ele>710</ele></trkpt><trkpt lat="47.952249" lon="11.204998"><ele>709.9</ele></trkpt><trkpt lat="47.952334" lon="11.205306"><ele>712</ele></trkpt><trkpt lat="47.952437" lon="11.205539"><ele>714.8</ele></trkpt><trkpt lat="47.952511" lon="11.205639"><ele>715</ele></trkpt><trkpt lat="47.952642" lon="11.205766"><ele>715.1</ele></trkpt><trkpt lat="47.952794" lon="11.205834"><ele>715.2</ele></trkpt><trkpt lat="47.952946" lon="11.205868"><ele>715.1</ele></trkpt><trkpt lat="47.953485" lon="11.205851"><ele>715.2</ele></trkpt><trkpt lat="47.953534" lon="11.205867"><ele>715.2</ele></trkpt><trkpt lat="47.953621" lon="11.206024"><ele>715.4</ele></trkpt><trkpt lat="47.953671" lon="11.206327"><ele>715.5</ele></trkpt><trkpt lat="47.953682" lon="11.207376"><ele>714.6</ele></trkpt><trkpt lat="47.953693" lon="11.207477"><ele>714.6</ele></trkpt><trkpt lat="47.953715" lon="11.207675"><ele>714.6</ele></trkpt><trkpt lat="47.95377" lon="11.207988"><ele>713.5</ele></trkpt><trkpt lat="47.953874" lon="11.208414"><ele>711.3</ele></trkpt><trkpt lat="47.954001" lon="11.208705"><ele>710.4</ele></trkpt><trkpt lat="47.954097" lon="11.209"><ele>709.9</ele></trkpt><trkpt lat="47.954425" lon="11.210768"><ele>706.8</ele></trkpt><trkpt lat="47.954541" lon="11.21124"><ele>706.6</ele></trkpt><trkpt lat="47.95467" lon="11.211567"><ele>706.6</ele></trkpt><trkpt lat="47.955173" lon="11.212519"><ele>706.9</ele></trkpt><trkpt lat="47.955302" lon="11.212818"><ele>706.8</ele></trkpt><trkpt lat="47.955483" lon="11.213621"><ele>706</ele></trkpt><trkpt lat="47.955322" lon="11.214024"><ele>705.9</ele></trkpt><trkpt lat="47.955263" lon="11.214114"><ele>705.9</ele></trkpt><trkpt lat="47.955148" lon="11.21423"><ele>706</ele></trkpt><trkpt lat="47.954762" lon="11.214513"><ele>705.9</ele></trkpt><trkpt lat="47.954047" lon="11.214912"><ele>705.2</ele></trkpt><trkpt lat="47.953811" lon="11.215019"><ele>704.7</ele></trkpt><trkpt lat="47.953624" lon="11.215088"><ele>704.2</ele></trkpt><trkpt lat="47.953423" lon="11.215119"><ele>703.9</ele></trkpt><trkpt lat="47.953044" lon="11.215135"><ele>703.5</ele></trkpt><trkpt lat="47.952393" lon="11.215259"><ele>703.1</ele></trkpt><trkpt lat="47.952269" lon="11.215251"><ele>703.2</ele></trkpt><trkpt lat="47.952035" lon="11.215121"><ele>703.2</ele></trkpt><trkpt lat="47.95191" lon="11.215093"><ele>703.4</ele></trkpt><trkpt lat="47.9517" lon="11.215161"><ele>703.5</ele></trkpt><trkpt lat="47.951611" lon="11.215225"><ele>703</ele></trkpt><trkpt lat="47.951481" lon="11.21548"><ele>703</ele></trkpt><trkpt lat="47.951315" lon="11.215745"><ele>703</ele></trkpt><trkpt lat="47.951161" lon="11.215953"><ele>703</ele></trkpt><trkpt lat="47.950446" lon="11.21662"><ele>702.9</ele></trkpt><trkpt lat="47.950069" lon="11.216889"><ele>702.8</ele></trkpt><trkpt lat="47.949999" lon="11.216959"><ele>702.8</ele></trkpt><trkpt lat="47.949959" lon="11.217022"><ele>702.8</ele></trkpt><trkpt lat="47.949908" lon="11.21717"><ele>703</ele></trkpt><trkpt lat="47.949724" lon="11.218028"><ele>704</ele></trkpt><trkpt lat="47.949702" lon="11.218108"><ele>704</ele></trkpt><trkpt lat="47.949577" lon="11.218166"><ele>704</ele></trkpt><trkpt lat="47.949486" lon="11.218235"><ele>703.8</ele></trkpt><trkpt lat="47.949285" lon="11.218446"><ele>703</ele></trkpt><trkpt lat="47.949055" lon="11.218825"><ele>705</ele></trkpt><trkpt lat="47.948917" lon="11.219038"><ele>705</ele></trkpt><trkpt lat="47.948083" lon="11.220253"><ele>709</ele></trkpt><trkpt lat="47.947899" lon="11.220522"><ele>709</ele></trkpt><trkpt lat="47.947465" lon="11.221154"><ele>711</ele></trkpt><trkpt lat="47.947267" lon="11.22142"><ele>711</ele></trkpt><trkpt lat="47.94707" lon="11.221602"><ele>711</ele></trkpt><trkpt lat="47.946979" lon="11.221714"><ele>712</ele></trkpt><trkpt lat="47.946876" lon="11.221971"><ele>712</ele></trkpt><trkpt lat="47.946849" lon="11.222123"><ele>712</ele></trkpt><trkpt lat="47.946851" lon="11.222482"><ele>712</ele></trkpt><trkpt lat="47.946858" lon="11.222684"><ele>712.7</ele></trkpt><trkpt lat="47.946924" lon="11.223019"><ele>713</ele></trkpt><trkpt lat="47.947498" lon="11.223008"><ele>714</ele></trkpt><trkpt lat="47.947905" lon="11.222973"><ele>715</ele></trkpt><trkpt lat="47.947924" lon="11.22347"><ele>720</ele></trkpt><trkpt lat="47.947919" lon="11.223488"><ele>720</ele></trkpt><trkpt lat="47.947834" lon="11.223506"><ele>720</ele></trkpt><trkpt lat="47.947739" lon="11.223582"><ele>720</ele></trkpt><trkpt lat="47.94772" lon="11.223885"><ele>720</ele></trkpt><trkpt lat="47.947711" lon="11.223939"><ele>720</ele></trkpt><trkpt lat="47.947697" lon="11.224838"><ele>720</ele></trkpt><trkpt lat="47.947721" lon="11.225225"><ele>719</ele></trkpt><trkpt lat="47.947722" lon="11.225245"><ele>719</ele></trkpt><trkpt lat="47.947771" lon="11.22568"><ele>719</ele></trkpt><trkpt lat="47.947909" lon="11.226218"><ele>714.7</ele></trkpt><trkpt lat="47.948037" lon="11.226641"><ele>714.1</ele></trkpt><trkpt lat="47.948128" lon="11.226874"><ele>713.5</ele></trkpt><trkpt lat="47.948659" lon="11.227822"><ele>705</ele></trkpt><trkpt lat="47.94906" lon="11.228776"><ele>703.3</ele></trkpt><trkpt lat="47.949264" lon="11.229098"><ele>703</ele></trkpt><trkpt lat="47.949633" lon="11.229543"><ele>700</ele></trkpt><trkpt lat="47.949921" lon="11.229735"><ele>697.8</ele></trkpt><trkpt lat="47.951007" lon="11.23"><ele>694</ele></trkpt><trkpt lat="47.951803" lon="11.235683"><ele>704</ele></trkpt><trkpt lat="47.952138" lon="11.238165"><ele>711</ele></trkpt><trkpt lat="47.952243" lon="11.239073"><ele>714</ele></trkpt><trkpt lat="47.95236" lon="11.240111"><ele>720.3</ele></trkpt><trkpt lat="47.95245" lon="11.240555"><ele>720.4</ele></trkpt><trkpt lat="47.952664" lon="11.241203"><ele>721.7</ele></trkpt><trkpt lat="47.952836" lon="11.241658"><ele>721.5</ele></trkpt><trkpt lat="47.952903" lon="11.241775"><ele>722</ele></trkpt><trkpt lat="47.952984" lon="11.24185"><ele>716.5</ele></trkpt><trkpt lat="47.953074" lon="11.241899"><ele>715.6</ele></trkpt><trkpt lat="47.953917" lon="11.242115"><ele>711</ele></trkpt><trkpt lat="47.954114" lon="11.242159"><ele>707.3</ele></trkpt><trkpt lat="47.954525" lon="11.242206"><ele>700</ele></trkpt><trkpt lat="47.954615" lon="11.242351"><ele>701.1</ele></trkpt><trkpt lat="47.954682" lon="11.242639"><ele>701.3</ele></trkpt><trkpt lat="47.954699" lon="11.242824"><ele>701.3</ele></trkpt><trkpt lat="47.954687" lon="11.243076"><ele>701.3</ele></trkpt><trkpt lat="47.954583" lon="11.244228"><ele>700.4</ele></trkpt><trkpt lat="47.954581" lon="11.244578"><ele>700.1</ele></trkpt><trkpt lat="47.954607" lon="11.245291"><ele>699.1</ele></trkpt><trkpt lat="47.954599" lon="11.245466"><ele>696</ele></trkpt><trkpt lat="47.95456" lon="11.245544"><ele>702.2</ele></trkpt><trkpt lat="47.954486" lon="11.245635"><ele>703.2</ele></trkpt><trkpt lat="47.954048" lon="11.245971"><ele>705.3</ele></trkpt><trkpt lat="47.953885" lon="11.245877"><ele>705.2</ele></trkpt><trkpt lat="47.953597" lon="11.245603"><ele>704.4</ele></trkpt><trkpt lat="47.953109" lon="11.245219"><ele>709.3</ele></trkpt><trkpt lat="47.952686" lon="11.245083"><ele>709.6</ele></trkpt><trkpt lat="47.952318" lon="11.244933"><ele>711.7</ele></trkpt><trkpt lat="47.952039" lon="11.244892"><ele>710.2</ele></trkpt><trkpt lat="47.950622" lon="11.245682"><ele>705.6</ele></trkpt><trkpt lat="47.950451" lon="11.245798"><ele>704.7</ele></trkpt><trkpt lat="47.950261" lon="11.245975"><ele>703.7</ele></trkpt><trkpt lat="47.950056" lon="11.246064"><ele>704</ele></trkpt><trkpt lat="47.949613" lon="11.246111"><ele>703.1</ele></trkpt><trkpt lat="47.948674" lon="11.246464"><ele>698.1</ele></trkpt><trkpt lat="47.94852" lon="11.246593"><ele>697.2</ele></trkpt><trkpt lat="47.948442" lon="11.246784"><ele>696.3</ele></trkpt><trkpt lat="47.94845" lon="11.247472"><ele>695.5</ele></trkpt><trkpt lat="47.948427" lon="11.247691"><ele>688</ele></trkpt><trkpt lat="47.946285" lon="11.247393"><ele>705</ele></trkpt><trkpt lat="47.946157" lon="11.248101"><ele>693.5</ele></trkpt><trkpt lat="47.945893" lon="11.24922"><ele>690.3</ele></trkpt><trkpt lat="47.945935" lon="11.249579"><ele>688</ele></trkpt><trkpt lat="47.946034" lon="11.249929"><ele>687.6</ele></trkpt><trkpt lat="47.946093" lon="11.250256"><ele>684.9</ele></trkpt><trkpt lat="47.946172" lon="11.251169"><ele>678</ele></trkpt><trkpt lat="47.946073" lon="11.25152"><ele>677.2</ele></trkpt><trkpt lat="47.945954" lon="11.251757"><ele>676.8</ele></trkpt><trkpt lat="47.94588" lon="11.251845"><ele>675</ele></trkpt><trkpt lat="47.945942" lon="11.252356"><ele>675</ele></trkpt><trkpt lat="47.945948" lon="11.252584"><ele>672</ele></trkpt><trkpt lat="47.945953" lon="11.25279"><ele>671</ele></trkpt><trkpt lat="47.945911" lon="11.253323"><ele>670.3</ele></trkpt><trkpt lat="47.945854" lon="11.25381"><ele>670.1</ele></trkpt><trkpt lat="47.945737" lon="11.254269"><ele>669.9</ele></trkpt><trkpt lat="47.945444" lon="11.254909"><ele>668</ele></trkpt><trkpt lat="47.945404" lon="11.254994"><ele>668</ele></trkpt><trkpt lat="47.94525" lon="11.255302"><ele>666</ele></trkpt><trkpt lat="47.94511" lon="11.255692"><ele>666</ele></trkpt><trkpt lat="47.944789" lon="11.257034"><ele>664</ele></trkpt><trkpt lat="47.944622" lon="11.257623"><ele>665</ele></trkpt><trkpt lat="47.944592" lon="11.25774"><ele>665</ele></trkpt><trkpt lat="47.944587" lon="11.257778"><ele>665</ele></trkpt><trkpt lat="47.944428" lon="11.257731"><ele>665</ele></trkpt><trkpt lat="47.943989" lon="11.257551"><ele>665</ele></trkpt><trkpt lat="47.943907" lon="11.257517"><ele>665</ele></trkpt><trkpt lat="47.943631" lon="11.257392"><ele>665.7</ele></trkpt><trkpt lat="47.943435" lon="11.257251"><ele>666</ele></trkpt><trkpt lat="47.943285" lon="11.257056"><ele>670</ele></trkpt><trkpt lat="47.943143" lon="11.257324"><ele>668.5</ele></trkpt><trkpt lat="47.942713" lon="11.25793"><ele>668.1</ele></trkpt><trkpt lat="47.942237" lon="11.258437"><ele>667</ele></trkpt><trkpt lat="47.942139" lon="11.258397"><ele>667</ele></trkpt><trkpt lat="47.941678" lon="11.258487"><ele>667</ele></trkpt><trkpt lat="47.941287" lon="11.258509"><ele>665.7</ele></trkpt><trkpt lat="47.940981" lon="11.258481"><ele>665</ele></trkpt><trkpt lat="47.940613" lon="11.258533"><ele>669</ele></trkpt><trkpt lat="47.940416" lon="11.258701"><ele>669</ele></trkpt><trkpt lat="47.940124" lon="11.25889"><ele>669</ele></trkpt><trkpt lat="47.939969" lon="11.258956"><ele>672</ele></trkpt><trkpt lat="47.939842" lon="11.259003"><ele>672</ele></trkpt><trkpt lat="47.93889" lon="11.259368"><ele>668</ele></trkpt><trkpt lat="47.938646" lon="11.259513"><ele>669</ele></trkpt><trkpt lat="47.938303" lon="11.259768"><ele>669.2</ele></trkpt><trkpt lat="47.937726" lon="11.260035"><ele>670.6</ele></trkpt><trkpt lat="47.937438" lon="11.26013"><ele>671.5</ele></trkpt><trkpt lat="47.936956" lon="11.260197"><ele>673.8</ele></trkpt><trkpt lat="47.93661" lon="11.260354"><ele>674.8</ele></trkpt><trkpt lat="47.935978" lon="11.260809"><ele>678.5</ele></trkpt><trkpt lat="47.935553" lon="11.261168"><ele>680.5</ele></trkpt><trkpt lat="47.935308" lon="11.261248"><ele>681.6</ele></trkpt><trkpt lat="47.934866" lon="11.26122"><ele>682.8</ele></trkpt><trkpt lat="47.934719" lon="11.261313"><ele>682.6</ele></trkpt><trkpt lat="47.934595" lon="11.261495"><ele>685</ele></trkpt><trkpt lat="47.934457" lon="11.261678"><ele>681.6</ele></trkpt><trkpt lat="47.934268" lon="11.261795"><ele>682.6</ele></trkpt><trkpt lat="47.934103" lon="11.261846"><ele>683.7</ele></trkpt><trkpt lat="47.933544" lon="11.261786"><ele>684.3</ele></trkpt><trkpt lat="47.933285" lon="11.261805"><ele>684.7</ele></trkpt><trkpt lat="47.932457" lon="11.262063"><ele>684.7</ele></trkpt><trkpt lat="47.932163" lon="11.262289"><ele>684.1</ele></trkpt><trkpt lat="47.931694" lon="11.262924"><ele>685.3</ele></trkpt><trkpt lat="47.931391" lon="11.263389"><ele>685.9</ele></trkpt><trkpt lat="47.931089" lon="11.263441"><ele>687.2</ele></trkpt><trkpt lat="47.930818" lon="11.263408"><ele>688</ele></trkpt><trkpt lat="47.930658" lon="11.263449"><ele>687.5</ele></trkpt><trkpt lat="47.930134" lon="11.264179"><ele>687.5</ele></trkpt><trkpt lat="47.929594" lon="11.264666"><ele>686.8</ele></trkpt><trkpt lat="47.929219" lon="11.264961"><ele>686</ele></trkpt><trkpt lat="47.928878" lon="11.265003"><ele>696</ele></trkpt><trkpt lat="47.928726" lon="11.265083"><ele>697.5</ele></trkpt><trkpt lat="47.928008" lon="11.265315"><ele>698.6</ele></trkpt><trkpt lat="47.927541" lon="11.265445"><ele>698.2</ele></trkpt><trkpt lat="47.926977" lon="11.265562"><ele>698.2</ele></trkpt><trkpt lat="47.926771" lon="11.265717"><ele>697.8</ele></trkpt><trkpt lat="47.926406" lon="11.265902"><ele>694</ele></trkpt><trkpt lat="47.926103" lon="11.266052"><ele>694</ele></trkpt><trkpt lat="47.925439" lon="11.266023"><ele>699.6</ele></trkpt><trkpt lat="47.925042" lon="11.266178"><ele>698.9</ele></trkpt><trkpt lat="47.924676" lon="11.266376"><ele>699.7</ele></trkpt><trkpt lat="47.924502" lon="11.266409"><ele>699.2</ele></trkpt><trkpt lat="47.924039" lon="11.266286"><ele>696</ele></trkpt><trkpt lat="47.923778" lon="11.266319"><ele>696.5</ele></trkpt><trkpt lat="47.923604" lon="11.266423"><ele>696.6</ele></trkpt><trkpt lat="47.923018" lon="11.266503"><ele>696.6</ele></trkpt><trkpt lat="47.922874" lon="11.266574"><ele>697</ele></trkpt><trkpt lat="47.922782" lon="11.266642"><ele>697</ele></trkpt><trkpt lat="47.922303" lon="11.267039"><ele>686</ele></trkpt><trkpt lat="47.921654" lon="11.267415"><ele>683.5</ele></trkpt><trkpt lat="47.921237" lon="11.267627"><ele>683.5</ele></trkpt><trkpt lat="47.920777" lon="11.267704"><ele>680</ele></trkpt><trkpt lat="47.92038" lon="11.267792"><ele>678.6</ele></trkpt><trkpt lat="47.91986" lon="11.268093"><ele>678</ele></trkpt><trkpt lat="47.919583" lon="11.268285"><ele>677.9</ele></trkpt><trkpt lat="47.919419" lon="11.268502"><ele>677.1</ele></trkpt><trkpt lat="47.919222" lon="11.269471"><ele>677</ele></trkpt><trkpt lat="47.919164" lon="11.269931"><ele>677.5</ele></trkpt><trkpt lat="47.919173" lon="11.270844"><ele>676.6</ele></trkpt><trkpt lat="47.919094" lon="11.271394"><ele>675</ele></trkpt><trkpt lat="47.919072" lon="11.271487"><ele>675</ele></trkpt><trkpt lat="47.918941" lon="11.271766"><ele>668</ele></trkpt><trkpt lat="47.918492" lon="11.272745"><ele>662</ele></trkpt><trkpt lat="47.918446" lon="11.272847"><ele>662</ele></trkpt><trkpt lat="47.918391" lon="11.273254"><ele>662</ele></trkpt><trkpt lat="47.918391" lon="11.273502"><ele>659</ele></trkpt><trkpt lat="47.918141" lon="11.27442"><ele>659</ele></trkpt><trkpt lat="47.918044" lon="11.274633"><ele>659</ele></trkpt><trkpt lat="47.917867" lon="11.274761"><ele>657.8</ele></trkpt><trkpt lat="47.917659" lon="11.274783"><ele>657.6</ele></trkpt><trkpt lat="47.917556" lon="11.274784"><ele>657.3</ele></trkpt><trkpt lat="47.917259" lon="11.274675"><ele>653</ele></trkpt><trkpt lat="47.917118" lon="11.274619"><ele>652</ele></trkpt><trkpt lat="47.916954" lon="11.274619"><ele>651.5</ele></trkpt><trkpt lat="47.916885" lon="11.274653"><ele>651.4</ele></trkpt><trkpt lat="47.916671" lon="11.274818"><ele>651.2</ele></trkpt><trkpt lat="47.916424" lon="11.274928"><ele>644</ele></trkpt><trkpt lat="47.916172" lon="11.274918"><ele>644</ele></trkpt><trkpt lat="47.916045" lon="11.274858"><ele>640.7</ele></trkpt><trkpt lat="47.915716" lon="11.274583"><ele>634</ele></trkpt><trkpt lat="47.915359" lon="11.274415"><ele>634</ele></trkpt><trkpt lat="47.915116" lon="11.274365"><ele>634</ele></trkpt><trkpt lat="47.915041" lon="11.274392"><ele>634</ele></trkpt><trkpt lat="47.914918" lon="11.27447"><ele>630.8</ele></trkpt><trkpt lat="47.914534" lon="11.274944"><ele>630.7</ele></trkpt><trkpt lat="47.914386" lon="11.275164"><ele>627</ele></trkpt><trkpt lat="47.914112" lon="11.275366"><ele>623.5</ele></trkpt><trkpt lat="47.913996" lon="11.275482"><ele>621</ele></trkpt><trkpt lat="47.913914" lon="11.275589"><ele>621</ele></trkpt><trkpt lat="47.91373" lon="11.275847"><ele>620</ele></trkpt><trkpt lat="47.913675" lon="11.275922"><ele>620</ele></trkpt><trkpt lat="47.91357" lon="11.276005"><ele>620</ele></trkpt><trkpt lat="47.91307" lon="11.276398"><ele>616</ele></trkpt><trkpt lat="47.912735" lon="11.276701"><ele>613</ele></trkpt><trkpt lat="47.912444" lon="11.276359"><ele>613</ele></trkpt><trkpt lat="47.911983" lon="11.275885"><ele>613</ele></trkpt><trkpt lat="47.911593" lon="11.275549"><ele>616.8</ele></trkpt><trkpt lat="47.911176" lon="11.275273"><ele>618</ele></trkpt><trkpt lat="47.911163" lon="11.275345"><ele>618</ele></trkpt><trkpt lat="47.911129" lon="11.275554"><ele>618</ele></trkpt><trkpt lat="47.911006" lon="11.276317"><ele>612</ele></trkpt><trkpt lat="47.910926" lon="11.276499"><ele>612</ele></trkpt><trkpt lat="47.910669" lon="11.27726"><ele>606</ele></trkpt><trkpt lat="47.910283" lon="11.277073"><ele>606</ele></trkpt><trkpt lat="47.910102" lon="11.277003"><ele>607</ele></trkpt><trkpt lat="47.909882" lon="11.276918"><ele>608</ele></trkpt><trkpt lat="47.909703" lon="11.276875"><ele>609</ele></trkpt><trkpt lat="47.909605" lon="11.276852"><ele>609</ele></trkpt><trkpt lat="47.909472" lon="11.276831"><ele>609</ele></trkpt><trkpt lat="47.909494" lon="11.276607"><ele>612</ele></trkpt><trkpt lat="47.909514" lon="11.276349"><ele>612</ele></trkpt><trkpt lat="47.90948" lon="11.276189"><ele>612</ele></trkpt><trkpt lat="47.909468" lon="11.27613"><ele>612</ele></trkpt><trkpt lat="47.909432" lon="11.276084"><ele>612</ele></trkpt><trkpt lat="47.909408" lon="11.276028"><ele>612</ele></trkpt><trkpt lat="47.90941" lon="11.275903"><ele>612</ele></trkpt><trkpt lat="47.909357" lon="11.275622"><ele>612</ele></trkpt><trkpt lat="47.909334" lon="11.275561"><ele>612</ele></trkpt><trkpt lat="47.909339" lon="11.275532"><ele>612</ele></trkpt><trkpt lat="47.909348" lon="11.275478"><ele>612</ele></trkpt><trkpt lat="47.909415" lon="11.275346"><ele>612</ele></trkpt><trkpt lat="47.909435" lon="11.275166"><ele>612</ele></trkpt><trkpt lat="47.90944" lon="11.274981"><ele>612</ele></trkpt><trkpt lat="47.90941" lon="11.274894"><ele>612</ele></trkpt><trkpt lat="47.909286" lon="11.274913"><ele>611.5</ele></trkpt><trkpt lat="47.909134" lon="11.274889"><ele>611.5</ele></trkpt><trkpt lat="47.908962" lon="11.27483"><ele>611.4</ele></trkpt><trkpt lat="47.908825" lon="11.274742"><ele>611.3</ele></trkpt><trkpt lat="47.908527" lon="11.274493"><ele>611</ele></trkpt><trkpt lat="47.908452" lon="11.274454"><ele>611</ele></trkpt><trkpt lat="47.908095" lon="11.274146"><ele>614</ele></trkpt><trkpt lat="47.907864" lon="11.273991"><ele>614</ele></trkpt><trkpt lat="47.907718" lon="11.273896"><ele>614</ele></trkpt><trkpt lat="47.907783" lon="11.273657"><ele>614</ele></trkpt><trkpt lat="47.907553" lon="11.273513"><ele>614</ele></trkpt><trkpt lat="47.907561" lon="11.273454"><ele>614</ele></trkpt><trkpt lat="47.907582" lon="11.273366"><ele>614</ele></trkpt><trkpt lat="47.90749" lon="11.273307"><ele>612</ele></trkpt><trkpt lat="47.907405" lon="11.273255"><ele>612</ele></trkpt><trkpt lat="47.907395" lon="11.273215"><ele>612</ele></trkpt><trkpt lat="47.907337" lon="11.273182"><ele>612</ele></trkpt><trkpt lat="47.907269" lon="11.273139"><ele>612</ele></trkpt><trkpt lat="47.907242" lon="11.273123"><ele>612</ele></trkpt><trkpt lat="47.907144" lon="11.273056"><ele>612</ele></trkpt><trkpt lat="47.907203" lon="11.272852"><ele>612</ele></trkpt><trkpt lat="47.907234" lon="11.272872"><ele>612</ele></trkpt><trkpt lat="47.907245" lon="11.272879"><ele>612</ele></trkpt><trkpt lat="47.90726" lon="11.272889"><ele>612</ele></trkpt></trkseg></trk></gpx>