<gpx xmlns="http://www.topografix.com/GPX/1/1" xmlns:xsi="http://www.w3.org/2001/XMLSchema-instance" xsi:schemaLocation="http://www.topografix.com/GPX/1/1 http://www.topografix.com/GPX/1/1/gpx.xsd" version="1.1" creator="togpx"><metadata/><wpt lat="47.64694479333218" lon="11.746224761009218"><name></name><desc>label=Loipe Kreuth-Scharling, Kreuth,BY,Germany</desc></wpt><wpt lat="47.650197285712615" lon="11.732658147811891"><name></name><desc>label=H 2, Kreuth,BY,Germany</desc></wpt><wpt lat="47.65257870446134" lon="11.724858283996582"><name></name><desc>label=H 2, Kreuth,BY,Germany</desc></wpt><wpt lat="47.6569365279768" lon="11.722814440727234"><name></name><desc>label=H 2, Kreuth,BY,Germany</desc></wpt><wpt lat="47.65820116820577" lon="11.714022159576418"><name></name><desc>label=H 2, Kreuth,BY,Germany</desc></wpt><wpt lat="47.66064003071858" lon="11.710004210472109"><name></name><desc>label=H 2, Kreuth,BY,Germany</desc></wpt><wpt lat="47.661532445269934" lon="11.705160140991213"><name></name><desc>label=H 2, Kreuth,BY,Germany</desc></wpt><wpt lat="47.65950552218074" lon="11.703261137008669"><name></name><desc>label=H, Kreuth,BY,Germany</desc></wpt><wpt lat="47.66074480892592" lon="11.696088910102846"><name></name><desc>label=H, Kreuth,BY,Germany</desc></wpt><wpt lat="47.662645232327144" lon="11.704425215721132"><name></name><desc>label=H 2, Kreuth,BY,Germany</desc></wpt><wpt lat="47.66557521725704" lon="11.705369353294373"><name></name><desc>label=H, Kreuth,BY,Germany</desc></wpt><wpt lat="47.666261626446975" lon="11.74769461154938"><name></name><desc>label=Fleischhackerweg, Kreuth,BY,Germany</desc></wpt><wpt lat="47.687264994857536" lon="11.760547757148743"><name></name><desc>label=Bodenschneidstraße, Rottach-Egern,BY,Germany</desc></wpt><trk><name></name><desc>ascent=1096.5
descent=1143.6
opacity=0.9</desc><trkseg><trkpt lat="47.646945" lon="11.746246"><ele>787.1</ele></trkpt><trkpt lat="47.646904" lon="11.746248"><ele>784.1</ele></trkpt><trkpt lat="47.646698" lon="11.746227"><ele>783.1</ele></trkpt><trkpt lat="47.646593" lon="11.746184"><ele>782.6</ele></trkpt><trkpt lat="47.64626" lon="11.745969"><ele>783.6</ele></trkpt><trkpt lat="47.645632" lon="11.745412"><ele>781</ele></trkpt><trkpt lat="47.645469" lon="11.745325"><ele>781</ele></trkpt><trkpt lat="47.645498" lon="11.745149"><ele>781</ele></trkpt><trkpt lat="47.645522" lon="11.744988"><ele>782</ele></trkpt><trkpt lat="47.645596" lon="11.744475"><ele>782</ele></trkpt><trkpt lat="47.645622" lon="11.744276"><ele>782</ele></trkpt><trkpt lat="47.645644" lon="11.744117"><ele>784</ele></trkpt><trkpt lat="47.645818" lon="11.744052"><ele>790.7</ele></trkpt><trkpt lat="47.645848" lon="11.744019"><ele>790.9</ele></trkpt><trkpt lat="47.645865" lon="11.743965"><ele>791.2</ele></trkpt><trkpt lat="47.645872" lon="11.743875"><ele>792</ele></trkpt><trkpt lat="47.64591" lon="11.743727"><ele>791.8</ele></trkpt><trkpt lat="47.645958" lon="11.743659"><ele>791.8</ele></trkpt><trkpt lat="47.646284" lon="11.743401"><ele>791.6</ele></trkpt><trkpt lat="47.646528" lon="11.743167"><ele>791.2</ele></trkpt><trkpt lat="47.646599" lon="11.743078"><ele>791.1</ele></trkpt><trkpt lat="47.646654" lon="11.743004"><ele>790.9</ele></trkpt><trkpt lat="47.646705" lon="11.742747"><ele>793.8</ele></trkpt><trkpt lat="47.64676" lon="11.742604"><ele>796.5</ele></trkpt><trkpt lat="47.646839" lon="11.742552"><ele>812</ele></trkpt><trkpt lat="47.646991" lon="11.742488"><ele>810.9</ele></trkpt><trkpt lat="47.647117" lon="11.742316"><ele>810.8</ele></trkpt><trkpt lat="47.647294" lon="11.742132"><ele>810.7</ele></trkpt><trkpt lat="47.647343" lon="11.741997"><ele>810</ele></trkpt><trkpt lat="47.647468" lon="11.74167"><ele>826.3</ele></trkpt><trkpt lat="47.647505" lon="11.741519"><ele>827</ele></trkpt><trkpt lat="47.647512" lon="11.741378"><ele>827.5</ele></trkpt><trkpt lat="47.647533" lon="11.741294"><ele>828.1</ele></trkpt><trkpt lat="47.647605" lon="11.74118"><ele>828.6</ele></trkpt><trkpt lat="47.647723" lon="11.741135"><ele>829</ele></trkpt><trkpt lat="47.648054" lon="11.741109"><ele>829.4</ele></trkpt><trkpt lat="47.648191" lon="11.741076"><ele>829.8</ele></trkpt><trkpt lat="47.648675" lon="11.741046"><ele>860</ele></trkpt><trkpt lat="47.648743" lon="11.740943"><ele>893.3</ele></trkpt><trkpt lat="47.648995" lon="11.740646"><ele>902.9</ele></trkpt><trkpt lat="47.649243" lon="11.740411"><ele>907.2</ele></trkpt><trkpt lat="47.649478" lon="11.740222"><ele>910</ele></trkpt><trkpt lat="47.649649" lon="11.740027"><ele>913.2</ele></trkpt><trkpt lat="47.649769" lon="11.739843"><ele>918.4</ele></trkpt><trkpt lat="47.649957" lon="11.739657"><ele>922.2</ele></trkpt><trkpt lat="47.65004" lon="11.739644"><ele>922.6</ele></trkpt><trkpt lat="47.650155" lon="11.739667"><ele>922.9</ele></trkpt><trkpt lat="47.650216" lon="11.739634"><ele>924.2</ele></trkpt><trkpt lat="47.650348" lon="11.739367"><ele>928.6</ele></trkpt><trkpt lat="47.650419" lon="11.739271"><ele>931.2</ele></trkpt><trkpt lat="47.65049" lon="11.739104"><ele>933.9</ele></trkpt><trkpt lat="47.650594" lon="11.738711"><ele>937.5</ele></trkpt><trkpt lat="47.650617" lon="11.738376"><ele>940.8</ele></trkpt><trkpt lat="47.650611" lon="11.738128"><ele>942.8</ele></trkpt><trkpt lat="47.650541" lon="11.737786"><ele>944.3</ele></trkpt><trkpt lat="47.650528" lon="11.737621"><ele>946.8</ele></trkpt><trkpt lat="47.650469" lon="11.737458"><ele>950.1</ele></trkpt><trkpt lat="47.650392" lon="11.736969"><ele>956.6</ele></trkpt><trkpt lat="47.650395" lon="11.736896"><ele>956.7</ele></trkpt><trkpt lat="47.650482" lon="11.736588"><ele>959.8</ele></trkpt><trkpt lat="47.650509" lon="11.736382"><ele>959.4</ele></trkpt><trkpt lat="47.650555" lon="11.7362"><ele>959.3</ele></trkpt><trkpt lat="47.650658" lon="11.735604"><ele>965</ele></trkpt><trkpt lat="47.650701" lon="11.735177"><ele>968.5</ele></trkpt><trkpt lat="47.650731" lon="11.735033"><ele>969.5</ele></trkpt><trkpt lat="47.650858" lon="11.734747"><ele>971.7</ele></trkpt><trkpt lat="47.650891" lon="11.734629"><ele>973.4</ele></trkpt><trkpt lat="47.650913" lon="11.734483"><ele>975.2</ele></trkpt><trkpt lat="47.650905" lon="11.734293"><ele>978.4</ele></trkpt><trkpt lat="47.650761" lon="11.73383"><ele>982.2</ele></trkpt><trkpt lat="47.650731" lon="11.733679"><ele>982.4</ele></trkpt><trkpt lat="47.650697" lon="11.733278"><ele>984.9</ele></trkpt><trkpt lat="47.650659" lon="11.733176"><ele>985.6</ele></trkpt><trkpt lat="47.650605" lon="11.7331"><ele>987.8</ele></trkpt><trkpt lat="47.650476" lon="11.733008"><ele>989.7</ele></trkpt><trkpt lat="47.650278" lon="11.732807"><ele>994.9</ele></trkpt><trkpt lat="47.650218" lon="11.732678"><ele>996.3</ele></trkpt><trkpt lat="47.650216" lon="11.732654"><ele>997</ele></trkpt><trkpt lat="47.65019" lon="11.732406"><ele>997.7</ele></trkpt><trkpt lat="47.650202" lon="11.732218"><ele>998.6</ele></trkpt><trkpt lat="47.650139" lon="11.731703"><ele>1000.2</ele></trkpt><trkpt lat="47.650115" lon="11.731562"><ele>1000.4</ele></trkpt><trkpt lat="47.65007" lon="11.731442"><ele>1000.7</ele></trkpt><trkpt lat="47.650032" lon="11.731382"><ele>1001</ele></trkpt><trkpt lat="47.649969" lon="11.731343"><ele>1000.8</ele></trkpt><trkpt lat="47.649878" lon="11.731356"><ele>1001.1</ele></trkpt><trkpt lat="47.6498" lon="11.73133"><ele>1001.1</ele></trkpt><trkpt lat="47.649797" lon="11.73127"><ele>1001.4</ele></trkpt><trkpt lat="47.649891" lon="11.731078"><ele>1001.1</ele></trkpt><trkpt lat="47.649902" lon="11.730998"><ele>1001.3</ele></trkpt><trkpt lat="47.649879" lon="11.730916"><ele>1001.2</ele></trkpt><trkpt lat="47.649709" lon="11.731017"><ele>1001.7</ele></trkpt><trkpt lat="47.649474" lon="11.731077"><ele>1003</ele></trkpt><trkpt lat="47.649256" lon="11.730989"><ele>1004.6</ele></trkpt><trkpt lat="47.648892" lon="11.730653"><ele>1012.4</ele></trkpt><trkpt lat="47.648801" lon="11.730443"><ele>1018</ele></trkpt><trkpt lat="47.648744" lon="11.730085"><ele>1025.2</ele></trkpt><trkpt lat="47.648626" lon="11.729789"><ele>1032.5</ele></trkpt><trkpt lat="47.648595" lon="11.729674"><ele>1032.7</ele></trkpt><trkpt lat="47.64858" lon="11.729341"><ele>1036.7</ele></trkpt><trkpt lat="47.648547" lon="11.729254"><ele>1038.3</ele></trkpt><trkpt lat="47.648416" lon="11.729099"><ele>1042.2</ele></trkpt><trkpt lat="47.648324" lon="11.728842"><ele>1041.9</ele></trkpt><trkpt lat="47.648275" lon="11.728764"><ele>1042.2</ele></trkpt><trkpt lat="47.64823" lon="11.728731"><ele>1042.5</ele></trkpt><trkpt lat="47.648064" lon="11.72872"><ele>1041.4</ele></trkpt><trkpt lat="47.647825" lon="11.728742"><ele>1041</ele></trkpt><trkpt lat="47.64778" lon="11.728723"><ele>1065</ele></trkpt><trkpt lat="47.647812" lon="11.728684"><ele>1064.1</ele></trkpt><trkpt lat="47.647869" lon="11.728671"><ele>1064.8</ele></trkpt><trkpt lat="47.647956" lon="11.728613"><ele>1064.8</ele></trkpt><trkpt lat="47.648086" lon="11.728484"><ele>1066.2</ele></trkpt><trkpt lat="47.64827" lon="11.728421"><ele>1067.4</ele></trkpt><trkpt lat="47.648734" lon="11.728486"><ele>1071</ele></trkpt><trkpt lat="47.649088" lon="11.728597"><ele>1075.9</ele></trkpt><trkpt lat="47.649326" lon="11.7287"><ele>1078.2</ele></trkpt><trkpt lat="47.649395" lon="11.728707"><ele>1078.8</ele></trkpt><trkpt lat="47.649557" lon="11.728646"><ele>1080.1</ele></trkpt><trkpt lat="47.649895" lon="11.728381"><ele>1082.7</ele></trkpt><trkpt lat="47.650034" lon="11.728304"><ele>1084.1</ele></trkpt><trkpt lat="47.650078" lon="11.728221"><ele>1084</ele></trkpt><trkpt lat="47.650229" lon="11.727554"><ele>1099</ele></trkpt><trkpt lat="47.650323" lon="11.72728"><ele>1122.5</ele></trkpt><trkpt lat="47.650456" lon="11.726988"><ele>1122.3</ele></trkpt><trkpt lat="47.650558" lon="11.726707"><ele>1124</ele></trkpt><trkpt lat="47.650697" lon="11.72645"><ele>1125.3</ele></trkpt><trkpt lat="47.650789" lon="11.726234"><ele>1124.6</ele></trkpt><trkpt lat="47.651025" lon="11.725927"><ele>1126.5</ele></trkpt><trkpt lat="47.651111" lon="11.725887"><ele>1126.7</ele></trkpt><trkpt lat="47.651162" lon="11.725908"><ele>1126.9</ele></trkpt><trkpt lat="47.651193" lon="11.726045"><ele>1127.2</ele></trkpt><trkpt lat="47.651183" lon="11.726377"><ele>1126.9</ele></trkpt><trkpt lat="47.651247" lon="11.726502"><ele>1127</ele></trkpt><trkpt lat="47.651295" lon="11.726739"><ele>1125.9</ele></trkpt><trkpt lat="47.651577" lon="11.725782"><ele>1130</ele></trkpt><trkpt lat="47.651643" lon="11.725467"><ele>1129.5</ele></trkpt><trkpt lat="47.651696" lon="11.725329"><ele>1129</ele></trkpt><trkpt lat="47.651735" lon="11.725269"><ele>1128.9</ele></trkpt><trkpt lat="47.651798" lon="11.725012"><ele>1128.9</ele></trkpt><trkpt lat="47.651852" lon="11.724914"><ele>1130.2</ele></trkpt><trkpt lat="47.651884" lon="11.724908"><ele>1129.4</ele></trkpt><trkpt lat="47.652008" lon="11.726278"><ele>1127.4</ele></trkpt><trkpt lat="47.652029" lon="11.72627"><ele>1127.4</ele></trkpt><trkpt lat="47.652051" lon="11.726221"><ele>1127.6</ele></trkpt><trkpt lat="47.652097" lon="11.725979"><ele>1127.7</ele></trkpt><trkpt lat="47.652131" lon="11.725895"><ele>1126</ele></trkpt><trkpt lat="47.65223" lon="11.725481"><ele>1142.7</ele></trkpt><trkpt lat="47.652323" lon="11.724948"><ele>1142</ele></trkpt><trkpt lat="47.652352" lon="11.724912"><ele>1142.4</ele></trkpt><trkpt lat="47.652399" lon="11.724896"><ele>1142.8</ele></trkpt><trkpt lat="47.652445" lon="11.72489"><ele>1143.1</ele></trkpt><trkpt lat="47.652525" lon="11.724927"><ele>1144.3</ele></trkpt><trkpt lat="47.652583" lon="11.724917"><ele>1145.2</ele></trkpt><trkpt lat="47.652643" lon="11.724907"><ele>1146</ele></trkpt><trkpt lat="47.652688" lon="11.724843"><ele>1147.5</ele></trkpt><trkpt lat="47.652724" lon="11.724824"><ele>1148.2</ele></trkpt><trkpt lat="47.652917" lon="11.724873"><ele>1162</ele></trkpt><trkpt lat="47.652816" lon="11.724341"><ele>1162</ele></trkpt><trkpt lat="47.652749" lon="11.723969"><ele>1171</ele></trkpt><trkpt lat="47.652746" lon="11.723647"><ele>1170.3</ele></trkpt><trkpt lat="47.652768" lon="11.723424"><ele>1174</ele></trkpt><trkpt lat="47.65287" lon="11.723761"><ele>1174.5</ele></trkpt><trkpt lat="47.652913" lon="11.724054"><ele>1174.9</ele></trkpt><trkpt lat="47.653237" lon="11.724985"><ele>1174.8</ele></trkpt><trkpt lat="47.653311" lon="11.725263"><ele>1173.5</ele></trkpt><trkpt lat="47.653351" lon="11.725492"><ele>1174.4</ele></trkpt><trkpt lat="47.653438" lon="11.725621"><ele>1175.4</ele></trkpt><trkpt lat="47.653521" lon="11.725699"><ele>1176.3</ele></trkpt><trkpt lat="47.653612" lon="11.725712"><ele>1177.2</ele></trkpt><trkpt lat="47.65371" lon="11.725689"><ele>1178.2</ele></trkpt><trkpt lat="47.653919" lon="11.725457"><ele>1179.6</ele></trkpt><trkpt lat="47.654041" lon="11.725265"><ele>1187</ele></trkpt><trkpt lat="47.654545" lon="11.72448"><ele>1210.3</ele></trkpt><trkpt lat="47.654872" lon="11.724039"><ele>1212.2</ele></trkpt><trkpt lat="47.654981" lon="11.723805"><ele>1215.3</ele></trkpt><trkpt lat="47.655049" lon="11.723698"><ele>1214.4</ele></trkpt><trkpt lat="47.655225" lon="11.723493"><ele>1213.5</ele></trkpt><trkpt lat="47.655267" lon="11.723456"><ele>1212.7</ele></trkpt><trkpt lat="47.655312" lon="11.723464"><ele>1211.9</ele></trkpt><trkpt lat="47.65534" lon="11.723501"><ele>1211.2</ele></trkpt><trkpt lat="47.655358" lon="11.723547"><ele>1210.5</ele></trkpt><trkpt lat="47.655359" lon="11.723796"><ele>1201</ele></trkpt><trkpt lat="47.655441" lon="11.72378"><ele>1201</ele></trkpt><trkpt lat="47.655515" lon="11.723736"><ele>1201</ele></trkpt><trkpt lat="47.655637" lon="11.723674"><ele>1195.5</ele></trkpt><trkpt lat="47.65571" lon="11.723594"><ele>1194.9</ele></trkpt><trkpt lat="47.655935" lon="11.723508"><ele>1194.5</ele></trkpt><trkpt lat="47.656484" lon="11.723238"><ele>1196.2</ele></trkpt><trkpt lat="47.656652" lon="11.723206"><ele>1196.4</ele></trkpt><trkpt lat="47.656719" lon="11.723214"><ele>1207</ele></trkpt><trkpt lat="47.656787" lon="11.723218"><ele>1207</ele></trkpt><trkpt lat="47.656807" lon="11.72288"><ele>1207</ele></trkpt><trkpt lat="47.656939" lon="11.722828"><ele>1207</ele></trkpt><trkpt lat="47.656947" lon="11.722824"><ele>1207</ele></trkpt><trkpt lat="47.65702" lon="11.722764"><ele>1207</ele></trkpt><trkpt lat="47.657073" lon="11.722751"><ele>1207</ele></trkpt><trkpt lat="47.657105" lon="11.722783"><ele>1207</ele></trkpt><trkpt lat="47.657151" lon="11.722792"><ele>1207</ele></trkpt><trkpt lat="47.657204" lon="11.722769"><ele>1207</ele></trkpt><trkpt lat="47.657239" lon="11.722785"><ele>1207</ele></trkpt><trkpt lat="47.657405" lon="11.722714"><ele>1207</ele></trkpt><trkpt lat="47.6574" lon="11.721974"><ele>1223.4</ele></trkpt><trkpt lat="47.657353" lon="11.721232"><ele>1228.6</ele></trkpt><trkpt lat="47.657355" lon="11.720757"><ele>1231.5</ele></trkpt><trkpt lat="47.657319" lon="11.720479"><ele>1236</ele></trkpt><trkpt lat="47.657234" lon="11.720136"><ele>1239.6</ele></trkpt><trkpt lat="47.657205" lon="11.719944"><ele>1241.4</ele></trkpt><trkpt lat="47.657205" lon="11.719724"><ele>1242.8</ele></trkpt><trkpt lat="47.65734" lon="11.718807"><ele>1255.4</ele></trkpt><trkpt lat="47.657367" lon="11.71869"><ele>1257.6</ele></trkpt><trkpt lat="47.657428" lon="11.718571"><ele>1259.5</ele></trkpt><trkpt lat="47.657463" lon="11.718419"><ele>1261.2</ele></trkpt><trkpt lat="47.657467" lon="11.718197"><ele>1266</ele></trkpt><trkpt lat="47.657559" lon="11.717689"><ele>1272.5</ele></trkpt><trkpt lat="47.657559" lon="11.717387"><ele>1276.3</ele></trkpt><trkpt lat="47.657533" lon="11.717191"><ele>1277.1</ele></trkpt><trkpt lat="47.657549" lon="11.716961"><ele>1277.8</ele></trkpt><trkpt lat="47.657546" lon="11.716578"><ele>1280.7</ele></trkpt><trkpt lat="47.657614" lon="11.71599"><ele>1283.8</ele></trkpt><trkpt lat="47.657627" lon="11.71556"><ele>1313</ele></trkpt><trkpt lat="47.657639" lon="11.715369"><ele>1313</ele></trkpt><trkpt lat="47.657694" lon="11.715068"><ele>1313</ele></trkpt><trkpt lat="47.657731" lon="11.714646"><ele>1313</ele></trkpt><trkpt lat="47.65775" lon="11.714585"><ele>1313</ele></trkpt><trkpt lat="47.657882" lon="11.714416"><ele>1313</ele></trkpt><trkpt lat="47.657933" lon="11.714326"><ele>1315.3</ele></trkpt><trkpt lat="47.65795" lon="11.714258"><ele>1315.4</ele></trkpt><trkpt lat="47.657947" lon="11.713975"><ele>1315.4</ele></trkpt><trkpt lat="47.657963" lon="11.713824"><ele>1315.4</ele></trkpt><trkpt lat="47.65798" lon="11.713765"><ele>1315.2</ele></trkpt><trkpt lat="47.658042" lon="11.713681"><ele>1315</ele></trkpt><trkpt lat="47.65808" lon="11.713699"><ele>1314.9</ele></trkpt><trkpt lat="47.658179" lon="11.713903"><ele>1314.8</ele></trkpt><trkpt lat="47.658206" lon="11.71402"><ele>1314.6</ele></trkpt><trkpt lat="47.658275" lon="11.714322"><ele>1314.5</ele></trkpt><trkpt lat="47.658269" lon="11.714543"><ele>1314.6</ele></trkpt><trkpt lat="47.658285" lon="11.714602"><ele>1314.7</ele></trkpt><trkpt lat="47.658315" lon="11.714604"><ele>1313</ele></trkpt><trkpt lat="47.658383" lon="11.714385"><ele>1338.4</ele></trkpt><trkpt lat="47.658439" lon="11.71408"><ele>1339.3</ele></trkpt><trkpt lat="47.65862" lon="11.713647"><ele>1340.5</ele></trkpt><trkpt lat="47.65872" lon="11.713269"><ele>1340.5</ele></trkpt><trkpt lat="47.658784" lon="11.713087"><ele>1340.3</ele></trkpt><trkpt lat="47.659011" lon="11.712651"><ele>1342.3</ele></trkpt><trkpt lat="47.65904" lon="11.712412"><ele>1343.1</ele></trkpt><trkpt lat="47.659038" lon="11.712282"><ele>1342.8</ele></trkpt><trkpt lat="47.659022" lon="11.712209"><ele>1349</ele></trkpt><trkpt lat="47.659049" lon="11.712156"><ele>1349</ele></trkpt><trkpt lat="47.659094" lon="11.71212"><ele>1349</ele></trkpt><trkpt lat="47.659153" lon="11.71229"><ele>1352.5</ele></trkpt><trkpt lat="47.659216" lon="11.712895"><ele>1351.7</ele></trkpt><trkpt lat="47.659154" lon="11.713136"><ele>1351.5</ele></trkpt><trkpt lat="47.659098" lon="11.713292"><ele>1353.7</ele></trkpt><trkpt lat="47.659104" lon="11.713623"><ele>1356.4</ele></trkpt><trkpt lat="47.659156" lon="11.713886"><ele>1375.8</ele></trkpt><trkpt lat="47.659141" lon="11.714188"><ele>1377.4</ele></trkpt><trkpt lat="47.65916" lon="11.714507"><ele>1378.6</ele></trkpt><trkpt lat="47.659368" lon="11.715663"><ele>1384.2</ele></trkpt><trkpt lat="47.659406" lon="11.715678"><ele>1383.6</ele></trkpt><trkpt lat="47.65942" lon="11.715649"><ele>1383.3</ele></trkpt><trkpt lat="47.659426" lon="11.715476"><ele>1383.7</ele></trkpt><trkpt lat="47.659486" lon="11.715324"><ele>1382.2</ele></trkpt><trkpt lat="47.659746" lon="11.714842"><ele>1380.2</ele></trkpt><trkpt lat="47.659819" lon="11.714634"><ele>1379.8</ele></trkpt><trkpt lat="47.659911" lon="11.714138"><ele>1379.7</ele></trkpt><trkpt lat="47.660033" lon="11.713758"><ele>1397.6</ele></trkpt><trkpt lat="47.660018" lon="11.713431"><ele>1400.5</ele></trkpt><trkpt lat="47.659973" lon="11.713137"><ele>1403.4</ele></trkpt><trkpt lat="47.659989" lon="11.712885"><ele>1408.8</ele></trkpt><trkpt lat="47.660059" lon="11.712516"><ele>1412.9</ele></trkpt><trkpt lat="47.660181" lon="11.712109"><ele>1415.3</ele></trkpt><trkpt lat="47.660217" lon="11.711704"><ele>1415.5</ele></trkpt><trkpt lat="47.660321" lon="11.711114"><ele>1424</ele></trkpt><trkpt lat="47.66036" lon="11.710998"><ele>1430.5</ele></trkpt><trkpt lat="47.660511" lon="11.710686"><ele>1431.6</ele></trkpt><trkpt lat="47.660603" lon="11.710561"><ele>1431.6</ele></trkpt><trkpt lat="47.660643" lon="11.710438"><ele>1431.5</ele></trkpt><trkpt lat="47.660667" lon="11.710326"><ele>1431.5</ele></trkpt><trkpt lat="47.660645" lon="11.710004"><ele>1431.3</ele></trkpt><trkpt lat="47.660637" lon="11.709898"><ele>1431.2</ele></trkpt><trkpt lat="47.660662" lon="11.709865"><ele>1434</ele></trkpt><trkpt lat="47.660693" lon="11.709887"><ele>1449.4</ele></trkpt><trkpt lat="47.660725" lon="11.70985"><ele>1451.2</ele></trkpt><trkpt lat="47.660738" lon="11.709742"><ele>1453.1</ele></trkpt><trkpt lat="47.660803" lon="11.709472"><ele>1457.5</ele></trkpt><trkpt lat="47.660889" lon="11.709299"><ele>1460.2</ele></trkpt><trkpt lat="47.660936" lon="11.709092"><ele>1483</ele></trkpt><trkpt lat="47.6609" lon="11.70896"><ele>1488</ele></trkpt><trkpt lat="47.660845" lon="11.708622"><ele>1488.7</ele></trkpt><trkpt lat="47.660835" lon="11.708437"><ele>1489.5</ele></trkpt><trkpt lat="47.660843" lon="11.708169"><ele>1489.9</ele></trkpt><trkpt lat="47.660747" lon="11.707297"><ele>1492.7</ele></trkpt><trkpt lat="47.660795" lon="11.70714"><ele>1491.2</ele></trkpt><trkpt lat="47.66079" lon="11.707098"><ele>1500</ele></trkpt><trkpt lat="47.660726" lon="11.707052"><ele>1521</ele></trkpt><trkpt lat="47.660682" lon="11.706981"><ele>1519.4</ele></trkpt><trkpt lat="47.660632" lon="11.70683"><ele>1517.9</ele></trkpt><trkpt lat="47.660592" lon="11.706528"><ele>1521.6</ele></trkpt><trkpt lat="47.660626" lon="11.706306"><ele>1524.8</ele></trkpt><trkpt lat="47.660728" lon="11.705922"><ele>1543</ele></trkpt><trkpt lat="47.660755" lon="11.705818"><ele>1567.4</ele></trkpt><trkpt lat="47.660838" lon="11.705675"><ele>1568.2</ele></trkpt><trkpt lat="47.660889" lon="11.705633"><ele>1569.1</ele></trkpt><trkpt lat="47.661017" lon="11.705377"><ele>1572.1</ele></trkpt><trkpt lat="47.661056" lon="11.70535"><ele>1572.8</ele></trkpt><trkpt lat="47.661096" lon="11.705286"><ele>1573.5</ele></trkpt><trkpt lat="47.661209" lon="11.705264"><ele>1575.1</ele></trkpt><trkpt lat="47.661367" lon="11.705151"><ele>1575.8</ele></trkpt><trkpt lat="47.661532" lon="11.705166"><ele>1576.2</ele></trkpt><trkpt lat="47.661626" lon="11.705175"><ele>1576.5</ele></trkpt><trkpt lat="47.66173" lon="11.705125"><ele>1577.2</ele></trkpt><trkpt lat="47.661846" lon="11.705156"><ele>1577.6</ele></trkpt><trkpt lat="47.661897" lon="11.705146"><ele>1577.7</ele></trkpt><trkpt lat="47.662025" lon="11.705033"><ele>1579.7</ele></trkpt><trkpt lat="47.66207" lon="11.704863"><ele>1580</ele></trkpt><trkpt lat="47.662127" lon="11.704763"><ele>1580</ele></trkpt><trkpt lat="47.662222" lon="11.704764"><ele>1579.5</ele></trkpt><trkpt lat="47.662261" lon="11.70474"><ele>1579.4</ele></trkpt><trkpt lat="47.662314" lon="11.704696"><ele>1579.2</ele></trkpt><trkpt lat="47.6624" lon="11.704554"><ele>1592</ele></trkpt><trkpt lat="47.662399" lon="11.704521"><ele>1592</ele></trkpt><trkpt lat="47.662434" lon="11.704453"><ele>1592</ele></trkpt><trkpt lat="47.662433" lon="11.704298"><ele>1592</ele></trkpt><trkpt lat="47.662276" lon="11.704166"><ele>1602.8</ele></trkpt><trkpt lat="47.662164" lon="11.704131"><ele>1604.2</ele></trkpt><trkpt lat="47.662075" lon="11.704047"><ele>1606.4</ele></trkpt><trkpt lat="47.662029" lon="11.704039"><ele>1608.9</ele></trkpt><trkpt lat="47.662003" lon="11.703996"><ele>1610.4</ele></trkpt><trkpt lat="47.661873" lon="11.703936"><ele>1611.9</ele></trkpt><trkpt lat="47.661853" lon="11.703947"><ele>1612.8</ele></trkpt><trkpt lat="47.661841" lon="11.704013"><ele>1612.9</ele></trkpt><trkpt lat="47.661822" lon="11.704027"><ele>1613.9</ele></trkpt><trkpt lat="47.661678" lon="11.70395"><ele>1615.7</ele></trkpt><trkpt lat="47.661619" lon="11.70397"><ele>1616.3</ele></trkpt><trkpt lat="47.661577" lon="11.703959"><ele>1616.6</ele></trkpt><trkpt lat="47.661535" lon="11.703907"><ele>1617</ele></trkpt><trkpt lat="47.661459" lon="11.703887"><ele>1617.7</ele></trkpt><trkpt lat="47.661383" lon="11.703939"><ele>1617.8</ele></trkpt><trkpt lat="47.6613" lon="11.703918"><ele>1618.2</ele></trkpt><trkpt lat="47.661245" lon="11.70394"><ele>1618.3</ele></trkpt><trkpt lat="47.66124" lon="11.703852"><ele>1618.6</ele></trkpt><trkpt lat="47.66116" lon="11.703761"><ele>1619</ele></trkpt><trkpt lat="47.661079" lon="11.703567"><ele>1620.3</ele></trkpt><trkpt lat="47.660985" lon="11.703509"><ele>1621</ele></trkpt><trkpt lat="47.660883" lon="11.703486"><ele>1621.7</ele></trkpt><trkpt lat="47.660872" lon="11.703406"><ele>1622.1</ele></trkpt><trkpt lat="47.66085" lon="11.7034"><ele>1622.2</ele></trkpt><trkpt lat="47.660802" lon="11.703332"><ele>1622.3</ele></trkpt><trkpt lat="47.660751" lon="11.703298"><ele>1622.8</ele></trkpt><trkpt lat="47.6607" lon="11.703293"><ele>1622.8</ele></trkpt><trkpt lat="47.660641" lon="11.703235"><ele>1622.6</ele></trkpt><trkpt lat="47.660596" lon="11.703122"><ele>1622.8</ele></trkpt><trkpt lat="47.660526" lon="11.703035"><ele>1622.7</ele></trkpt><trkpt lat="47.660349" lon="11.702544"><ele>1622.5</ele></trkpt><trkpt lat="47.660187" lon="11.702365"><ele>1622.6</ele></trkpt><trkpt lat="47.660019" lon="11.70214"><ele>1630</ele></trkpt><trkpt lat="47.659893" lon="11.702157"><ele>1625.1</ele></trkpt><trkpt lat="47.659851" lon="11.702198"><ele>1625.7</ele></trkpt><trkpt lat="47.65984" lon="11.70238"><ele>1627.9</ele></trkpt><trkpt lat="47.659802" lon="11.702498"><ele>1628.7</ele></trkpt><trkpt lat="47.659757" lon="11.702747"><ele>1641</ele></trkpt><trkpt lat="47.659801" lon="11.702923"><ele>1642.7</ele></trkpt><trkpt lat="47.659808" lon="11.703001"><ele>1642.9</ele></trkpt><trkpt lat="47.659789" lon="11.70312"><ele>1643.1</ele></trkpt><trkpt lat="47.659769" lon="11.703146"><ele>1643.4</ele></trkpt><trkpt lat="47.659659" lon="11.70318"><ele>1643.7</ele></trkpt><trkpt lat="47.659526" lon="11.703275"><ele>1653</ele></trkpt><trkpt lat="47.659659" lon="11.70318"><ele>1643.7</ele></trkpt><trkpt lat="47.659769" lon="11.703146"><ele>1643.4</ele></trkpt><trkpt lat="47.659789" lon="11.70312"><ele>1643.1</ele></trkpt><trkpt lat="47.659808" lon="11.703001"><ele>1642.9</ele></trkpt><trkpt lat="47.659801" lon="11.702923"><ele>1642.7</ele></trkpt><trkpt lat="47.659757" lon="11.702747"><ele>1641</ele></trkpt><trkpt lat="47.659677" lon="11.702302"><ele>1621.6</ele></trkpt><trkpt lat="47.659648" lon="11.701757"><ele>1622.6</ele></trkpt><trkpt lat="47.659658" lon="11.70161"><ele>1623</ele></trkpt><trkpt lat="47.659702" lon="11.701399"><ele>1623.5</ele></trkpt><trkpt lat="47.659789" lon="11.701116"><ele>1618</ele></trkpt><trkpt lat="47.659882" lon="11.700645"><ele>1616.6</ele></trkpt><trkpt lat="47.659846" lon="11.700593"><ele>1616.5</ele></trkpt><trkpt lat="47.659826" lon="11.700482"><ele>1616.5</ele></trkpt><trkpt lat="47.659829" lon="11.700376"><ele>1616.5</ele></trkpt><trkpt lat="47.65981" lon="11.700322"><ele>1616.5</ele></trkpt><trkpt lat="47.659737" lon="11.700238"><ele>1616.4</ele></trkpt><trkpt lat="47.659699" lon="11.699754"><ele>1616.6</ele></trkpt><trkpt lat="47.65969" lon="11.699563"><ele>1616.7</ele></trkpt><trkpt lat="47.659701" lon="11.699437"><ele>1616.7</ele></trkpt><trkpt lat="47.659684" lon="11.69931"><ele>1616.9</ele></trkpt><trkpt lat="47.659689" lon="11.699253"><ele>1617</ele></trkpt><trkpt lat="47.659721" lon="11.699167"><ele>1614</ele></trkpt><trkpt lat="47.659713" lon="11.69885"><ele>1612</ele></trkpt><trkpt lat="47.659739" lon="11.698687"><ele>1612.2</ele></trkpt><trkpt lat="47.659829" lon="11.698354"><ele>1612.6</ele></trkpt><trkpt lat="47.659923" lon="11.698164"><ele>1611.3</ele></trkpt><trkpt lat="47.659954" lon="11.698135"><ele>1605</ele></trkpt><trkpt lat="47.660029" lon="11.697852"><ele>1623.4</ele></trkpt><trkpt lat="47.66006" lon="11.697645"><ele>1625.3</ele></trkpt><trkpt lat="47.660171" lon="11.697394"><ele>1636</ele></trkpt><trkpt lat="47.66034" lon="11.69704"><ele>1638.1</ele></trkpt><trkpt lat="47.660476" lon="11.696869"><ele>1637.9</ele></trkpt><trkpt lat="47.660588" lon="11.696639"><ele>1636.5</ele></trkpt><trkpt lat="47.660711" lon="11.696491"><ele>1635.3</ele></trkpt><trkpt lat="47.660809" lon="11.696307"><ele>1634.1</ele></trkpt><trkpt lat="47.660811" lon="11.696207"><ele>1633</ele></trkpt><trkpt lat="47.660758" lon="11.696108"><ele>1668</ele></trkpt><trkpt lat="47.660811" lon="11.696207"><ele>1633</ele></trkpt><trkpt lat="47.660809" lon="11.696307"><ele>1634.1</ele></trkpt><trkpt lat="47.660711" lon="11.696491"><ele>1635.3</ele></trkpt><trkpt lat="47.660588" lon="11.696639"><ele>1636.5</ele></trkpt><trkpt lat="47.660476" lon="11.696869"><ele>1637.9</ele></trkpt><trkpt lat="47.66034" lon="11.69704"><ele>1638.1</ele></trkpt><trkpt lat="47.660171" lon="11.697394"><ele>1636</ele></trkpt><trkpt lat="47.66006" lon="11.697645"><ele>1625.3</ele></trkpt><trkpt lat="47.660029" lon="11.697852"><ele>1623.4</ele></trkpt><trkpt lat="47.659954" lon="11.698135"><ele>1605</ele></trkpt><trkpt lat="47.659923" lon="11.698164"><ele>1611.3</ele></trkpt><trkpt lat="47.659829" lon="11.698354"><ele>1612.6</ele></trkpt><trkpt lat="47.659739" lon="11.698687"><ele>1612.2</ele></trkpt><trkpt lat="47.659713" lon="11.69885"><ele>1612</ele></trkpt><trkpt lat="47.659721" lon="11.699167"><ele>1614</ele></trkpt><trkpt lat="47.659689" lon="11.699253"><ele>1617</ele></trkpt><trkpt lat="47.659684" lon="11.69931"><ele>1616.9</ele></trkpt><trkpt lat="47.659701" lon="11.699437"><ele>1616.7</ele></trkpt><trkpt lat="47.65969" lon="11.699563"><ele>1616.7</ele></trkpt><trkpt lat="47.659699" lon="11.699754"><ele>1616.6</ele></trkpt><trkpt lat="47.659737" lon="11.700238"><ele>1616.4</ele></trkpt><trkpt lat="47.65981" lon="11.700322"><ele>1616.5</ele></trkpt><trkpt lat="47.659829" lon="11.700376"><ele>1616.5</ele></trkpt><trkpt lat="47.659826" lon="11.700482"><ele>1616.5</ele></trkpt><trkpt lat="47.659846" lon="11.700593"><ele>1616.5</ele></trkpt><trkpt lat="47.659882" lon="11.700645"><ele>1616.6</ele></trkpt><trkpt lat="47.659789" lon="11.701116"><ele>1618</ele></trkpt><trkpt lat="47.659834" lon="11.701271"><ele>1618</ele></trkpt><trkpt lat="47.659904" lon="11.701808"><ele>1620.5</ele></trkpt><trkpt lat="47.659942" lon="11.701967"><ele>1620.3</ele></trkpt><trkpt lat="47.660019" lon="11.70214"><ele>1630</ele></trkpt><trkpt lat="47.660187" lon="11.702365"><ele>1622.6</ele></trkpt><trkpt lat="47.660349" lon="11.702544"><ele>1622.5</ele></trkpt><trkpt lat="47.660526" lon="11.703035"><ele>1622.7</ele></trkpt><trkpt lat="47.660596" lon="11.703122"><ele>1622.8</ele></trkpt><trkpt lat="47.660641" lon="11.703235"><ele>1622.6</ele></trkpt><trkpt lat="47.6607" lon="11.703293"><ele>1622.8</ele></trkpt><trkpt lat="47.660751" lon="11.703298"><ele>1622.8</ele></trkpt><trkpt lat="47.660802" lon="11.703332"><ele>1622.3</ele></trkpt><trkpt lat="47.66085" lon="11.7034"><ele>1622.2</ele></trkpt><trkpt lat="47.660872" lon="11.703406"><ele>1622.1</ele></trkpt><trkpt lat="47.660883" lon="11.703486"><ele>1621.7</ele></trkpt><trkpt lat="47.660985" lon="11.703509"><ele>1621</ele></trkpt><trkpt lat="47.661079" lon="11.703567"><ele>1620.3</ele></trkpt><trkpt lat="47.66116" lon="11.703761"><ele>1619</ele></trkpt><trkpt lat="47.66124" lon="11.703852"><ele>1618.6</ele></trkpt><trkpt lat="47.661245" lon="11.70394"><ele>1618.3</ele></trkpt><trkpt lat="47.6613" lon="11.703918"><ele>1618.2</ele></trkpt><trkpt lat="47.661383" lon="11.703939"><ele>1617.8</ele></trkpt><trkpt lat="47.661459" lon="11.703887"><ele>1617.7</ele></trkpt><trkpt lat="47.661535" lon="11.703907"><ele>1617</ele></trkpt><trkpt lat="47.661577" lon="11.703959"><ele>1616.6</ele></trkpt><trkpt lat="47.661619" lon="11.70397"><ele>1616.3</ele></trkpt><trkpt lat="47.661678" lon="11.70395"><ele>1615.7</ele></trkpt><trkpt lat="47.661822" lon="11.704027"><ele>1613.9</ele></trkpt><trkpt lat="47.661841" lon="11.704013"><ele>1612.9</ele></trkpt><trkpt lat="47.661853" lon="11.703947"><ele>1612.8</ele></trkpt><trkpt lat="47.661873" lon="11.703936"><ele>1611.9</ele></trkpt><trkpt lat="47.662003" lon="11.703996"><ele>1610.4</ele></trkpt><trkpt lat="47.662029" lon="11.704039"><ele>1608.9</ele></trkpt><trkpt lat="47.662075" lon="11.704047"><ele>1606.4</ele></trkpt><trkpt lat="47.662164" lon="11.704131"><ele>1604.2</ele></trkpt><trkpt lat="47.662276" lon="11.704166"><ele>1602.8</ele></trkpt><trkpt lat="47.662433" lon="11.704298"><ele>1592</ele></trkpt><trkpt lat="47.662481" lon="11.704332"><ele>1582.3</ele></trkpt><trkpt lat="47.662548" lon="11.704333"><ele>1563</ele></trkpt><trkpt lat="47.662597" lon="11.70436"><ele>1563</ele></trkpt><trkpt lat="47.662648" lon="11.70442"><ele>1563</ele></trkpt><trkpt lat="47.662693" lon="11.704473"><ele>1563</ele></trkpt><trkpt lat="47.662811" lon="11.704475"><ele>1563</ele></trkpt><trkpt lat="47.662938" lon="11.704511"><ele>1563</ele></trkpt><trkpt lat="47.662967" lon="11.704502"><ele>1563</ele></trkpt><trkpt lat="47.663135" lon="11.704401"><ele>1563</ele></trkpt><trkpt lat="47.6632" lon="11.70435"><ele>1563</ele></trkpt><trkpt lat="47.663212" lon="11.70432"><ele>1563</ele></trkpt><trkpt lat="47.66344" lon="11.704287"><ele>1531</ele></trkpt><trkpt lat="47.663631" lon="11.704285"><ele>1530.3</ele></trkpt><trkpt lat="47.66394" lon="11.704419"><ele>1528.8</ele></trkpt><trkpt lat="47.664217" lon="11.704711"><ele>1526.1</ele></trkpt><trkpt lat="47.664504" lon="11.70486"><ele>1515</ele></trkpt><trkpt lat="47.664697" lon="11.704969"><ele>1515.4</ele></trkpt><trkpt lat="47.664818" lon="11.70501"><ele>1515.5</ele></trkpt><trkpt lat="47.664932" lon="11.705015"><ele>1515.4</ele></trkpt><trkpt lat="47.665063" lon="11.704964"><ele>1515.4</ele></trkpt><trkpt lat="47.665125" lon="11.704976"><ele>1516.2</ele></trkpt><trkpt lat="47.665333" lon="11.705321"><ele>1516.6</ele></trkpt><trkpt lat="47.665436" lon="11.705385"><ele>1516.6</ele></trkpt><trkpt lat="47.665573" lon="11.70535"><ele>1516.6</ele></trkpt><trkpt lat="47.665609" lon="11.705341"><ele>1516.5</ele></trkpt><trkpt lat="47.665791" lon="11.705177"><ele>1516.5</ele></trkpt><trkpt lat="47.665886" lon="11.705066"><ele>1516.6</ele></trkpt><trkpt lat="47.665954" lon="11.704927"><ele>1521</ele></trkpt><trkpt lat="47.665979" lon="11.705043"><ele>1504.7</ele></trkpt><trkpt lat="47.665965" lon="11.705188"><ele>1504.2</ele></trkpt><trkpt lat="47.665971" lon="11.705336"><ele>1503.6</ele></trkpt><trkpt lat="47.666047" lon="11.705181"><ele>1503.1</ele></trkpt><trkpt lat="47.666052" lon="11.70527"><ele>1502.5</ele></trkpt><trkpt lat="47.666101" lon="11.705213"><ele>1501.9</ele></trkpt><trkpt lat="47.666111" lon="11.705341"><ele>1501.3</ele></trkpt><trkpt lat="47.666182" lon="11.705263"><ele>1500.7</ele></trkpt><trkpt lat="47.666194" lon="11.705443"><ele>1500</ele></trkpt><trkpt lat="47.666288" lon="11.705365"><ele>1499.3</ele></trkpt><trkpt lat="47.666318" lon="11.705381"><ele>1498.6</ele></trkpt><trkpt lat="47.666439" lon="11.705571"><ele>1497.1</ele></trkpt><trkpt lat="47.666542" lon="11.705607"><ele>1496.3</ele></trkpt><trkpt lat="47.666558" lon="11.705548"><ele>1495.4</ele></trkpt><trkpt lat="47.666604" lon="11.705551"><ele>1494.6</ele></trkpt><trkpt lat="47.666699" lon="11.705453"><ele>1493.7</ele></trkpt><trkpt lat="47.666751" lon="11.70552"><ele>1494.2</ele></trkpt><trkpt lat="47.666793" lon="11.705636"><ele>1494.8</ele></trkpt><trkpt lat="47.66685" lon="11.705555"><ele>1495.4</ele></trkpt><trkpt lat="47.666889" lon="11.705407"><ele>1496</ele></trkpt><trkpt lat="47.666938" lon="11.705576"><ele>1496.7</ele></trkpt><trkpt lat="47.666981" lon="11.705887"><ele>1498.1</ele></trkpt><trkpt lat="47.667001" lon="11.705926"><ele>1480</ele></trkpt><trkpt lat="47.667073" lon="11.705814"><ele>1450.9</ele></trkpt><trkpt lat="47.667137" lon="11.7056"><ele>1448.9</ele></trkpt><trkpt lat="47.667167" lon="11.705211"><ele>1444.5</ele></trkpt><trkpt lat="47.667276" lon="11.705526"><ele>1442</ele></trkpt><trkpt lat="47.667437" lon="11.70573"><ele>1439.4</ele></trkpt><trkpt lat="47.667515" lon="11.705917"><ele>1436.5</ele></trkpt><trkpt lat="47.667564" lon="11.70621"><ele>1438.8</ele></trkpt><trkpt lat="47.667658" lon="11.706077"><ele>1440.1</ele></trkpt><trkpt lat="47.667744" lon="11.705915"><ele>1441.5</ele></trkpt><trkpt lat="47.667822" lon="11.705719"><ele>1442.9</ele></trkpt><trkpt lat="47.667844" lon="11.705324"><ele>1427</ele></trkpt><trkpt lat="47.668052" lon="11.705922"><ele>1401.5</ele></trkpt><trkpt lat="47.66806" lon="11.70604"><ele>1400.7</ele></trkpt><trkpt lat="47.668041" lon="11.70641"><ele>1396.9</ele></trkpt><trkpt lat="47.668069" lon="11.706393"><ele>1395.9</ele></trkpt><trkpt lat="47.668132" lon="11.706269"><ele>1393.6</ele></trkpt><trkpt lat="47.668107" lon="11.706784"><ele>1389.9</ele></trkpt><trkpt lat="47.668247" lon="11.706661"><ele>1389.6</ele></trkpt><trkpt lat="47.668447" lon="11.706525"><ele>1388.2</ele></trkpt><trkpt lat="47.668577" lon="11.706462"><ele>1389.2</ele></trkpt><trkpt lat="47.668692" lon="11.706534"><ele>1390.2</ele></trkpt><trkpt lat="47.668789" lon="11.706533"><ele>1391.3</ele></trkpt><trkpt lat="47.668857" lon="11.70656"><ele>1392.4</ele></trkpt><trkpt lat="47.668915" lon="11.70669"><ele>1357</ele></trkpt><trkpt lat="47.668898" lon="11.70675"><ele>1357</ele></trkpt><trkpt lat="47.668902" lon="11.706848"><ele>1357</ele></trkpt><trkpt lat="47.668961" lon="11.706978"><ele>1357</ele></trkpt><trkpt lat="47.668972" lon="11.707178"><ele>1338.9</ele></trkpt><trkpt lat="47.669026" lon="11.707373"><ele>1335.1</ele></trkpt><trkpt lat="47.66906" lon="11.708081"><ele>1326.6</ele></trkpt><trkpt lat="47.669101" lon="11.708415"><ele>1319.1</ele></trkpt><trkpt lat="47.669195" lon="11.708881"><ele>1315.5</ele></trkpt><trkpt lat="47.669226" lon="11.709565"><ele>1298.4</ele></trkpt><trkpt lat="47.669177" lon="11.709873"><ele>1287.3</ele></trkpt><trkpt lat="47.669194" lon="11.710094"><ele>1283.2</ele></trkpt><trkpt lat="47.669184" lon="11.710249"><ele>1283.1</ele></trkpt><trkpt lat="47.669192" lon="11.710482"><ele>1280.3</ele></trkpt><trkpt lat="47.669263" lon="11.710733"><ele>1280</ele></trkpt><trkpt lat="47.669278" lon="11.711093"><ele>1276.7</ele></trkpt><trkpt lat="47.669252" lon="11.71135"><ele>1274.8</ele></trkpt><trkpt lat="47.669286" lon="11.711588"><ele>1273.2</ele></trkpt><trkpt lat="47.669283" lon="11.711695"><ele>1273.9</ele></trkpt><trkpt lat="47.669225" lon="11.711831"><ele>1250</ele></trkpt><trkpt lat="47.669154" lon="11.711708"><ele>1221.8</ele></trkpt><trkpt lat="47.668987" lon="11.711319"><ele>1226.8</ele></trkpt><trkpt lat="47.668954" lon="11.711293"><ele>1221</ele></trkpt><trkpt lat="47.668943" lon="11.711371"><ele>1220.8</ele></trkpt><trkpt lat="47.669172" lon="11.712403"><ele>1220.3</ele></trkpt><trkpt lat="47.669234" lon="11.71274"><ele>1216.4</ele></trkpt><trkpt lat="47.669302" lon="11.713279"><ele>1212.3</ele></trkpt><trkpt lat="47.669321" lon="11.713789"><ele>1207.6</ele></trkpt><trkpt lat="47.669349" lon="11.713973"><ele>1205.9</ele></trkpt><trkpt lat="47.669472" lon="11.714351"><ele>1203.4</ele></trkpt><trkpt lat="47.669643" lon="11.714628"><ele>1201.5</ele></trkpt><trkpt lat="47.669656" lon="11.714692"><ele>1199.6</ele></trkpt><trkpt lat="47.669636" lon="11.715021"><ele>1197.4</ele></trkpt><trkpt lat="47.669668" lon="11.715254"><ele>1195.7</ele></trkpt><trkpt lat="47.669689" lon="11.715309"><ele>1195.6</ele></trkpt><trkpt lat="47.669872" lon="11.71556"><ele>1193.8</ele></trkpt><trkpt lat="47.669857" lon="11.715639"><ele>1191.7</ele></trkpt><trkpt lat="47.66977" lon="11.715782"><ele>1191.3</ele></trkpt><trkpt lat="47.669732" lon="11.715894"><ele>1189.2</ele></trkpt><trkpt lat="47.669664" lon="11.716829"><ele>1179.8</ele></trkpt><trkpt lat="47.669525" lon="11.717396"><ele>1176</ele></trkpt><trkpt lat="47.669423" lon="11.717722"><ele>1171</ele></trkpt><trkpt lat="47.669408" lon="11.717836"><ele>1171.2</ele></trkpt><trkpt lat="47.669428" lon="11.717997"><ele>1167.2</ele></trkpt><trkpt lat="47.669551" lon="11.718237"><ele>1165.1</ele></trkpt><trkpt lat="47.669636" lon="11.718387"><ele>1163.2</ele></trkpt><trkpt lat="47.669729" lon="11.718502"><ele>1160.8</ele></trkpt><trkpt lat="47.669892" lon="11.718612"><ele>1160.9</ele></trkpt><trkpt lat="47.669952" lon="11.718694"><ele>1160.2</ele></trkpt><trkpt lat="47.669999" lon="11.71882"><ele>1157.7</ele></trkpt><trkpt lat="47.670019" lon="11.718945"><ele>1155.9</ele></trkpt><trkpt lat="47.670023" lon="11.719086"><ele>1153.7</ele></trkpt><trkpt lat="47.670004" lon="11.719224"><ele>1149.2</ele></trkpt><trkpt lat="47.669904" lon="11.71977"><ele>1138.6</ele></trkpt><trkpt lat="47.669926" lon="11.719988"><ele>1137.2</ele></trkpt><trkpt lat="47.669912" lon="11.720411"><ele>1135.1</ele></trkpt><trkpt lat="47.66987" lon="11.720694"><ele>1131.5</ele></trkpt><trkpt lat="47.669742" lon="11.721187"><ele>1129.3</ele></trkpt><trkpt lat="47.669727" lon="11.721462"><ele>1128.4</ele></trkpt><trkpt lat="47.66974" lon="11.721757"><ele>1107</ele></trkpt><trkpt lat="47.669722" lon="11.721897"><ele>1103.4</ele></trkpt><trkpt lat="47.669655" lon="11.72206"><ele>1101.7</ele></trkpt><trkpt lat="47.669635" lon="11.722157"><ele>1100.5</ele></trkpt><trkpt lat="47.669635" lon="11.722294"><ele>1100</ele></trkpt><trkpt lat="47.669904" lon="11.723507"><ele>1091.6</ele></trkpt><trkpt lat="47.669949" lon="11.723724"><ele>1091.1</ele></trkpt><trkpt lat="47.669968" lon="11.7239"><ele>1090.1</ele></trkpt><trkpt lat="47.669958" lon="11.72405"><ele>1088.8</ele></trkpt><trkpt lat="47.669904" lon="11.72431"><ele>1087.8</ele></trkpt><trkpt lat="47.669849" lon="11.724565"><ele>1087.3</ele></trkpt><trkpt lat="47.669792" lon="11.724727"><ele>1087.1</ele></trkpt><trkpt lat="47.669752" lon="11.724792"><ele>1087</ele></trkpt><trkpt lat="47.669637" lon="11.724891"><ele>1086.7</ele></trkpt><trkpt lat="47.669546" lon="11.724916"><ele>1086.5</ele></trkpt><trkpt lat="47.669402" lon="11.724877"><ele>1085.8</ele></trkpt><trkpt lat="47.669288" lon="11.7249"><ele>1085.1</ele></trkpt><trkpt lat="47.669234" lon="11.724889"><ele>1084.9</ele></trkpt><trkpt lat="47.669151" lon="11.724796"><ele>1084.7</ele></trkpt><trkpt lat="47.668991" lon="11.72452"><ele>1085.8</ele></trkpt><trkpt lat="47.668941" lon="11.724496"><ele>1086.1</ele></trkpt><trkpt lat="47.66889" lon="11.7245"><ele>1086</ele></trkpt><trkpt lat="47.668665" lon="11.724617"><ele>1079</ele></trkpt><trkpt lat="47.668308" lon="11.724562"><ele>1082.9</ele></trkpt><trkpt lat="47.668207" lon="11.724563"><ele>1082.7</ele></trkpt><trkpt lat="47.668152" lon="11.724601"><ele>1084</ele></trkpt><trkpt lat="47.668122" lon="11.724646"><ele>1084</ele></trkpt><trkpt lat="47.668102" lon="11.72477"><ele>1084</ele></trkpt><trkpt lat="47.668117" lon="11.724853"><ele>1062.7</ele></trkpt><trkpt lat="47.668479" lon="11.725349"><ele>1059.5</ele></trkpt><trkpt lat="47.668663" lon="11.725689"><ele>1058.4</ele></trkpt><trkpt lat="47.668836" lon="11.725925"><ele>1057.6</ele></trkpt><trkpt lat="47.668864" lon="11.725992"><ele>1057.6</ele></trkpt><trkpt lat="47.668853" lon="11.726038"><ele>1057.6</ele></trkpt><trkpt lat="47.668826" lon="11.726063"><ele>1057.3</ele></trkpt><trkpt lat="47.668773" lon="11.726062"><ele>1057.3</ele></trkpt><trkpt lat="47.668553" lon="11.726008"><ele>1056.7</ele></trkpt><trkpt lat="47.668378" lon="11.72601"><ele>1055.1</ele></trkpt><trkpt lat="47.668309" lon="11.72602"><ele>1054.4</ele></trkpt><trkpt lat="47.668125" lon="11.726131"><ele>1051.9</ele></trkpt><trkpt lat="47.668043" lon="11.72627"><ele>1050.7</ele></trkpt><trkpt lat="47.668031" lon="11.726355"><ele>1050.1</ele></trkpt><trkpt lat="47.66807" lon="11.726678"><ele>1048.7</ele></trkpt><trkpt lat="47.66806" lon="11.726772"><ele>1048.7</ele></trkpt><trkpt lat="47.668017" lon="11.726879"><ele>1047.4</ele></trkpt><trkpt lat="47.667673" lon="11.727297"><ele>1042.5</ele></trkpt><trkpt lat="47.667617" lon="11.727649"><ele>1040.9</ele></trkpt><trkpt lat="47.667582" lon="11.727705"><ele>1040.8</ele></trkpt><trkpt lat="47.667532" lon="11.727726"><ele>1040.8</ele></trkpt><trkpt lat="47.667464" lon="11.727717"><ele>1040.8</ele></trkpt><trkpt lat="47.667321" lon="11.727659"><ele>1041.4</ele></trkpt><trkpt lat="47.667247" lon="11.727681"><ele>1041.4</ele></trkpt><trkpt lat="47.667118" lon="11.72791"><ele>1041.4</ele></trkpt><trkpt lat="47.667041" lon="11.727945"><ele>1041.1</ele></trkpt><trkpt lat="47.666808" lon="11.727967"><ele>1040.9</ele></trkpt><trkpt lat="47.666731" lon="11.728005"><ele>1032</ele></trkpt><trkpt lat="47.666299" lon="11.728364"><ele>1032.1</ele></trkpt><trkpt lat="47.666289" lon="11.728429"><ele>1032.3</ele></trkpt><trkpt lat="47.666319" lon="11.728483"><ele>1032.4</ele></trkpt><trkpt lat="47.666401" lon="11.728532"><ele>1032.6</ele></trkpt><trkpt lat="47.666514" lon="11.728563"><ele>1031</ele></trkpt><trkpt lat="47.666633" lon="11.728601"><ele>1002.4</ele></trkpt><trkpt lat="47.666947" lon="11.728758"><ele>998</ele></trkpt><trkpt lat="47.667043" lon="11.72885"><ele>997.3</ele></trkpt><trkpt lat="47.667248" lon="11.729127"><ele>991.9</ele></trkpt><trkpt lat="47.667333" lon="11.729203"><ele>989.2</ele></trkpt><trkpt lat="47.667426" lon="11.729243"><ele>988.4</ele></trkpt><trkpt lat="47.667594" lon="11.729272"><ele>984.1</ele></trkpt><trkpt lat="47.667779" lon="11.729264"><ele>982.3</ele></trkpt><trkpt lat="47.667901" lon="11.729241"><ele>982.4</ele></trkpt><trkpt lat="47.668196" lon="11.729094"><ele>981</ele></trkpt><trkpt lat="47.668271" lon="11.729099"><ele>980.1</ele></trkpt><trkpt lat="47.668372" lon="11.729202"><ele>977.3</ele></trkpt><trkpt lat="47.668515" lon="11.729449"><ele>976.8</ele></trkpt><trkpt lat="47.668714" lon="11.729963"><ele>975</ele></trkpt><trkpt lat="47.668723" lon="11.730039"><ele>975</ele></trkpt><trkpt lat="47.668706" lon="11.730097"><ele>976.1</ele></trkpt><trkpt lat="47.668669" lon="11.730147"><ele>958</ele></trkpt><trkpt lat="47.668621" lon="11.730178"><ele>958</ele></trkpt><trkpt lat="47.668485" lon="11.730165"><ele>956.8</ele></trkpt><trkpt lat="47.6684" lon="11.730186"><ele>956.7</ele></trkpt><trkpt lat="47.668156" lon="11.730332"><ele>954.2</ele></trkpt><trkpt lat="47.668105" lon="11.730412"><ele>952.9</ele></trkpt><trkpt lat="47.668006" lon="11.730755"><ele>949.4</ele></trkpt><trkpt lat="47.667892" lon="11.731066"><ele>947.6</ele></trkpt><trkpt lat="47.667779" lon="11.731605"><ele>944.9</ele></trkpt><trkpt lat="47.667724" lon="11.731798"><ele>941.6</ele></trkpt><trkpt lat="47.667643" lon="11.731967"><ele>939.2</ele></trkpt><trkpt lat="47.667529" lon="11.732131"><ele>937.6</ele></trkpt><trkpt lat="47.667511" lon="11.732228"><ele>936.7</ele></trkpt><trkpt lat="47.66753" lon="11.732359"><ele>936.6</ele></trkpt><trkpt lat="47.667635" lon="11.732791"><ele>935.3</ele></trkpt><trkpt lat="47.667674" lon="11.733349"><ele>932.9</ele></trkpt><trkpt lat="47.66769" lon="11.733903"><ele>916</ele></trkpt><trkpt lat="47.667771" lon="11.734316"><ele>907</ele></trkpt><trkpt lat="47.6678" lon="11.734625"><ele>899.7</ele></trkpt><trkpt lat="47.667788" lon="11.734841"><ele>899.2</ele></trkpt><trkpt lat="47.667801" lon="11.734984"><ele>898.7</ele></trkpt><trkpt lat="47.667842" lon="11.735156"><ele>897.2</ele></trkpt><trkpt lat="47.66789" lon="11.735505"><ele>894.4</ele></trkpt><trkpt lat="47.66795" lon="11.735675"><ele>890.7</ele></trkpt><trkpt lat="47.668046" lon="11.735779"><ele>888</ele></trkpt><trkpt lat="47.668181" lon="11.735858"><ele>886.6</ele></trkpt><trkpt lat="47.668268" lon="11.73594"><ele>886.2</ele></trkpt><trkpt lat="47.668307" lon="11.73604"><ele>885</ele></trkpt><trkpt lat="47.668494" lon="11.736767"><ele>876.6</ele></trkpt><trkpt lat="47.668512" lon="11.736944"><ele>875.5</ele></trkpt><trkpt lat="47.668501" lon="11.737117"><ele>873.3</ele></trkpt><trkpt lat="47.668476" lon="11.737259"><ele>872.9</ele></trkpt><trkpt lat="47.668419" lon="11.737392"><ele>871.6</ele></trkpt><trkpt lat="47.668326" lon="11.737511"><ele>871.1</ele></trkpt><trkpt lat="47.668029" lon="11.737761"><ele>871.3</ele></trkpt><trkpt lat="47.667523" lon="11.737977"><ele>868.4</ele></trkpt><trkpt lat="47.667458" lon="11.738032"><ele>868.7</ele></trkpt><trkpt lat="47.66739" lon="11.738138"><ele>849</ele></trkpt><trkpt lat="47.667345" lon="11.738255"><ele>840.4</ele></trkpt><trkpt lat="47.667257" lon="11.738598"><ele>839.5</ele></trkpt><trkpt lat="47.66718" lon="11.738775"><ele>839.9</ele></trkpt><trkpt lat="47.666957" lon="11.739064"><ele>837</ele></trkpt><trkpt lat="47.666932" lon="11.739124"><ele>821.3</ele></trkpt><trkpt lat="47.666786" lon="11.739801"><ele>819</ele></trkpt><trkpt lat="47.666613" lon="11.74043"><ele>817.9</ele></trkpt><trkpt lat="47.666512" lon="11.740672"><ele>810</ele></trkpt><trkpt lat="47.666233" lon="11.74081"><ele>794.6</ele></trkpt><trkpt lat="47.666177" lon="11.740859"><ele>792.4</ele></trkpt><trkpt lat="47.666139" lon="11.740938"><ele>792.1</ele></trkpt><trkpt lat="47.666083" lon="11.741765"><ele>791.9</ele></trkpt><trkpt lat="47.665977" lon="11.74273"><ele>780</ele></trkpt><trkpt lat="47.666093" lon="11.743275"><ele>775.3</ele></trkpt><trkpt lat="47.666194" lon="11.74361"><ele>774.6</ele></trkpt><trkpt lat="47.666316" lon="11.743914"><ele>773.7</ele></trkpt><trkpt lat="47.666365" lon="11.744212"><ele>773.5</ele></trkpt><trkpt lat="47.666428" lon="11.745192"><ele>771.5</ele></trkpt><trkpt lat="47.666378" lon="11.74586"><ele>770.6</ele></trkpt><trkpt lat="47.666236" lon="11.746524"><ele>769.5</ele></trkpt><trkpt lat="47.666154" lon="11.747001"><ele>767</ele></trkpt><trkpt lat="47.666145" lon="11.747582"><ele>767</ele></trkpt><trkpt lat="47.666272" lon="11.747649"><ele>767.8</ele></trkpt><trkpt lat="47.666145" lon="11.747582"><ele>767</ele></trkpt><trkpt lat="47.666168" lon="11.747886"><ele>767</ele></trkpt><trkpt lat="47.666216" lon="11.748517"><ele>765.8</ele></trkpt><trkpt lat="47.666426" lon="11.74949"><ele>765.7</ele></trkpt><trkpt lat="47.66642" lon="11.749585"><ele>765</ele></trkpt><trkpt lat="47.666603" lon="11.749887"><ele>763.8</ele></trkpt><trkpt lat="47.66702" lon="11.75023"><ele>763.5</ele></trkpt><trkpt lat="47.667297" lon="11.750423"><ele>763.5</ele></trkpt><trkpt lat="47.66767" lon="11.750602"><ele>763.3</ele></trkpt><trkpt lat="47.668443" lon="11.750743"><ele>763</ele></trkpt><trkpt lat="47.668963" lon="11.750849"><ele>763</ele></trkpt><trkpt lat="47.669099" lon="11.750877"><ele>763</ele></trkpt><trkpt lat="47.669543" lon="11.751012"><ele>762.9</ele></trkpt><trkpt lat="47.669822" lon="11.751209"><ele>763.3</ele></trkpt><trkpt lat="47.670194" lon="11.751634"><ele>767</ele></trkpt><trkpt lat="47.670583" lon="11.753244"><ele>762</ele></trkpt><trkpt lat="47.671015" lon="11.754014"><ele>759.3</ele></trkpt><trkpt lat="47.671467" lon="11.754474"><ele>760.7</ele></trkpt><trkpt lat="47.672805" lon="11.755352"><ele>757</ele></trkpt><trkpt lat="47.673327" lon="11.755732"><ele>757</ele></trkpt><trkpt lat="47.673693" lon="11.756139"><ele>757</ele></trkpt><trkpt lat="47.673877" lon="11.756326"><ele>758.2</ele></trkpt><trkpt lat="47.674078" lon="11.756492"><ele>758.4</ele></trkpt><trkpt lat="47.674397" lon="11.756636"><ele>758.6</ele></trkpt><trkpt lat="47.67467" lon="11.756726"><ele>757.7</ele></trkpt><trkpt lat="47.674781" lon="11.756711"><ele>757</ele></trkpt><trkpt lat="47.674811" lon="11.756828"><ele>757.9</ele></trkpt><trkpt lat="47.674887" lon="11.756912"><ele>757.7</ele></trkpt><trkpt lat="47.675036" lon="11.757017"><ele>760</ele></trkpt><trkpt lat="47.675034" lon="11.757084"><ele>760</ele></trkpt><trkpt lat="47.675455" lon="11.757217"><ele>757.6</ele></trkpt><trkpt lat="47.675841" lon="11.757537"><ele>757.3</ele></trkpt><trkpt lat="47.675934" lon="11.757593"><ele>752</ele></trkpt><trkpt lat="47.676114" lon="11.757638"><ele>752.4</ele></trkpt><trkpt lat="47.67633" lon="11.757652"><ele>752.6</ele></trkpt><trkpt lat="47.676528" lon="11.757709"><ele>752.5</ele></trkpt><trkpt lat="47.676638" lon="11.757763"><ele>752.5</ele></trkpt><trkpt lat="47.677417" lon="11.758261"><ele>755</ele></trkpt><trkpt lat="47.677427" lon="11.758313"><ele>754.7</ele></trkpt><trkpt lat="47.677421" lon="11.758628"><ele>754</ele></trkpt><trkpt lat="47.67741" lon="11.758769"><ele>754</ele></trkpt><trkpt lat="47.677367" lon="11.75881"><ele>754</ele></trkpt><trkpt lat="47.677277" lon="11.758852"><ele>754</ele></trkpt><trkpt lat="47.677308" lon="11.758908"><ele>754</ele></trkpt><trkpt lat="47.677304" lon="11.75898"><ele>754</ele></trkpt><trkpt lat="47.677895" lon="11.758732"><ele>758.9</ele></trkpt><trkpt lat="47.678368" lon="11.758636"><ele>760.1</ele></trkpt><trkpt lat="47.678652" lon="11.758676"><ele>760.5</ele></trkpt><trkpt lat="47.678839" lon="11.758741"><ele>760.7</ele></trkpt><trkpt lat="47.679183" lon="11.758961"><ele>760.7</ele></trkpt><trkpt lat="47.679307" lon="11.758974"><ele>763</ele></trkpt><trkpt lat="47.679608" lon="11.759175"><ele>754</ele></trkpt><trkpt lat="47.679831" lon="11.75931"><ele>754</ele></trkpt><trkpt lat="47.679973" lon="11.759333"><ele>752.5</ele></trkpt><trkpt lat="47.680366" lon="11.75923"><ele>751</ele></trkpt><trkpt lat="47.680548" lon="11.759165"><ele>749.3</ele></trkpt><trkpt lat="47.68102" lon="11.758934"><ele>749</ele></trkpt><trkpt lat="47.681238" lon="11.758878"><ele>749</ele></trkpt><trkpt lat="47.681572" lon="11.75884"><ele>749.1</ele></trkpt><trkpt lat="47.681697" lon="11.758806"><ele>748.7</ele></trkpt><trkpt lat="47.681859" lon="11.758723"><ele>748</ele></trkpt><trkpt lat="47.682583" lon="11.758314"><ele>748</ele></trkpt><trkpt lat="47.682918" lon="11.758017"><ele>748</ele></trkpt><trkpt lat="47.683051" lon="11.757935"><ele>748</ele></trkpt><trkpt lat="47.683215" lon="11.757866"><ele>746.3</ele></trkpt><trkpt lat="47.683424" lon="11.757828"><ele>745.8</ele></trkpt><trkpt lat="47.684222" lon="11.757816"><ele>743</ele></trkpt><trkpt lat="47.684684" lon="11.757849"><ele>743</ele></trkpt><trkpt lat="47.684708" lon="11.757851"><ele>743</ele></trkpt><trkpt lat="47.68489" lon="11.757884"><ele>742.3</ele></trkpt><trkpt lat="47.685101" lon="11.757957"><ele>742.2</ele></trkpt><trkpt lat="47.685498" lon="11.758153"><ele>742</ele></trkpt><trkpt lat="47.685749" lon="11.758301"><ele>742</ele></trkpt><trkpt lat="47.685916" lon="11.75842"><ele>742</ele></trkpt><trkpt lat="47.685929" lon="11.75843"><ele>742</ele></trkpt><trkpt lat="47.686018" lon="11.758501"><ele>742</ele></trkpt><trkpt lat="47.686428" lon="11.758883"><ele>742</ele></trkpt><trkpt lat="47.686709" lon="11.759206"><ele>739</ele></trkpt><trkpt lat="47.686886" lon="11.759441"><ele>739</ele></trkpt><trkpt lat="47.686894" lon="11.759455"><ele>739</ele></trkpt><trkpt lat="47.686967" lon="11.759572"><ele>739</ele></trkpt><trkpt lat="47.687" lon="11.759633"><ele>739</ele></trkpt><trkpt lat="47.687057" lon="11.759741"><ele>739</ele></trkpt><trkpt lat="47.687144" lon="11.75991"><ele>739</ele></trkpt><trkpt lat="47.687216" lon="11.760099"><ele>739</ele></trkpt><trkpt lat="47.687295" lon="11.760363"><ele>739</ele></trkpt><trkpt lat="47.687331" lon="11.760512"><ele>739.9</ele></trkpt></trkseg></trk></gpx>