<gpx xmlns="http://www.topografix.com/GPX/1/1" xmlns:xsi="http://www.w3.org/2001/XMLSchema-instance" xsi:schemaLocation="http://www.topografix.com/GPX/1/1 http://www.topografix.com/GPX/1/1/gpx.xsd" version="1.1" creator="togpx"><metadata/><wpt lat="47.759637380334595" lon="12.911596298217775"><name></name><desc>label=Piding, BY,Germany</desc></wpt><wpt lat="47.76136832209688" lon="12.891855239868166"><name></name><desc>label=Schloßgraben, Piding,BY,Germany</desc></wpt><wpt lat="47.758396836644984" lon="12.891511917114258"><name></name><desc>label=Schloßgraben, Piding,BY,Germany</desc></wpt><wpt lat="47.75376978053774" lon="12.87614017724991"><name></name><desc>label=Fuderheustein, Piding,BY,Germany</desc></wpt><wpt lat="47.75507174517288" lon="12.849293947219849"><name></name><desc>label=Staufenkapelle, Piding,BY,Germany</desc></wpt><wpt lat="47.754958140137674" lon="12.848754823207857"><name></name><desc>label=Hochstaufen, Piding,BY,Germany</desc></wpt><wpt lat="47.752969110209236" lon="12.842218279838564"><name></name><desc>label=Bartlmahd, Bad Reichenhall,BY,Germany</desc></wpt><wpt lat="47.74212278098543" lon="12.851557731628418"><name></name><desc>label=Listseestraße, Bad Reichenhall,BY,Germany</desc></wpt><wpt lat="47.738457531009644" lon="12.853875160217285"><name></name><desc>label=Padinger Alm, Bad Reichenhall,BY,Germany</desc></wpt><wpt lat="47.73261279946487" lon="12.85104274749756"><name></name><desc>label=Im Poschengrund 24, Bad Reichenhall,BY,Germany</desc></wpt><wpt lat="47.72799427600125" lon="12.853403091430666"><name></name><desc>label=Am Eisenbichl 1, Bad Reichenhall,BY,Germany</desc></wpt><wpt lat="47.72175140199793" lon="12.866395711898805"><name></name><desc>label=Rosenstraße, Bad Reichenhall,BY,Germany</desc></wpt><wpt lat="47.71880472208923" lon="12.873865664005281"><name></name><desc>label=Anton-Winkler-Straße, Bad Reichenhall,BY,Germany</desc></wpt><wpt lat="47.72001192464231" lon="12.874442338943483"><name></name><desc>label=Tiroler Straße, Bad Reichenhall,BY,Germany</desc></wpt><wpt lat="47.72033311881652" lon="12.87553131580353"><name></name><desc>label=Domprobst-von-Lechner-Platz, Bad Reichenhall,BY,Germany</desc></wpt><wpt lat="47.721127073446475" lon="12.874876856803896"><name></name><desc>label=Kammerbotenstraße, Bad Reichenhall,BY,Germany</desc></wpt><wpt lat="47.722395571302286" lon="12.876153588294985"><name></name><desc>label=Rathausplatz, Bad Reichenhall,BY,Germany</desc></wpt><wpt lat="47.72429555369431" lon="12.877191603183748"><name></name><desc>label=Café Piaza, Bad Reichenhall,BY,Germany</desc></wpt><wpt lat="47.726283875111626" lon="12.878186702728273"><name></name><desc>label=Gartenweg, Bad Reichenhall,BY,Germany</desc></wpt><wpt lat="47.73064276064278" lon="12.881504595279695"><name></name><desc>label=Bahnhofplatz 1, Bad Reichenhall,BY,Germany</desc></wpt><wpt lat="47.731384240044434" lon="12.881850600242617"><name></name><desc>label=Bad Reichenhall, BY,Germany</desc></wpt><trk><name></name><desc>ascent=1645.2
descent=1631.2
opacity=0.9</desc><trkseg><trkpt lat="47.759634" lon="12.911603"><ele>451.5</ele></trkpt><trkpt lat="47.760024" lon="12.91208"><ele>451</ele></trkpt><trkpt lat="47.760015" lon="12.912096"><ele>451</ele></trkpt><trkpt lat="47.760138" lon="12.912244"><ele>451</ele></trkpt><trkpt lat="47.760209" lon="12.912106"><ele>451</ele></trkpt><trkpt lat="47.759991" lon="12.911724"><ele>455</ele></trkpt><trkpt lat="47.759798" lon="12.911424"><ele>452</ele></trkpt><trkpt lat="47.759815" lon="12.911052"><ele>452</ele></trkpt><trkpt lat="47.760028" lon="12.91067"><ele>448</ele></trkpt><trkpt lat="47.759771" lon="12.909275"><ele>452</ele></trkpt><trkpt lat="47.759734" lon="12.909134"><ele>452</ele></trkpt><trkpt lat="47.759523" lon="12.908501"><ele>452</ele></trkpt><trkpt lat="47.75926" lon="12.907744"><ele>451.4</ele></trkpt><trkpt lat="47.759173" lon="12.907439"><ele>451.1</ele></trkpt><trkpt lat="47.759105" lon="12.907094"><ele>450.9</ele></trkpt><trkpt lat="47.759087" lon="12.906896"><ele>450</ele></trkpt><trkpt lat="47.759072" lon="12.906596"><ele>450</ele></trkpt><trkpt lat="47.759043" lon="12.905928"><ele>450</ele></trkpt><trkpt lat="47.759027" lon="12.905538"><ele>452</ele></trkpt><trkpt lat="47.759011" lon="12.905166"><ele>452</ele></trkpt><trkpt lat="47.758999" lon="12.904956"><ele>453</ele></trkpt><trkpt lat="47.758965" lon="12.904184"><ele>453.3</ele></trkpt><trkpt lat="47.758944" lon="12.903978"><ele>454</ele></trkpt><trkpt lat="47.758912" lon="12.903821"><ele>454</ele></trkpt><trkpt lat="47.758796" lon="12.903447"><ele>454</ele></trkpt><trkpt lat="47.758661" lon="12.903043"><ele>453.1</ele></trkpt><trkpt lat="47.758617" lon="12.902841"><ele>453.1</ele></trkpt><trkpt lat="47.758569" lon="12.902462"><ele>453.1</ele></trkpt><trkpt lat="47.758579" lon="12.902085"><ele>453.1</ele></trkpt><trkpt lat="47.758608" lon="12.901872"><ele>453.1</ele></trkpt><trkpt lat="47.758658" lon="12.901678"><ele>453</ele></trkpt><trkpt lat="47.758849" lon="12.90124"><ele>458</ele></trkpt><trkpt lat="47.758899" lon="12.901097"><ele>458.4</ele></trkpt><trkpt lat="47.758924" lon="12.90097"><ele>458.3</ele></trkpt><trkpt lat="47.758952" lon="12.900658"><ele>458.5</ele></trkpt><trkpt lat="47.758947" lon="12.900563"><ele>459</ele></trkpt><trkpt lat="47.759059" lon="12.900528"><ele>459</ele></trkpt><trkpt lat="47.759404" lon="12.900655"><ele>459</ele></trkpt><trkpt lat="47.759643" lon="12.900757"><ele>458.8</ele></trkpt><trkpt lat="47.759756" lon="12.900778"><ele>458.8</ele></trkpt><trkpt lat="47.759906" lon="12.900735"><ele>458.8</ele></trkpt><trkpt lat="47.760314" lon="12.900558"><ele>458</ele></trkpt><trkpt lat="47.760179" lon="12.900167"><ele>458</ele></trkpt><trkpt lat="47.759971" lon="12.899434"><ele>461</ele></trkpt><trkpt lat="47.759835" lon="12.89907"><ele>462</ele></trkpt><trkpt lat="47.759783" lon="12.898872"><ele>463</ele></trkpt><trkpt lat="47.759774" lon="12.898821"><ele>463</ele></trkpt><trkpt lat="47.759711" lon="12.898485"><ele>463</ele></trkpt><trkpt lat="47.759673" lon="12.897914"><ele>479</ele></trkpt><trkpt lat="47.759671" lon="12.897659"><ele>479</ele></trkpt><trkpt lat="47.759706" lon="12.897436"><ele>487.4</ele></trkpt><trkpt lat="47.759752" lon="12.897286"><ele>488.6</ele></trkpt><trkpt lat="47.760059" lon="12.896553"><ele>493</ele></trkpt><trkpt lat="47.760356" lon="12.895905"><ele>503.6</ele></trkpt><trkpt lat="47.760757" lon="12.89512"><ele>506.1</ele></trkpt><trkpt lat="47.760879" lon="12.894767"><ele>507.4</ele></trkpt><trkpt lat="47.760954" lon="12.89446"><ele>508.2</ele></trkpt><trkpt lat="47.760985" lon="12.894198"><ele>508.4</ele></trkpt><trkpt lat="47.760975" lon="12.893982"><ele>509.3</ele></trkpt><trkpt lat="47.760899" lon="12.893562"><ele>509.5</ele></trkpt><trkpt lat="47.760901" lon="12.89342"><ele>509.9</ele></trkpt><trkpt lat="47.76091" lon="12.893316"><ele>510.1</ele></trkpt><trkpt lat="47.760993" lon="12.89307"><ele>511.4</ele></trkpt><trkpt lat="47.761024" lon="12.892899"><ele>511.4</ele></trkpt><trkpt lat="47.761021" lon="12.892557"><ele>511.7</ele></trkpt><trkpt lat="47.761048" lon="12.892385"><ele>512.3</ele></trkpt><trkpt lat="47.761108" lon="12.892216"><ele>512.9</ele></trkpt><trkpt lat="47.761175" lon="12.892087"><ele>513.7</ele></trkpt><trkpt lat="47.761371" lon="12.891861"><ele>514.7</ele></trkpt><trkpt lat="47.761478" lon="12.891738"><ele>515.7</ele></trkpt><trkpt lat="47.76153" lon="12.891654"><ele>516.8</ele></trkpt><trkpt lat="47.761564" lon="12.891584"><ele>518.1</ele></trkpt><trkpt lat="47.761593" lon="12.891405"><ele>536</ele></trkpt><trkpt lat="47.76158" lon="12.891369"><ele>536</ele></trkpt><trkpt lat="47.761566" lon="12.891323"><ele>536</ele></trkpt><trkpt lat="47.761518" lon="12.891124"><ele>536</ele></trkpt><trkpt lat="47.761483" lon="12.89099"><ele>536</ele></trkpt><trkpt lat="47.761486" lon="12.890764"><ele>543.1</ele></trkpt><trkpt lat="47.761503" lon="12.890659"><ele>543.9</ele></trkpt><trkpt lat="47.761535" lon="12.890555"><ele>544.7</ele></trkpt><trkpt lat="47.761599" lon="12.89048"><ele>549</ele></trkpt><trkpt lat="47.76166" lon="12.890362"><ele>553.4</ele></trkpt><trkpt lat="47.761698" lon="12.890242"><ele>552.3</ele></trkpt><trkpt lat="47.761729" lon="12.890103"><ele>551.3</ele></trkpt><trkpt lat="47.761734" lon="12.889956"><ele>551.7</ele></trkpt><trkpt lat="47.761707" lon="12.889732"><ele>552.1</ele></trkpt><trkpt lat="47.761661" lon="12.889631"><ele>553</ele></trkpt><trkpt lat="47.761503" lon="12.889573"><ele>555.3</ele></trkpt><trkpt lat="47.761069" lon="12.889692"><ele>558.3</ele></trkpt><trkpt lat="47.760293" lon="12.889981"><ele>566.6</ele></trkpt><trkpt lat="47.759926" lon="12.890056"><ele>569.8</ele></trkpt><trkpt lat="47.759816" lon="12.890114"><ele>575</ele></trkpt><trkpt lat="47.759573" lon="12.890487"><ele>573.3</ele></trkpt><trkpt lat="47.759468" lon="12.890766"><ele>573.1</ele></trkpt><trkpt lat="47.75935" lon="12.890978"><ele>572.7</ele></trkpt><trkpt lat="47.759188" lon="12.891133"><ele>573.9</ele></trkpt><trkpt lat="47.759033" lon="12.8912"><ele>583</ele></trkpt><trkpt lat="47.75881" lon="12.891288"><ele>582.4</ele></trkpt><trkpt lat="47.758654" lon="12.891443"><ele>581.5</ele></trkpt><trkpt lat="47.758462" lon="12.891537"><ele>580.7</ele></trkpt><trkpt lat="47.758431" lon="12.891574"><ele>580.3</ele></trkpt><trkpt lat="47.758257" lon="12.891785"><ele>579.9</ele></trkpt><trkpt lat="47.758151" lon="12.892021"><ele>579.6</ele></trkpt><trkpt lat="47.75807" lon="12.892251"><ele>579.8</ele></trkpt><trkpt lat="47.757977" lon="12.892425"><ele>579.9</ele></trkpt><trkpt lat="47.757971" lon="12.89263"><ele>579.1</ele></trkpt><trkpt lat="47.75794" lon="12.892878"><ele>579.8</ele></trkpt><trkpt lat="47.757797" lon="12.893096"><ele>580.7</ele></trkpt><trkpt lat="47.757623" lon="12.893288"><ele>581.3</ele></trkpt><trkpt lat="47.757188" lon="12.89371"><ele>582.5</ele></trkpt><trkpt lat="47.756928" lon="12.894027"><ele>582.7</ele></trkpt><trkpt lat="47.756786" lon="12.894098"><ele>586</ele></trkpt><trkpt lat="47.756542" lon="12.89422"><ele>586.3</ele></trkpt><trkpt lat="47.756393" lon="12.894332"><ele>586.2</ele></trkpt><trkpt lat="47.756288" lon="12.89453"><ele>586</ele></trkpt><trkpt lat="47.755282" lon="12.895934"><ele>589.1</ele></trkpt><trkpt lat="47.755114" lon="12.89627"><ele>594.8</ele></trkpt><trkpt lat="47.755052" lon="12.896512"><ele>596.1</ele></trkpt><trkpt lat="47.754971" lon="12.896679"><ele>598</ele></trkpt><trkpt lat="47.754865" lon="12.896822"><ele>598.8</ele></trkpt><trkpt lat="47.754623" lon="12.896959"><ele>600.4</ele></trkpt><trkpt lat="47.754406" lon="12.89712"><ele>601.2</ele></trkpt><trkpt lat="47.754157" lon="12.897456"><ele>602.9</ele></trkpt><trkpt lat="47.753928" lon="12.897611"><ele>600</ele></trkpt><trkpt lat="47.753766" lon="12.897785"><ele>599.7</ele></trkpt><trkpt lat="47.75358" lon="12.898065"><ele>595.6</ele></trkpt><trkpt lat="47.752865" lon="12.898891"><ele>584.8</ele></trkpt><trkpt lat="47.752381" lon="12.899555"><ele>583.6</ele></trkpt><trkpt lat="47.752164" lon="12.89976"><ele>577</ele></trkpt><trkpt lat="47.752193" lon="12.899632"><ele>609.6</ele></trkpt><trkpt lat="47.752023" lon="12.899606"><ele>615</ele></trkpt><trkpt lat="47.752112" lon="12.899449"><ele>617.3</ele></trkpt><trkpt lat="47.751916" lon="12.89946"><ele>619.6</ele></trkpt><trkpt lat="47.75198" lon="12.899316"><ele>624.8</ele></trkpt><trkpt lat="47.751856" lon="12.899285"><ele>632.3</ele></trkpt><trkpt lat="47.751981" lon="12.899077"><ele>643.3</ele></trkpt><trkpt lat="47.751844" lon="12.899044"><ele>648.1</ele></trkpt><trkpt lat="47.751716" lon="12.898893"><ele>649.7</ele></trkpt><trkpt lat="47.751754" lon="12.8986"><ele>651.3</ele></trkpt><trkpt lat="47.751668" lon="12.89853"><ele>655.5</ele></trkpt><trkpt lat="47.751784" lon="12.898294"><ele>657.3</ele></trkpt><trkpt lat="47.75173" lon="12.898272"><ele>659.3</ele></trkpt><trkpt lat="47.751732" lon="12.898105"><ele>659.3</ele></trkpt><trkpt lat="47.751919" lon="12.897912"><ele>657</ele></trkpt><trkpt lat="47.751642" lon="12.8978"><ele>667</ele></trkpt><trkpt lat="47.751409" lon="12.897508"><ele>675.9</ele></trkpt><trkpt lat="47.75144" lon="12.897413"><ele>678.8</ele></trkpt><trkpt lat="47.751577" lon="12.897316"><ele>679.1</ele></trkpt><trkpt lat="47.751536" lon="12.897186"><ele>676.9</ele></trkpt><trkpt lat="47.751597" lon="12.897119"><ele>676.4</ele></trkpt><trkpt lat="47.750796" lon="12.897074"><ele>680</ele></trkpt><trkpt lat="47.750652" lon="12.897149"><ele>685.9</ele></trkpt><trkpt lat="47.750532" lon="12.896927"><ele>684.1</ele></trkpt><trkpt lat="47.750321" lon="12.896972"><ele>683.5</ele></trkpt><trkpt lat="47.750108" lon="12.896891"><ele>683.9</ele></trkpt><trkpt lat="47.749956" lon="12.896707"><ele>680.7</ele></trkpt><trkpt lat="47.74999" lon="12.896673"><ele>682.6</ele></trkpt><trkpt lat="47.749947" lon="12.896456"><ele>698</ele></trkpt><trkpt lat="47.750195" lon="12.896616"><ele>766</ele></trkpt><trkpt lat="47.750282" lon="12.896745"><ele>766.5</ele></trkpt><trkpt lat="47.750343" lon="12.896686"><ele>771.9</ele></trkpt><trkpt lat="47.750315" lon="12.896645"><ele>774</ele></trkpt><trkpt lat="47.750528" lon="12.896527"><ele>788.4</ele></trkpt><trkpt lat="47.750678" lon="12.896611"><ele>789.5</ele></trkpt><trkpt lat="47.750681" lon="12.896489"><ele>792.8</ele></trkpt><trkpt lat="47.750449" lon="12.896303"><ele>794</ele></trkpt><trkpt lat="47.750737" lon="12.896382"><ele>797.2</ele></trkpt><trkpt lat="47.7508" lon="12.896301"><ele>798.5</ele></trkpt><trkpt lat="47.75058" lon="12.896092"><ele>799.8</ele></trkpt><trkpt lat="47.750704" lon="12.896172"><ele>801.2</ele></trkpt><trkpt lat="47.750725" lon="12.896072"><ele>802.6</ele></trkpt><trkpt lat="47.750588" lon="12.895973"><ele>806.5</ele></trkpt><trkpt lat="47.750463" lon="12.895722"><ele>808</ele></trkpt><trkpt lat="47.750546" lon="12.895793"><ele>808.8</ele></trkpt><trkpt lat="47.750575" lon="12.895917"><ele>809.6</ele></trkpt><trkpt lat="47.750697" lon="12.895964"><ele>811.1</ele></trkpt><trkpt lat="47.750829" lon="12.895809"><ele>824.8</ele></trkpt><trkpt lat="47.750693" lon="12.89563"><ele>825.8</ele></trkpt><trkpt lat="47.750752" lon="12.89568"><ele>826.9</ele></trkpt><trkpt lat="47.750866" lon="12.895706"><ele>829.5</ele></trkpt><trkpt lat="47.750788" lon="12.895442"><ele>829.5</ele></trkpt><trkpt lat="47.750888" lon="12.895584"><ele>830.6</ele></trkpt><trkpt lat="47.750864" lon="12.89538"><ele>832.1</ele></trkpt><trkpt lat="47.750909" lon="12.895269"><ele>832.3</ele></trkpt><trkpt lat="47.750854" lon="12.895151"><ele>833.7</ele></trkpt><trkpt lat="47.75095" lon="12.8949"><ele>842</ele></trkpt><trkpt lat="47.751154" lon="12.894988"><ele>844.6</ele></trkpt><trkpt lat="47.750942" lon="12.894823"><ele>845.9</ele></trkpt><trkpt lat="47.751039" lon="12.894724"><ele>848</ele></trkpt><trkpt lat="47.751041" lon="12.894821"><ele>845</ele></trkpt><trkpt lat="47.751128" lon="12.894856"><ele>844.5</ele></trkpt><trkpt lat="47.75107" lon="12.894611"><ele>849.3</ele></trkpt><trkpt lat="47.751119" lon="12.894496"><ele>851.6</ele></trkpt><trkpt lat="47.751041" lon="12.894085"><ele>858.4</ele></trkpt><trkpt lat="47.751055" lon="12.89389"><ele>865.1</ele></trkpt><trkpt lat="47.751138" lon="12.893956"><ele>864.1</ele></trkpt><trkpt lat="47.751134" lon="12.894144"><ele>855.5</ele></trkpt><trkpt lat="47.751172" lon="12.894213"><ele>852.9</ele></trkpt><trkpt lat="47.751288" lon="12.894303"><ele>852.6</ele></trkpt><trkpt lat="47.751277" lon="12.894156"><ele>859.2</ele></trkpt><trkpt lat="47.751357" lon="12.89405"><ele>859.5</ele></trkpt><trkpt lat="47.751359" lon="12.893859"><ele>861.8</ele></trkpt><trkpt lat="47.7515" lon="12.893735"><ele>864.2</ele></trkpt><trkpt lat="47.751453" lon="12.893382"><ele>865.6</ele></trkpt><trkpt lat="47.751687" lon="12.893353"><ele>865.6</ele></trkpt><trkpt lat="47.75158" lon="12.893056"><ele>864.8</ele></trkpt><trkpt lat="47.751744" lon="12.893052"><ele>963</ele></trkpt><trkpt lat="47.751793" lon="12.892922"><ele>985.1</ele></trkpt><trkpt lat="47.751823" lon="12.892224"><ele>1000.2</ele></trkpt><trkpt lat="47.751724" lon="12.891817"><ele>1003.5</ele></trkpt><trkpt lat="47.751737" lon="12.891657"><ele>1004.7</ele></trkpt><trkpt lat="47.751857" lon="12.891712"><ele>1004.6</ele></trkpt><trkpt lat="47.75188" lon="12.891648"><ele>1006.4</ele></trkpt><trkpt lat="47.751953" lon="12.890837"><ele>1011.1</ele></trkpt><trkpt lat="47.751968" lon="12.890785"><ele>1011.5</ele></trkpt><trkpt lat="47.752071" lon="12.890883"><ele>1011</ele></trkpt><trkpt lat="47.752135" lon="12.890615"><ele>1011.3</ele></trkpt><trkpt lat="47.752122" lon="12.890374"><ele>1010.9</ele></trkpt><trkpt lat="47.752183" lon="12.890337"><ele>1010.4</ele></trkpt><trkpt lat="47.75217" lon="12.890218"><ele>1010.6</ele></trkpt><trkpt lat="47.752275" lon="12.89015"><ele>1010</ele></trkpt><trkpt lat="47.752391" lon="12.889801"><ele>1010.3</ele></trkpt><trkpt lat="47.752682" lon="12.887736"><ele>1070.3</ele></trkpt><trkpt lat="47.752865" lon="12.88705"><ele>1074.1</ele></trkpt><trkpt lat="47.752887" lon="12.88691"><ele>1076</ele></trkpt><trkpt lat="47.75283" lon="12.886521"><ele>1133.4</ele></trkpt><trkpt lat="47.752894" lon="12.886279"><ele>1151.7</ele></trkpt><trkpt lat="47.752778" lon="12.885984"><ele>1161.6</ele></trkpt><trkpt lat="47.752883" lon="12.885659"><ele>1168.1</ele></trkpt><trkpt lat="47.752805" lon="12.885489"><ele>1172.9</ele></trkpt><trkpt lat="47.752767" lon="12.885195"><ele>1175.2</ele></trkpt><trkpt lat="47.752644" lon="12.8851"><ele>1176.4</ele></trkpt><trkpt lat="47.752668" lon="12.884923"><ele>1187.9</ele></trkpt><trkpt lat="47.752603" lon="12.884952"><ele>1183.9</ele></trkpt><trkpt lat="47.752724" lon="12.884389"><ele>1192.5</ele></trkpt><trkpt lat="47.752477" lon="12.884678"><ele>1188.5</ele></trkpt><trkpt lat="47.7525" lon="12.884627"><ele>1188.7</ele></trkpt><trkpt lat="47.752462" lon="12.884664"><ele>1189</ele></trkpt><trkpt lat="47.752341" lon="12.884589"><ele>1191.5</ele></trkpt><trkpt lat="47.752262" lon="12.884471"><ele>1195.6</ele></trkpt><trkpt lat="47.752259" lon="12.884288"><ele>1198.5</ele></trkpt><trkpt lat="47.752206" lon="12.884175"><ele>1201.2</ele></trkpt><trkpt lat="47.752359" lon="12.884101"><ele>1201.9</ele></trkpt><trkpt lat="47.752387" lon="12.883891"><ele>1203.4</ele></trkpt><trkpt lat="47.752479" lon="12.883954"><ele>1203.5</ele></trkpt><trkpt lat="47.752549" lon="12.883572"><ele>1207.3</ele></trkpt><trkpt lat="47.752464" lon="12.8836"><ele>1206.7</ele></trkpt><trkpt lat="47.752484" lon="12.883411"><ele>1208.3</ele></trkpt><trkpt lat="47.752611" lon="12.883009"><ele>1211.7</ele></trkpt><trkpt lat="47.752526" lon="12.883124"><ele>1208.8</ele></trkpt><trkpt lat="47.752468" lon="12.883028"><ele>1208.8</ele></trkpt><trkpt lat="47.752542" lon="12.882599"><ele>1216.9</ele></trkpt><trkpt lat="47.75255" lon="12.882336"><ele>1215.5</ele></trkpt><trkpt lat="47.752501" lon="12.882276"><ele>1214.6</ele></trkpt><trkpt lat="47.752535" lon="12.881631"><ele>1215</ele></trkpt><trkpt lat="47.75247" lon="12.881385"><ele>1213.6</ele></trkpt><trkpt lat="47.752283" lon="12.881125"><ele>1213.9</ele></trkpt><trkpt lat="47.752223" lon="12.880898"><ele>1214.2</ele></trkpt><trkpt lat="47.752401" lon="12.880596"><ele>1213.9</ele></trkpt><trkpt lat="47.752361" lon="12.880703"><ele>1215</ele></trkpt><trkpt lat="47.752451" lon="12.880661"><ele>1215.9</ele></trkpt><trkpt lat="47.752397" lon="12.88088"><ele>1216.9</ele></trkpt><trkpt lat="47.752483" lon="12.880787"><ele>1217</ele></trkpt><trkpt lat="47.752472" lon="12.88087"><ele>1218.1</ele></trkpt><trkpt lat="47.752499" lon="12.880855"><ele>1218.3</ele></trkpt><trkpt lat="47.752597" lon="12.880742"><ele>1218.9</ele></trkpt><trkpt lat="47.753276" lon="12.879058"><ele>1241.4</ele></trkpt><trkpt lat="47.753369" lon="12.87861"><ele>1249.2</ele></trkpt><trkpt lat="47.753345" lon="12.878291"><ele>1245.6</ele></trkpt><trkpt lat="47.753283" lon="12.87811"><ele>1244.6</ele></trkpt><trkpt lat="47.753288" lon="12.877843"><ele>1249.2</ele></trkpt><trkpt lat="47.753475" lon="12.877607"><ele>1255</ele></trkpt><trkpt lat="47.753629" lon="12.87724"><ele>1254.2</ele></trkpt><trkpt lat="47.753778" lon="12.876716"><ele>1255.1</ele></trkpt><trkpt lat="47.753819" lon="12.876307"><ele>1255.8</ele></trkpt><trkpt lat="47.753956" lon="12.875979"><ele>1257.6</ele></trkpt><trkpt lat="47.75407" lon="12.875498"><ele>1257.4</ele></trkpt><trkpt lat="47.754009" lon="12.875023"><ele>1261</ele></trkpt><trkpt lat="47.753778" lon="12.875387"><ele>1261</ele></trkpt><trkpt lat="47.753783" lon="12.8756"><ele>1261</ele></trkpt><trkpt lat="47.753742" lon="12.875661"><ele>1261</ele></trkpt><trkpt lat="47.753718" lon="12.875819"><ele>1261</ele></trkpt><trkpt lat="47.75371" lon="12.876022"><ele>1261</ele></trkpt><trkpt lat="47.753766" lon="12.876144"><ele>1261</ele></trkpt><trkpt lat="47.75371" lon="12.876022"><ele>1261</ele></trkpt><trkpt lat="47.753718" lon="12.875819"><ele>1261</ele></trkpt><trkpt lat="47.753742" lon="12.875661"><ele>1261</ele></trkpt><trkpt lat="47.753783" lon="12.8756"><ele>1261</ele></trkpt><trkpt lat="47.753778" lon="12.875387"><ele>1261</ele></trkpt><trkpt lat="47.754009" lon="12.875023"><ele>1261</ele></trkpt><trkpt lat="47.753979" lon="12.87361"><ele>1303.3</ele></trkpt><trkpt lat="47.754052" lon="12.872853"><ele>1309.5</ele></trkpt><trkpt lat="47.754364" lon="12.871763"><ele>1300.8</ele></trkpt><trkpt lat="47.754301" lon="12.871106"><ele>1296.3</ele></trkpt><trkpt lat="47.75439" lon="12.870588"><ele>1293.5</ele></trkpt><trkpt lat="47.754307" lon="12.870117"><ele>1291.7</ele></trkpt><trkpt lat="47.754011" lon="12.869324"><ele>1287</ele></trkpt><trkpt lat="47.753969" lon="12.868966"><ele>1282.2</ele></trkpt><trkpt lat="47.753923" lon="12.868213"><ele>1275.7</ele></trkpt><trkpt lat="47.753877" lon="12.868064"><ele>1273.7</ele></trkpt><trkpt lat="47.7537" lon="12.867834"><ele>1270.7</ele></trkpt><trkpt lat="47.753476" lon="12.867646"><ele>1270</ele></trkpt><trkpt lat="47.753258" lon="12.867386"><ele>1268</ele></trkpt><trkpt lat="47.753089" lon="12.867148"><ele>1267.3</ele></trkpt><trkpt lat="47.752903" lon="12.866866"><ele>1266.3</ele></trkpt><trkpt lat="47.752797" lon="12.866653"><ele>1266</ele></trkpt><trkpt lat="47.75276" lon="12.866414"><ele>1266.6</ele></trkpt><trkpt lat="47.752814" lon="12.866009"><ele>1266.9</ele></trkpt><trkpt lat="47.752866" lon="12.865847"><ele>1267.4</ele></trkpt><trkpt lat="47.753049" lon="12.865809"><ele>1268.4</ele></trkpt><trkpt lat="47.753545" lon="12.865332"><ele>1278</ele></trkpt><trkpt lat="47.753668" lon="12.865195"><ele>1276.5</ele></trkpt><trkpt lat="47.75378" lon="12.86511"><ele>1276.3</ele></trkpt><trkpt lat="47.753932" lon="12.865071"><ele>1276.2</ele></trkpt><trkpt lat="47.754029" lon="12.864961"><ele>1276</ele></trkpt><trkpt lat="47.754049" lon="12.864837"><ele>1278.3</ele></trkpt><trkpt lat="47.754015" lon="12.864662"><ele>1279.4</ele></trkpt><trkpt lat="47.753924" lon="12.864404"><ele>1279.6</ele></trkpt><trkpt lat="47.753762" lon="12.863996"><ele>1279.9</ele></trkpt><trkpt lat="47.753607" lon="12.863717"><ele>1280.2</ele></trkpt><trkpt lat="47.753542" lon="12.86339"><ele>1280.6</ele></trkpt><trkpt lat="47.753546" lon="12.863004"><ele>1283.4</ele></trkpt><trkpt lat="47.753596" lon="12.862966"><ele>1282.6</ele></trkpt><trkpt lat="47.753599" lon="12.862786"><ele>1291</ele></trkpt><trkpt lat="47.753597" lon="12.862466"><ele>1333.1</ele></trkpt><trkpt lat="47.753733" lon="12.861995"><ele>1343.2</ele></trkpt><trkpt lat="47.753901" lon="12.86163"><ele>1349.6</ele></trkpt><trkpt lat="47.753985" lon="12.861295"><ele>1354.4</ele></trkpt><trkpt lat="47.753996" lon="12.860689"><ele>1363.8</ele></trkpt><trkpt lat="47.753952" lon="12.860607"><ele>1364.2</ele></trkpt><trkpt lat="47.753963" lon="12.860541"><ele>1364.5</ele></trkpt><trkpt lat="47.753937" lon="12.860349"><ele>1368.7</ele></trkpt><trkpt lat="47.753725" lon="12.860099"><ele>1371.8</ele></trkpt><trkpt lat="47.753797" lon="12.860087"><ele>1372.5</ele></trkpt><trkpt lat="47.753796" lon="12.860046"><ele>1373.2</ele></trkpt><trkpt lat="47.753901" lon="12.860054"><ele>1374</ele></trkpt><trkpt lat="47.753881" lon="12.859723"><ele>1380.7</ele></trkpt><trkpt lat="47.753994" lon="12.859556"><ele>1384.1</ele></trkpt><trkpt lat="47.753958" lon="12.859299"><ele>1385.7</ele></trkpt><trkpt lat="47.753967" lon="12.858984"><ele>1389.9</ele></trkpt><trkpt lat="47.754126" lon="12.858748"><ele>1389.3</ele></trkpt><trkpt lat="47.75413" lon="12.858447"><ele>1398.6</ele></trkpt><trkpt lat="47.754087" lon="12.858173"><ele>1405.5</ele></trkpt><trkpt lat="47.754013" lon="12.857898"><ele>1415.7</ele></trkpt><trkpt lat="47.753919" lon="12.857625"><ele>1422.9</ele></trkpt><trkpt lat="47.753803" lon="12.857513"><ele>1428.3</ele></trkpt><trkpt lat="47.753835" lon="12.857148"><ele>1435.9</ele></trkpt><trkpt lat="47.753762" lon="12.85681"><ele>1446.8</ele></trkpt><trkpt lat="47.753867" lon="12.856546"><ele>1450.5</ele></trkpt><trkpt lat="47.753856" lon="12.856383"><ele>1456</ele></trkpt><trkpt lat="47.753803" lon="12.856231"><ele>1456.3</ele></trkpt><trkpt lat="47.753628" lon="12.856005"><ele>1467.1</ele></trkpt><trkpt lat="47.753601" lon="12.855721"><ele>1477.6</ele></trkpt><trkpt lat="47.753705" lon="12.855555"><ele>1484.5</ele></trkpt><trkpt lat="47.753705" lon="12.85541"><ele>1491.5</ele></trkpt><trkpt lat="47.753644" lon="12.855184"><ele>1496.2</ele></trkpt><trkpt lat="47.753543" lon="12.855029"><ele>1501.4</ele></trkpt><trkpt lat="47.753397" lon="12.854907"><ele>1502.5</ele></trkpt><trkpt lat="47.753379" lon="12.854796"><ele>1504.6</ele></trkpt><trkpt lat="47.753392" lon="12.854637"><ele>1506.9</ele></trkpt><trkpt lat="47.753251" lon="12.85438"><ele>1511.4</ele></trkpt><trkpt lat="47.753302" lon="12.854219"><ele>1518.4</ele></trkpt><trkpt lat="47.753406" lon="12.854181"><ele>1528.5</ele></trkpt><trkpt lat="47.753586" lon="12.85429"><ele>1526.8</ele></trkpt><trkpt lat="47.75388" lon="12.854167"><ele>1533.5</ele></trkpt><trkpt lat="47.754022" lon="12.854343"><ele>1531.8</ele></trkpt><trkpt lat="47.754129" lon="12.854208"><ele>1535.7</ele></trkpt><trkpt lat="47.754088" lon="12.854031"><ele>1543</ele></trkpt><trkpt lat="47.754262" lon="12.853988"><ele>1546.6</ele></trkpt><trkpt lat="47.754365" lon="12.853879"><ele>1550.6</ele></trkpt><trkpt lat="47.754361" lon="12.853686"><ele>1554.6</ele></trkpt><trkpt lat="47.754136" lon="12.853249"><ele>1559.5</ele></trkpt><trkpt lat="47.754439" lon="12.85326"><ele>1573.6</ele></trkpt><trkpt lat="47.754443" lon="12.852914"><ele>1572.4</ele></trkpt><trkpt lat="47.754426" lon="12.852575"><ele>1578.8</ele></trkpt><trkpt lat="47.754667" lon="12.851975"><ele>1605.3</ele></trkpt><trkpt lat="47.754613" lon="12.851717"><ele>1614.4</ele></trkpt><trkpt lat="47.754606" lon="12.851374"><ele>1641.8</ele></trkpt><trkpt lat="47.754714" lon="12.850843"><ele>1661.1</ele></trkpt><trkpt lat="47.754682" lon="12.850558"><ele>1668.6</ele></trkpt><trkpt lat="47.754832" lon="12.85049"><ele>1669.3</ele></trkpt><trkpt lat="47.754838" lon="12.850283"><ele>1670.2</ele></trkpt><trkpt lat="47.754888" lon="12.850067"><ele>1676.7</ele></trkpt><trkpt lat="47.755027" lon="12.849986"><ele>1684.2</ele></trkpt><trkpt lat="47.754999" lon="12.849636"><ele>1682.2</ele></trkpt><trkpt lat="47.755026" lon="12.849522"><ele>1731</ele></trkpt><trkpt lat="47.755044" lon="12.849463"><ele>1731</ele></trkpt><trkpt lat="47.755056" lon="12.849279"><ele>1731</ele></trkpt><trkpt lat="47.755066" lon="12.8493"><ele>1731</ele></trkpt><trkpt lat="47.755125" lon="12.849421"><ele>1731</ele></trkpt><trkpt lat="47.755141" lon="12.849414"><ele>1731</ele></trkpt><trkpt lat="47.755208" lon="12.84965"><ele>1731</ele></trkpt><trkpt lat="47.755261" lon="12.849482"><ele>1731</ele></trkpt><trkpt lat="47.755251" lon="12.849309"><ele>1731</ele></trkpt><trkpt lat="47.755254" lon="12.849184"><ele>1731.6</ele></trkpt><trkpt lat="47.755205" lon="12.848916"><ele>1731.7</ele></trkpt><trkpt lat="47.75511" lon="12.848746"><ele>1731.7</ele></trkpt><trkpt lat="47.75508" lon="12.848526"><ele>1732</ele></trkpt><trkpt lat="47.755012" lon="12.848597"><ele>1716.3</ele></trkpt><trkpt lat="47.754982" lon="12.848585"><ele>1712.8</ele></trkpt><trkpt lat="47.75499" lon="12.848674"><ele>1709.8</ele></trkpt><trkpt lat="47.754972" lon="12.848734"><ele>1695</ele></trkpt><trkpt lat="47.75499" lon="12.848674"><ele>1709.8</ele></trkpt><trkpt lat="47.754982" lon="12.848585"><ele>1712.8</ele></trkpt><trkpt lat="47.755012" lon="12.848597"><ele>1716.3</ele></trkpt><trkpt lat="47.75508" lon="12.848526"><ele>1732</ele></trkpt><trkpt lat="47.75511" lon="12.848746"><ele>1731.7</ele></trkpt><trkpt lat="47.755205" lon="12.848916"><ele>1731.7</ele></trkpt><trkpt lat="47.755254" lon="12.849184"><ele>1731.6</ele></trkpt><trkpt lat="47.755251" lon="12.849309"><ele>1731</ele></trkpt><trkpt lat="47.755261" lon="12.849482"><ele>1731</ele></trkpt><trkpt lat="47.755208" lon="12.84965"><ele>1731</ele></trkpt><trkpt lat="47.755141" lon="12.849414"><ele>1731</ele></trkpt><trkpt lat="47.755125" lon="12.849421"><ele>1731</ele></trkpt><trkpt lat="47.755056" lon="12.849279"><ele>1731</ele></trkpt><trkpt lat="47.755044" lon="12.849463"><ele>1731</ele></trkpt><trkpt lat="47.755026" lon="12.849522"><ele>1731</ele></trkpt><trkpt lat="47.755008" lon="12.849348"><ele>1693.5</ele></trkpt><trkpt lat="47.754987" lon="12.849333"><ele>1693.1</ele></trkpt><trkpt lat="47.754968" lon="12.849478"><ele>1693</ele></trkpt><trkpt lat="47.754946" lon="12.849479"><ele>1692.7</ele></trkpt><trkpt lat="47.754948" lon="12.849403"><ele>1692.1</ele></trkpt><trkpt lat="47.754853" lon="12.849257"><ele>1689.4</ele></trkpt><trkpt lat="47.754875" lon="12.849468"><ele>1691.1</ele></trkpt><trkpt lat="47.75467" lon="12.849216"><ele>1688.7</ele></trkpt><trkpt lat="47.754518" lon="12.848971"><ele>1689</ele></trkpt><trkpt lat="47.754478" lon="12.848823"><ele>1689.4</ele></trkpt><trkpt lat="47.754489" lon="12.848696"><ele>1689.6</ele></trkpt><trkpt lat="47.754392" lon="12.84859"><ele>1690</ele></trkpt><trkpt lat="47.754308" lon="12.848203"><ele>1690.3</ele></trkpt><trkpt lat="47.754222" lon="12.848036"><ele>1690.6</ele></trkpt><trkpt lat="47.754205" lon="12.847882"><ele>1689.4</ele></trkpt><trkpt lat="47.75414" lon="12.84784"><ele>1685.8</ele></trkpt><trkpt lat="47.754089" lon="12.84771"><ele>1634</ele></trkpt><trkpt lat="47.754004" lon="12.847353"><ele>1635.1</ele></trkpt><trkpt lat="47.753998" lon="12.847049"><ele>1635.2</ele></trkpt><trkpt lat="47.753948" lon="12.846888"><ele>1634.8</ele></trkpt><trkpt lat="47.754011" lon="12.846566"><ele>1634.9</ele></trkpt><trkpt lat="47.753982" lon="12.846212"><ele>1634.7</ele></trkpt><trkpt lat="47.754011" lon="12.845834"><ele>1634.1</ele></trkpt><trkpt lat="47.753954" lon="12.845616"><ele>1634.5</ele></trkpt><trkpt lat="47.753901" lon="12.845095"><ele>1633</ele></trkpt><trkpt lat="47.7538" lon="12.84504"><ele>1633.2</ele></trkpt><trkpt lat="47.753707" lon="12.844937"><ele>1631.4</ele></trkpt><trkpt lat="47.753677" lon="12.844982"><ele>1631.9</ele></trkpt><trkpt lat="47.753634" lon="12.844929"><ele>1632.1</ele></trkpt><trkpt lat="47.753572" lon="12.844231"><ele>1618.8</ele></trkpt><trkpt lat="47.753416" lon="12.843586"><ele>1608.7</ele></trkpt><trkpt lat="47.753244" lon="12.843135"><ele>1597</ele></trkpt><trkpt lat="47.753172" lon="12.843035"><ele>1586.5</ele></trkpt><trkpt lat="47.753137" lon="12.84315"><ele>1596.1</ele></trkpt><trkpt lat="47.753081" lon="12.843085"><ele>1585.6</ele></trkpt><trkpt lat="47.753039" lon="12.842978"><ele>1584</ele></trkpt><trkpt lat="47.752979" lon="12.842642"><ele>1577.5</ele></trkpt><trkpt lat="47.752964" lon="12.842219"><ele>1574</ele></trkpt><trkpt lat="47.752961" lon="12.842143"><ele>1570.6</ele></trkpt><trkpt lat="47.752894" lon="12.842128"><ele>1570.4</ele></trkpt><trkpt lat="47.752767" lon="12.841881"><ele>1569.5</ele></trkpt><trkpt lat="47.752726" lon="12.841586"><ele>1565.4</ele></trkpt><trkpt lat="47.752801" lon="12.841669"><ele>1565.4</ele></trkpt><trkpt lat="47.752819" lon="12.841196"><ele>1562.3</ele></trkpt><trkpt lat="47.752774" lon="12.841032"><ele>1560.9</ele></trkpt><trkpt lat="47.752782" lon="12.840955"><ele>1559.5</ele></trkpt><trkpt lat="47.752856" lon="12.840863"><ele>1559.3</ele></trkpt><trkpt lat="47.752829" lon="12.840513"><ele>1556.9</ele></trkpt><trkpt lat="47.752848" lon="12.840486"><ele>1556.4</ele></trkpt><trkpt lat="47.752838" lon="12.840338"><ele>1556</ele></trkpt><trkpt lat="47.752874" lon="12.84006"><ele>1553.9</ele></trkpt><trkpt lat="47.752852" lon="12.839758"><ele>1553.5</ele></trkpt><trkpt lat="47.752874" lon="12.839514"><ele>1559</ele></trkpt><trkpt lat="47.752859" lon="12.839323"><ele>1528.4</ele></trkpt><trkpt lat="47.752849" lon="12.839316"><ele>1529.9</ele></trkpt><trkpt lat="47.752695" lon="12.839578"><ele>1535</ele></trkpt><trkpt lat="47.752711" lon="12.839308"><ele>1535.2</ele></trkpt><trkpt lat="47.752686" lon="12.839052"><ele>1533.8</ele></trkpt><trkpt lat="47.752621" lon="12.839104"><ele>1535.3</ele></trkpt><trkpt lat="47.752579" lon="12.838997"><ele>1533.7</ele></trkpt><trkpt lat="47.75255" lon="12.838829"><ele>1535.1</ele></trkpt><trkpt lat="47.752379" lon="12.838469"><ele>1530.3</ele></trkpt><trkpt lat="47.752328" lon="12.838297"><ele>1526</ele></trkpt><trkpt lat="47.752294" lon="12.837944"><ele>1486.8</ele></trkpt><trkpt lat="47.752263" lon="12.837832"><ele>1486.8</ele></trkpt><trkpt lat="47.752289" lon="12.837717"><ele>1486.9</ele></trkpt><trkpt lat="47.752216" lon="12.837227"><ele>1469.2</ele></trkpt><trkpt lat="47.752163" lon="12.83715"><ele>1465.2</ele></trkpt><trkpt lat="47.75212" lon="12.836844"><ele>1461.5</ele></trkpt><trkpt lat="47.751863" lon="12.836444"><ele>1460.8</ele></trkpt><trkpt lat="47.751833" lon="12.836199"><ele>1461.2</ele></trkpt><trkpt lat="47.751729" lon="12.836239"><ele>1461.1</ele></trkpt><trkpt lat="47.751675" lon="12.836312"><ele>1461.3</ele></trkpt><trkpt lat="47.751663" lon="12.836412"><ele>1460.9</ele></trkpt><trkpt lat="47.751586" lon="12.83639"><ele>1458.1</ele></trkpt><trkpt lat="47.751569" lon="12.836485"><ele>1457.6</ele></trkpt><trkpt lat="47.751498" lon="12.836576"><ele>1456.9</ele></trkpt><trkpt lat="47.751498" lon="12.836805"><ele>1456.6</ele></trkpt><trkpt lat="47.751533" lon="12.836879"><ele>1456.5</ele></trkpt><trkpt lat="47.751537" lon="12.836968"><ele>1456.2</ele></trkpt><trkpt lat="47.75151" lon="12.836907"><ele>1456.1</ele></trkpt><trkpt lat="47.751359" lon="12.836716"><ele>1454.8</ele></trkpt><trkpt lat="47.751333" lon="12.836704"><ele>1454.1</ele></trkpt><trkpt lat="47.751323" lon="12.836719"><ele>1454</ele></trkpt><trkpt lat="47.751387" lon="12.837004"><ele>1453.9</ele></trkpt><trkpt lat="47.751306" lon="12.837498"><ele>1452</ele></trkpt><trkpt lat="47.751314" lon="12.837585"><ele>1451.2</ele></trkpt><trkpt lat="47.751299" lon="12.83761"><ele>1450.9</ele></trkpt><trkpt lat="47.751262" lon="12.837574"><ele>1449.6</ele></trkpt><trkpt lat="47.751212" lon="12.837417"><ele>1449</ele></trkpt><trkpt lat="47.751045" lon="12.837193"><ele>1447.8</ele></trkpt><trkpt lat="47.750953" lon="12.837262"><ele>1445.9</ele></trkpt><trkpt lat="47.75092" lon="12.837316"><ele>1445.9</ele></trkpt><trkpt lat="47.750941" lon="12.837489"><ele>1446</ele></trkpt><trkpt lat="47.75092" lon="12.837536"><ele>1445.8</ele></trkpt><trkpt lat="47.750867" lon="12.83756"><ele>1444.1</ele></trkpt><trkpt lat="47.750845" lon="12.837598"><ele>1440.4</ele></trkpt><trkpt lat="47.750853" lon="12.837704"><ele>1440.3</ele></trkpt><trkpt lat="47.750834" lon="12.837957"><ele>1438.1</ele></trkpt><trkpt lat="47.750811" lon="12.837984"><ele>1436.8</ele></trkpt><trkpt lat="47.75073" lon="12.837876"><ele>1435.2</ele></trkpt><trkpt lat="47.750626" lon="12.837823"><ele>1433</ele></trkpt><trkpt lat="47.750587" lon="12.837859"><ele>1432.2</ele></trkpt><trkpt lat="47.750571" lon="12.837941"><ele>1431</ele></trkpt><trkpt lat="47.750578" lon="12.838206"><ele>1429.1</ele></trkpt><trkpt lat="47.750549" lon="12.838316"><ele>1426</ele></trkpt><trkpt lat="47.750488" lon="12.838338"><ele>1422.3</ele></trkpt><trkpt lat="47.750416" lon="12.838249"><ele>1421.6</ele></trkpt><trkpt lat="47.750349" lon="12.838441"><ele>1418.8</ele></trkpt><trkpt lat="47.750271" lon="12.838339"><ele>1417.6</ele></trkpt><trkpt lat="47.750209" lon="12.838472"><ele>1416.5</ele></trkpt><trkpt lat="47.750126" lon="12.83825"><ele>1415.8</ele></trkpt><trkpt lat="47.750099" lon="12.838394"><ele>1412.8</ele></trkpt><trkpt lat="47.750057" lon="12.838449"><ele>1376</ele></trkpt><trkpt lat="47.749905" lon="12.839244"><ele>1315.5</ele></trkpt><trkpt lat="47.750071" lon="12.839666"><ele>1315.6</ele></trkpt><trkpt lat="47.750134" lon="12.839924"><ele>1316.3</ele></trkpt><trkpt lat="47.750146" lon="12.840113"><ele>1316.5</ele></trkpt><trkpt lat="47.750113" lon="12.840202"><ele>1317.4</ele></trkpt><trkpt lat="47.750061" lon="12.839998"><ele>1318.6</ele></trkpt><trkpt lat="47.750037" lon="12.84"><ele>1319.5</ele></trkpt><trkpt lat="47.750022" lon="12.840026"><ele>1320.3</ele></trkpt><trkpt lat="47.750008" lon="12.840242"><ele>1321.1</ele></trkpt><trkpt lat="47.749963" lon="12.840081"><ele>1320.1</ele></trkpt><trkpt lat="47.749946" lon="12.840085"><ele>1319.8</ele></trkpt><trkpt lat="47.749943" lon="12.840146"><ele>1319.5</ele></trkpt><trkpt lat="47.749924" lon="12.840163"><ele>1319.2</ele></trkpt><trkpt lat="47.749882" lon="12.84008"><ele>1318.6</ele></trkpt><trkpt lat="47.74984" lon="12.840069"><ele>1318.3</ele></trkpt><trkpt lat="47.749763" lon="12.84059"><ele>1308.5</ele></trkpt><trkpt lat="47.749723" lon="12.840609"><ele>1308.5</ele></trkpt><trkpt lat="47.74969" lon="12.840605"><ele>1307.2</ele></trkpt><trkpt lat="47.749607" lon="12.840442"><ele>1308.5</ele></trkpt><trkpt lat="47.749533" lon="12.840377"><ele>1307.2</ele></trkpt><trkpt lat="47.749458" lon="12.840408"><ele>1305.9</ele></trkpt><trkpt lat="47.749458" lon="12.840571"><ele>1304.5</ele></trkpt><trkpt lat="47.749395" lon="12.840604"><ele>1303.2</ele></trkpt><trkpt lat="47.749486" lon="12.840798"><ele>1302.8</ele></trkpt><trkpt lat="47.749475" lon="12.840907"><ele>1300.3</ele></trkpt><trkpt lat="47.749429" lon="12.840995"><ele>1295.4</ele></trkpt><trkpt lat="47.749314" lon="12.841112"><ele>1293.6</ele></trkpt><trkpt lat="47.749258" lon="12.841226"><ele>1290.9</ele></trkpt><trkpt lat="47.749175" lon="12.841475"><ele>1286.6</ele></trkpt><trkpt lat="47.749042" lon="12.841736"><ele>1268.6</ele></trkpt><trkpt lat="47.749089" lon="12.841505"><ele>1277.8</ele></trkpt><trkpt lat="47.749084" lon="12.841224"><ele>1285.7</ele></trkpt><trkpt lat="47.748857" lon="12.841562"><ele>1264.9</ele></trkpt><trkpt lat="47.748811" lon="12.841547"><ele>1264.4</ele></trkpt><trkpt lat="47.748771" lon="12.841625"><ele>1264</ele></trkpt><trkpt lat="47.748692" lon="12.841917"><ele>1245.3</ele></trkpt><trkpt lat="47.748699" lon="12.842058"><ele>1242.7</ele></trkpt><trkpt lat="47.748682" lon="12.842303"><ele>1230.5</ele></trkpt><trkpt lat="47.748619" lon="12.842488"><ele>1225.4</ele></trkpt><trkpt lat="47.748622" lon="12.842563"><ele>1225.3</ele></trkpt><trkpt lat="47.748678" lon="12.842762"><ele>1223.9</ele></trkpt><trkpt lat="47.748716" lon="12.843329"><ele>1217.4</ele></trkpt><trkpt lat="47.748678" lon="12.843462"><ele>1217.4</ele></trkpt><trkpt lat="47.748644" lon="12.843737"><ele>1214.6</ele></trkpt><trkpt lat="47.748614" lon="12.843759"><ele>1214.8</ele></trkpt><trkpt lat="47.748616" lon="12.843602"><ele>1215.6</ele></trkpt><trkpt lat="47.748604" lon="12.843588"><ele>1215.7</ele></trkpt><trkpt lat="47.748538" lon="12.843772"><ele>1215.1</ele></trkpt><trkpt lat="47.748494" lon="12.843844"><ele>1215.1</ele></trkpt><trkpt lat="47.748494" lon="12.844029"><ele>1215</ele></trkpt><trkpt lat="47.748463" lon="12.844052"><ele>1214.9</ele></trkpt><trkpt lat="47.748421" lon="12.843965"><ele>1215.3</ele></trkpt><trkpt lat="47.748421" lon="12.843841"><ele>1215.5</ele></trkpt><trkpt lat="47.748346" lon="12.843822"><ele>1215.6</ele></trkpt><trkpt lat="47.748297" lon="12.84389"><ele>1213.9</ele></trkpt><trkpt lat="47.748253" lon="12.843904"><ele>1210.9</ele></trkpt><trkpt lat="47.748289" lon="12.843659"><ele>1208.7</ele></trkpt><trkpt lat="47.748228" lon="12.843369"><ele>1207</ele></trkpt><trkpt lat="47.748182" lon="12.843284"><ele>1207.6</ele></trkpt><trkpt lat="47.748147" lon="12.843278"><ele>1153</ele></trkpt><trkpt lat="47.74808" lon="12.843379"><ele>1134.6</ele></trkpt><trkpt lat="47.748072" lon="12.843479"><ele>1135.7</ele></trkpt><trkpt lat="47.748025" lon="12.843437"><ele>1136.8</ele></trkpt><trkpt lat="47.748028" lon="12.843471"><ele>1137.8</ele></trkpt><trkpt lat="47.747855" lon="12.843849"><ele>1136.7</ele></trkpt><trkpt lat="47.747784" lon="12.843492"><ele>1137.7</ele></trkpt><trkpt lat="47.747574" lon="12.84382"><ele>1132.2</ele></trkpt><trkpt lat="47.747474" lon="12.84418"><ele>1131</ele></trkpt><trkpt lat="47.747588" lon="12.844558"><ele>1132.2</ele></trkpt><trkpt lat="47.747356" lon="12.844431"><ele>1130.9</ele></trkpt><trkpt lat="47.747222" lon="12.844329"><ele>1129.7</ele></trkpt><trkpt lat="47.747216" lon="12.844155"><ele>1128</ele></trkpt><trkpt lat="47.747063" lon="12.844293"><ele>1122.6</ele></trkpt><trkpt lat="47.747004" lon="12.844009"><ele>1121.3</ele></trkpt><trkpt lat="47.74677" lon="12.844276"><ele>1104.2</ele></trkpt><trkpt lat="47.746432" lon="12.844353"><ele>1082</ele></trkpt><trkpt lat="47.746423" lon="12.843922"><ele>1074.4</ele></trkpt><trkpt lat="47.745803" lon="12.844276"><ele>1040.4</ele></trkpt><trkpt lat="47.745425" lon="12.844253"><ele>1018.6</ele></trkpt><trkpt lat="47.74542" lon="12.843979"><ele>1012.9</ele></trkpt><trkpt lat="47.745564" lon="12.843492"><ele>1031.8</ele></trkpt><trkpt lat="47.74534" lon="12.843389"><ele>1018.7</ele></trkpt><trkpt lat="47.745496" lon="12.842608"><ele>1019.3</ele></trkpt><trkpt lat="47.74531" lon="12.842692"><ele>1014.5</ele></trkpt><trkpt lat="47.745023" lon="12.843003"><ele>1001.5</ele></trkpt><trkpt lat="47.744823" lon="12.843178"><ele>988.6</ele></trkpt><trkpt lat="47.744219" lon="12.844083"><ele>935.5</ele></trkpt><trkpt lat="47.744152" lon="12.84445"><ele>930</ele></trkpt><trkpt lat="47.743859" lon="12.844172"><ele>924</ele></trkpt><trkpt lat="47.74371" lon="12.844176"><ele>922.8</ele></trkpt><trkpt lat="47.743633" lon="12.844298"><ele>914.7</ele></trkpt><trkpt lat="47.743718" lon="12.845136"><ele>908.6</ele></trkpt><trkpt lat="47.743578" lon="12.845273"><ele>904.9</ele></trkpt><trkpt lat="47.743544" lon="12.846175"><ele>893.5</ele></trkpt><trkpt lat="47.743729" lon="12.846598"><ele>882.2</ele></trkpt><trkpt lat="47.743638" lon="12.846666"><ele>883</ele></trkpt><trkpt lat="47.743682" lon="12.847219"><ele>862.8</ele></trkpt><trkpt lat="47.743886" lon="12.848137"><ele>846.2</ele></trkpt><trkpt lat="47.743786" lon="12.848106"><ele>850</ele></trkpt><trkpt lat="47.743905" lon="12.849013"><ele>836</ele></trkpt><trkpt lat="47.743733" lon="12.849108"><ele>835.5</ele></trkpt><trkpt lat="47.743331" lon="12.849136"><ele>830.5</ele></trkpt><trkpt lat="47.7431" lon="12.848715"><ele>826.3</ele></trkpt><trkpt lat="47.743061" lon="12.849129"><ele>789</ele></trkpt><trkpt lat="47.743051" lon="12.849401"><ele>780</ele></trkpt><trkpt lat="47.742884" lon="12.849619"><ele>768.5</ele></trkpt><trkpt lat="47.742411" lon="12.850779"><ele>760.8</ele></trkpt><trkpt lat="47.742256" lon="12.851244"><ele>756.1</ele></trkpt><trkpt lat="47.742116" lon="12.851431"><ele>750.6</ele></trkpt><trkpt lat="47.742086" lon="12.851534"><ele>750.3</ele></trkpt><trkpt lat="47.741947" lon="12.852016"><ele>750</ele></trkpt><trkpt lat="47.74196" lon="12.852446"><ele>750</ele></trkpt><trkpt lat="47.74189" lon="12.852529"><ele>745</ele></trkpt><trkpt lat="47.741832" lon="12.852655"><ele>732.1</ele></trkpt><trkpt lat="47.741741" lon="12.852759"><ele>728.9</ele></trkpt><trkpt lat="47.741175" lon="12.853192"><ele>724.7</ele></trkpt><trkpt lat="47.741073" lon="12.853211"><ele>724</ele></trkpt><trkpt lat="47.74096" lon="12.853166"><ele>723.2</ele></trkpt><trkpt lat="47.740753" lon="12.853012"><ele>721.5</ele></trkpt><trkpt lat="47.740561" lon="12.852937"><ele>720.8</ele></trkpt><trkpt lat="47.740429" lon="12.85279"><ele>721</ele></trkpt><trkpt lat="47.740375" lon="12.852805"><ele>707</ele></trkpt><trkpt lat="47.740269" lon="12.852988"><ele>690.2</ele></trkpt><trkpt lat="47.740249" lon="12.85313"><ele>689</ele></trkpt><trkpt lat="47.740276" lon="12.853282"><ele>687.7</ele></trkpt><trkpt lat="47.740558" lon="12.853704"><ele>686.3</ele></trkpt><trkpt lat="47.74062" lon="12.853822"><ele>686.3</ele></trkpt><trkpt lat="47.740656" lon="12.853937"><ele>686.2</ele></trkpt><trkpt lat="47.740662" lon="12.854047"><ele>686.1</ele></trkpt><trkpt lat="47.740593" lon="12.854373"><ele>686.5</ele></trkpt><trkpt lat="47.740477" lon="12.854684"><ele>680</ele></trkpt><trkpt lat="47.740425" lon="12.854907"><ele>675.5</ele></trkpt><trkpt lat="47.740377" lon="12.855041"><ele>675.2</ele></trkpt><trkpt lat="47.740255" lon="12.85522"><ele>674.1</ele></trkpt><trkpt lat="47.740071" lon="12.855376"><ele>672.8</ele></trkpt><trkpt lat="47.739891" lon="12.855445"><ele>672.5</ele></trkpt><trkpt lat="47.739786" lon="12.855618"><ele>673.2</ele></trkpt><trkpt lat="47.73965" lon="12.855749"><ele>669</ele></trkpt><trkpt lat="47.739578" lon="12.855787"><ele>669</ele></trkpt><trkpt lat="47.739513" lon="12.855779"><ele>669</ele></trkpt><trkpt lat="47.739324" lon="12.855698"><ele>669</ele></trkpt><trkpt lat="47.739145" lon="12.855665"><ele>664.9</ele></trkpt><trkpt lat="47.739052" lon="12.855685"><ele>664.5</ele></trkpt><trkpt lat="47.738949" lon="12.855747"><ele>663</ele></trkpt><trkpt lat="47.738695" lon="12.856029"><ele>658</ele></trkpt><trkpt lat="47.73857" lon="12.856166"><ele>658</ele></trkpt><trkpt lat="47.738527" lon="12.85591"><ele>658</ele></trkpt><trkpt lat="47.738518" lon="12.855806"><ele>655.3</ele></trkpt><trkpt lat="47.738328" lon="12.855429"><ele>637</ele></trkpt><trkpt lat="47.738469" lon="12.854562"><ele>656.1</ele></trkpt><trkpt lat="47.738501" lon="12.854201"><ele>665</ele></trkpt><trkpt lat="47.738512" lon="12.854059"><ele>659.8</ele></trkpt><trkpt lat="47.738502" lon="12.853895"><ele>659</ele></trkpt><trkpt lat="47.73848" lon="12.853851"><ele>658.4</ele></trkpt><trkpt lat="47.738426" lon="12.853743"><ele>657.8</ele></trkpt><trkpt lat="47.738273" lon="12.853575"><ele>652.8</ele></trkpt><trkpt lat="47.73815" lon="12.853326"><ele>649.7</ele></trkpt><trkpt lat="47.738045" lon="12.853004"><ele>646.7</ele></trkpt><trkpt lat="47.737876" lon="12.852871"><ele>645.1</ele></trkpt><trkpt lat="47.737653" lon="12.852787"><ele>642</ele></trkpt><trkpt lat="47.737598" lon="12.85273"><ele>641.3</ele></trkpt><trkpt lat="47.737504" lon="12.852391"><ele>636.4</ele></trkpt><trkpt lat="47.737426" lon="12.852206"><ele>634.9</ele></trkpt><trkpt lat="47.737335" lon="12.85207"><ele>634.4</ele></trkpt><trkpt lat="47.73704" lon="12.851844"><ele>635.2</ele></trkpt><trkpt lat="47.736834" lon="12.851339"><ele>624</ele></trkpt><trkpt lat="47.736609" lon="12.851112"><ele>589.5</ele></trkpt><trkpt lat="47.736515" lon="12.850926"><ele>589.8</ele></trkpt><trkpt lat="47.73647" lon="12.850637"><ele>590.4</ele></trkpt><trkpt lat="47.736603" lon="12.850202"><ele>590.9</ele></trkpt><trkpt lat="47.73666" lon="12.849915"><ele>591.2</ele></trkpt><trkpt lat="47.736653" lon="12.849735"><ele>577</ele></trkpt><trkpt lat="47.736518" lon="12.849614"><ele>574.7</ele></trkpt><trkpt lat="47.735818" lon="12.849435"><ele>561</ele></trkpt><trkpt lat="47.735429" lon="12.849285"><ele>561</ele></trkpt><trkpt lat="47.735355" lon="12.849216"><ele>559.9</ele></trkpt><trkpt lat="47.735205" lon="12.849124"><ele>559.5</ele></trkpt><trkpt lat="47.735011" lon="12.849061"><ele>558</ele></trkpt><trkpt lat="47.735017" lon="12.849041"><ele>558</ele></trkpt><trkpt lat="47.734373" lon="12.848583"><ele>547.7</ele></trkpt><trkpt lat="47.734331" lon="12.848571"><ele>548</ele></trkpt><trkpt lat="47.734219" lon="12.848643"><ele>548.5</ele></trkpt><trkpt lat="47.73416" lon="12.848715"><ele>547.7</ele></trkpt><trkpt lat="47.734095" lon="12.848866"><ele>547</ele></trkpt><trkpt lat="47.734055" lon="12.849093"><ele>546.4</ele></trkpt><trkpt lat="47.73408" lon="12.849344"><ele>531</ele></trkpt><trkpt lat="47.734162" lon="12.849707"><ele>529</ele></trkpt><trkpt lat="47.734267" lon="12.850031"><ele>529.5</ele></trkpt><trkpt lat="47.734425" lon="12.850824"><ele>530.3</ele></trkpt><trkpt lat="47.734432" lon="12.851097"><ele>522</ele></trkpt><trkpt lat="47.734297" lon="12.850916"><ele>522</ele></trkpt><trkpt lat="47.734083" lon="12.850647"><ele>520.1</ele></trkpt><trkpt lat="47.733989" lon="12.850624"><ele>519.3</ele></trkpt><trkpt lat="47.73386" lon="12.850704"><ele>518.5</ele></trkpt><trkpt lat="47.733767" lon="12.850828"><ele>514</ele></trkpt><trkpt lat="47.733592" lon="12.850754"><ele>514</ele></trkpt><trkpt lat="47.733382" lon="12.850732"><ele>514</ele></trkpt><trkpt lat="47.733264" lon="12.850748"><ele>510</ele></trkpt><trkpt lat="47.733092" lon="12.850712"><ele>510</ele></trkpt><trkpt lat="47.732982" lon="12.850684"><ele>505.2</ele></trkpt><trkpt lat="47.732903" lon="12.850734"><ele>505.7</ele></trkpt><trkpt lat="47.732722" lon="12.850988"><ele>505</ele></trkpt><trkpt lat="47.732636" lon="12.851053"><ele>504.4</ele></trkpt><trkpt lat="47.732617" lon="12.851062"><ele>504.2</ele></trkpt><trkpt lat="47.732521" lon="12.851106"><ele>503.9</ele></trkpt><trkpt lat="47.73236" lon="12.851136"><ele>503</ele></trkpt><trkpt lat="47.73208" lon="12.85115"><ele>495</ele></trkpt><trkpt lat="47.731973" lon="12.851066"><ele>495.3</ele></trkpt><trkpt lat="47.731791" lon="12.851005"><ele>495.2</ele></trkpt><trkpt lat="47.731681" lon="12.851015"><ele>495.2</ele></trkpt><trkpt lat="47.731522" lon="12.851113"><ele>495.4</ele></trkpt><trkpt lat="47.731503" lon="12.851109"><ele>496</ele></trkpt><trkpt lat="47.731482" lon="12.851103"><ele>496</ele></trkpt><trkpt lat="47.731388" lon="12.851103"><ele>493.8</ele></trkpt><trkpt lat="47.731285" lon="12.85124"><ele>494</ele></trkpt><trkpt lat="47.73122" lon="12.851275"><ele>494.1</ele></trkpt><trkpt lat="47.730863" lon="12.851362"><ele>494.4</ele></trkpt><trkpt lat="47.730783" lon="12.851362"><ele>493.8</ele></trkpt><trkpt lat="47.730548" lon="12.851285"><ele>492.7</ele></trkpt><trkpt lat="47.730442" lon="12.851276"><ele>487</ele></trkpt><trkpt lat="47.730165" lon="12.851268"><ele>487</ele></trkpt><trkpt lat="47.730004" lon="12.85129"><ele>487</ele></trkpt><trkpt lat="47.729846" lon="12.851304"><ele>481.7</ele></trkpt><trkpt lat="47.72981" lon="12.851335"><ele>479</ele></trkpt><trkpt lat="47.72964" lon="12.851343"><ele>484.6</ele></trkpt><trkpt lat="47.729055" lon="12.851826"><ele>486.5</ele></trkpt><trkpt lat="47.728608" lon="12.852402"><ele>494</ele></trkpt><trkpt lat="47.728593" lon="12.852487"><ele>487.8</ele></trkpt><trkpt lat="47.728393" lon="12.852898"><ele>487</ele></trkpt><trkpt lat="47.72824" lon="12.853167"><ele>487.1</ele></trkpt><trkpt lat="47.728021" lon="12.853449"><ele>484.9</ele></trkpt><trkpt lat="47.727396" lon="12.854255"><ele>482.7</ele></trkpt><trkpt lat="47.727085" lon="12.854605"><ele>472</ele></trkpt><trkpt lat="47.726984" lon="12.854782"><ele>472</ele></trkpt><trkpt lat="47.726952" lon="12.854865"><ele>472</ele></trkpt><trkpt lat="47.726881" lon="12.855069"><ele>466.4</ele></trkpt><trkpt lat="47.726838" lon="12.855276"><ele>466.7</ele></trkpt><trkpt lat="47.726809" lon="12.855572"><ele>467</ele></trkpt><trkpt lat="47.726821" lon="12.855881"><ele>465</ele></trkpt><trkpt lat="47.726504" lon="12.855903"><ele>465.7</ele></trkpt><trkpt lat="47.726346" lon="12.855963"><ele>466</ele></trkpt><trkpt lat="47.726078" lon="12.856124"><ele>466</ele></trkpt><trkpt lat="47.725911" lon="12.856265"><ele>466.1</ele></trkpt><trkpt lat="47.725774" lon="12.85641"><ele>466.3</ele></trkpt><trkpt lat="47.725432" lon="12.856836"><ele>466</ele></trkpt><trkpt lat="47.725342" lon="12.856921"><ele>466</ele></trkpt><trkpt lat="47.725034" lon="12.857213"><ele>465</ele></trkpt><trkpt lat="47.724647" lon="12.857487"><ele>463</ele></trkpt><trkpt lat="47.722897" lon="12.858733"><ele>463.4</ele></trkpt><trkpt lat="47.722615" lon="12.859033"><ele>463.5</ele></trkpt><trkpt lat="47.722384" lon="12.859439"><ele>463.5</ele></trkpt><trkpt lat="47.722259" lon="12.859774"><ele>463.4</ele></trkpt><trkpt lat="47.722096" lon="12.860494"><ele>463.6</ele></trkpt><trkpt lat="47.722057" lon="12.860746"><ele>463.6</ele></trkpt><trkpt lat="47.721984" lon="12.861553"><ele>464.3</ele></trkpt><trkpt lat="47.72193" lon="12.861774"><ele>466</ele></trkpt><trkpt lat="47.721837" lon="12.861978"><ele>466.5</ele></trkpt><trkpt lat="47.721621" lon="12.862173"><ele>468</ele></trkpt><trkpt lat="47.721715" lon="12.862502"><ele>467.4</ele></trkpt><trkpt lat="47.722228" lon="12.864011"><ele>467.5</ele></trkpt><trkpt lat="47.722264" lon="12.864178"><ele>467.4</ele></trkpt><trkpt lat="47.722262" lon="12.864267"><ele>467</ele></trkpt><trkpt lat="47.722195" lon="12.864293"><ele>467</ele></trkpt><trkpt lat="47.722373" lon="12.864968"><ele>467</ele></trkpt><trkpt lat="47.722518" lon="12.865713"><ele>471</ele></trkpt><trkpt lat="47.722365" lon="12.865795"><ele>470.3</ele></trkpt><trkpt lat="47.722234" lon="12.865939"><ele>471</ele></trkpt><trkpt lat="47.721957" lon="12.86621"><ele>471</ele></trkpt><trkpt lat="47.721897" lon="12.866266"><ele>471</ele></trkpt><trkpt lat="47.721753" lon="12.8664"><ele>471</ele></trkpt><trkpt lat="47.721667" lon="12.866481"><ele>471</ele></trkpt><trkpt lat="47.720787" lon="12.867375"><ele>469.7</ele></trkpt><trkpt lat="47.720601" lon="12.86754"><ele>469</ele></trkpt><trkpt lat="47.720476" lon="12.867596"><ele>469</ele></trkpt><trkpt lat="47.720186" lon="12.867704"><ele>469</ele></trkpt><trkpt lat="47.719856" lon="12.867679"><ele>471.7</ele></trkpt><trkpt lat="47.719266" lon="12.867554"><ele>473</ele></trkpt><trkpt lat="47.719247" lon="12.867595"><ele>473</ele></trkpt><trkpt lat="47.719219" lon="12.867693"><ele>473</ele></trkpt><trkpt lat="47.719124" lon="12.868087"><ele>471</ele></trkpt><trkpt lat="47.718897" lon="12.868818"><ele>471</ele></trkpt><trkpt lat="47.71873" lon="12.869303"><ele>470</ele></trkpt><trkpt lat="47.718711" lon="12.869353"><ele>470</ele></trkpt><trkpt lat="47.718562" lon="12.869784"><ele>470.7</ele></trkpt><trkpt lat="47.718346" lon="12.870274"><ele>472</ele></trkpt><trkpt lat="47.718162" lon="12.870769"><ele>471</ele></trkpt><trkpt lat="47.718134" lon="12.870953"><ele>471</ele></trkpt><trkpt lat="47.718166" lon="12.8712"><ele>471</ele></trkpt><trkpt lat="47.71821" lon="12.871326"><ele>471</ele></trkpt><trkpt lat="47.718264" lon="12.87142"><ele>471</ele></trkpt><trkpt lat="47.718368" lon="12.871725"><ele>470</ele></trkpt><trkpt lat="47.718762" lon="12.872895"><ele>467</ele></trkpt><trkpt lat="47.718795" lon="12.872987"><ele>467</ele></trkpt><trkpt lat="47.718767" lon="12.873009"><ele>467</ele></trkpt><trkpt lat="47.71876" lon="12.873014"><ele>467</ele></trkpt><trkpt lat="47.718709" lon="12.87311"><ele>467.9</ele></trkpt><trkpt lat="47.718701" lon="12.873208"><ele>467.7</ele></trkpt><trkpt lat="47.718796" lon="12.873486"><ele>471</ele></trkpt><trkpt lat="47.718854" lon="12.873667"><ele>471</ele></trkpt><trkpt lat="47.718911" lon="12.873844"><ele>471</ele></trkpt><trkpt lat="47.71893" lon="12.873885"><ele>471</ele></trkpt><trkpt lat="47.718869" lon="12.873933"><ele>471</ele></trkpt><trkpt lat="47.718862" lon="12.873988"><ele>471</ele></trkpt><trkpt lat="47.718898" lon="12.874005"><ele>471</ele></trkpt><trkpt lat="47.718974" lon="12.873958"><ele>471</ele></trkpt><trkpt lat="47.718991" lon="12.873977"><ele>471</ele></trkpt><trkpt lat="47.719077" lon="12.873906"><ele>471</ele></trkpt><trkpt lat="47.719" lon="12.873789"><ele>471</ele></trkpt><trkpt lat="47.718976" lon="12.873779"><ele>471</ele></trkpt><trkpt lat="47.71883" lon="12.873879"><ele>471</ele></trkpt><trkpt lat="47.718815" lon="12.87389"><ele>471</ele></trkpt><trkpt lat="47.718807" lon="12.873864"><ele>471</ele></trkpt><trkpt lat="47.718815" lon="12.87389"><ele>471</ele></trkpt><trkpt lat="47.71883" lon="12.873879"><ele>471</ele></trkpt><trkpt lat="47.718976" lon="12.873779"><ele>471</ele></trkpt><trkpt lat="47.719" lon="12.873789"><ele>471</ele></trkpt><trkpt lat="47.719077" lon="12.873906"><ele>471</ele></trkpt><trkpt lat="47.719361" lon="12.87387"><ele>474</ele></trkpt><trkpt lat="47.719353" lon="12.873961"><ele>474</ele></trkpt><trkpt lat="47.719583" lon="12.87396"><ele>474</ele></trkpt><trkpt lat="47.719587" lon="12.874036"><ele>474</ele></trkpt><trkpt lat="47.719626" lon="12.874063"><ele>474</ele></trkpt><trkpt lat="47.720006" lon="12.874054"><ele>474</ele></trkpt><trkpt lat="47.720003" lon="12.87412"><ele>474</ele></trkpt><trkpt lat="47.719999" lon="12.874195"><ele>474</ele></trkpt><trkpt lat="47.719991" lon="12.874295"><ele>474</ele></trkpt><trkpt lat="47.719979" lon="12.874436"><ele>474</ele></trkpt><trkpt lat="47.719956" lon="12.874721"><ele>474</ele></trkpt><trkpt lat="47.719931" lon="12.874878"><ele>474</ele></trkpt><trkpt lat="47.719895" lon="12.874997"><ele>474</ele></trkpt><trkpt lat="47.719831" lon="12.875226"><ele>474</ele></trkpt><trkpt lat="47.719915" lon="12.875273"><ele>474</ele></trkpt><trkpt lat="47.720189" lon="12.875441"><ele>473</ele></trkpt><trkpt lat="47.720281" lon="12.875495"><ele>473</ele></trkpt><trkpt lat="47.720334" lon="12.875527"><ele>473</ele></trkpt><trkpt lat="47.72044" lon="12.87559"><ele>473</ele></trkpt><trkpt lat="47.720577" lon="12.875206"><ele>473</ele></trkpt><trkpt lat="47.720652" lon="12.874992"><ele>474</ele></trkpt><trkpt lat="47.72078" lon="12.874649"><ele>474</ele></trkpt><trkpt lat="47.721125" lon="12.874884"><ele>473.5</ele></trkpt><trkpt lat="47.721253" lon="12.87497"><ele>473</ele></trkpt><trkpt lat="47.721461" lon="12.875108"><ele>474</ele></trkpt><trkpt lat="47.721741" lon="12.875321"><ele>474</ele></trkpt><trkpt lat="47.721881" lon="12.875426"><ele>474</ele></trkpt><trkpt lat="47.722149" lon="12.875622"><ele>474</ele></trkpt><trkpt lat="47.722157" lon="12.875627"><ele>474</ele></trkpt><trkpt lat="47.722235" lon="12.875685"><ele>474</ele></trkpt><trkpt lat="47.722439" lon="12.875896"><ele>474</ele></trkpt><trkpt lat="47.722484" lon="12.876052"><ele>474</ele></trkpt><trkpt lat="47.72253" lon="12.876076"><ele>475</ele></trkpt><trkpt lat="47.722523" lon="12.876103"><ele>474.3</ele></trkpt><trkpt lat="47.722492" lon="12.87612"><ele>474.3</ele></trkpt><trkpt lat="47.722419" lon="12.876124"><ele>474.3</ele></trkpt><trkpt lat="47.722408" lon="12.876162"><ele>474.3</ele></trkpt><trkpt lat="47.722419" lon="12.876124"><ele>474.3</ele></trkpt><trkpt lat="47.722492" lon="12.87612"><ele>474.3</ele></trkpt><trkpt lat="47.722523" lon="12.876103"><ele>474.3</ele></trkpt><trkpt lat="47.72253" lon="12.876076"><ele>475</ele></trkpt><trkpt lat="47.722766" lon="12.876127"><ele>475</ele></trkpt><trkpt lat="47.722951" lon="12.87619"><ele>475</ele></trkpt><trkpt lat="47.723122" lon="12.876226"><ele>475</ele></trkpt><trkpt lat="47.723247" lon="12.876264"><ele>475</ele></trkpt><trkpt lat="47.72338" lon="12.876319"><ele>473.8</ele></trkpt><trkpt lat="47.723642" lon="12.87654"><ele>474</ele></trkpt><trkpt lat="47.723769" lon="12.876675"><ele>474.2</ele></trkpt><trkpt lat="47.723815" lon="12.876783"><ele>474</ele></trkpt><trkpt lat="47.724102" lon="12.876966"><ele>474</ele></trkpt><trkpt lat="47.724248" lon="12.87713"><ele>472.7</ele></trkpt><trkpt lat="47.724289" lon="12.8772"><ele>472.3</ele></trkpt><trkpt lat="47.724352" lon="12.877309"><ele>472</ele></trkpt><trkpt lat="47.724452" lon="12.877449"><ele>472</ele></trkpt><trkpt lat="47.724623" lon="12.877717"><ele>473</ele></trkpt><trkpt lat="47.724789" lon="12.87798"><ele>473</ele></trkpt><trkpt lat="47.725004" lon="12.878287"><ele>471</ele></trkpt><trkpt lat="47.725123" lon="12.878097"><ele>471</ele></trkpt><trkpt lat="47.725386" lon="12.877793"><ele>471</ele></trkpt><trkpt lat="47.725431" lon="12.877783"><ele>471</ele></trkpt><trkpt lat="47.725694" lon="12.87762"><ele>471</ele></trkpt><trkpt lat="47.725849" lon="12.877809"><ele>471</ele></trkpt><trkpt lat="47.725986" lon="12.877954"><ele>471</ele></trkpt><trkpt lat="47.726279" lon="12.8782"><ele>471</ele></trkpt><trkpt lat="47.726326" lon="12.878239"><ele>471</ele></trkpt><trkpt lat="47.726479" lon="12.878322"><ele>471</ele></trkpt><trkpt lat="47.726577" lon="12.878375"><ele>471</ele></trkpt><trkpt lat="47.726783" lon="12.878426"><ele>471</ele></trkpt><trkpt lat="47.726957" lon="12.878519"><ele>471</ele></trkpt><trkpt lat="47.727107" lon="12.87864"><ele>471</ele></trkpt><trkpt lat="47.727328" lon="12.878869"><ele>471</ele></trkpt><trkpt lat="47.727441" lon="12.878969"><ele>471</ele></trkpt><trkpt lat="47.727481" lon="12.879012"><ele>471</ele></trkpt><trkpt lat="47.727447" lon="12.879076"><ele>471.3</ele></trkpt><trkpt lat="47.727985" lon="12.879649"><ele>472</ele></trkpt><trkpt lat="47.728047" lon="12.879715"><ele>472.3</ele></trkpt><trkpt lat="47.728755" lon="12.880145"><ele>473</ele></trkpt><trkpt lat="47.728991" lon="12.880305"><ele>473</ele></trkpt><trkpt lat="47.729005" lon="12.880222"><ele>473</ele></trkpt><trkpt lat="47.729074" lon="12.880274"><ele>473</ele></trkpt><trkpt lat="47.729221" lon="12.880591"><ele>469</ele></trkpt><trkpt lat="47.729499" lon="12.880929"><ele>470</ele></trkpt><trkpt lat="47.72969" lon="12.881168"><ele>470</ele></trkpt><trkpt lat="47.729784" lon="12.881281"><ele>470</ele></trkpt><trkpt lat="47.730079" lon="12.881634"><ele>465</ele></trkpt><trkpt lat="47.730153" lon="12.881622"><ele>465.7</ele></trkpt><trkpt lat="47.730326" lon="12.881737"><ele>467</ele></trkpt><trkpt lat="47.730387" lon="12.88162"><ele>465</ele></trkpt><trkpt lat="47.730539" lon="12.881757"><ele>467</ele></trkpt><trkpt lat="47.730552" lon="12.881725"><ele>467</ele></trkpt><trkpt lat="47.730609" lon="12.881584"><ele>465</ele></trkpt><trkpt lat="47.730628" lon="12.881535"><ele>465</ele></trkpt><trkpt lat="47.73064" lon="12.881502"><ele>465</ele></trkpt><trkpt lat="47.730644" lon="12.881493"><ele>465</ele></trkpt><trkpt lat="47.730647" lon="12.881484"><ele>465</ele></trkpt><trkpt lat="47.730662" lon="12.881448"><ele>465</ele></trkpt><trkpt lat="47.7307" lon="12.881357"><ele>465</ele></trkpt><trkpt lat="47.730711" lon="12.881331"><ele>465</ele></trkpt><trkpt lat="47.730731" lon="12.881281"><ele>465.3</ele></trkpt><trkpt lat="47.730879" lon="12.881414"><ele>466</ele></trkpt><trkpt lat="47.730871" lon="12.881434"><ele>466</ele></trkpt><trkpt lat="47.731374" lon="12.881876"><ele>465.5</ele></trkpt></trkseg></trk></gpx>