<?xml version="1.0" encoding="utf-8"?>
<gpx xmlns="http://www.topografix.com/GPX/1/1" version="1.1" creator="https://mapy.com/">
	<trk>
		<name>Fischbrunn - Etzelwang</name>
		<trkseg>
			<trkpt lat="49.542782" lon="11.507841">
				<ele>369.000000</ele>
			</trkpt>
			<trkpt lat="49.542799" lon="11.507967">
				<ele>369.000000</ele>
			</trkpt>
			<trkpt lat="49.542782" lon="11.508074">
				<ele>369.000000</ele>
			</trkpt>
			<trkpt lat="49.542764" lon="11.508191">
				<ele>369.000000</ele>
			</trkpt>
			<trkpt lat="49.542700" lon="11.508487">
				<ele>369.000000</ele>
			</trkpt>
			<trkpt lat="49.542747" lon="11.508523">
				<ele>369.000000</ele>
			</trkpt>
			<trkpt lat="49.542829" lon="11.508550">
				<ele>369.000000</ele>
			</trkpt>
			<trkpt lat="49.542933" lon="11.508550">
				<ele>369.000000</ele>
			</trkpt>
			<trkpt lat="49.543114" lon="11.508515">
				<ele>370.000000</ele>
			</trkpt>
			<trkpt lat="49.543213" lon="11.508533">
				<ele>370.000000</ele>
			</trkpt>
			<trkpt lat="49.543306" lon="11.508613">
				<ele>372.000000</ele>
			</trkpt>
			<trkpt lat="49.543405" lon="11.508785">
				<ele>374.000000</ele>
			</trkpt>
			<trkpt lat="49.543452" lon="11.508919">
				<ele>376.000000</ele>
			</trkpt>
			<trkpt lat="49.543533" lon="11.509072">
				<ele>378.000000</ele>
			</trkpt>
			<trkpt lat="49.543645" lon="11.509215">
				<ele>380.000000</ele>
			</trkpt>
			<trkpt lat="49.543855" lon="11.509439">
				<ele>380.000000</ele>
			</trkpt>
			<trkpt lat="49.544390" lon="11.509844">
				<ele>380.000000</ele>
			</trkpt>
			<trkpt lat="49.544630" lon="11.509881">
				<ele>380.000000</ele>
			</trkpt>
			<trkpt lat="49.545043" lon="11.510114">
				<ele>380.000000</ele>
			</trkpt>
			<trkpt lat="49.545644" lon="11.510931">
				<ele>380.000000</ele>
			</trkpt>
			<trkpt lat="49.546518" lon="11.511839">
				<ele>380.000000</ele>
			</trkpt>
			<trkpt lat="49.547048" lon="11.512925">
				<ele>380.000000</ele>
			</trkpt>
			<trkpt lat="49.547486" lon="11.514219">
				<ele>383.000000</ele>
			</trkpt>
			<trkpt lat="49.547795" lon="11.515684">
				<ele>392.000000</ele>
			</trkpt>
			<trkpt lat="49.547835" lon="11.515881">
				<ele>394.000000</ele>
			</trkpt>
			<trkpt lat="49.547888" lon="11.516024">
				<ele>396.000000</ele>
			</trkpt>
			<trkpt lat="49.547911" lon="11.516141">
				<ele>397.000000</ele>
			</trkpt>
			<trkpt lat="49.547917" lon="11.516313">
				<ele>399.000000</ele>
			</trkpt>
			<trkpt lat="49.547923" lon="11.516573">
				<ele>402.000000</ele>
			</trkpt>
			<trkpt lat="49.547964" lon="11.517022">
				<ele>409.000000</ele>
			</trkpt>
			<trkpt lat="49.547981" lon="11.517372">
				<ele>415.000000</ele>
			</trkpt>
			<trkpt lat="49.547981" lon="11.517588">
				<ele>419.000000</ele>
			</trkpt>
			<trkpt lat="49.547975" lon="11.517714">
				<ele>421.000000</ele>
			</trkpt>
			<trkpt lat="49.547952" lon="11.517794">
				<ele>423.000000</ele>
			</trkpt>
			<trkpt lat="49.547899" lon="11.517867">
				<ele>425.000000</ele>
			</trkpt>
			<trkpt lat="49.547841" lon="11.517884">
				<ele>426.000000</ele>
			</trkpt>
			<trkpt lat="49.547789" lon="11.517884">
				<ele>428.000000</ele>
			</trkpt>
			<trkpt lat="49.547730" lon="11.517911">
				<ele>429.000000</ele>
			</trkpt>
			<trkpt lat="49.547678" lon="11.517974">
				<ele>431.000000</ele>
			</trkpt>
			<trkpt lat="49.547643" lon="11.518073">
				<ele>432.000000</ele>
			</trkpt>
			<trkpt lat="49.547649" lon="11.518253">
				<ele>435.000000</ele>
			</trkpt>
			<trkpt lat="49.547661" lon="11.518334">
				<ele>436.000000</ele>
			</trkpt>
			<trkpt lat="49.547713" lon="11.518494">
				<ele>438.000000</ele>
			</trkpt>
			<trkpt lat="49.547742" lon="11.518720">
				<ele>441.000000</ele>
			</trkpt>
			<trkpt lat="49.547754" lon="11.518909">
				<ele>444.000000</ele>
			</trkpt>
			<trkpt lat="49.547777" lon="11.519133">
				<ele>447.000000</ele>
			</trkpt>
			<trkpt lat="49.547783" lon="11.519223">
				<ele>448.000000</ele>
			</trkpt>
			<trkpt lat="49.547771" lon="11.519286">
				<ele>449.000000</ele>
			</trkpt>
			<trkpt lat="49.547759" lon="11.519322">
				<ele>449.000000</ele>
			</trkpt>
			<trkpt lat="49.547713" lon="11.519376">
				<ele>450.000000</ele>
			</trkpt>
			<trkpt lat="49.547689" lon="11.519412">
				<ele>451.000000</ele>
			</trkpt>
			<trkpt lat="49.547683" lon="11.519447">
				<ele>451.000000</ele>
			</trkpt>
			<trkpt lat="49.547683" lon="11.519519">
				<ele>451.000000</ele>
			</trkpt>
			<trkpt lat="49.547713" lon="11.519752">
				<ele>453.000000</ele>
			</trkpt>
			<trkpt lat="49.547683" lon="11.520005">
				<ele>455.000000</ele>
			</trkpt>
			<trkpt lat="49.547666" lon="11.520175">
				<ele>456.000000</ele>
			</trkpt>
			<trkpt lat="49.547631" lon="11.520345">
				<ele>458.000000</ele>
			</trkpt>
			<trkpt lat="49.547526" lon="11.520651">
				<ele>460.000000</ele>
			</trkpt>
			<trkpt lat="49.547340" lon="11.520965">
				<ele>460.000000</ele>
			</trkpt>
			<trkpt lat="49.547089" lon="11.521199">
				<ele>463.000000</ele>
			</trkpt>
			<trkpt lat="49.546885" lon="11.521316">
				<ele>466.000000</ele>
			</trkpt>
			<trkpt lat="49.546658" lon="11.521414">
				<ele>469.000000</ele>
			</trkpt>
			<trkpt lat="49.546564" lon="11.521460">
				<ele>470.000000</ele>
			</trkpt>
			<trkpt lat="49.546529" lon="11.521513">
				<ele>470.000000</ele>
			</trkpt>
			<trkpt lat="49.546535" lon="11.521630">
				<ele>470.000000</ele>
			</trkpt>
			<trkpt lat="49.546564" lon="11.521837">
				<ele>470.000000</ele>
			</trkpt>
			<trkpt lat="49.546570" lon="11.521999">
				<ele>470.000000</ele>
			</trkpt>
			<trkpt lat="49.546588" lon="11.522215">
				<ele>470.000000</ele>
			</trkpt>
			<trkpt lat="49.546576" lon="11.522358">
				<ele>471.000000</ele>
			</trkpt>
			<trkpt lat="49.546559" lon="11.522573">
				<ele>473.000000</ele>
			</trkpt>
			<trkpt lat="49.546529" lon="11.522744">
				<ele>474.000000</ele>
			</trkpt>
			<trkpt lat="49.546488" lon="11.522789">
				<ele>474.000000</ele>
			</trkpt>
			<trkpt lat="49.546419" lon="11.522752">
				<ele>478.000000</ele>
			</trkpt>
			<trkpt lat="49.546366" lon="11.522708">
				<ele>480.000000</ele>
			</trkpt>
			<trkpt lat="49.546291" lon="11.522663">
				<ele>480.000000</ele>
			</trkpt>
			<trkpt lat="49.546244" lon="11.522672">
				<ele>480.000000</ele>
			</trkpt>
			<trkpt lat="49.546191" lon="11.522708">
				<ele>481.000000</ele>
			</trkpt>
			<trkpt lat="49.546139" lon="11.522744">
				<ele>482.000000</ele>
			</trkpt>
			<trkpt lat="49.546046" lon="11.522879">
				<ele>483.000000</ele>
			</trkpt>
			<trkpt lat="49.546005" lon="11.523005">
				<ele>484.000000</ele>
			</trkpt>
			<trkpt lat="49.545923" lon="11.523229">
				<ele>486.000000</ele>
			</trkpt>
			<trkpt lat="49.545784" lon="11.523427">
				<ele>488.000000</ele>
			</trkpt>
			<trkpt lat="49.545737" lon="11.523498">
				<ele>489.000000</ele>
			</trkpt>
			<trkpt lat="49.545708" lon="11.523588">
				<ele>489.000000</ele>
			</trkpt>
			<trkpt lat="49.545656" lon="11.523741">
				<ele>491.000000</ele>
			</trkpt>
			<trkpt lat="49.545644" lon="11.523850">
				<ele>492.000000</ele>
			</trkpt>
			<trkpt lat="49.545684" lon="11.523947">
				<ele>494.000000</ele>
			</trkpt>
			<trkpt lat="49.545731" lon="11.524020">
				<ele>495.000000</ele>
			</trkpt>
			<trkpt lat="49.545719" lon="11.524073">
				<ele>496.000000</ele>
			</trkpt>
			<trkpt lat="49.545708" lon="11.524110">
				<ele>497.000000</ele>
			</trkpt>
			<trkpt lat="49.545673" lon="11.524209">
				<ele>498.000000</ele>
			</trkpt>
			<trkpt lat="49.545650" lon="11.524263">
				<ele>499.000000</ele>
			</trkpt>
			<trkpt lat="49.545603" lon="11.524334">
				<ele>501.000000</ele>
			</trkpt>
			<trkpt lat="49.545568" lon="11.524415">
				<ele>502.000000</ele>
			</trkpt>
			<trkpt lat="49.545522" lon="11.524532">
				<ele>503.000000</ele>
			</trkpt>
			<trkpt lat="49.545475" lon="11.524622">
				<ele>504.000000</ele>
			</trkpt>
			<trkpt lat="49.545457" lon="11.524685">
				<ele>505.000000</ele>
			</trkpt>
			<trkpt lat="49.545451" lon="11.524792">
				<ele>506.000000</ele>
			</trkpt>
			<trkpt lat="49.545463" lon="11.524936">
				<ele>508.000000</ele>
			</trkpt>
			<trkpt lat="49.545475" lon="11.525062">
				<ele>510.000000</ele>
			</trkpt>
			<trkpt lat="49.545463" lon="11.525152">
				<ele>510.000000</ele>
			</trkpt>
			<trkpt lat="49.545463" lon="11.525152">
				<ele>510.000000</ele>
			</trkpt>
			<trkpt lat="49.545463" lon="11.525152">
				<ele>510.000000</ele>
			</trkpt>
			<trkpt lat="49.545434" lon="11.525223">
				<ele>510.000000</ele>
			</trkpt>
			<trkpt lat="49.545282" lon="11.525421">
				<ele>510.000000</ele>
			</trkpt>
			<trkpt lat="49.545160" lon="11.525547">
				<ele>510.000000</ele>
			</trkpt>
			<trkpt lat="49.545061" lon="11.525664">
				<ele>510.000000</ele>
			</trkpt>
			<trkpt lat="49.544962" lon="11.525844">
				<ele>510.000000</ele>
			</trkpt>
			<trkpt lat="49.544927" lon="11.525951">
				<ele>510.000000</ele>
			</trkpt>
			<trkpt lat="49.544909" lon="11.526031">
				<ele>510.000000</ele>
			</trkpt>
			<trkpt lat="49.544903" lon="11.526104">
				<ele>510.000000</ele>
			</trkpt>
			<trkpt lat="49.544933" lon="11.526257">
				<ele>510.000000</ele>
			</trkpt>
			<trkpt lat="49.544991" lon="11.526553">
				<ele>510.000000</ele>
			</trkpt>
			<trkpt lat="49.545014" lon="11.526679">
				<ele>512.000000</ele>
			</trkpt>
			<trkpt lat="49.545061" lon="11.526777">
				<ele>513.000000</ele>
			</trkpt>
			<trkpt lat="49.545078" lon="11.526859">
				<ele>514.000000</ele>
			</trkpt>
			<trkpt lat="49.545090" lon="11.526966">
				<ele>516.000000</ele>
			</trkpt>
			<trkpt lat="49.545084" lon="11.527047">
				<ele>516.000000</ele>
			</trkpt>
			<trkpt lat="49.544793" lon="11.527343">
				<ele>527.000000</ele>
			</trkpt>
			<trkpt lat="49.544635" lon="11.527523">
				<ele>525.000000</ele>
			</trkpt>
			<trkpt lat="49.544641" lon="11.527721">
				<ele>519.000000</ele>
			</trkpt>
			<trkpt lat="49.544659" lon="11.527855">
				<ele>518.000000</ele>
			</trkpt>
			<trkpt lat="49.544699" lon="11.527892">
				<ele>517.000000</ele>
			</trkpt>
			<trkpt lat="49.544728" lon="11.527918">
				<ele>517.000000</ele>
			</trkpt>
			<trkpt lat="49.544746" lon="11.527955">
				<ele>516.000000</ele>
			</trkpt>
			<trkpt lat="49.544764" lon="11.528018">
				<ele>514.000000</ele>
			</trkpt>
			<trkpt lat="49.544769" lon="11.528062">
				<ele>513.000000</ele>
			</trkpt>
			<trkpt lat="49.544769" lon="11.528125">
				<ele>512.000000</ele>
			</trkpt>
			<trkpt lat="49.544752" lon="11.528224">
				<ele>510.000000</ele>
			</trkpt>
			<trkpt lat="49.544723" lon="11.528287">
				<ele>510.000000</ele>
			</trkpt>
			<trkpt lat="49.544676" lon="11.528421">
				<ele>510.000000</ele>
			</trkpt>
			<trkpt lat="49.544641" lon="11.528565">
				<ele>510.000000</ele>
			</trkpt>
			<trkpt lat="49.544612" lon="11.528708">
				<ele>510.000000</ele>
			</trkpt>
			<trkpt lat="49.544594" lon="11.528817">
				<ele>510.000000</ele>
			</trkpt>
			<trkpt lat="49.544542" lon="11.528970">
				<ele>510.000000</ele>
			</trkpt>
			<trkpt lat="49.544461" lon="11.529211">
				<ele>510.000000</ele>
			</trkpt>
			<trkpt lat="49.544390" lon="11.529383">
				<ele>510.000000</ele>
			</trkpt>
			<trkpt lat="49.544286" lon="11.529571">
				<ele>510.000000</ele>
			</trkpt>
			<trkpt lat="49.544256" lon="11.529643">
				<ele>510.000000</ele>
			</trkpt>
			<trkpt lat="49.544251" lon="11.529679">
				<ele>510.000000</ele>
			</trkpt>
			<trkpt lat="49.544210" lon="11.529832">
				<ele>510.000000</ele>
			</trkpt>
			<trkpt lat="49.544198" lon="11.529993">
				<ele>510.000000</ele>
			</trkpt>
			<trkpt lat="49.544180" lon="11.530137">
				<ele>510.000000</ele>
			</trkpt>
			<trkpt lat="49.544192" lon="11.530281">
				<ele>511.000000</ele>
			</trkpt>
			<trkpt lat="49.544198" lon="11.530308">
				<ele>511.000000</ele>
			</trkpt>
			<trkpt lat="49.544064" lon="11.530532">
				<ele>520.000000</ele>
			</trkpt>
			<trkpt lat="49.544082" lon="11.530586">
				<ele>520.000000</ele>
			</trkpt>
			<trkpt lat="49.544082" lon="11.530586">
				<ele>520.000000</ele>
			</trkpt>
			<trkpt lat="49.544163" lon="11.530802">
				<ele>520.000000</ele>
			</trkpt>
			<trkpt lat="49.544198" lon="11.530892">
				<ele>520.000000</ele>
			</trkpt>
			<trkpt lat="49.544251" lon="11.531027">
				<ele>527.000000</ele>
			</trkpt>
			<trkpt lat="49.544496" lon="11.531323">
				<ele>530.000000</ele>
			</trkpt>
			<trkpt lat="49.544746" lon="11.531440">
				<ele>530.000000</ele>
			</trkpt>
			<trkpt lat="49.544693" lon="11.531521">
				<ele>530.000000</ele>
			</trkpt>
			<trkpt lat="49.544734" lon="11.531584">
				<ele>530.000000</ele>
			</trkpt>
			<trkpt lat="49.544764" lon="11.531620">
				<ele>530.000000</ele>
			</trkpt>
			<trkpt lat="49.544816" lon="11.531584">
				<ele>529.000000</ele>
			</trkpt>
			<trkpt lat="49.544834" lon="11.531601">
				<ele>528.000000</ele>
			</trkpt>
			<trkpt lat="49.544834" lon="11.531800">
				<ele>520.000000</ele>
			</trkpt>
			<trkpt lat="49.544880" lon="11.531800">
				<ele>519.000000</ele>
			</trkpt>
			<trkpt lat="49.544927" lon="11.531745">
				<ele>516.000000</ele>
			</trkpt>
			<trkpt lat="49.544996" lon="11.531637">
				<ele>513.000000</ele>
			</trkpt>
			<trkpt lat="49.545072" lon="11.531601">
				<ele>510.000000</ele>
			</trkpt>
			<trkpt lat="49.545067" lon="11.531763">
				<ele>510.000000</ele>
			</trkpt>
			<trkpt lat="49.545078" lon="11.531889">
				<ele>510.000000</ele>
			</trkpt>
			<trkpt lat="49.545072" lon="11.532014">
				<ele>510.000000</ele>
			</trkpt>
			<trkpt lat="49.545072" lon="11.532014">
				<ele>510.000000</ele>
			</trkpt>
			<trkpt lat="49.545078" lon="11.531889">
				<ele>510.000000</ele>
			</trkpt>
			<trkpt lat="49.545067" lon="11.531763">
				<ele>510.000000</ele>
			</trkpt>
			<trkpt lat="49.545072" lon="11.531601">
				<ele>510.000000</ele>
			</trkpt>
			<trkpt lat="49.545049" lon="11.531458">
				<ele>510.000000</ele>
			</trkpt>
			<trkpt lat="49.545020" lon="11.531323">
				<ele>510.000000</ele>
			</trkpt>
			<trkpt lat="49.544950" lon="11.531179">
				<ele>510.000000</ele>
			</trkpt>
			<trkpt lat="49.544851" lon="11.531054">
				<ele>510.000000</ele>
			</trkpt>
			<trkpt lat="49.544740" lon="11.530937">
				<ele>510.000000</ele>
			</trkpt>
			<trkpt lat="49.544659" lon="11.530819">
				<ele>510.000000</ele>
			</trkpt>
			<trkpt lat="49.544589" lon="11.530703">
				<ele>510.000000</ele>
			</trkpt>
			<trkpt lat="49.544524" lon="11.530578">
				<ele>510.000000</ele>
			</trkpt>
			<trkpt lat="49.544478" lon="11.530452">
				<ele>510.000000</ele>
			</trkpt>
			<trkpt lat="49.544396" lon="11.530236">
				<ele>510.000000</ele>
			</trkpt>
			<trkpt lat="49.544321" lon="11.530020">
				<ele>510.000000</ele>
			</trkpt>
			<trkpt lat="49.544268" lon="11.529832">
				<ele>510.000000</ele>
			</trkpt>
			<trkpt lat="49.544251" lon="11.529760">
				<ele>510.000000</ele>
			</trkpt>
			<trkpt lat="49.544251" lon="11.529679">
				<ele>510.000000</ele>
			</trkpt>
			<trkpt lat="49.544256" lon="11.529643">
				<ele>510.000000</ele>
			</trkpt>
			<trkpt lat="49.544286" lon="11.529571">
				<ele>510.000000</ele>
			</trkpt>
			<trkpt lat="49.544390" lon="11.529383">
				<ele>510.000000</ele>
			</trkpt>
			<trkpt lat="49.544461" lon="11.529211">
				<ele>510.000000</ele>
			</trkpt>
			<trkpt lat="49.544542" lon="11.528970">
				<ele>510.000000</ele>
			</trkpt>
			<trkpt lat="49.544647" lon="11.528978">
				<ele>510.000000</ele>
			</trkpt>
			<trkpt lat="49.544740" lon="11.528987">
				<ele>510.000000</ele>
			</trkpt>
			<trkpt lat="49.544787" lon="11.529023">
				<ele>510.000000</ele>
			</trkpt>
			<trkpt lat="49.544892" lon="11.529131">
				<ele>510.000000</ele>
			</trkpt>
			<trkpt lat="49.544991" lon="11.529221">
				<ele>510.000000</ele>
			</trkpt>
			<trkpt lat="49.545078" lon="11.529310">
				<ele>510.000000</ele>
			</trkpt>
			<trkpt lat="49.545178" lon="11.529427">
				<ele>510.000000</ele>
			</trkpt>
			<trkpt lat="49.545253" lon="11.529481">
				<ele>510.000000</ele>
			</trkpt>
			<trkpt lat="49.545271" lon="11.529481">
				<ele>510.000000</ele>
			</trkpt>
			<trkpt lat="49.545294" lon="11.529473">
				<ele>510.000000</ele>
			</trkpt>
			<trkpt lat="49.545317" lon="11.529437">
				<ele>510.000000</ele>
			</trkpt>
			<trkpt lat="49.545358" lon="11.529320">
				<ele>510.000000</ele>
			</trkpt>
			<trkpt lat="49.545358" lon="11.529320">
				<ele>510.000000</ele>
			</trkpt>
			<trkpt lat="49.545317" lon="11.529437">
				<ele>510.000000</ele>
			</trkpt>
			<trkpt lat="49.545294" lon="11.529473">
				<ele>510.000000</ele>
			</trkpt>
			<trkpt lat="49.545271" lon="11.529481">
				<ele>510.000000</ele>
			</trkpt>
			<trkpt lat="49.545253" lon="11.529481">
				<ele>510.000000</ele>
			</trkpt>
			<trkpt lat="49.545178" lon="11.529427">
				<ele>510.000000</ele>
			</trkpt>
			<trkpt lat="49.545078" lon="11.529310">
				<ele>510.000000</ele>
			</trkpt>
			<trkpt lat="49.545154" lon="11.529257">
				<ele>510.000000</ele>
			</trkpt>
			<trkpt lat="49.545218" lon="11.529266">
				<ele>510.000000</ele>
			</trkpt>
			<trkpt lat="49.545236" lon="11.529239">
				<ele>510.000000</ele>
			</trkpt>
			<trkpt lat="49.545247" lon="11.529203">
				<ele>510.000000</ele>
			</trkpt>
			<trkpt lat="49.545241" lon="11.529167">
				<ele>510.000000</ele>
			</trkpt>
			<trkpt lat="49.545218" lon="11.529131">
				<ele>510.000000</ele>
			</trkpt>
			<trkpt lat="49.545171" lon="11.529060">
				<ele>510.000000</ele>
			</trkpt>
			<trkpt lat="49.545160" lon="11.528997">
				<ele>510.000000</ele>
			</trkpt>
			<trkpt lat="49.545171" lon="11.528934">
				<ele>510.000000</ele>
			</trkpt>
			<trkpt lat="49.545165" lon="11.528844">
				<ele>510.000000</ele>
			</trkpt>
			<trkpt lat="49.545148" lon="11.528754">
				<ele>510.000000</ele>
			</trkpt>
			<trkpt lat="49.545113" lon="11.528502">
				<ele>510.000000</ele>
			</trkpt>
			<trkpt lat="49.545078" lon="11.528404">
				<ele>510.000000</ele>
			</trkpt>
			<trkpt lat="49.545061" lon="11.528368">
				<ele>510.000000</ele>
			</trkpt>
			<trkpt lat="49.545003" lon="11.528305">
				<ele>510.000000</ele>
			</trkpt>
			<trkpt lat="49.544950" lon="11.528242">
				<ele>510.000000</ele>
			</trkpt>
			<trkpt lat="49.544921" lon="11.528188">
				<ele>510.000000</ele>
			</trkpt>
			<trkpt lat="49.544915" lon="11.528089">
				<ele>510.000000</ele>
			</trkpt>
			<trkpt lat="49.545171" lon="11.527999">
				<ele>504.000000</ele>
			</trkpt>
			<trkpt lat="49.545271" lon="11.527918">
				<ele>501.000000</ele>
			</trkpt>
			<trkpt lat="49.545346" lon="11.527855">
				<ele>500.000000</ele>
			</trkpt>
			<trkpt lat="49.545416" lon="11.527676">
				<ele>499.000000</ele>
			</trkpt>
			<trkpt lat="49.545434" lon="11.527532">
				<ele>499.000000</ele>
			</trkpt>
			<trkpt lat="49.545446" lon="11.527326">
				<ele>498.000000</ele>
			</trkpt>
			<trkpt lat="49.545533" lon="11.527236">
				<ele>496.000000</ele>
			</trkpt>
			<trkpt lat="49.545638" lon="11.527200">
				<ele>495.000000</ele>
			</trkpt>
			<trkpt lat="49.545795" lon="11.527200">
				<ele>492.000000</ele>
			</trkpt>
			<trkpt lat="49.545888" lon="11.527155">
				<ele>490.000000</ele>
			</trkpt>
			<trkpt lat="49.545988" lon="11.527039">
				<ele>488.000000</ele>
			</trkpt>
			<trkpt lat="49.546057" lon="11.526939">
				<ele>486.000000</ele>
			</trkpt>
			<trkpt lat="49.546104" lon="11.526886">
				<ele>485.000000</ele>
			</trkpt>
			<trkpt lat="49.546150" lon="11.526894">
				<ele>484.000000</ele>
			</trkpt>
			<trkpt lat="49.546431" lon="11.527299">
				<ele>479.000000</ele>
			</trkpt>
			<trkpt lat="49.546698" lon="11.527532">
				<ele>474.000000</ele>
			</trkpt>
			<trkpt lat="49.546850" lon="11.527712">
				<ele>472.000000</ele>
			</trkpt>
			<trkpt lat="49.547007" lon="11.527802">
				<ele>470.000000</ele>
			</trkpt>
			<trkpt lat="49.547077" lon="11.527748">
				<ele>470.000000</ele>
			</trkpt>
			<trkpt lat="49.547153" lon="11.527658">
				<ele>470.000000</ele>
			</trkpt>
			<trkpt lat="49.547217" lon="11.527603">
				<ele>471.000000</ele>
			</trkpt>
			<trkpt lat="49.547287" lon="11.527576">
				<ele>472.000000</ele>
			</trkpt>
			<trkpt lat="49.547345" lon="11.527559">
				<ele>471.000000</ele>
			</trkpt>
			<trkpt lat="49.547404" lon="11.527586">
				<ele>471.000000</ele>
			</trkpt>
			<trkpt lat="49.547473" lon="11.527631">
				<ele>470.000000</ele>
			</trkpt>
			<trkpt lat="49.547614" lon="11.527721">
				<ele>468.000000</ele>
			</trkpt>
			<trkpt lat="49.547742" lon="11.527666">
				<ele>467.000000</ele>
			</trkpt>
			<trkpt lat="49.547835" lon="11.527603">
				<ele>467.000000</ele>
			</trkpt>
			<trkpt lat="49.547940" lon="11.527603">
				<ele>467.000000</ele>
			</trkpt>
			<trkpt lat="49.548010" lon="11.527613">
				<ele>466.000000</ele>
			</trkpt>
			<trkpt lat="49.548185" lon="11.527568">
				<ele>466.000000</ele>
			</trkpt>
			<trkpt lat="49.548395" lon="11.527379">
				<ele>465.000000</ele>
			</trkpt>
			<trkpt lat="49.548570" lon="11.527263">
				<ele>464.000000</ele>
			</trkpt>
			<trkpt lat="49.548715" lon="11.527263">
				<ele>464.000000</ele>
			</trkpt>
			<trkpt lat="49.548803" lon="11.527299">
				<ele>464.000000</ele>
			</trkpt>
			<trkpt lat="49.548855" lon="11.527316">
				<ele>463.000000</ele>
			</trkpt>
			<trkpt lat="49.548919" lon="11.527389">
				<ele>463.000000</ele>
			</trkpt>
			<trkpt lat="49.549006" lon="11.527496">
				<ele>463.000000</ele>
			</trkpt>
			<trkpt lat="49.549065" lon="11.527406">
				<ele>462.000000</ele>
			</trkpt>
			<trkpt lat="49.549158" lon="11.527389">
				<ele>461.000000</ele>
			</trkpt>
			<trkpt lat="49.549246" lon="11.527379">
				<ele>456.000000</ele>
			</trkpt>
			<trkpt lat="49.549281" lon="11.527397">
				<ele>452.000000</ele>
			</trkpt>
			<trkpt lat="49.549339" lon="11.527370">
				<ele>444.000000</ele>
			</trkpt>
			<trkpt lat="49.549345" lon="11.527362">
				<ele>444.000000</ele>
			</trkpt>
			<trkpt lat="49.549345" lon="11.527362">
				<ele>444.000000</ele>
			</trkpt>
			<trkpt lat="49.549362" lon="11.527307">
				<ele>440.000000</ele>
			</trkpt>
			<trkpt lat="49.549263" lon="11.526984">
				<ele>440.000000</ele>
			</trkpt>
			<trkpt lat="49.549322" lon="11.526894">
				<ele>439.000000</ele>
			</trkpt>
			<trkpt lat="49.549432" lon="11.527011">
				<ele>433.000000</ele>
			</trkpt>
			<trkpt lat="49.549554" lon="11.526921">
				<ele>429.000000</ele>
			</trkpt>
			<trkpt lat="49.549671" lon="11.527002">
				<ele>428.000000</ele>
			</trkpt>
			<trkpt lat="49.549741" lon="11.527100">
				<ele>426.000000</ele>
			</trkpt>
			<trkpt lat="49.549794" lon="11.527190">
				<ele>425.000000</ele>
			</trkpt>
			<trkpt lat="49.549875" lon="11.527425">
				<ele>423.000000</ele>
			</trkpt>
			<trkpt lat="49.550003" lon="11.527505">
				<ele>421.000000</ele>
			</trkpt>
			<trkpt lat="49.550225" lon="11.527658">
				<ele>423.000000</ele>
			</trkpt>
			<trkpt lat="49.550254" lon="11.527756">
				<ele>427.000000</ele>
			</trkpt>
			<trkpt lat="49.550307" lon="11.527838">
				<ele>431.000000</ele>
			</trkpt>
			<trkpt lat="49.550470" lon="11.527802">
				<ele>444.000000</ele>
			</trkpt>
			<trkpt lat="49.550493" lon="11.527811">
				<ele>450.000000</ele>
			</trkpt>
			<trkpt lat="49.550557" lon="11.527666">
				<ele>450.000000</ele>
			</trkpt>
			<trkpt lat="49.550580" lon="11.527676">
				<ele>450.000000</ele>
			</trkpt>
			<trkpt lat="49.550580" lon="11.527676">
				<ele>450.000000</ele>
			</trkpt>
			<trkpt lat="49.550580" lon="11.527676">
				<ele>450.000000</ele>
			</trkpt>
			<trkpt lat="49.550615" lon="11.527639">
				<ele>450.000000</ele>
			</trkpt>
			<trkpt lat="49.550632" lon="11.527639">
				<ele>450.000000</ele>
			</trkpt>
			<trkpt lat="49.550621" lon="11.527721">
				<ele>454.000000</ele>
			</trkpt>
			<trkpt lat="49.550563" lon="11.527766">
				<ele>458.000000</ele>
			</trkpt>
			<trkpt lat="49.550411" lon="11.528205">
				<ele>457.000000</ele>
			</trkpt>
			<trkpt lat="49.550405" lon="11.528242">
				<ele>456.000000</ele>
			</trkpt>
			<trkpt lat="49.550405" lon="11.528242">
				<ele>456.000000</ele>
			</trkpt>
			<trkpt lat="49.550382" lon="11.528439">
				<ele>453.000000</ele>
			</trkpt>
			<trkpt lat="49.550441" lon="11.528647">
				<ele>450.000000</ele>
			</trkpt>
			<trkpt lat="49.550429" lon="11.528817">
				<ele>450.000000</ele>
			</trkpt>
			<trkpt lat="49.550429" lon="11.529050">
				<ele>450.000000</ele>
			</trkpt>
			<trkpt lat="49.550463" lon="11.529257">
				<ele>450.000000</ele>
			</trkpt>
			<trkpt lat="49.550516" lon="11.529410">
				<ele>450.000000</ele>
			</trkpt>
			<trkpt lat="49.550528" lon="11.529643">
				<ele>450.000000</ele>
			</trkpt>
			<trkpt lat="49.550516" lon="11.529930">
				<ele>450.000000</ele>
			</trkpt>
			<trkpt lat="49.550522" lon="11.530092">
				<ele>450.000000</ele>
			</trkpt>
			<trkpt lat="49.550534" lon="11.530272">
				<ele>450.000000</ele>
			</trkpt>
			<trkpt lat="49.550574" lon="11.530406">
				<ele>450.000000</ele>
			</trkpt>
			<trkpt lat="49.550586" lon="11.530379">
				<ele>450.000000</ele>
			</trkpt>
			<trkpt lat="49.550586" lon="11.530379">
				<ele>450.000000</ele>
			</trkpt>
			<trkpt lat="49.550574" lon="11.530406">
				<ele>450.000000</ele>
			</trkpt>
			<trkpt lat="49.550476" lon="11.530515">
				<ele>449.000000</ele>
			</trkpt>
			<trkpt lat="49.550417" lon="11.530416">
				<ele>448.000000</ele>
			</trkpt>
			<trkpt lat="49.550318" lon="11.530281">
				<ele>445.000000</ele>
			</trkpt>
			<trkpt lat="49.550201" lon="11.530165">
				<ele>443.000000</ele>
			</trkpt>
			<trkpt lat="49.549974" lon="11.529993">
				<ele>440.000000</ele>
			</trkpt>
			<trkpt lat="49.549811" lon="11.529805">
				<ele>440.000000</ele>
			</trkpt>
			<trkpt lat="49.549723" lon="11.529643">
				<ele>440.000000</ele>
			</trkpt>
			<trkpt lat="49.549683" lon="11.529536">
				<ele>440.000000</ele>
			</trkpt>
			<trkpt lat="49.549653" lon="11.529364">
				<ele>440.000000</ele>
			</trkpt>
			<trkpt lat="49.549653" lon="11.529203">
				<ele>440.000000</ele>
			</trkpt>
			<trkpt lat="49.549666" lon="11.529041">
				<ele>440.000000</ele>
			</trkpt>
			<trkpt lat="49.549666" lon="11.529033">
				<ele>440.000000</ele>
			</trkpt>
			<trkpt lat="49.549666" lon="11.529033">
				<ele>440.000000</ele>
			</trkpt>
			<trkpt lat="49.549706" lon="11.528861">
				<ele>440.000000</ele>
			</trkpt>
			<trkpt lat="49.549799" lon="11.528682">
				<ele>434.000000</ele>
			</trkpt>
			<trkpt lat="49.549828" lon="11.528584">
				<ele>430.000000</ele>
			</trkpt>
			<trkpt lat="49.549846" lon="11.528448">
				<ele>429.000000</ele>
			</trkpt>
			<trkpt lat="49.549846" lon="11.528278">
				<ele>428.000000</ele>
			</trkpt>
			<trkpt lat="49.549869" lon="11.528125">
				<ele>427.000000</ele>
			</trkpt>
			<trkpt lat="49.549933" lon="11.527873">
				<ele>426.000000</ele>
			</trkpt>
			<trkpt lat="49.550067" lon="11.527802">
				<ele>424.000000</ele>
			</trkpt>
			<trkpt lat="49.550225" lon="11.527658">
				<ele>423.000000</ele>
			</trkpt>
			<trkpt lat="49.550248" lon="11.527729">
				<ele>426.000000</ele>
			</trkpt>
			<trkpt lat="49.550248" lon="11.527729">
				<ele>426.000000</ele>
			</trkpt>
			<trkpt lat="49.550225" lon="11.527658">
				<ele>423.000000</ele>
			</trkpt>
			<trkpt lat="49.550067" lon="11.527802">
				<ele>424.000000</ele>
			</trkpt>
			<trkpt lat="49.549933" lon="11.527873">
				<ele>426.000000</ele>
			</trkpt>
			<trkpt lat="49.549869" lon="11.528125">
				<ele>427.000000</ele>
			</trkpt>
			<trkpt lat="49.549846" lon="11.528278">
				<ele>428.000000</ele>
			</trkpt>
			<trkpt lat="49.549846" lon="11.528448">
				<ele>429.000000</ele>
			</trkpt>
			<trkpt lat="49.549828" lon="11.528584">
				<ele>430.000000</ele>
			</trkpt>
			<trkpt lat="49.549799" lon="11.528682">
				<ele>434.000000</ele>
			</trkpt>
			<trkpt lat="49.549706" lon="11.528861">
				<ele>440.000000</ele>
			</trkpt>
			<trkpt lat="49.549666" lon="11.529041">
				<ele>440.000000</ele>
			</trkpt>
			<trkpt lat="49.549653" lon="11.529203">
				<ele>440.000000</ele>
			</trkpt>
			<trkpt lat="49.549653" lon="11.529364">
				<ele>440.000000</ele>
			</trkpt>
			<trkpt lat="49.549683" lon="11.529536">
				<ele>440.000000</ele>
			</trkpt>
			<trkpt lat="49.549723" lon="11.529643">
				<ele>440.000000</ele>
			</trkpt>
			<trkpt lat="49.549811" lon="11.529805">
				<ele>440.000000</ele>
			</trkpt>
			<trkpt lat="49.549974" lon="11.529993">
				<ele>440.000000</ele>
			</trkpt>
			<trkpt lat="49.550201" lon="11.530165">
				<ele>443.000000</ele>
			</trkpt>
			<trkpt lat="49.550318" lon="11.530281">
				<ele>445.000000</ele>
			</trkpt>
			<trkpt lat="49.550417" lon="11.530416">
				<ele>448.000000</ele>
			</trkpt>
			<trkpt lat="49.550476" lon="11.530515">
				<ele>449.000000</ele>
			</trkpt>
			<trkpt lat="49.550522" lon="11.530469">
				<ele>450.000000</ele>
			</trkpt>
			<trkpt lat="49.550522" lon="11.530469">
				<ele>450.000000</ele>
			</trkpt>
			<trkpt lat="49.550574" lon="11.530406">
				<ele>450.000000</ele>
			</trkpt>
			<trkpt lat="49.550679" lon="11.530173">
				<ele>450.000000</ele>
			</trkpt>
			<trkpt lat="49.550784" lon="11.529886">
				<ele>450.000000</ele>
			</trkpt>
			<trkpt lat="49.550907" lon="11.529563">
				<ele>449.000000</ele>
			</trkpt>
			<trkpt lat="49.550970" lon="11.529310">
				<ele>446.000000</ele>
			</trkpt>
			<trkpt lat="49.550970" lon="11.529310">
				<ele>446.000000</ele>
			</trkpt>
			<trkpt lat="49.550989" lon="11.529257">
				<ele>446.000000</ele>
			</trkpt>
			<trkpt lat="49.551064" lon="11.529050">
				<ele>443.000000</ele>
			</trkpt>
			<trkpt lat="49.551082" lon="11.528924">
				<ele>442.000000</ele>
			</trkpt>
			<trkpt lat="49.551134" lon="11.529050">
				<ele>441.000000</ele>
			</trkpt>
			<trkpt lat="49.551151" lon="11.529087">
				<ele>441.000000</ele>
			</trkpt>
			<trkpt lat="49.551180" lon="11.529095">
				<ele>440.000000</ele>
			</trkpt>
			<trkpt lat="49.551221" lon="11.529068">
				<ele>440.000000</ele>
			</trkpt>
			<trkpt lat="49.551320" lon="11.528934">
				<ele>438.000000</ele>
			</trkpt>
			<trkpt lat="49.551349" lon="11.528907">
				<ele>438.000000</ele>
			</trkpt>
			<trkpt lat="49.551396" lon="11.528880">
				<ele>438.000000</ele>
			</trkpt>
			<trkpt lat="49.551437" lon="11.528907">
				<ele>437.000000</ele>
			</trkpt>
			<trkpt lat="49.551461" lon="11.528951">
				<ele>437.000000</ele>
			</trkpt>
			<trkpt lat="49.551577" lon="11.529150">
				<ele>435.000000</ele>
			</trkpt>
			<trkpt lat="49.551624" lon="11.529221">
				<ele>434.000000</ele>
			</trkpt>
			<trkpt lat="49.551664" lon="11.529239">
				<ele>434.000000</ele>
			</trkpt>
			<trkpt lat="49.551693" lon="11.529230">
				<ele>434.000000</ele>
			</trkpt>
			<trkpt lat="49.551728" lon="11.529301">
				<ele>440.000000</ele>
			</trkpt>
			<trkpt lat="49.551781" lon="11.529383">
				<ele>440.000000</ele>
			</trkpt>
			<trkpt lat="49.551752" lon="11.529463">
				<ele>442.000000</ele>
			</trkpt>
			<trkpt lat="49.551740" lon="11.529544">
				<ele>443.000000</ele>
			</trkpt>
			<trkpt lat="49.551740" lon="11.529580">
				<ele>444.000000</ele>
			</trkpt>
			<trkpt lat="49.551746" lon="11.529616">
				<ele>444.000000</ele>
			</trkpt>
			<trkpt lat="49.551769" lon="11.529652">
				<ele>445.000000</ele>
			</trkpt>
			<trkpt lat="49.551793" lon="11.529689">
				<ele>446.000000</ele>
			</trkpt>
			<trkpt lat="49.551810" lon="11.529724">
				<ele>447.000000</ele>
			</trkpt>
			<trkpt lat="49.551816" lon="11.529769">
				<ele>448.000000</ele>
			</trkpt>
			<trkpt lat="49.551793" lon="11.529913">
				<ele>450.000000</ele>
			</trkpt>
			<trkpt lat="49.551775" lon="11.530029">
				<ele>451.000000</ele>
			</trkpt>
			<trkpt lat="49.551769" lon="11.530129">
				<ele>451.000000</ele>
			</trkpt>
			<trkpt lat="49.551786" lon="11.530281">
				<ele>452.000000</ele>
			</trkpt>
			<trkpt lat="49.551775" lon="11.530362">
				<ele>452.000000</ele>
			</trkpt>
			<trkpt lat="49.551758" lon="11.530496">
				<ele>453.000000</ele>
			</trkpt>
			<trkpt lat="49.551740" lon="11.530613">
				<ele>453.000000</ele>
			</trkpt>
			<trkpt lat="49.551740" lon="11.530613">
				<ele>454.000000</ele>
			</trkpt>
			<trkpt lat="49.551740" lon="11.530613">
				<ele>454.000000</ele>
			</trkpt>
			<trkpt lat="49.551728" lon="11.530685">
				<ele>454.000000</ele>
			</trkpt>
			<trkpt lat="49.551717" lon="11.530758">
				<ele>454.000000</ele>
			</trkpt>
			<trkpt lat="49.551699" lon="11.530838">
				<ele>454.000000</ele>
			</trkpt>
			<trkpt lat="49.551682" lon="11.530955">
				<ele>455.000000</ele>
			</trkpt>
			<trkpt lat="49.551658" lon="11.531117">
				<ele>456.000000</ele>
			</trkpt>
			<trkpt lat="49.551682" lon="11.531224">
				<ele>456.000000</ele>
			</trkpt>
			<trkpt lat="49.551682" lon="11.531377">
				<ele>457.000000</ele>
			</trkpt>
			<trkpt lat="49.551693" lon="11.531538">
				<ele>457.000000</ele>
			</trkpt>
			<trkpt lat="49.551699" lon="11.531655">
				<ele>458.000000</ele>
			</trkpt>
			<trkpt lat="49.551711" lon="11.531834">
				<ele>459.000000</ele>
			</trkpt>
			<trkpt lat="49.551734" lon="11.531889">
				<ele>459.000000</ele>
			</trkpt>
			<trkpt lat="49.551781" lon="11.532014">
				<ele>460.000000</ele>
			</trkpt>
			<trkpt lat="49.551892" lon="11.532356">
				<ele>460.000000</ele>
			</trkpt>
			<trkpt lat="49.551903" lon="11.532400">
				<ele>460.000000</ele>
			</trkpt>
			<trkpt lat="49.551933" lon="11.532463">
				<ele>461.000000</ele>
			</trkpt>
			<trkpt lat="49.551944" lon="11.532509">
				<ele>461.000000</ele>
			</trkpt>
			<trkpt lat="49.551944" lon="11.532545">
				<ele>461.000000</ele>
			</trkpt>
			<trkpt lat="49.551933" lon="11.532599">
				<ele>461.000000</ele>
			</trkpt>
			<trkpt lat="49.551927" lon="11.532653">
				<ele>461.000000</ele>
			</trkpt>
			<trkpt lat="49.551880" lon="11.532779">
				<ele>461.000000</ele>
			</trkpt>
			<trkpt lat="49.551868" lon="11.532905">
				<ele>462.000000</ele>
			</trkpt>
			<trkpt lat="49.551880" lon="11.533048">
				<ele>462.000000</ele>
			</trkpt>
			<trkpt lat="49.551880" lon="11.533425">
				<ele>464.000000</ele>
			</trkpt>
			<trkpt lat="49.551892" lon="11.533811">
				<ele>465.000000</ele>
			</trkpt>
			<trkpt lat="49.551897" lon="11.534054">
				<ele>466.000000</ele>
			</trkpt>
			<trkpt lat="49.551892" lon="11.534261">
				<ele>467.000000</ele>
			</trkpt>
			<trkpt lat="49.551874" lon="11.534513">
				<ele>468.000000</ele>
			</trkpt>
			<trkpt lat="49.551886" lon="11.534700">
				<ele>469.000000</ele>
			</trkpt>
			<trkpt lat="49.551880" lon="11.534844">
				<ele>469.000000</ele>
			</trkpt>
			<trkpt lat="49.551868" lon="11.534970">
				<ele>470.000000</ele>
			</trkpt>
			<trkpt lat="49.551821" lon="11.535132">
				<ele>470.000000</ele>
			</trkpt>
			<trkpt lat="49.551769" lon="11.535266">
				<ele>470.000000</ele>
			</trkpt>
			<trkpt lat="49.551769" lon="11.535276">
				<ele>470.000000</ele>
			</trkpt>
			<trkpt lat="49.551769" lon="11.535276">
				<ele>470.000000</ele>
			</trkpt>
			<trkpt lat="49.551769" lon="11.535266">
				<ele>470.000000</ele>
			</trkpt>
			<trkpt lat="49.551705" lon="11.535257">
				<ele>471.000000</ele>
			</trkpt>
			<trkpt lat="49.551583" lon="11.535213">
				<ele>472.000000</ele>
			</trkpt>
			<trkpt lat="49.551495" lon="11.535285">
				<ele>473.000000</ele>
			</trkpt>
			<trkpt lat="49.551326" lon="11.535500">
				<ele>475.000000</ele>
			</trkpt>
			<trkpt lat="49.551251" lon="11.535572">
				<ele>476.000000</ele>
			</trkpt>
			<trkpt lat="49.551175" lon="11.535616">
				<ele>476.000000</ele>
			</trkpt>
			<trkpt lat="49.551145" lon="11.535572">
				<ele>476.000000</ele>
			</trkpt>
			<trkpt lat="49.551134" lon="11.535536">
				<ele>476.000000</ele>
			</trkpt>
			<trkpt lat="49.551082" lon="11.535356">
				<ele>474.000000</ele>
			</trkpt>
			<trkpt lat="49.551029" lon="11.535150">
				<ele>473.000000</ele>
			</trkpt>
			<trkpt lat="49.550965" lon="11.535016">
				<ele>472.000000</ele>
			</trkpt>
			<trkpt lat="49.550866" lon="11.534880">
				<ele>471.000000</ele>
			</trkpt>
			<trkpt lat="49.550784" lon="11.534773">
				<ele>465.000000</ele>
			</trkpt>
			<trkpt lat="49.550662" lon="11.534809">
				<ele>465.000000</ele>
			</trkpt>
			<trkpt lat="49.550615" lon="11.534836">
				<ele>465.000000</ele>
			</trkpt>
			<trkpt lat="49.550528" lon="11.534916">
				<ele>465.000000</ele>
			</trkpt>
			<trkpt lat="49.550458" lon="11.535006">
				<ele>466.000000</ele>
			</trkpt>
			<trkpt lat="49.550411" lon="11.535113">
				<ele>466.000000</ele>
			</trkpt>
			<trkpt lat="49.550347" lon="11.535293">
				<ele>466.000000</ele>
			</trkpt>
			<trkpt lat="49.550225" lon="11.535716">
				<ele>467.000000</ele>
			</trkpt>
			<trkpt lat="49.550178" lon="11.535922">
				<ele>467.000000</ele>
			</trkpt>
			<trkpt lat="49.550149" lon="11.536138">
				<ele>467.000000</ele>
			</trkpt>
			<trkpt lat="49.550132" lon="11.536272">
				<ele>467.000000</ele>
			</trkpt>
			<trkpt lat="49.550079" lon="11.536515">
				<ele>468.000000</ele>
			</trkpt>
			<trkpt lat="49.550062" lon="11.536605">
				<ele>468.000000</ele>
			</trkpt>
			<trkpt lat="49.550056" lon="11.536695">
				<ele>468.000000</ele>
			</trkpt>
			<trkpt lat="49.550044" lon="11.536767">
				<ele>468.000000</ele>
			</trkpt>
			<trkpt lat="49.550044" lon="11.536838">
				<ele>468.000000</ele>
			</trkpt>
			<trkpt lat="49.550062" lon="11.536901">
				<ele>469.000000</ele>
			</trkpt>
			<trkpt lat="49.550079" lon="11.536983">
				<ele>469.000000</ele>
			</trkpt>
			<trkpt lat="49.550091" lon="11.537117">
				<ele>470.000000</ele>
			</trkpt>
			<trkpt lat="49.550091" lon="11.537324">
				<ele>470.000000</ele>
			</trkpt>
			<trkpt lat="49.550097" lon="11.537423">
				<ele>470.000000</ele>
			</trkpt>
			<trkpt lat="49.550114" lon="11.537603">
				<ele>470.000000</ele>
			</trkpt>
			<trkpt lat="49.550138" lon="11.537719">
				<ele>470.000000</ele>
			</trkpt>
			<trkpt lat="49.550166" lon="11.537809">
				<ele>470.000000</ele>
			</trkpt>
			<trkpt lat="49.550213" lon="11.537899">
				<ele>470.000000</ele>
			</trkpt>
			<trkpt lat="49.550277" lon="11.538006">
				<ele>470.000000</ele>
			</trkpt>
			<trkpt lat="49.550335" lon="11.538123">
				<ele>470.000000</ele>
			</trkpt>
			<trkpt lat="49.550341" lon="11.538240">
				<ele>478.000000</ele>
			</trkpt>
			<trkpt lat="49.550329" lon="11.538339">
				<ele>481.000000</ele>
			</trkpt>
			<trkpt lat="49.550318" lon="11.538392">
				<ele>482.000000</ele>
			</trkpt>
			<trkpt lat="49.550271" lon="11.538509">
				<ele>484.000000</ele>
			</trkpt>
			<trkpt lat="49.550219" lon="11.538662">
				<ele>487.000000</ele>
			</trkpt>
			<trkpt lat="49.550207" lon="11.538771">
				<ele>489.000000</ele>
			</trkpt>
			<trkpt lat="49.550201" lon="11.538905">
				<ele>491.000000</ele>
			</trkpt>
			<trkpt lat="49.550225" lon="11.539102">
				<ele>494.000000</ele>
			</trkpt>
			<trkpt lat="49.550254" lon="11.539255">
				<ele>496.000000</ele>
			</trkpt>
			<trkpt lat="49.550329" lon="11.539453">
				<ele>499.000000</ele>
			</trkpt>
			<trkpt lat="49.550266" lon="11.539488">
				<ele>500.000000</ele>
			</trkpt>
			<trkpt lat="49.550353" lon="11.539633">
				<ele>500.000000</ele>
			</trkpt>
			<trkpt lat="49.550388" lon="11.539758">
				<ele>500.000000</ele>
			</trkpt>
			<trkpt lat="49.550370" lon="11.539964">
				<ele>500.000000</ele>
			</trkpt>
			<trkpt lat="49.550423" lon="11.539974">
				<ele>500.000000</ele>
			</trkpt>
			<trkpt lat="49.550423" lon="11.539974">
				<ele>500.000000</ele>
			</trkpt>
			<trkpt lat="49.550423" lon="11.539974">
				<ele>500.000000</ele>
			</trkpt>
			<trkpt lat="49.550423" lon="11.539974">
				<ele>500.000000</ele>
			</trkpt>
			<trkpt lat="49.550370" lon="11.539964">
				<ele>500.000000</ele>
			</trkpt>
			<trkpt lat="49.550329" lon="11.540010">
				<ele>500.000000</ele>
			</trkpt>
			<trkpt lat="49.550289" lon="11.540073">
				<ele>500.000000</ele>
			</trkpt>
			<trkpt lat="49.550254" lon="11.540477">
				<ele>500.000000</ele>
			</trkpt>
			<trkpt lat="49.550196" lon="11.540782">
				<ele>495.000000</ele>
			</trkpt>
			<trkpt lat="49.550184" lon="11.540945">
				<ele>492.000000</ele>
			</trkpt>
			<trkpt lat="49.550190" lon="11.541178">
				<ele>490.000000</ele>
			</trkpt>
			<trkpt lat="49.550166" lon="11.541285">
				<ele>490.000000</ele>
			</trkpt>
			<trkpt lat="49.550114" lon="11.541331">
				<ele>490.000000</ele>
			</trkpt>
			<trkpt lat="49.550026" lon="11.541358">
				<ele>491.000000</ele>
			</trkpt>
			<trkpt lat="49.549852" lon="11.541339">
				<ele>491.000000</ele>
			</trkpt>
			<trkpt lat="49.549828" lon="11.541348">
				<ele>492.000000</ele>
			</trkpt>
			<trkpt lat="49.549799" lon="11.541411">
				<ele>492.000000</ele>
			</trkpt>
			<trkpt lat="49.549817" lon="11.541599">
				<ele>492.000000</ele>
			</trkpt>
			<trkpt lat="49.549805" lon="11.541671">
				<ele>493.000000</ele>
			</trkpt>
			<trkpt lat="49.549764" lon="11.541761">
				<ele>493.000000</ele>
			</trkpt>
			<trkpt lat="49.549706" lon="11.541798">
				<ele>493.000000</ele>
			</trkpt>
			<trkpt lat="49.549625" lon="11.541851">
				<ele>494.000000</ele>
			</trkpt>
			<trkpt lat="49.549497" lon="11.542021">
				<ele>495.000000</ele>
			</trkpt>
			<trkpt lat="49.549438" lon="11.542130">
				<ele>495.000000</ele>
			</trkpt>
			<trkpt lat="49.549339" lon="11.542148">
				<ele>497.000000</ele>
			</trkpt>
			<trkpt lat="49.549251" lon="11.542220">
				<ele>500.000000</ele>
			</trkpt>
			<trkpt lat="49.549175" lon="11.542310">
				<ele>502.000000</ele>
			</trkpt>
			<trkpt lat="49.549112" lon="11.542390">
				<ele>504.000000</ele>
			</trkpt>
			<trkpt lat="49.548989" lon="11.542453">
				<ele>508.000000</ele>
			</trkpt>
			<trkpt lat="49.548499" lon="11.542587">
				<ele>519.000000</ele>
			</trkpt>
			<trkpt lat="49.548459" lon="11.542614">
				<ele>520.000000</ele>
			</trkpt>
			<trkpt lat="49.548436" lon="11.542641">
				<ele>520.000000</ele>
			</trkpt>
			<trkpt lat="49.548418" lon="11.542704">
				<ele>520.000000</ele>
			</trkpt>
			<trkpt lat="49.548406" lon="11.542759">
				<ele>520.000000</ele>
			</trkpt>
			<trkpt lat="49.548400" lon="11.542893">
				<ele>520.000000</ele>
			</trkpt>
			<trkpt lat="49.548395" lon="11.543010">
				<ele>520.000000</ele>
			</trkpt>
			<trkpt lat="49.548389" lon="11.543055">
				<ele>519.000000</ele>
			</trkpt>
			<trkpt lat="49.548383" lon="11.543100">
				<ele>519.000000</ele>
			</trkpt>
			<trkpt lat="49.548348" lon="11.543235">
				<ele>519.000000</ele>
			</trkpt>
			<trkpt lat="49.548430" lon="11.543136">
				<ele>531.000000</ele>
			</trkpt>
			<trkpt lat="49.548488" lon="11.543119">
				<ele>533.000000</ele>
			</trkpt>
			<trkpt lat="49.548558" lon="11.543119">
				<ele>536.000000</ele>
			</trkpt>
			<trkpt lat="49.548564" lon="11.543172">
				<ele>537.000000</ele>
			</trkpt>
			<trkpt lat="49.548552" lon="11.543253">
				<ele>537.000000</ele>
			</trkpt>
			<trkpt lat="49.548552" lon="11.543253">
				<ele>537.000000</ele>
			</trkpt>
			<trkpt lat="49.548564" lon="11.543172">
				<ele>537.000000</ele>
			</trkpt>
			<trkpt lat="49.548558" lon="11.543119">
				<ele>536.000000</ele>
			</trkpt>
			<trkpt lat="49.548488" lon="11.543119">
				<ele>533.000000</ele>
			</trkpt>
			<trkpt lat="49.548430" lon="11.543136">
				<ele>531.000000</ele>
			</trkpt>
			<trkpt lat="49.548348" lon="11.543235">
				<ele>519.000000</ele>
			</trkpt>
			<trkpt lat="49.548284" lon="11.543153">
				<ele>520.000000</ele>
			</trkpt>
			<trkpt lat="49.548185" lon="11.543037">
				<ele>521.000000</ele>
			</trkpt>
			<trkpt lat="49.548127" lon="11.542929">
				<ele>521.000000</ele>
			</trkpt>
			<trkpt lat="49.548074" lon="11.542821">
				<ele>522.000000</ele>
			</trkpt>
			<trkpt lat="49.547999" lon="11.542650">
				<ele>523.000000</ele>
			</trkpt>
			<trkpt lat="49.547934" lon="11.542534">
				<ele>524.000000</ele>
			</trkpt>
			<trkpt lat="49.547899" lon="11.542453">
				<ele>524.000000</ele>
			</trkpt>
			<trkpt lat="49.547876" lon="11.542373">
				<ele>525.000000</ele>
			</trkpt>
			<trkpt lat="49.547864" lon="11.542264">
				<ele>525.000000</ele>
			</trkpt>
			<trkpt lat="49.547852" lon="11.542157">
				<ele>526.000000</ele>
			</trkpt>
			<trkpt lat="49.547841" lon="11.542067">
				<ele>526.000000</ele>
			</trkpt>
			<trkpt lat="49.547800" lon="11.541824">
				<ele>528.000000</ele>
			</trkpt>
			<trkpt lat="49.547789" lon="11.541734">
				<ele>528.000000</ele>
			</trkpt>
			<trkpt lat="49.547777" lon="11.541618">
				<ele>529.000000</ele>
			</trkpt>
			<trkpt lat="49.547783" lon="11.541456">
				<ele>529.000000</ele>
			</trkpt>
			<trkpt lat="49.547795" lon="11.541142">
				<ele>530.000000</ele>
			</trkpt>
			<trkpt lat="49.547800" lon="11.541061">
				<ele>530.000000</ele>
			</trkpt>
			<trkpt lat="49.547817" lon="11.540971">
				<ele>530.000000</ele>
			</trkpt>
			<trkpt lat="49.547847" lon="11.540792">
				<ele>530.000000</ele>
			</trkpt>
			<trkpt lat="49.547888" lon="11.540603">
				<ele>530.000000</ele>
			</trkpt>
			<trkpt lat="49.547928" lon="11.540522">
				<ele>530.000000</ele>
			</trkpt>
			<trkpt lat="49.547999" lon="11.540440">
				<ele>530.000000</ele>
			</trkpt>
			<trkpt lat="49.548092" lon="11.540360">
				<ele>530.000000</ele>
			</trkpt>
			<trkpt lat="49.548115" lon="11.540297">
				<ele>530.000000</ele>
			</trkpt>
			<trkpt lat="49.548127" lon="11.540207">
				<ele>530.000000</ele>
			</trkpt>
			<trkpt lat="49.548103" lon="11.540090">
				<ele>530.000000</ele>
			</trkpt>
			<trkpt lat="49.548027" lon="11.539893">
				<ele>530.000000</ele>
			</trkpt>
			<trkpt lat="49.547882" lon="11.539597">
				<ele>530.000000</ele>
			</trkpt>
			<trkpt lat="49.547858" lon="11.539570">
				<ele>530.000000</ele>
			</trkpt>
			<trkpt lat="49.547777" lon="11.539543">
				<ele>530.000000</ele>
			</trkpt>
			<trkpt lat="49.547724" lon="11.539534">
				<ele>530.000000</ele>
			</trkpt>
			<trkpt lat="49.547678" lon="11.539524">
				<ele>530.000000</ele>
			</trkpt>
			<trkpt lat="49.547585" lon="11.539543">
				<ele>530.000000</ele>
			</trkpt>
			<trkpt lat="49.547526" lon="11.539614">
				<ele>530.000000</ele>
			</trkpt>
			<trkpt lat="49.547287" lon="11.539857">
				<ele>530.000000</ele>
			</trkpt>
			<trkpt lat="49.547153" lon="11.539964">
				<ele>530.000000</ele>
			</trkpt>
			<trkpt lat="49.547019" lon="11.540037">
				<ele>530.000000</ele>
			</trkpt>
			<trkpt lat="49.546920" lon="11.540190">
				<ele>530.000000</ele>
			</trkpt>
			<trkpt lat="49.546920" lon="11.540190">
				<ele>530.000000</ele>
			</trkpt>
			<trkpt lat="49.546920" lon="11.540190">
				<ele>530.000000</ele>
			</trkpt>
			<trkpt lat="49.546827" lon="11.540243">
				<ele>530.000000</ele>
			</trkpt>
			<trkpt lat="49.546757" lon="11.540243">
				<ele>530.000000</ele>
			</trkpt>
			<trkpt lat="49.546663" lon="11.540190">
				<ele>530.000000</ele>
			</trkpt>
			<trkpt lat="49.546611" lon="11.540136">
				<ele>530.000000</ele>
			</trkpt>
			<trkpt lat="49.546535" lon="11.540090">
				<ele>530.000000</ele>
			</trkpt>
			<trkpt lat="49.546442" lon="11.540063">
				<ele>530.000000</ele>
			</trkpt>
			<trkpt lat="49.546378" lon="11.540063">
				<ele>530.000000</ele>
			</trkpt>
			<trkpt lat="49.546297" lon="11.540100">
				<ele>530.000000</ele>
			</trkpt>
			<trkpt lat="49.546238" lon="11.540117">
				<ele>530.000000</ele>
			</trkpt>
			<trkpt lat="49.546203" lon="11.540109">
				<ele>530.000000</ele>
			</trkpt>
			<trkpt lat="49.546174" lon="11.540090">
				<ele>530.000000</ele>
			</trkpt>
			<trkpt lat="49.546087" lon="11.539991">
				<ele>530.000000</ele>
			</trkpt>
			<trkpt lat="49.545982" lon="11.539903">
				<ele>530.000000</ele>
			</trkpt>
			<trkpt lat="49.545935" lon="11.539874">
				<ele>530.000000</ele>
			</trkpt>
			<trkpt lat="49.545871" lon="11.539857">
				<ele>530.000000</ele>
			</trkpt>
			<trkpt lat="49.545708" lon="11.539884">
				<ele>530.000000</ele>
			</trkpt>
			<trkpt lat="49.545544" lon="11.539911">
				<ele>530.000000</ele>
			</trkpt>
			<trkpt lat="49.545486" lon="11.539947">
				<ele>530.000000</ele>
			</trkpt>
			<trkpt lat="49.545434" lon="11.540010">
				<ele>530.000000</ele>
			</trkpt>
			<trkpt lat="49.545399" lon="11.540073">
				<ele>530.000000</ele>
			</trkpt>
			<trkpt lat="49.545323" lon="11.540387">
				<ele>530.000000</ele>
			</trkpt>
			<trkpt lat="49.545218" lon="11.540666">
				<ele>532.000000</ele>
			</trkpt>
			<trkpt lat="49.545125" lon="11.540836">
				<ele>534.000000</ele>
			</trkpt>
			<trkpt lat="49.545125" lon="11.540836">
				<ele>534.000000</ele>
			</trkpt>
			<trkpt lat="49.545107" lon="11.540863">
				<ele>534.000000</ele>
			</trkpt>
			<trkpt lat="49.545031" lon="11.541042">
				<ele>536.000000</ele>
			</trkpt>
			<trkpt lat="49.545009" lon="11.541169">
				<ele>536.000000</ele>
			</trkpt>
			<trkpt lat="49.545009" lon="11.541276">
				<ele>537.000000</ele>
			</trkpt>
			<trkpt lat="49.544985" lon="11.541482">
				<ele>539.000000</ele>
			</trkpt>
			<trkpt lat="49.544974" lon="11.541662">
				<ele>540.000000</ele>
			</trkpt>
			<trkpt lat="49.544956" lon="11.541798">
				<ele>540.000000</ele>
			</trkpt>
			<trkpt lat="49.544933" lon="11.542031">
				<ele>540.000000</ele>
			</trkpt>
			<trkpt lat="49.544938" lon="11.542130">
				<ele>540.000000</ele>
			</trkpt>
			<trkpt lat="49.544968" lon="11.542247">
				<ele>540.000000</ele>
			</trkpt>
			<trkpt lat="49.545014" lon="11.542274">
				<ele>542.000000</ele>
			</trkpt>
			<trkpt lat="49.545043" lon="11.542274">
				<ele>544.000000</ele>
			</trkpt>
			<trkpt lat="49.545072" lon="11.542255">
				<ele>546.000000</ele>
			</trkpt>
			<trkpt lat="49.545102" lon="11.542193">
				<ele>548.000000</ele>
			</trkpt>
			<trkpt lat="49.545137" lon="11.542111">
				<ele>551.000000</ele>
			</trkpt>
			<trkpt lat="49.545148" lon="11.542094">
				<ele>552.000000</ele>
			</trkpt>
			<trkpt lat="49.545178" lon="11.542094">
				<ele>554.000000</ele>
			</trkpt>
			<trkpt lat="49.545201" lon="11.542103">
				<ele>555.000000</ele>
			</trkpt>
			<trkpt lat="49.545300" lon="11.542184">
				<ele>560.000000</ele>
			</trkpt>
			<trkpt lat="49.545306" lon="11.542174">
				<ele>560.000000</ele>
			</trkpt>
			<trkpt lat="49.545306" lon="11.542174">
				<ele>560.000000</ele>
			</trkpt>
			<trkpt lat="49.545446" lon="11.541824">
				<ele>570.000000</ele>
			</trkpt>
			<trkpt lat="49.545486" lon="11.541608">
				<ele>566.000000</ele>
			</trkpt>
			<trkpt lat="49.545475" lon="11.541402">
				<ele>562.000000</ele>
			</trkpt>
			<trkpt lat="49.545446" lon="11.541303">
				<ele>560.000000</ele>
			</trkpt>
			<trkpt lat="49.545515" lon="11.541159">
				<ele>560.000000</ele>
			</trkpt>
			<trkpt lat="49.545638" lon="11.541106">
				<ele>560.000000</ele>
			</trkpt>
			<trkpt lat="49.545760" lon="11.541079">
				<ele>560.000000</ele>
			</trkpt>
			<trkpt lat="49.545801" lon="11.541069">
				<ele>560.000000</ele>
			</trkpt>
			<trkpt lat="49.545900" lon="11.540863">
				<ele>556.000000</ele>
			</trkpt>
			<trkpt lat="49.545964" lon="11.540737">
				<ele>553.000000</ele>
			</trkpt>
			<trkpt lat="49.546186" lon="11.540683">
				<ele>550.000000</ele>
			</trkpt>
			<trkpt lat="49.546355" lon="11.540566">
				<ele>550.000000</ele>
			</trkpt>
			<trkpt lat="49.546488" lon="11.540585">
				<ele>550.000000</ele>
			</trkpt>
			<trkpt lat="49.546559" lon="11.540656">
				<ele>550.000000</ele>
			</trkpt>
			<trkpt lat="49.546663" lon="11.540729">
				<ele>550.000000</ele>
			</trkpt>
			<trkpt lat="49.546804" lon="11.540827">
				<ele>550.000000</ele>
			</trkpt>
			<trkpt lat="49.546838" lon="11.540863">
				<ele>550.000000</ele>
			</trkpt>
			<trkpt lat="49.546873" lon="11.540855">
				<ele>549.000000</ele>
			</trkpt>
			<trkpt lat="49.546903" lon="11.540827">
				<ele>549.000000</ele>
			</trkpt>
			<trkpt lat="49.546979" lon="11.540773">
				<ele>549.000000</ele>
			</trkpt>
			<trkpt lat="49.547019" lon="11.540719">
				<ele>548.000000</ele>
			</trkpt>
			<trkpt lat="49.547060" lon="11.540683">
				<ele>548.000000</ele>
			</trkpt>
			<trkpt lat="49.547083" lon="11.540683">
				<ele>548.000000</ele>
			</trkpt>
			<trkpt lat="49.547107" lon="11.540675">
				<ele>548.000000</ele>
			</trkpt>
			<trkpt lat="49.547142" lon="11.540755">
				<ele>548.000000</ele>
			</trkpt>
			<trkpt lat="49.547194" lon="11.540800">
				<ele>548.000000</ele>
			</trkpt>
			<trkpt lat="49.547217" lon="11.540800">
				<ele>548.000000</ele>
			</trkpt>
			<trkpt lat="49.547241" lon="11.540755">
				<ele>553.000000</ele>
			</trkpt>
			<trkpt lat="49.547282" lon="11.540702">
				<ele>560.000000</ele>
			</trkpt>
			<trkpt lat="49.547317" lon="11.540629">
				<ele>560.000000</ele>
			</trkpt>
			<trkpt lat="49.547334" lon="11.540576">
				<ele>560.000000</ele>
			</trkpt>
			<trkpt lat="49.547334" lon="11.540576">
				<ele>560.000000</ele>
			</trkpt>
			<trkpt lat="49.547317" lon="11.540629">
				<ele>560.000000</ele>
			</trkpt>
			<trkpt lat="49.547282" lon="11.540702">
				<ele>560.000000</ele>
			</trkpt>
			<trkpt lat="49.547241" lon="11.540755">
				<ele>553.000000</ele>
			</trkpt>
			<trkpt lat="49.547217" lon="11.540800">
				<ele>548.000000</ele>
			</trkpt>
			<trkpt lat="49.547194" lon="11.540800">
				<ele>548.000000</ele>
			</trkpt>
			<trkpt lat="49.547142" lon="11.540755">
				<ele>548.000000</ele>
			</trkpt>
			<trkpt lat="49.547107" lon="11.540675">
				<ele>548.000000</ele>
			</trkpt>
			<trkpt lat="49.547077" lon="11.541016">
				<ele>546.000000</ele>
			</trkpt>
			<trkpt lat="49.547072" lon="11.541079">
				<ele>546.000000</ele>
			</trkpt>
			<trkpt lat="49.547072" lon="11.541106">
				<ele>546.000000</ele>
			</trkpt>
			<trkpt lat="49.547083" lon="11.541132">
				<ele>545.000000</ele>
			</trkpt>
			<trkpt lat="49.547124" lon="11.541213">
				<ele>545.000000</ele>
			</trkpt>
			<trkpt lat="49.547182" lon="11.541402">
				<ele>544.000000</ele>
			</trkpt>
			<trkpt lat="49.547206" lon="11.541545">
				<ele>543.000000</ele>
			</trkpt>
			<trkpt lat="49.547252" lon="11.541671">
				<ele>543.000000</ele>
			</trkpt>
			<trkpt lat="49.547317" lon="11.541752">
				<ele>542.000000</ele>
			</trkpt>
			<trkpt lat="49.547380" lon="11.541897">
				<ele>541.000000</ele>
			</trkpt>
			<trkpt lat="49.547386" lon="11.541950">
				<ele>541.000000</ele>
			</trkpt>
			<trkpt lat="49.547427" lon="11.542013">
				<ele>541.000000</ele>
			</trkpt>
			<trkpt lat="49.547473" lon="11.542040">
				<ele>540.000000</ele>
			</trkpt>
			<trkpt lat="49.547492" lon="11.542085">
				<ele>540.000000</ele>
			</trkpt>
			<trkpt lat="49.547503" lon="11.542264">
				<ele>540.000000</ele>
			</trkpt>
			<trkpt lat="49.547503" lon="11.542291">
				<ele>540.000000</ele>
			</trkpt>
			<trkpt lat="49.547503" lon="11.542291">
				<ele>540.000000</ele>
			</trkpt>
			<trkpt lat="49.547509" lon="11.542354">
				<ele>540.000000</ele>
			</trkpt>
			<trkpt lat="49.547445" lon="11.542435">
				<ele>540.000000</ele>
			</trkpt>
			<trkpt lat="49.547398" lon="11.542498">
				<ele>540.000000</ele>
			</trkpt>
			<trkpt lat="49.547421" lon="11.542534">
				<ele>540.000000</ele>
			</trkpt>
			<trkpt lat="49.547468" lon="11.542606">
				<ele>540.000000</ele>
			</trkpt>
			<trkpt lat="49.547538" lon="11.542650">
				<ele>540.000000</ele>
			</trkpt>
			<trkpt lat="49.547532" lon="11.542723">
				<ele>540.000000</ele>
			</trkpt>
			<trkpt lat="49.547503" lon="11.542794">
				<ele>540.000000</ele>
			</trkpt>
			<trkpt lat="49.547439" lon="11.542866">
				<ele>541.000000</ele>
			</trkpt>
			<trkpt lat="49.547439" lon="11.542920">
				<ele>542.000000</ele>
			</trkpt>
			<trkpt lat="49.547509" lon="11.543010">
				<ele>544.000000</ele>
			</trkpt>
			<trkpt lat="49.547509" lon="11.543010">
				<ele>544.000000</ele>
			</trkpt>
			<trkpt lat="49.547509" lon="11.543010">
				<ele>544.000000</ele>
			</trkpt>
			<trkpt lat="49.547509" lon="11.543010">
				<ele>544.000000</ele>
			</trkpt>
			<trkpt lat="49.547486" lon="11.543073">
				<ele>546.000000</ele>
			</trkpt>
			<trkpt lat="49.547456" lon="11.543145">
				<ele>548.000000</ele>
			</trkpt>
			<trkpt lat="49.547392" lon="11.543216">
				<ele>551.000000</ele>
			</trkpt>
			<trkpt lat="49.547351" lon="11.543262">
				<ele>553.000000</ele>
			</trkpt>
			<trkpt lat="49.547299" lon="11.543279">
				<ele>555.000000</ele>
			</trkpt>
			<trkpt lat="49.547322" lon="11.543387">
				<ele>556.000000</ele>
			</trkpt>
			<trkpt lat="49.547345" lon="11.543432">
				<ele>557.000000</ele>
			</trkpt>
			<trkpt lat="49.547392" lon="11.543450">
				<ele>558.000000</ele>
			</trkpt>
			<trkpt lat="49.547421" lon="11.543495">
				<ele>558.000000</ele>
			</trkpt>
			<trkpt lat="49.547456" lon="11.543576">
				<ele>559.000000</ele>
			</trkpt>
			<trkpt lat="49.547468" lon="11.543612">
				<ele>560.000000</ele>
			</trkpt>
			<trkpt lat="49.547473" lon="11.543639">
				<ele>560.000000</ele>
			</trkpt>
			<trkpt lat="49.547439" lon="11.543719">
				<ele>558.000000</ele>
			</trkpt>
			<trkpt lat="49.547427" lon="11.543809">
				<ele>557.000000</ele>
			</trkpt>
			<trkpt lat="49.547451" lon="11.543935">
				<ele>554.000000</ele>
			</trkpt>
			<trkpt lat="49.547480" lon="11.544088">
				<ele>551.000000</ele>
			</trkpt>
			<trkpt lat="49.547567" lon="11.544052">
				<ele>550.000000</ele>
			</trkpt>
			<trkpt lat="49.547614" lon="11.544071">
				<ele>550.000000</ele>
			</trkpt>
			<trkpt lat="49.547590" lon="11.544268">
				<ele>550.000000</ele>
			</trkpt>
			<trkpt lat="49.547573" lon="11.544312">
				<ele>550.000000</ele>
			</trkpt>
			<trkpt lat="49.547555" lon="11.544331">
				<ele>550.000000</ele>
			</trkpt>
			<trkpt lat="49.547492" lon="11.544411">
				<ele>550.000000</ele>
			</trkpt>
			<trkpt lat="49.547416" lon="11.544484">
				<ele>549.000000</ele>
			</trkpt>
			<trkpt lat="49.547398" lon="11.544511">
				<ele>548.000000</ele>
			</trkpt>
			<trkpt lat="49.547357" lon="11.544600">
				<ele>546.000000</ele>
			</trkpt>
			<trkpt lat="49.547340" lon="11.544698">
				<ele>545.000000</ele>
			</trkpt>
			<trkpt lat="49.547328" lon="11.544851">
				<ele>543.000000</ele>
			</trkpt>
			<trkpt lat="49.547328" lon="11.544851">
				<ele>543.000000</ele>
			</trkpt>
			<trkpt lat="49.547328" lon="11.544887">
				<ele>542.000000</ele>
			</trkpt>
			<trkpt lat="49.547189" lon="11.544887">
				<ele>548.000000</ele>
			</trkpt>
			<trkpt lat="49.547124" lon="11.544897">
				<ele>550.000000</ele>
			</trkpt>
			<trkpt lat="49.547095" lon="11.544878">
				<ele>551.000000</ele>
			</trkpt>
			<trkpt lat="49.547077" lon="11.544870">
				<ele>552.000000</ele>
			</trkpt>
			<trkpt lat="49.547001" lon="11.544717">
				<ele>557.000000</ele>
			</trkpt>
			<trkpt lat="49.546932" lon="11.544591">
				<ele>561.000000</ele>
			</trkpt>
			<trkpt lat="49.546920" lon="11.544555">
				<ele>561.000000</ele>
			</trkpt>
			<trkpt lat="49.546920" lon="11.544555">
				<ele>561.000000</ele>
			</trkpt>
			<trkpt lat="49.546891" lon="11.544465">
				<ele>562.000000</ele>
			</trkpt>
			<trkpt lat="49.546879" lon="11.544304">
				<ele>564.000000</ele>
			</trkpt>
			<trkpt lat="49.546845" lon="11.544061">
				<ele>567.000000</ele>
			</trkpt>
			<trkpt lat="49.546815" lon="11.543918">
				<ele>569.000000</ele>
			</trkpt>
			<trkpt lat="49.546815" lon="11.543863">
				<ele>573.000000</ele>
			</trkpt>
			<trkpt lat="49.546821" lon="11.543836">
				<ele>573.000000</ele>
			</trkpt>
			<trkpt lat="49.546832" lon="11.543828">
				<ele>573.000000</ele>
			</trkpt>
			<trkpt lat="49.546856" lon="11.543801">
				<ele>573.000000</ele>
			</trkpt>
			<trkpt lat="49.546850" lon="11.543782">
				<ele>573.000000</ele>
			</trkpt>
			<trkpt lat="49.546838" lon="11.543765">
				<ele>573.000000</ele>
			</trkpt>
			<trkpt lat="49.546815" lon="11.543756">
				<ele>574.000000</ele>
			</trkpt>
			<trkpt lat="49.546769" lon="11.543756">
				<ele>575.000000</ele>
			</trkpt>
			<trkpt lat="49.546704" lon="11.543756">
				<ele>576.000000</ele>
			</trkpt>
			<trkpt lat="49.546687" lon="11.543756">
				<ele>576.000000</ele>
			</trkpt>
			<trkpt lat="49.546669" lon="11.543738">
				<ele>577.000000</ele>
			</trkpt>
			<trkpt lat="49.546635" lon="11.543683">
				<ele>578.000000</ele>
			</trkpt>
			<trkpt lat="49.546594" lon="11.543585">
				<ele>579.000000</ele>
			</trkpt>
			<trkpt lat="49.546507" lon="11.543621">
				<ele>580.000000</ele>
			</trkpt>
			<trkpt lat="49.546466" lon="11.543639">
				<ele>580.000000</ele>
			</trkpt>
			<trkpt lat="49.546419" lon="11.543621">
				<ele>580.000000</ele>
			</trkpt>
			<trkpt lat="49.546355" lon="11.543585">
				<ele>580.000000</ele>
			</trkpt>
			<trkpt lat="49.546273" lon="11.543566">
				<ele>579.000000</ele>
			</trkpt>
			<trkpt lat="49.546168" lon="11.543558">
				<ele>577.000000</ele>
			</trkpt>
			<trkpt lat="49.546128" lon="11.543683">
				<ele>576.000000</ele>
			</trkpt>
			<trkpt lat="49.546034" lon="11.543648">
				<ele>575.000000</ele>
			</trkpt>
			<trkpt lat="49.545953" lon="11.543603">
				<ele>574.000000</ele>
			</trkpt>
			<trkpt lat="49.545807" lon="11.543505">
				<ele>572.000000</ele>
			</trkpt>
			<trkpt lat="49.545650" lon="11.543352">
				<ele>569.000000</ele>
			</trkpt>
			<trkpt lat="49.545568" lon="11.543532">
				<ele>565.000000</ele>
			</trkpt>
			<trkpt lat="49.545527" lon="11.543603">
				<ele>564.000000</ele>
			</trkpt>
			<trkpt lat="49.545481" lon="11.543656">
				<ele>562.000000</ele>
			</trkpt>
			<trkpt lat="49.545329" lon="11.543738">
				<ele>561.000000</ele>
			</trkpt>
			<trkpt lat="49.545195" lon="11.543836">
				<ele>562.000000</ele>
			</trkpt>
			<trkpt lat="49.545119" lon="11.543899">
				<ele>563.000000</ele>
			</trkpt>
			<trkpt lat="49.545084" lon="11.543908">
				<ele>563.000000</ele>
			</trkpt>
			<trkpt lat="49.545049" lon="11.543882">
				<ele>564.000000</ele>
			</trkpt>
			<trkpt lat="49.545003" lon="11.543756">
				<ele>564.000000</ele>
			</trkpt>
			<trkpt lat="49.544950" lon="11.543558">
				<ele>566.000000</ele>
			</trkpt>
			<trkpt lat="49.544927" lon="11.543486">
				<ele>566.000000</ele>
			</trkpt>
			<trkpt lat="49.544840" lon="11.543522">
				<ele>567.000000</ele>
			</trkpt>
			<trkpt lat="49.544816" lon="11.543522">
				<ele>567.000000</ele>
			</trkpt>
			<trkpt lat="49.544787" lon="11.543513">
				<ele>568.000000</ele>
			</trkpt>
			<trkpt lat="49.544740" lon="11.543505">
				<ele>568.000000</ele>
			</trkpt>
			<trkpt lat="49.544723" lon="11.543477">
				<ele>568.000000</ele>
			</trkpt>
			<trkpt lat="49.544717" lon="11.543450">
				<ele>569.000000</ele>
			</trkpt>
			<trkpt lat="49.544717" lon="11.543387">
				<ele>569.000000</ele>
			</trkpt>
			<trkpt lat="49.544717" lon="11.543342">
				<ele>569.000000</ele>
			</trkpt>
			<trkpt lat="49.544693" lon="11.543325">
				<ele>569.000000</ele>
			</trkpt>
			<trkpt lat="49.544665" lon="11.543316">
				<ele>570.000000</ele>
			</trkpt>
			<trkpt lat="49.544583" lon="11.543352">
				<ele>572.000000</ele>
			</trkpt>
			<trkpt lat="49.544524" lon="11.543352">
				<ele>574.000000</ele>
			</trkpt>
			<trkpt lat="49.544420" lon="11.543333">
				<ele>578.000000</ele>
			</trkpt>
			<trkpt lat="49.544379" lon="11.543316">
				<ele>580.000000</ele>
			</trkpt>
			<trkpt lat="49.544355" lon="11.543325">
				<ele>580.000000</ele>
			</trkpt>
			<trkpt lat="49.544315" lon="11.543387">
				<ele>580.000000</ele>
			</trkpt>
			<trkpt lat="49.544274" lon="11.543450">
				<ele>580.000000</ele>
			</trkpt>
			<trkpt lat="49.544215" lon="11.543532">
				<ele>580.000000</ele>
			</trkpt>
			<trkpt lat="49.544186" lon="11.543558">
				<ele>580.000000</ele>
			</trkpt>
			<trkpt lat="49.544175" lon="11.543683">
				<ele>580.000000</ele>
			</trkpt>
			<trkpt lat="49.544152" lon="11.543828">
				<ele>580.000000</ele>
			</trkpt>
			<trkpt lat="49.544221" lon="11.544258">
				<ele>577.000000</ele>
			</trkpt>
			<trkpt lat="49.544215" lon="11.544339">
				<ele>576.000000</ele>
			</trkpt>
			<trkpt lat="49.544192" lon="11.544457">
				<ele>575.000000</ele>
			</trkpt>
			<trkpt lat="49.544186" lon="11.544528">
				<ele>574.000000</ele>
			</trkpt>
			<trkpt lat="49.544192" lon="11.544582">
				<ele>573.000000</ele>
			</trkpt>
			<trkpt lat="49.544204" lon="11.544663">
				<ele>572.000000</ele>
			</trkpt>
			<trkpt lat="49.544198" lon="11.544717">
				<ele>571.000000</ele>
			</trkpt>
			<trkpt lat="49.544175" lon="11.544824">
				<ele>570.000000</ele>
			</trkpt>
			<trkpt lat="49.544117" lon="11.544933">
				<ele>566.000000</ele>
			</trkpt>
			<trkpt lat="49.544064" lon="11.544968">
				<ele>564.000000</ele>
			</trkpt>
			<trkpt lat="49.544017" lon="11.544977">
				<ele>562.000000</ele>
			</trkpt>
			<trkpt lat="49.543959" lon="11.544995">
				<ele>560.000000</ele>
			</trkpt>
			<trkpt lat="49.543953" lon="11.545184">
				<ele>558.000000</ele>
			</trkpt>
			<trkpt lat="49.543936" lon="11.545319">
				<ele>556.000000</ele>
			</trkpt>
			<trkpt lat="49.543889" lon="11.545453">
				<ele>555.000000</ele>
			</trkpt>
			<trkpt lat="49.543825" lon="11.545534">
				<ele>553.000000</ele>
			</trkpt>
			<trkpt lat="49.543779" lon="11.545561">
				<ele>553.000000</ele>
			</trkpt>
			<trkpt lat="49.543720" lon="11.545561">
				<ele>552.000000</ele>
			</trkpt>
			<trkpt lat="49.543667" lon="11.545534">
				<ele>551.000000</ele>
			</trkpt>
			<trkpt lat="49.543592" lon="11.545516">
				<ele>550.000000</ele>
			</trkpt>
			<trkpt lat="49.543557" lon="11.545534">
				<ele>549.000000</ele>
			</trkpt>
			<trkpt lat="49.543522" lon="11.545570">
				<ele>549.000000</ele>
			</trkpt>
			<trkpt lat="49.543464" lon="11.545732">
				<ele>547.000000</ele>
			</trkpt>
			<trkpt lat="49.543446" lon="11.545830">
				<ele>546.000000</ele>
			</trkpt>
			<trkpt lat="49.543440" lon="11.545929">
				<ele>545.000000</ele>
			</trkpt>
			<trkpt lat="49.543429" lon="11.545975">
				<ele>545.000000</ele>
			</trkpt>
			<trkpt lat="49.543411" lon="11.546002">
				<ele>545.000000</ele>
			</trkpt>
			<trkpt lat="49.543347" lon="11.546092">
				<ele>544.000000</ele>
			</trkpt>
			<trkpt lat="49.543277" lon="11.546155">
				<ele>542.000000</ele>
			</trkpt>
			<trkpt lat="49.543195" lon="11.546199">
				<ele>541.000000</ele>
			</trkpt>
			<trkpt lat="49.543044" lon="11.546271">
				<ele>539.000000</ele>
			</trkpt>
			<trkpt lat="49.542957" lon="11.546343">
				<ele>537.000000</ele>
			</trkpt>
			<trkpt lat="49.542887" lon="11.546379">
				<ele>535.000000</ele>
			</trkpt>
			<trkpt lat="49.542216" lon="11.546505">
				<ele>518.000000</ele>
			</trkpt>
			<trkpt lat="49.541960" lon="11.546631">
				<ele>511.000000</ele>
			</trkpt>
			<trkpt lat="49.541855" lon="11.546666">
				<ele>509.000000</ele>
			</trkpt>
			<trkpt lat="49.541727" lon="11.546675">
				<ele>506.000000</ele>
			</trkpt>
			<trkpt lat="49.541686" lon="11.546658">
				<ele>506.000000</ele>
			</trkpt>
			<trkpt lat="49.541634" lon="11.546666">
				<ele>506.000000</ele>
			</trkpt>
			<trkpt lat="49.541563" lon="11.546685">
				<ele>507.000000</ele>
			</trkpt>
			<trkpt lat="49.541453" lon="11.546711">
				<ele>507.000000</ele>
			</trkpt>
			<trkpt lat="49.541301" lon="11.546721">
				<ele>507.000000</ele>
			</trkpt>
			<trkpt lat="49.541132" lon="11.546702">
				<ele>508.000000</ele>
			</trkpt>
			<trkpt lat="49.540922" lon="11.546685">
				<ele>509.000000</ele>
			</trkpt>
			<trkpt lat="49.540718" lon="11.546693">
				<ele>509.000000</ele>
			</trkpt>
			<trkpt lat="49.540671" lon="11.546685">
				<ele>510.000000</ele>
			</trkpt>
			<trkpt lat="49.540631" lon="11.546666">
				<ele>510.000000</ele>
			</trkpt>
			<trkpt lat="49.540584" lon="11.546648">
				<ele>510.000000</ele>
			</trkpt>
			<trkpt lat="49.540549" lon="11.546648">
				<ele>510.000000</ele>
			</trkpt>
			<trkpt lat="49.540520" lon="11.546666">
				<ele>510.000000</ele>
			</trkpt>
			<trkpt lat="49.540485" lon="11.546711">
				<ele>511.000000</ele>
			</trkpt>
			<trkpt lat="49.540421" lon="11.546738">
				<ele>512.000000</ele>
			</trkpt>
			<trkpt lat="49.540351" lon="11.546748">
				<ele>512.000000</ele>
			</trkpt>
			<trkpt lat="49.540316" lon="11.546711">
				<ele>513.000000</ele>
			</trkpt>
			<trkpt lat="49.540240" lon="11.546819">
				<ele>514.000000</ele>
			</trkpt>
			<trkpt lat="49.540147" lon="11.546891">
				<ele>515.000000</ele>
			</trkpt>
			<trkpt lat="49.539978" lon="11.546989">
				<ele>517.000000</ele>
			</trkpt>
			<trkpt lat="49.539849" lon="11.547052">
				<ele>518.000000</ele>
			</trkpt>
			<trkpt lat="49.539820" lon="11.547044">
				<ele>518.000000</ele>
			</trkpt>
			<trkpt lat="49.539739" lon="11.546981">
				<ele>519.000000</ele>
			</trkpt>
			<trkpt lat="49.539645" lon="11.546899">
				<ele>520.000000</ele>
			</trkpt>
			<trkpt lat="49.539558" lon="11.546765">
				<ele>523.000000</ele>
			</trkpt>
			<trkpt lat="49.539470" lon="11.546639">
				<ele>525.000000</ele>
			</trkpt>
			<trkpt lat="49.539314" lon="11.546459">
				<ele>530.000000</ele>
			</trkpt>
			<trkpt lat="49.539173" lon="11.546334">
				<ele>533.000000</ele>
			</trkpt>
			<trkpt lat="49.538695" lon="11.546073">
				<ele>544.000000</ele>
			</trkpt>
			<trkpt lat="49.538591" lon="11.546046">
				<ele>547.000000</ele>
			</trkpt>
			<trkpt lat="49.538503" lon="11.546010">
				<ele>549.000000</ele>
			</trkpt>
			<trkpt lat="49.538369" lon="11.545947">
				<ele>550.000000</ele>
			</trkpt>
			<trkpt lat="49.538270" lon="11.545876">
				<ele>550.000000</ele>
			</trkpt>
			<trkpt lat="49.538247" lon="11.545830">
				<ele>550.000000</ele>
			</trkpt>
			<trkpt lat="49.538223" lon="11.545732">
				<ele>550.000000</ele>
			</trkpt>
			<trkpt lat="49.538188" lon="11.545660">
				<ele>550.000000</ele>
			</trkpt>
			<trkpt lat="49.538107" lon="11.545570">
				<ele>550.000000</ele>
			</trkpt>
			<trkpt lat="49.538054" lon="11.545543">
				<ele>549.000000</ele>
			</trkpt>
			<trkpt lat="49.537582" lon="11.545553">
				<ele>544.000000</ele>
			</trkpt>
			<trkpt lat="49.537028" lon="11.545777">
				<ele>538.000000</ele>
			</trkpt>
			<trkpt lat="49.536958" lon="11.545795">
				<ele>536.000000</ele>
			</trkpt>
			<trkpt lat="49.536923" lon="11.545803">
				<ele>536.000000</ele>
			</trkpt>
			<trkpt lat="49.536894" lon="11.545795">
				<ele>535.000000</ele>
			</trkpt>
			<trkpt lat="49.536877" lon="11.545786">
				<ele>535.000000</ele>
			</trkpt>
			<trkpt lat="49.536859" lon="11.545777">
				<ele>535.000000</ele>
			</trkpt>
			<trkpt lat="49.536824" lon="11.545777">
				<ele>534.000000</ele>
			</trkpt>
			<trkpt lat="49.536778" lon="11.545786">
				<ele>533.000000</ele>
			</trkpt>
			<trkpt lat="49.536696" lon="11.545813">
				<ele>532.000000</ele>
			</trkpt>
			<trkpt lat="49.536649" lon="11.545849">
				<ele>531.000000</ele>
			</trkpt>
			<trkpt lat="49.536609" lon="11.545885">
				<ele>530.000000</ele>
			</trkpt>
			<trkpt lat="49.536574" lon="11.546002">
				<ele>529.000000</ele>
			</trkpt>
			<trkpt lat="49.536544" lon="11.546136">
				<ele>527.000000</ele>
			</trkpt>
			<trkpt lat="49.536527" lon="11.546279">
				<ele>525.000000</ele>
			</trkpt>
			<trkpt lat="49.536503" lon="11.546352">
				<ele>524.000000</ele>
			</trkpt>
			<trkpt lat="49.536474" lon="11.546406">
				<ele>524.000000</ele>
			</trkpt>
			<trkpt lat="49.536271" lon="11.546675">
				<ele>519.000000</ele>
			</trkpt>
			<trkpt lat="49.536259" lon="11.546685">
				<ele>519.000000</ele>
			</trkpt>
			<trkpt lat="49.536241" lon="11.546685">
				<ele>519.000000</ele>
			</trkpt>
			<trkpt lat="49.536235" lon="11.546685">
				<ele>519.000000</ele>
			</trkpt>
			<trkpt lat="49.536224" lon="11.546675">
				<ele>519.000000</ele>
			</trkpt>
			<trkpt lat="49.536206" lon="11.546658">
				<ele>519.000000</ele>
			</trkpt>
			<trkpt lat="49.536159" lon="11.546558">
				<ele>518.000000</ele>
			</trkpt>
			<trkpt lat="49.536061" lon="11.546558">
				<ele>517.000000</ele>
			</trkpt>
			<trkpt lat="49.535979" lon="11.546899">
				<ele>515.000000</ele>
			</trkpt>
			<trkpt lat="49.535903" lon="11.547088">
				<ele>514.000000</ele>
			</trkpt>
			<trkpt lat="49.535810" lon="11.547277">
				<ele>513.000000</ele>
			</trkpt>
			<trkpt lat="49.535652" lon="11.547618">
				<ele>511.000000</ele>
			</trkpt>
			<trkpt lat="49.535583" lon="11.547853">
				<ele>510.000000</ele>
			</trkpt>
			<trkpt lat="49.535536" lon="11.548176">
				<ele>508.000000</ele>
			</trkpt>
			<trkpt lat="49.535547" lon="11.548382">
				<ele>507.000000</ele>
			</trkpt>
			<trkpt lat="49.535553" lon="11.548472">
				<ele>506.000000</ele>
			</trkpt>
			<trkpt lat="49.535571" lon="11.548597">
				<ele>506.000000</ele>
			</trkpt>
			<trkpt lat="49.535605" lon="11.548840">
				<ele>504.000000</ele>
			</trkpt>
			<trkpt lat="49.535693" lon="11.549316">
				<ele>502.000000</ele>
			</trkpt>
			<trkpt lat="49.535717" lon="11.549487">
				<ele>501.000000</ele>
			</trkpt>
			<trkpt lat="49.535752" lon="11.549685">
				<ele>500.000000</ele>
			</trkpt>
			<trkpt lat="49.535845" lon="11.550474">
				<ele>498.000000</ele>
			</trkpt>
			<trkpt lat="49.535897" lon="11.551319">
				<ele>496.000000</ele>
			</trkpt>
			<trkpt lat="49.535955" lon="11.552757">
				<ele>493.000000</ele>
			</trkpt>
			<trkpt lat="49.535949" lon="11.553233">
				<ele>492.000000</ele>
			</trkpt>
			<trkpt lat="49.535927" lon="11.553629">
				<ele>492.000000</ele>
			</trkpt>
			<trkpt lat="49.535851" lon="11.554077">
				<ele>491.000000</ele>
			</trkpt>
			<trkpt lat="49.535752" lon="11.554482">
				<ele>490.000000</ele>
			</trkpt>
			<trkpt lat="49.535752" lon="11.554482">
				<ele>490.000000</ele>
			</trkpt>
			<trkpt lat="49.535594" lon="11.555137">
				<ele>488.000000</ele>
			</trkpt>
			<trkpt lat="49.535285" lon="11.556287">
				<ele>485.000000</ele>
			</trkpt>
			<trkpt lat="49.535174" lon="11.556736">
				<ele>484.000000</ele>
			</trkpt>
			<trkpt lat="49.535034" lon="11.557176">
				<ele>483.000000</ele>
			</trkpt>
			<trkpt lat="49.534824" lon="11.557625">
				<ele>482.000000</ele>
			</trkpt>
			<trkpt lat="49.534661" lon="11.557887">
				<ele>481.000000</ele>
			</trkpt>
			<trkpt lat="49.534486" lon="11.558084">
				<ele>480.000000</ele>
			</trkpt>
			<trkpt lat="49.534294" lon="11.558254">
				<ele>480.000000</ele>
			</trkpt>
			<trkpt lat="49.534101" lon="11.558380">
				<ele>479.000000</ele>
			</trkpt>
			<trkpt lat="49.533244" lon="11.558839">
				<ele>475.000000</ele>
			</trkpt>
			<trkpt lat="49.533069" lon="11.558946">
				<ele>475.000000</ele>
			</trkpt>
			<trkpt lat="49.532422" lon="11.559512">
				<ele>472.000000</ele>
			</trkpt>
			<trkpt lat="49.532224" lon="11.559665">
				<ele>471.000000</ele>
			</trkpt>
			<trkpt lat="49.532003" lon="11.559746">
				<ele>470.000000</ele>
			</trkpt>
			<trkpt lat="49.531775" lon="11.559799">
				<ele>469.000000</ele>
			</trkpt>
			<trkpt lat="49.531595" lon="11.559799">
				<ele>469.000000</ele>
			</trkpt>
			<trkpt lat="49.530802" lon="11.559755">
				<ele>465.000000</ele>
			</trkpt>
			<trkpt lat="49.530568" lon="11.559746">
				<ele>464.000000</ele>
			</trkpt>
			<trkpt lat="49.530370" lon="11.559755">
				<ele>463.000000</ele>
			</trkpt>
			<trkpt lat="49.530161" lon="11.559799">
				<ele>462.000000</ele>
			</trkpt>
			<trkpt lat="49.530020" lon="11.559862">
				<ele>462.000000</ele>
			</trkpt>
			<trkpt lat="49.529863" lon="11.559952">
				<ele>461.000000</ele>
			</trkpt>
			<trkpt lat="49.529618" lon="11.560159">
				<ele>460.000000</ele>
			</trkpt>
			<trkpt lat="49.529408" lon="11.560384">
				<ele>459.000000</ele>
			</trkpt>
			<trkpt lat="49.529251" lon="11.560617">
				<ele>458.000000</ele>
			</trkpt>
			<trkpt lat="49.529140" lon="11.560841">
				<ele>457.000000</ele>
			</trkpt>
			<trkpt lat="49.529082" lon="11.560977">
				<ele>456.000000</ele>
			</trkpt>
			<trkpt lat="49.529082" lon="11.560977">
				<ele>456.000000</ele>
			</trkpt>
			<trkpt lat="49.529029" lon="11.561093">
				<ele>456.000000</ele>
			</trkpt>
			<trkpt lat="49.528913" lon="11.561434">
				<ele>455.000000</ele>
			</trkpt>
			<trkpt lat="49.528807" lon="11.561785">
				<ele>454.000000</ele>
			</trkpt>
			<trkpt lat="49.528738" lon="11.562072">
				<ele>453.000000</ele>
			</trkpt>
			<trkpt lat="49.528679" lon="11.562422">
				<ele>452.000000</ele>
			</trkpt>
			<trkpt lat="49.528627" lon="11.562862">
				<ele>451.000000</ele>
			</trkpt>
			<trkpt lat="49.528603" lon="11.563124">
				<ele>450.000000</ele>
			</trkpt>
			<trkpt lat="49.528610" lon="11.563464">
				<ele>449.000000</ele>
			</trkpt>
			<trkpt lat="49.528650" lon="11.565405">
				<ele>441.000000</ele>
			</trkpt>
			<trkpt lat="49.528650" lon="11.565405">
				<ele>441.000000</ele>
			</trkpt>
			<trkpt lat="49.528662" lon="11.565837">
				<ele>440.000000</ele>
			</trkpt>
			<trkpt lat="49.528656" lon="11.566088">
				<ele>439.000000</ele>
			</trkpt>
			<trkpt lat="49.528627" lon="11.566267">
				<ele>438.000000</ele>
			</trkpt>
			<trkpt lat="49.528580" lon="11.566464">
				<ele>438.000000</ele>
			</trkpt>
			<trkpt lat="49.528516" lon="11.566636">
				<ele>437.000000</ele>
			</trkpt>
			<trkpt lat="49.528441" lon="11.566780">
				<ele>437.000000</ele>
			</trkpt>
			<trkpt lat="49.528341" lon="11.566923">
				<ele>436.000000</ele>
			</trkpt>
			<trkpt lat="49.528207" lon="11.567059">
				<ele>436.000000</ele>
			</trkpt>
			<trkpt lat="49.528044" lon="11.567202">
				<ele>435.000000</ele>
			</trkpt>
			<trkpt lat="49.528091" lon="11.567300">
				<ele>440.000000</ele>
			</trkpt>
			<trkpt lat="49.528248" lon="11.567552">
				<ele>440.000000</ele>
			</trkpt>
			<trkpt lat="49.528441" lon="11.567785">
				<ele>440.000000</ele>
			</trkpt>
			<trkpt lat="49.528610" lon="11.567992">
				<ele>440.000000</ele>
			</trkpt>
			<trkpt lat="49.528785" lon="11.568459">
				<ele>430.000000</ele>
			</trkpt>
			<trkpt lat="49.528941" lon="11.568954">
				<ele>430.000000</ele>
			</trkpt>
			<trkpt lat="49.529157" lon="11.569709">
				<ele>429.000000</ele>
			</trkpt>
			<trkpt lat="49.529321" lon="11.570525">
				<ele>429.000000</ele>
			</trkpt>
			<trkpt lat="49.529361" lon="11.570661">
				<ele>429.000000</ele>
			</trkpt>
			<trkpt lat="49.529402" lon="11.570785">
				<ele>429.000000</ele>
			</trkpt>
			<trkpt lat="49.529490" lon="11.571047">
				<ele>428.000000</ele>
			</trkpt>
			<trkpt lat="49.529629" lon="11.571550">
				<ele>428.000000</ele>
			</trkpt>
			<trkpt lat="49.529682" lon="11.571854">
				<ele>428.000000</ele>
			</trkpt>
			<trkpt lat="49.529764" lon="11.572529">
				<ele>428.000000</ele>
			</trkpt>
			<trkpt lat="49.529787" lon="11.572816">
				<ele>427.000000</ele>
			</trkpt>
			<trkpt lat="49.529764" lon="11.573275">
				<ele>427.000000</ele>
			</trkpt>
			<trkpt lat="49.529764" lon="11.573275">
				<ele>427.000000</ele>
			</trkpt>
			<trkpt lat="49.529758" lon="11.573454">
				<ele>427.000000</ele>
			</trkpt>
			<trkpt lat="49.529764" lon="11.573912">
				<ele>427.000000</ele>
			</trkpt>
			<trkpt lat="49.529776" lon="11.574263">
				<ele>427.000000</ele>
			</trkpt>
			<trkpt lat="49.529776" lon="11.574657">
				<ele>426.000000</ele>
			</trkpt>
			<trkpt lat="49.529752" lon="11.575089">
				<ele>426.000000</ele>
			</trkpt>
			<trkpt lat="49.529741" lon="11.575601">
				<ele>426.000000</ele>
			</trkpt>
			<trkpt lat="49.529741" lon="11.575879">
				<ele>426.000000</ele>
			</trkpt>
			<trkpt lat="49.529782" lon="11.576571">
				<ele>425.000000</ele>
			</trkpt>
			<trkpt lat="49.529752" lon="11.577326">
				<ele>421.000000</ele>
			</trkpt>
			<trkpt lat="49.529782" lon="11.577424">
				<ele>421.000000</ele>
			</trkpt>
			<trkpt lat="49.529817" lon="11.577470">
				<ele>420.000000</ele>
			</trkpt>
			<trkpt lat="49.529478" lon="11.578808">
				<ele>420.000000</ele>
			</trkpt>
			<trkpt lat="49.529344" lon="11.579320">
				<ele>420.000000</ele>
			</trkpt>
			<trkpt lat="49.529210" lon="11.579733">
				<ele>420.000000</ele>
			</trkpt>
			<trkpt lat="49.529041" lon="11.580173">
				<ele>420.000000</ele>
			</trkpt>
			<trkpt lat="49.528778" lon="11.580722">
				<ele>420.000000</ele>
			</trkpt>
			<trkpt lat="49.528551" lon="11.581108">
				<ele>420.000000</ele>
			</trkpt>
			<trkpt lat="49.528353" lon="11.581404">
				<ele>420.000000</ele>
			</trkpt>
			<trkpt lat="49.528207" lon="11.581592">
				<ele>420.000000</ele>
			</trkpt>
			<trkpt lat="49.527624" lon="11.582257">
				<ele>420.000000</ele>
			</trkpt>
			<trkpt lat="49.527362" lon="11.582662">
				<ele>420.000000</ele>
			</trkpt>
			<trkpt lat="49.527234" lon="11.582850">
				<ele>420.000000</ele>
			</trkpt>
			<trkpt lat="49.527046" lon="11.583219">
				<ele>420.000000</ele>
			</trkpt>
			<trkpt lat="49.526790" lon="11.584297">
				<ele>420.000000</ele>
			</trkpt>
			<trkpt lat="49.526680" lon="11.584953">
				<ele>420.000000</ele>
			</trkpt>
			<trkpt lat="49.526650" lon="11.585320">
				<ele>420.000000</ele>
			</trkpt>
			<trkpt lat="49.526639" lon="11.585573">
				<ele>420.000000</ele>
			</trkpt>
			<trkpt lat="49.526639" lon="11.585796">
				<ele>420.000000</ele>
			</trkpt>
			<trkpt lat="49.526621" lon="11.585923">
				<ele>420.000000</ele>
			</trkpt>
			<trkpt lat="49.526598" lon="11.586030">
				<ele>420.000000</ele>
			</trkpt>
			<trkpt lat="49.526568" lon="11.586129">
				<ele>420.000000</ele>
			</trkpt>
			<trkpt lat="49.526533" lon="11.586219">
				<ele>420.000000</ele>
			</trkpt>
			<trkpt lat="49.526440" lon="11.586354">
				<ele>420.000000</ele>
			</trkpt>
			<trkpt lat="49.526259" lon="11.586651">
				<ele>420.000000</ele>
			</trkpt>
			<trkpt lat="49.526172" lon="11.586875">
				<ele>420.000000</ele>
			</trkpt>
			<trkpt lat="49.526125" lon="11.587180">
				<ele>420.000000</ele>
			</trkpt>
			<trkpt lat="49.526079" lon="11.587431">
				<ele>420.000000</ele>
			</trkpt>
			<trkpt lat="49.525939" lon="11.587836">
				<ele>420.000000</ele>
			</trkpt>
			<trkpt lat="49.525845" lon="11.587754">
				<ele>420.000000</ele>
			</trkpt>
			<trkpt lat="49.525787" lon="11.587261">
				<ele>420.000000</ele>
			</trkpt>
			<trkpt lat="49.525723" lon="11.586659">
				<ele>421.000000</ele>
			</trkpt>
			<trkpt lat="49.525717" lon="11.586534">
				<ele>421.000000</ele>
			</trkpt>
			<trkpt lat="49.525642" lon="11.586534">
				<ele>421.000000</ele>
			</trkpt>
			<trkpt lat="49.525642" lon="11.586408">
				<ele>422.000000</ele>
			</trkpt>
		</trkseg>
	</trk>
</gpx>

