<gpx xmlns="http://www.topografix.com/GPX/1/1" xmlns:xsi="http://www.w3.org/2001/XMLSchema-instance" xsi:schemaLocation="http://www.topografix.com/GPX/1/1 http://www.topografix.com/GPX/1/1/gpx.xsd" version="1.1" creator="togpx"><metadata/><wpt lat="47.531076613893184" lon="11.114819347858429"><name></name><desc>label=Bahnhofstraße, Farchant,BY,Germany</desc></wpt><wpt lat="47.526202983000104" lon="11.132857203483583"><name></name><desc>label=W 1, 413,Farchant,BY,Germany</desc></wpt><wpt lat="47.52648914701226" lon="11.133120059967043"><name></name><desc>label=W 1, 413,Farchant,BY,Germany</desc></wpt><wpt lat="47.52835098613279" lon="11.134992241859438"><name></name><desc>label=Blick auf Garmisch und Umgebung, Farchant,BY,Germany</desc></wpt><wpt lat="47.52882911314042" lon="11.138039231300356"><name></name><desc>label=Blick zum Oberen Wasserfall, Farchant,BY,Germany</desc></wpt><wpt lat="47.53133558643778" lon="11.153166890144348"><name></name><desc>label=W 6, Garmisch-Partenkirchen,BY,Germany</desc></wpt><wpt lat="47.52246097319228" lon="11.157989501953127"><name></name><desc>label=Tränkgraben, Garmisch-Partenkirchen,BY,Germany</desc></wpt><wpt lat="47.51678405569528" lon="11.157388687133789"><name></name><desc>label=W 2, Garmisch-Partenkirchen,BY,Germany</desc></wpt><wpt lat="47.52093946015514" lon="11.133120059967043"><name></name><desc>label=Trinkwasseranlage, Farchant,BY,Germany</desc></wpt><wpt lat="47.50780914314609" lon="11.117488145828249"><name></name><desc>label=K 6, Garmisch-Partenkirchen,BY,Germany</desc></wpt><wpt lat="47.49962820791235" lon="11.11020863056183"><name></name><desc>label=Philosophenweg, Garmisch-Partenkirchen,BY,Germany</desc></wpt><wpt lat="47.49936183045091" lon="11.111184954643251"><name></name><desc>label=Sankt Anton, Garmisch-Partenkirchen,BY,Germany</desc></wpt><wpt lat="47.49763668655449" lon="11.111793816089632"><name></name><desc>label=Sankt Anton, Garmisch-Partenkirchen,BY,Germany</desc></wpt><wpt lat="47.495023492992374" lon="11.113470196723938"><name></name><desc>label=Floriansbrunnen, Garmisch-Partenkirchen,BY,Germany</desc></wpt><wpt lat="47.494466156085466" lon="11.11015668461944"><name></name><desc>label=Souvenir, Garmisch-Partenkirchen,BY,Germany</desc></wpt><wpt lat="47.49079716549011" lon="11.11344337463379"><name></name><desc>label=Mittenwalder Straße, Garmisch-Partenkirchen,BY,Germany</desc></wpt><wpt lat="47.49523594422683" lon="11.108887150636463"><name></name><desc>label=Ludwigstraße, Garmisch-Partenkirchen,BY,Germany</desc></wpt><wpt lat="47.491517099009" lon="11.097045197835712"><name></name><desc>label=Garmisch-Partenkirchen, BY,Germany</desc></wpt><trk><name></name><desc>ascent=1640.4
descent=1604.7
opacity=0.9</desc><trkseg><trkpt lat="47.531077" lon="11.11481"><ele>670.3</ele></trkpt><trkpt lat="47.530816" lon="11.114758"><ele>671</ele></trkpt><trkpt lat="47.5305" lon="11.114683"><ele>671</ele></trkpt><trkpt lat="47.530505" lon="11.114637"><ele>671</ele></trkpt><trkpt lat="47.530492" lon="11.114634"><ele>671</ele></trkpt><trkpt lat="47.530355" lon="11.114608"><ele>671</ele></trkpt><trkpt lat="47.530322" lon="11.114602"><ele>671</ele></trkpt><trkpt lat="47.529856" lon="11.11449"><ele>672.5</ele></trkpt><trkpt lat="47.529817" lon="11.114311"><ele>672.4</ele></trkpt><trkpt lat="47.529638" lon="11.114266"><ele>673</ele></trkpt><trkpt lat="47.52951" lon="11.114648"><ele>673</ele></trkpt><trkpt lat="47.529534" lon="11.115111"><ele>672.4</ele></trkpt><trkpt lat="47.529572" lon="11.115434"><ele>672</ele></trkpt><trkpt lat="47.529693" lon="11.116306"><ele>671</ele></trkpt><trkpt lat="47.52974" lon="11.116477"><ele>671</ele></trkpt><trkpt lat="47.52975" lon="11.116577"><ele>671</ele></trkpt><trkpt lat="47.529748" lon="11.116647"><ele>671</ele></trkpt><trkpt lat="47.529702" lon="11.117191"><ele>670</ele></trkpt><trkpt lat="47.529697" lon="11.117305"><ele>670</ele></trkpt><trkpt lat="47.529696" lon="11.117454"><ele>670</ele></trkpt><trkpt lat="47.529691" lon="11.117543"><ele>671</ele></trkpt><trkpt lat="47.529638" lon="11.117638"><ele>671</ele></trkpt><trkpt lat="47.529603" lon="11.117915"><ele>671</ele></trkpt><trkpt lat="47.529559" lon="11.117995"><ele>671</ele></trkpt><trkpt lat="47.529524" lon="11.118019"><ele>671</ele></trkpt><trkpt lat="47.529764" lon="11.118196"><ele>671</ele></trkpt><trkpt lat="47.529823" lon="11.118296"><ele>671</ele></trkpt><trkpt lat="47.529833" lon="11.118828"><ele>676</ele></trkpt><trkpt lat="47.529854" lon="11.119346"><ele>683</ele></trkpt><trkpt lat="47.530019" lon="11.120048"><ele>682</ele></trkpt><trkpt lat="47.530044" lon="11.120266"><ele>682</ele></trkpt><trkpt lat="47.530053" lon="11.120381"><ele>682</ele></trkpt><trkpt lat="47.53006" lon="11.120467"><ele>682</ele></trkpt><trkpt lat="47.530212" lon="11.121074"><ele>688.1</ele></trkpt><trkpt lat="47.530354" lon="11.121385"><ele>688.2</ele></trkpt><trkpt lat="47.530548" lon="11.122014"><ele>688.2</ele></trkpt><trkpt lat="47.530585" lon="11.122197"><ele>688</ele></trkpt><trkpt lat="47.530581" lon="11.12262"><ele>688.7</ele></trkpt><trkpt lat="47.530617" lon="11.122736"><ele>690</ele></trkpt><trkpt lat="47.530599" lon="11.12279"><ele>694.3</ele></trkpt><trkpt lat="47.530531" lon="11.123305"><ele>696.9</ele></trkpt><trkpt lat="47.530532" lon="11.12344"><ele>698.4</ele></trkpt><trkpt lat="47.53058" lon="11.123675"><ele>699</ele></trkpt><trkpt lat="47.530569" lon="11.123752"><ele>699.3</ele></trkpt><trkpt lat="47.530366" lon="11.124218"><ele>700.1</ele></trkpt><trkpt lat="47.530352" lon="11.124307"><ele>700.1</ele></trkpt><trkpt lat="47.530422" lon="11.124904"><ele>700.7</ele></trkpt><trkpt lat="47.530418" lon="11.125047"><ele>701</ele></trkpt><trkpt lat="47.530385" lon="11.125178"><ele>700.9</ele></trkpt><trkpt lat="47.530338" lon="11.125285"><ele>701.2</ele></trkpt><trkpt lat="47.530297" lon="11.125324"><ele>701</ele></trkpt><trkpt lat="47.53024" lon="11.125338"><ele>700.8</ele></trkpt><trkpt lat="47.530135" lon="11.125438"><ele>700.8</ele></trkpt><trkpt lat="47.530005" lon="11.125627"><ele>704</ele></trkpt><trkpt lat="47.529921" lon="11.125716"><ele>709.7</ele></trkpt><trkpt lat="47.52985" lon="11.125825"><ele>709.8</ele></trkpt><trkpt lat="47.529679" lon="11.126371"><ele>709.6</ele></trkpt><trkpt lat="47.529648" lon="11.126581"><ele>712</ele></trkpt><trkpt lat="47.529642" lon="11.126683"><ele>712</ele></trkpt><trkpt lat="47.529616" lon="11.126765"><ele>712</ele></trkpt><trkpt lat="47.529466" lon="11.126869"><ele>712</ele></trkpt><trkpt lat="47.529367" lon="11.126875"><ele>718</ele></trkpt><trkpt lat="47.52929" lon="11.126953"><ele>719</ele></trkpt><trkpt lat="47.528997" lon="11.127147"><ele>721.5</ele></trkpt><trkpt lat="47.528896" lon="11.127266"><ele>730</ele></trkpt><trkpt lat="47.528709" lon="11.127475"><ele>733.9</ele></trkpt><trkpt lat="47.528598" lon="11.127508"><ele>734.5</ele></trkpt><trkpt lat="47.52846" lon="11.127474"><ele>736</ele></trkpt><trkpt lat="47.52804" lon="11.127494"><ele>745</ele></trkpt><trkpt lat="47.527928" lon="11.127546"><ele>748.1</ele></trkpt><trkpt lat="47.52784" lon="11.127635"><ele>748.4</ele></trkpt><trkpt lat="47.5277" lon="11.127961"><ele>749</ele></trkpt><trkpt lat="47.527622" lon="11.12804"><ele>749.4</ele></trkpt><trkpt lat="47.527502" lon="11.128121"><ele>749.8</ele></trkpt><trkpt lat="47.527374" lon="11.128159"><ele>764</ele></trkpt><trkpt lat="47.527244" lon="11.128306"><ele>764</ele></trkpt><trkpt lat="47.527187" lon="11.128186"><ele>764</ele></trkpt><trkpt lat="47.527022" lon="11.128279"><ele>777.9</ele></trkpt><trkpt lat="47.526791" lon="11.128478"><ele>782.9</ele></trkpt><trkpt lat="47.52656" lon="11.128729"><ele>786.3</ele></trkpt><trkpt lat="47.52628" lon="11.128908"><ele>792.8</ele></trkpt><trkpt lat="47.526168" lon="11.129042"><ele>793.5</ele></trkpt><trkpt lat="47.526107" lon="11.129166"><ele>794.2</ele></trkpt><trkpt lat="47.526055" lon="11.129382"><ele>804</ele></trkpt><trkpt lat="47.525977" lon="11.129749"><ele>821.3</ele></trkpt><trkpt lat="47.525974" lon="11.13003"><ele>823.1</ele></trkpt><trkpt lat="47.525888" lon="11.130279"><ele>828.2</ele></trkpt><trkpt lat="47.525656" lon="11.130587"><ele>834.4</ele></trkpt><trkpt lat="47.525429" lon="11.131078"><ele>844.8</ele></trkpt><trkpt lat="47.525429" lon="11.131292"><ele>846.3</ele></trkpt><trkpt lat="47.5255" lon="11.131618"><ele>873</ele></trkpt><trkpt lat="47.525542" lon="11.131791"><ele>873</ele></trkpt><trkpt lat="47.525597" lon="11.131852"><ele>873</ele></trkpt><trkpt lat="47.52574" lon="11.131905"><ele>873</ele></trkpt><trkpt lat="47.525894" lon="11.131749"><ele>845</ele></trkpt><trkpt lat="47.525902" lon="11.131822"><ele>852</ele></trkpt><trkpt lat="47.525771" lon="11.13207"><ele>873</ele></trkpt><trkpt lat="47.52594" lon="11.131989"><ele>817</ele></trkpt><trkpt lat="47.525961" lon="11.132158"><ele>826.3</ele></trkpt><trkpt lat="47.52592" lon="11.132305"><ele>828.6</ele></trkpt><trkpt lat="47.52601" lon="11.132543"><ele>854</ele></trkpt><trkpt lat="47.526104" lon="11.132728"><ele>854</ele></trkpt><trkpt lat="47.526179" lon="11.132821"><ele>854</ele></trkpt><trkpt lat="47.526104" lon="11.132728"><ele>854</ele></trkpt><trkpt lat="47.52601" lon="11.132543"><ele>854</ele></trkpt><trkpt lat="47.526154" lon="11.132571"><ele>841.7</ele></trkpt><trkpt lat="47.526135" lon="11.132335"><ele>839.6</ele></trkpt><trkpt lat="47.526268" lon="11.132474"><ele>843.4</ele></trkpt><trkpt lat="47.52643" lon="11.132839"><ele>854</ele></trkpt><trkpt lat="47.526459" lon="11.133055"><ele>854</ele></trkpt><trkpt lat="47.52643" lon="11.132839"><ele>854</ele></trkpt><trkpt lat="47.526452" lon="11.132622"><ele>882.1</ele></trkpt><trkpt lat="47.526493" lon="11.132441"><ele>884</ele></trkpt><trkpt lat="47.526657" lon="11.132684"><ele>888.5</ele></trkpt><trkpt lat="47.526751" lon="11.132594"><ele>894.8</ele></trkpt><trkpt lat="47.526772" lon="11.132734"><ele>895.3</ele></trkpt><trkpt lat="47.526951" lon="11.132627"><ele>895.8</ele></trkpt><trkpt lat="47.526997" lon="11.132808"><ele>902.9</ele></trkpt><trkpt lat="47.527131" lon="11.132771"><ele>907.8</ele></trkpt><trkpt lat="47.527134" lon="11.1329"><ele>912.4</ele></trkpt><trkpt lat="47.52725" lon="11.132874"><ele>913.7</ele></trkpt><trkpt lat="47.527288" lon="11.133076"><ele>918.1</ele></trkpt><trkpt lat="47.527295" lon="11.133566"><ele>919.6</ele></trkpt><trkpt lat="47.52738" lon="11.133689"><ele>923.6</ele></trkpt><trkpt lat="47.527499" lon="11.133683"><ele>923.8</ele></trkpt><trkpt lat="47.527815" lon="11.133767"><ele>944.4</ele></trkpt><trkpt lat="47.527882" lon="11.134122"><ele>952.5</ele></trkpt><trkpt lat="47.527971" lon="11.133977"><ele>952.3</ele></trkpt><trkpt lat="47.528013" lon="11.134221"><ele>955.3</ele></trkpt><trkpt lat="47.528075" lon="11.134202"><ele>956.8</ele></trkpt><trkpt lat="47.528251" lon="11.134409"><ele>961.7</ele></trkpt><trkpt lat="47.528413" lon="11.134701"><ele>967.9</ele></trkpt><trkpt lat="47.528561" lon="11.135046"><ele>973.2</ele></trkpt><trkpt lat="47.528522" lon="11.135153"><ele>1034</ele></trkpt><trkpt lat="47.528359" lon="11.134994"><ele>1008</ele></trkpt><trkpt lat="47.528522" lon="11.135153"><ele>1034</ele></trkpt><trkpt lat="47.528458" lon="11.13533"><ele>1056.6</ele></trkpt><trkpt lat="47.529132" lon="11.13594"><ele>1093.1</ele></trkpt><trkpt lat="47.529473" lon="11.1363"><ele>1096.5</ele></trkpt><trkpt lat="47.529261" lon="11.136485"><ele>1097.8</ele></trkpt><trkpt lat="47.529491" lon="11.136678"><ele>1109.9</ele></trkpt><trkpt lat="47.529335" lon="11.136796"><ele>1104.5</ele></trkpt><trkpt lat="47.529473" lon="11.136905"><ele>1108.2</ele></trkpt><trkpt lat="47.529602" lon="11.136967"><ele>1107.4</ele></trkpt><trkpt lat="47.529712" lon="11.137118"><ele>1106.5</ele></trkpt><trkpt lat="47.529536" lon="11.137095"><ele>1105.6</ele></trkpt><trkpt lat="47.529527" lon="11.137123"><ele>1116</ele></trkpt><trkpt lat="47.529417" lon="11.137155"><ele>1103.7</ele></trkpt><trkpt lat="47.52925" lon="11.137298"><ele>1102.3</ele></trkpt><trkpt lat="47.529031" lon="11.137282"><ele>1100.8</ele></trkpt><trkpt lat="47.528931" lon="11.137337"><ele>1103.2</ele></trkpt><trkpt lat="47.52885" lon="11.137433"><ele>1105.9</ele></trkpt><trkpt lat="47.528786" lon="11.137712"><ele>1108.9</ele></trkpt><trkpt lat="47.528818" lon="11.137839"><ele>1108.1</ele></trkpt><trkpt lat="47.528833" lon="11.138039"><ele>1112</ele></trkpt><trkpt lat="47.528818" lon="11.137839"><ele>1108.1</ele></trkpt><trkpt lat="47.528786" lon="11.137712"><ele>1108.9</ele></trkpt><trkpt lat="47.52885" lon="11.137433"><ele>1105.9</ele></trkpt><trkpt lat="47.528931" lon="11.137337"><ele>1103.2</ele></trkpt><trkpt lat="47.529031" lon="11.137282"><ele>1100.8</ele></trkpt><trkpt lat="47.52925" lon="11.137298"><ele>1102.3</ele></trkpt><trkpt lat="47.529417" lon="11.137155"><ele>1103.7</ele></trkpt><trkpt lat="47.529527" lon="11.137123"><ele>1116</ele></trkpt><trkpt lat="47.529715" lon="11.137277"><ele>1143.1</ele></trkpt><trkpt lat="47.529685" lon="11.137367"><ele>1150.1</ele></trkpt><trkpt lat="47.529439" lon="11.13737"><ele>1144.2</ele></trkpt><trkpt lat="47.529454" lon="11.137443"><ele>1149.1</ele></trkpt><trkpt lat="47.529606" lon="11.137633"><ele>1159</ele></trkpt><trkpt lat="47.529574" lon="11.137698"><ele>1159.9</ele></trkpt><trkpt lat="47.529425" lon="11.137746"><ele>1157.7</ele></trkpt><trkpt lat="47.529539" lon="11.138223"><ele>1164.5</ele></trkpt><trkpt lat="47.529645" lon="11.138337"><ele>1168.1</ele></trkpt><trkpt lat="47.5297" lon="11.138231"><ele>1168.6</ele></trkpt><trkpt lat="47.529707" lon="11.138407"><ele>1169.9</ele></trkpt><trkpt lat="47.529787" lon="11.138605"><ele>1174.1</ele></trkpt><trkpt lat="47.530109" lon="11.138872"><ele>1174.8</ele></trkpt><trkpt lat="47.530163" lon="11.139074"><ele>1188.8</ele></trkpt><trkpt lat="47.530209" lon="11.139147"><ele>1191.1</ele></trkpt><trkpt lat="47.530296" lon="11.139059"><ele>1191.3</ele></trkpt><trkpt lat="47.5304" lon="11.139203"><ele>1198.4</ele></trkpt><trkpt lat="47.530413" lon="11.139398"><ele>1203.7</ele></trkpt><trkpt lat="47.530376" lon="11.139818"><ele>1211.6</ele></trkpt><trkpt lat="47.530379" lon="11.140251"><ele>1230.4</ele></trkpt><trkpt lat="47.530427" lon="11.1409"><ele>1273.7</ele></trkpt><trkpt lat="47.530522" lon="11.141199"><ele>1303.9</ele></trkpt><trkpt lat="47.530532" lon="11.141516"><ele>1322.3</ele></trkpt><trkpt lat="47.530461" lon="11.142123"><ele>1337.4</ele></trkpt><trkpt lat="47.530575" lon="11.142242"><ele>1349.6</ele></trkpt><trkpt lat="47.530403" lon="11.142418"><ele>1357.1</ele></trkpt><trkpt lat="47.53043" lon="11.142566"><ele>1364.2</ele></trkpt><trkpt lat="47.53032" lon="11.142614"><ele>1364.3</ele></trkpt><trkpt lat="47.530418" lon="11.142768"><ele>1369.2</ele></trkpt><trkpt lat="47.53026" lon="11.142981"><ele>1375.6</ele></trkpt><trkpt lat="47.5302" lon="11.14323"><ele>1388.6</ele></trkpt><trkpt lat="47.530257" lon="11.143467"><ele>1396</ele></trkpt><trkpt lat="47.530373" lon="11.143761"><ele>1415.3</ele></trkpt><trkpt lat="47.530566" lon="11.144121"><ele>1435.5</ele></trkpt><trkpt lat="47.530566" lon="11.144308"><ele>1454.9</ele></trkpt><trkpt lat="47.530645" lon="11.144457"><ele>1459.7</ele></trkpt><trkpt lat="47.530571" lon="11.144632"><ele>1473.1</ele></trkpt><trkpt lat="47.530636" lon="11.144971"><ele>1484.7</ele></trkpt><trkpt lat="47.530801" lon="11.144974"><ele>1486.7</ele></trkpt><trkpt lat="47.53072" lon="11.145133"><ele>1499.5</ele></trkpt><trkpt lat="47.530841" lon="11.145286"><ele>1505.3</ele></trkpt><trkpt lat="47.530791" lon="11.145437"><ele>1510.3</ele></trkpt><trkpt lat="47.530884" lon="11.145584"><ele>1515.5</ele></trkpt><trkpt lat="47.53069" lon="11.145733"><ele>1525</ele></trkpt><trkpt lat="47.530768" lon="11.145881"><ele>1526.5</ele></trkpt><trkpt lat="47.530626" lon="11.145995"><ele>1535</ele></trkpt><trkpt lat="47.53058" lon="11.146184"><ele>1543.1</ele></trkpt><trkpt lat="47.53047" lon="11.146295"><ele>1542.9</ele></trkpt><trkpt lat="47.530311" lon="11.146203"><ele>1542.6</ele></trkpt><trkpt lat="47.530344" lon="11.146521"><ele>1550.4</ele></trkpt><trkpt lat="47.530451" lon="11.147067"><ele>1562</ele></trkpt><trkpt lat="47.530306" lon="11.147201"><ele>1566.9</ele></trkpt><trkpt lat="47.530186" lon="11.147271"><ele>1568.3</ele></trkpt><trkpt lat="47.530214" lon="11.147487"><ele>1569.6</ele></trkpt><trkpt lat="47.530305" lon="11.147921"><ele>1568.9</ele></trkpt><trkpt lat="47.530299" lon="11.148013"><ele>1636</ele></trkpt><trkpt lat="47.530285" lon="11.148243"><ele>1673.6</ele></trkpt><trkpt lat="47.530155" lon="11.148602"><ele>1681.6</ele></trkpt><trkpt lat="47.530106" lon="11.148784"><ele>1683.3</ele></trkpt><trkpt lat="47.530405" lon="11.148968"><ele>1703.2</ele></trkpt><trkpt lat="47.53039" lon="11.149112"><ele>1705.3</ele></trkpt><trkpt lat="47.530507" lon="11.149222"><ele>1709</ele></trkpt><trkpt lat="47.530664" lon="11.149304"><ele>1709.7</ele></trkpt><trkpt lat="47.530699" lon="11.149459"><ele>1712.4</ele></trkpt><trkpt lat="47.530815" lon="11.14948"><ele>1714.9</ele></trkpt><trkpt lat="47.530814" lon="11.149718"><ele>1715.8</ele></trkpt><trkpt lat="47.530984" lon="11.149951"><ele>1723.1</ele></trkpt><trkpt lat="47.531019" lon="11.150055"><ele>1728.4</ele></trkpt><trkpt lat="47.531204" lon="11.15013"><ele>1734.5</ele></trkpt><trkpt lat="47.531279" lon="11.150081"><ele>1734.3</ele></trkpt><trkpt lat="47.531343" lon="11.150236"><ele>1734</ele></trkpt><trkpt lat="47.531394" lon="11.150248"><ele>1733.8</ele></trkpt><trkpt lat="47.53144" lon="11.150156"><ele>1733.5</ele></trkpt><trkpt lat="47.531495" lon="11.150094"><ele>1733.2</ele></trkpt><trkpt lat="47.531543" lon="11.149944"><ele>1732.9</ele></trkpt><trkpt lat="47.53158" lon="11.149937"><ele>1733.9</ele></trkpt><trkpt lat="47.531659" lon="11.150261"><ele>1742</ele></trkpt><trkpt lat="47.531776" lon="11.15062"><ele>1752.9</ele></trkpt><trkpt lat="47.531869" lon="11.150721"><ele>1757.2</ele></trkpt><trkpt lat="47.531984" lon="11.151098"><ele>1767.4</ele></trkpt><trkpt lat="47.531932" lon="11.151388"><ele>1771.9</ele></trkpt><trkpt lat="47.532091" lon="11.151521"><ele>1776.3</ele></trkpt><trkpt lat="47.532228" lon="11.151922"><ele>1807.3</ele></trkpt><trkpt lat="47.532344" lon="11.152069"><ele>1818.1</ele></trkpt><trkpt lat="47.532355" lon="11.152217"><ele>1843.5</ele></trkpt><trkpt lat="47.53251" lon="11.152403"><ele>1847.8</ele></trkpt><trkpt lat="47.532688" lon="11.152421"><ele>1853.1</ele></trkpt><trkpt lat="47.532822" lon="11.152818"><ele>1859.3</ele></trkpt><trkpt lat="47.532849" lon="11.153057"><ele>1864</ele></trkpt><trkpt lat="47.533078" lon="11.153372"><ele>1870.5</ele></trkpt><trkpt lat="47.533109" lon="11.153587"><ele>1873.4</ele></trkpt><trkpt lat="47.533033" lon="11.153742"><ele>1873.2</ele></trkpt><trkpt lat="47.5329" lon="11.153958"><ele>1875.9</ele></trkpt><trkpt lat="47.53279" lon="11.154074"><ele>1875.8</ele></trkpt><trkpt lat="47.532698" lon="11.154111"><ele>1875.8</ele></trkpt><trkpt lat="47.532667" lon="11.154144"><ele>1875.7</ele></trkpt><trkpt lat="47.532485" lon="11.153874"><ele>1869.6</ele></trkpt><trkpt lat="47.532305" lon="11.15379"><ele>1868</ele></trkpt><trkpt lat="47.532174" lon="11.153759"><ele>1866.2</ele></trkpt><trkpt lat="47.53199" lon="11.153818"><ele>1864.3</ele></trkpt><trkpt lat="47.531986" lon="11.153884"><ele>1905</ele></trkpt><trkpt lat="47.531713" lon="11.153575"><ele>1888.8</ele></trkpt><trkpt lat="47.531424" lon="11.153294"><ele>1888</ele></trkpt><trkpt lat="47.531345" lon="11.153165"><ele>1891.1</ele></trkpt><trkpt lat="47.531336" lon="11.153164"><ele>1890.4</ele></trkpt><trkpt lat="47.531257" lon="11.153155"><ele>1889.6</ele></trkpt><trkpt lat="47.531091" lon="11.153045"><ele>1889.7</ele></trkpt><trkpt lat="47.530918" lon="11.15306"><ele>1889.9</ele></trkpt><trkpt lat="47.530913" lon="11.153011"><ele>1890</ele></trkpt><trkpt lat="47.530883" lon="11.152973"><ele>1890</ele></trkpt><trkpt lat="47.530719" lon="11.152865"><ele>1882.8</ele></trkpt><trkpt lat="47.530591" lon="11.152826"><ele>1877.2</ele></trkpt><trkpt lat="47.530554" lon="11.152835"><ele>1877.3</ele></trkpt><trkpt lat="47.530504" lon="11.152772"><ele>1876.2</ele></trkpt><trkpt lat="47.530046" lon="11.152545"><ele>1865</ele></trkpt><trkpt lat="47.529573" lon="11.15206"><ele>1850.7</ele></trkpt><trkpt lat="47.529533" lon="11.152067"><ele>1850.6</ele></trkpt><trkpt lat="47.529515" lon="11.1521"><ele>1850.9</ele></trkpt><trkpt lat="47.529452" lon="11.1521"><ele>1849.5</ele></trkpt><trkpt lat="47.529381" lon="11.152001"><ele>1850.2</ele></trkpt><trkpt lat="47.529381" lon="11.151971"><ele>1850.5</ele></trkpt><trkpt lat="47.529336" lon="11.151937"><ele>1848.6</ele></trkpt><trkpt lat="47.529186" lon="11.15191"><ele>1848.2</ele></trkpt><trkpt lat="47.529047" lon="11.151731"><ele>1846.7</ele></trkpt><trkpt lat="47.528988" lon="11.151701"><ele>1846.8</ele></trkpt><trkpt lat="47.528922" lon="11.151705"><ele>1847</ele></trkpt><trkpt lat="47.528889" lon="11.151682"><ele>1846.2</ele></trkpt><trkpt lat="47.528871" lon="11.151635"><ele>1845.9</ele></trkpt><trkpt lat="47.52883" lon="11.151612"><ele>1843.7</ele></trkpt><trkpt lat="47.52862" lon="11.151548"><ele>1842.3</ele></trkpt><trkpt lat="47.528539" lon="11.15151"><ele>1840.3</ele></trkpt><trkpt lat="47.528506" lon="11.151466"><ele>1839.3</ele></trkpt><trkpt lat="47.528424" lon="11.15149"><ele>1838</ele></trkpt><trkpt lat="47.528379" lon="11.151559"><ele>1837.8</ele></trkpt><trkpt lat="47.528329" lon="11.151524"><ele>1837.4</ele></trkpt><trkpt lat="47.528285" lon="11.151613"><ele>1837.1</ele></trkpt><trkpt lat="47.528226" lon="11.151615"><ele>1836.2</ele></trkpt><trkpt lat="47.528179" lon="11.15159"><ele>1833.5</ele></trkpt><trkpt lat="47.528149" lon="11.151609"><ele>1833.2</ele></trkpt><trkpt lat="47.528026" lon="11.151567"><ele>1827.5</ele></trkpt><trkpt lat="47.527833" lon="11.151367"><ele>1818</ele></trkpt><trkpt lat="47.527588" lon="11.15131"><ele>1812.1</ele></trkpt><trkpt lat="47.527536" lon="11.151229"><ele>1810.8</ele></trkpt><trkpt lat="47.527347" lon="11.15117"><ele>1809.3</ele></trkpt><trkpt lat="47.527295" lon="11.151125"><ele>1807.1</ele></trkpt><trkpt lat="47.527235" lon="11.15112"><ele>1806.9</ele></trkpt><trkpt lat="47.527223" lon="11.151047"><ele>1804.5</ele></trkpt><trkpt lat="47.527144" lon="11.150947"><ele>1801.7</ele></trkpt><trkpt lat="47.526878" lon="11.150677"><ele>1787.4</ele></trkpt><trkpt lat="47.526839" lon="11.150687"><ele>1787.2</ele></trkpt><trkpt lat="47.526817" lon="11.15059"><ele>1785.4</ele></trkpt><trkpt lat="47.526791" lon="11.150578"><ele>1785.2</ele></trkpt><trkpt lat="47.526755" lon="11.150606"><ele>1785</ele></trkpt><trkpt lat="47.526694" lon="11.150546"><ele>1782.9</ele></trkpt><trkpt lat="47.526658" lon="11.150558"><ele>1782</ele></trkpt><trkpt lat="47.526402" lon="11.15037"><ele>1775.1</ele></trkpt><trkpt lat="47.525884" lon="11.149864"><ele>1745.6</ele></trkpt><trkpt lat="47.525703" lon="11.149734"><ele>1743.8</ele></trkpt><trkpt lat="47.525471" lon="11.14943"><ele>1727.7</ele></trkpt><trkpt lat="47.52539" lon="11.14926"><ele>1725.9</ele></trkpt><trkpt lat="47.52521" lon="11.148987"><ele>1724.8</ele></trkpt><trkpt lat="47.525119" lon="11.149036"><ele>1722.4</ele></trkpt><trkpt lat="47.524977" lon="11.149201"><ele>1718.3</ele></trkpt><trkpt lat="47.524967" lon="11.149291"><ele>1719</ele></trkpt><trkpt lat="47.524894" lon="11.149589"><ele>1716</ele></trkpt><trkpt lat="47.524802" lon="11.149679"><ele>1712.1</ele></trkpt><trkpt lat="47.525058" lon="11.15082"><ele>1707.1</ele></trkpt><trkpt lat="47.525123" lon="11.15103"><ele>1690.9</ele></trkpt><trkpt lat="47.525218" lon="11.151427"><ele>1690.1</ele></trkpt><trkpt lat="47.525255" lon="11.151834"><ele>1681.2</ele></trkpt><trkpt lat="47.525245" lon="11.1525"><ele>1670.8</ele></trkpt><trkpt lat="47.525161" lon="11.152687"><ele>1668.5</ele></trkpt><trkpt lat="47.525108" lon="11.152941"><ele>1662.7</ele></trkpt><trkpt lat="47.525124" lon="11.153233"><ele>1659.7</ele></trkpt><trkpt lat="47.525084" lon="11.153436"><ele>1654.6</ele></trkpt><trkpt lat="47.525004" lon="11.153582"><ele>1653</ele></trkpt><trkpt lat="47.524998" lon="11.153738"><ele>1647.9</ele></trkpt><trkpt lat="47.524938" lon="11.153757"><ele>1647.5</ele></trkpt><trkpt lat="47.524934" lon="11.153897"><ele>1643.9</ele></trkpt><trkpt lat="47.524752" lon="11.153882"><ele>1641.7</ele></trkpt><trkpt lat="47.524697" lon="11.153957"><ele>1641.4</ele></trkpt><trkpt lat="47.524678" lon="11.154016"><ele>1640.3</ele></trkpt><trkpt lat="47.524552" lon="11.154075"><ele>1635.3</ele></trkpt><trkpt lat="47.524541" lon="11.154198"><ele>1635.3</ele></trkpt><trkpt lat="47.524557" lon="11.154328"><ele>1633.5</ele></trkpt><trkpt lat="47.524481" lon="11.154376"><ele>1633.6</ele></trkpt><trkpt lat="47.524452" lon="11.15461"><ele>1631.7</ele></trkpt><trkpt lat="47.524546" lon="11.154717"><ele>1631.9</ele></trkpt><trkpt lat="47.524584" lon="11.155088"><ele>1626.8</ele></trkpt><trkpt lat="47.524494" lon="11.155088"><ele>1625.7</ele></trkpt><trkpt lat="47.524501" lon="11.155383"><ele>1623.1</ele></trkpt><trkpt lat="47.524526" lon="11.155433"><ele>1622.1</ele></trkpt><trkpt lat="47.524497" lon="11.155463"><ele>1619.3</ele></trkpt><trkpt lat="47.524444" lon="11.15544"><ele>1618.5</ele></trkpt><trkpt lat="47.524305" lon="11.155254"><ele>1619.5</ele></trkpt><trkpt lat="47.524277" lon="11.155359"><ele>1616.7</ele></trkpt><trkpt lat="47.524364" lon="11.155592"><ele>1614.6</ele></trkpt><trkpt lat="47.524266" lon="11.155668"><ele>1613.1</ele></trkpt><trkpt lat="47.52425" lon="11.155731"><ele>1612.4</ele></trkpt><trkpt lat="47.524344" lon="11.15592"><ele>1609.1</ele></trkpt><trkpt lat="47.524338" lon="11.155972"><ele>1606.7</ele></trkpt><trkpt lat="47.524359" lon="11.156004"><ele>1578</ele></trkpt><trkpt lat="47.524102" lon="11.155991"><ele>1553.3</ele></trkpt><trkpt lat="47.524011" lon="11.155951"><ele>1551</ele></trkpt><trkpt lat="47.52392" lon="11.156022"><ele>1542</ele></trkpt><trkpt lat="47.524101" lon="11.157116"><ele>1538</ele></trkpt><trkpt lat="47.524272" lon="11.157373"><ele>1540.2</ele></trkpt><trkpt lat="47.524402" lon="11.157378"><ele>1542</ele></trkpt><trkpt lat="47.524455" lon="11.157546"><ele>1525</ele></trkpt><trkpt lat="47.523759" lon="11.158339"><ele>1495.6</ele></trkpt><trkpt lat="47.523198" lon="11.158512"><ele>1482.9</ele></trkpt><trkpt lat="47.522756" lon="11.158387"><ele>1476.6</ele></trkpt><trkpt lat="47.522466" lon="11.157982"><ele>1468.6</ele></trkpt><trkpt lat="47.521866" lon="11.157142"><ele>1460.5</ele></trkpt><trkpt lat="47.521332" lon="11.155225"><ele>1379.3</ele></trkpt><trkpt lat="47.520968" lon="11.154605"><ele>1389.9</ele></trkpt><trkpt lat="47.520658" lon="11.153871"><ele>1368.7</ele></trkpt><trkpt lat="47.520669" lon="11.152398"><ele>1331.8</ele></trkpt><trkpt lat="47.520335" lon="11.151302"><ele>1325.4</ele></trkpt><trkpt lat="47.520248" lon="11.150761"><ele>1325.7</ele></trkpt><trkpt lat="47.52015" lon="11.150527"><ele>1321.7</ele></trkpt><trkpt lat="47.520143" lon="11.150173"><ele>1322.5</ele></trkpt><trkpt lat="47.519979" lon="11.149533"><ele>1317.7</ele></trkpt><trkpt lat="47.519647" lon="11.148917"><ele>1305.3</ele></trkpt><trkpt lat="47.519272" lon="11.147217"><ele>1292.4</ele></trkpt><trkpt lat="47.51915" lon="11.146875"><ele>1292.7</ele></trkpt><trkpt lat="47.518961" lon="11.146562"><ele>1298</ele></trkpt><trkpt lat="47.518944" lon="11.14696"><ele>1292.8</ele></trkpt><trkpt lat="47.51889" lon="11.147344"><ele>1292.6</ele></trkpt><trkpt lat="47.5188" lon="11.147733"><ele>1292.9</ele></trkpt><trkpt lat="47.518656" lon="11.148045"><ele>1292.3</ele></trkpt><trkpt lat="47.518545" lon="11.148188"><ele>1291.8</ele></trkpt><trkpt lat="47.518429" lon="11.148397"><ele>1290.4</ele></trkpt><trkpt lat="47.518193" lon="11.148707"><ele>1291.2</ele></trkpt><trkpt lat="47.518084" lon="11.148988"><ele>1293</ele></trkpt><trkpt lat="47.518048" lon="11.149272"><ele>1301</ele></trkpt><trkpt lat="47.518025" lon="11.149572"><ele>1298</ele></trkpt><trkpt lat="47.518016" lon="11.15007"><ele>1289</ele></trkpt><trkpt lat="47.518069" lon="11.150543"><ele>1285.3</ele></trkpt><trkpt lat="47.51805" lon="11.150751"><ele>1285.7</ele></trkpt><trkpt lat="47.518004" lon="11.15098"><ele>1285</ele></trkpt><trkpt lat="47.517944" lon="11.151157"><ele>1284.5</ele></trkpt><trkpt lat="47.517821" lon="11.151339"><ele>1284.1</ele></trkpt><trkpt lat="47.517613" lon="11.151577"><ele>1283.9</ele></trkpt><trkpt lat="47.517514" lon="11.151758"><ele>1282.8</ele></trkpt><trkpt lat="47.517449" lon="11.151992"><ele>1284.1</ele></trkpt><trkpt lat="47.517455" lon="11.152372"><ele>1285.2</ele></trkpt><trkpt lat="47.517487" lon="11.152668"><ele>1283.9</ele></trkpt><trkpt lat="47.51749" lon="11.152938"><ele>1284.6</ele></trkpt><trkpt lat="47.517461" lon="11.153154"><ele>1285.4</ele></trkpt><trkpt lat="47.517282" lon="11.153667"><ele>1284.3</ele></trkpt><trkpt lat="47.517193" lon="11.154117"><ele>1282.4</ele></trkpt><trkpt lat="47.517128" lon="11.154344"><ele>1265</ele></trkpt><trkpt lat="47.51681" lon="11.15549"><ele>1265</ele></trkpt><trkpt lat="47.516789" lon="11.155615"><ele>1265</ele></trkpt><trkpt lat="47.516786" lon="11.155728"><ele>1265</ele></trkpt><trkpt lat="47.516783" lon="11.15603"><ele>1263.3</ele></trkpt><trkpt lat="47.516816" lon="11.156772"><ele>1263</ele></trkpt><trkpt lat="47.516816" lon="11.15706"><ele>1263</ele></trkpt><trkpt lat="47.516782" lon="11.157388"><ele>1263</ele></trkpt><trkpt lat="47.516816" lon="11.15706"><ele>1263</ele></trkpt><trkpt lat="47.516816" lon="11.156772"><ele>1263</ele></trkpt><trkpt lat="47.516783" lon="11.15603"><ele>1263.3</ele></trkpt><trkpt lat="47.516786" lon="11.155728"><ele>1265</ele></trkpt><trkpt lat="47.516789" lon="11.155615"><ele>1265</ele></trkpt><trkpt lat="47.51681" lon="11.15549"><ele>1265</ele></trkpt><trkpt lat="47.517128" lon="11.154344"><ele>1265</ele></trkpt><trkpt lat="47.517193" lon="11.154117"><ele>1282.4</ele></trkpt><trkpt lat="47.517282" lon="11.153667"><ele>1284.3</ele></trkpt><trkpt lat="47.517461" lon="11.153154"><ele>1285.4</ele></trkpt><trkpt lat="47.51749" lon="11.152938"><ele>1284.6</ele></trkpt><trkpt lat="47.517487" lon="11.152668"><ele>1283.9</ele></trkpt><trkpt lat="47.517455" lon="11.152372"><ele>1285.2</ele></trkpt><trkpt lat="47.517449" lon="11.151992"><ele>1284.1</ele></trkpt><trkpt lat="47.517514" lon="11.151758"><ele>1282.8</ele></trkpt><trkpt lat="47.517613" lon="11.151577"><ele>1283.9</ele></trkpt><trkpt lat="47.517821" lon="11.151339"><ele>1284.1</ele></trkpt><trkpt lat="47.517944" lon="11.151157"><ele>1284.5</ele></trkpt><trkpt lat="47.518004" lon="11.15098"><ele>1285</ele></trkpt><trkpt lat="47.51805" lon="11.150751"><ele>1285.7</ele></trkpt><trkpt lat="47.518069" lon="11.150543"><ele>1285.3</ele></trkpt><trkpt lat="47.518016" lon="11.15007"><ele>1289</ele></trkpt><trkpt lat="47.518025" lon="11.149572"><ele>1298</ele></trkpt><trkpt lat="47.518048" lon="11.149272"><ele>1301</ele></trkpt><trkpt lat="47.518084" lon="11.148988"><ele>1293</ele></trkpt><trkpt lat="47.518193" lon="11.148707"><ele>1291.2</ele></trkpt><trkpt lat="47.518429" lon="11.148397"><ele>1290.4</ele></trkpt><trkpt lat="47.518545" lon="11.148188"><ele>1291.8</ele></trkpt><trkpt lat="47.518656" lon="11.148045"><ele>1292.3</ele></trkpt><trkpt lat="47.5188" lon="11.147733"><ele>1292.9</ele></trkpt><trkpt lat="47.51889" lon="11.147344"><ele>1292.6</ele></trkpt><trkpt lat="47.518944" lon="11.14696"><ele>1292.8</ele></trkpt><trkpt lat="47.518961" lon="11.146562"><ele>1298</ele></trkpt><trkpt lat="47.518973" lon="11.146469"><ele>1298</ele></trkpt><trkpt lat="47.519014" lon="11.146163"><ele>1302.5</ele></trkpt><trkpt lat="47.519039" lon="11.145811"><ele>1303.6</ele></trkpt><trkpt lat="47.519012" lon="11.145205"><ele>1307</ele></trkpt><trkpt lat="47.519043" lon="11.145044"><ele>1303.7</ele></trkpt><trkpt lat="47.519303" lon="11.144847"><ele>1302.4</ele></trkpt><trkpt lat="47.51968" lon="11.144313"><ele>1300.3</ele></trkpt><trkpt lat="47.519779" lon="11.144048"><ele>1299.7</ele></trkpt><trkpt lat="47.519955" lon="11.143132"><ele>1297.1</ele></trkpt><trkpt lat="47.520131" lon="11.142615"><ele>1293.8</ele></trkpt><trkpt lat="47.520135" lon="11.142207"><ele>1295.4</ele></trkpt><trkpt lat="47.520256" lon="11.141437"><ele>1297</ele></trkpt><trkpt lat="47.520388" lon="11.141027"><ele>1298.2</ele></trkpt><trkpt lat="47.520526" lon="11.140386"><ele>1291.6</ele></trkpt><trkpt lat="47.520927" lon="11.139003"><ele>1279.4</ele></trkpt><trkpt lat="47.520933" lon="11.138556"><ele>1265</ele></trkpt><trkpt lat="47.52096" lon="11.138271"><ele>1260.3</ele></trkpt><trkpt lat="47.521069" lon="11.137796"><ele>1258</ele></trkpt><trkpt lat="47.521175" lon="11.137328"><ele>1241.5</ele></trkpt><trkpt lat="47.521213" lon="11.136964"><ele>1240.1</ele></trkpt><trkpt lat="47.5212" lon="11.136557"><ele>1238.4</ele></trkpt><trkpt lat="47.52111" lon="11.136062"><ele>1238</ele></trkpt><trkpt lat="47.521218" lon="11.135466"><ele>1224</ele></trkpt><trkpt lat="47.521094" lon="11.134673"><ele>1193.7</ele></trkpt><trkpt lat="47.520898" lon="11.133563"><ele>1183.8</ele></trkpt><trkpt lat="47.520923" lon="11.133208"><ele>1177.2</ele></trkpt><trkpt lat="47.520923" lon="11.13312"><ele>1176.4</ele></trkpt><trkpt lat="47.520929" lon="11.132437"><ele>1175.6</ele></trkpt><trkpt lat="47.52082" lon="11.131775"><ele>1172</ele></trkpt><trkpt lat="47.520783" lon="11.131629"><ele>1114.1</ele></trkpt><trkpt lat="47.520609" lon="11.131278"><ele>1112.9</ele></trkpt><trkpt lat="47.520464" lon="11.131103"><ele>1111.7</ele></trkpt><trkpt lat="47.520406" lon="11.131082"><ele>1110.3</ele></trkpt><trkpt lat="47.520375" lon="11.131013"><ele>1108.9</ele></trkpt><trkpt lat="47.520406" lon="11.130909"><ele>1107.3</ele></trkpt><trkpt lat="47.520774" lon="11.130794"><ele>1105.7</ele></trkpt><trkpt lat="47.520837" lon="11.130745"><ele>1106.6</ele></trkpt><trkpt lat="47.52081" lon="11.130665"><ele>1106.8</ele></trkpt><trkpt lat="47.520579" lon="11.130429"><ele>1108.8</ele></trkpt><trkpt lat="47.520456" lon="11.130373"><ele>1109.9</ele></trkpt><trkpt lat="47.520343" lon="11.13035"><ele>1111.1</ele></trkpt><trkpt lat="47.520036" lon="11.130405"><ele>1092</ele></trkpt><trkpt lat="47.519823" lon="11.130362"><ele>1086.3</ele></trkpt><trkpt lat="47.519543" lon="11.130242"><ele>1082.8</ele></trkpt><trkpt lat="47.519156" lon="11.130111"><ele>1081.6</ele></trkpt><trkpt lat="47.519028" lon="11.130018"><ele>1079.3</ele></trkpt><trkpt lat="47.518773" lon="11.129725"><ele>1076.8</ele></trkpt><trkpt lat="47.518606" lon="11.129582"><ele>1076.4</ele></trkpt><trkpt lat="47.518472" lon="11.129509"><ele>1064</ele></trkpt><trkpt lat="47.518239" lon="11.129423"><ele>1084.8</ele></trkpt><trkpt lat="47.518125" lon="11.12934"><ele>1083.8</ele></trkpt><trkpt lat="47.518026" lon="11.129319"><ele>1082.5</ele></trkpt><trkpt lat="47.517794" lon="11.129358"><ele>1090</ele></trkpt><trkpt lat="47.517684" lon="11.129243"><ele>1090</ele></trkpt><trkpt lat="47.517565" lon="11.128853"><ele>1073.6</ele></trkpt><trkpt lat="47.51744" lon="11.128518"><ele>1077.4</ele></trkpt><trkpt lat="47.517094" lon="11.128098"><ele>1074.9</ele></trkpt><trkpt lat="47.516841" lon="11.127447"><ele>1073</ele></trkpt><trkpt lat="47.51662" lon="11.127053"><ele>1079.5</ele></trkpt><trkpt lat="47.516332" lon="11.126931"><ele>1086</ele></trkpt><trkpt lat="47.516271" lon="11.126866"><ele>1086</ele></trkpt><trkpt lat="47.516254" lon="11.126796"><ele>1067.2</ele></trkpt><trkpt lat="47.516266" lon="11.126501"><ele>1060.9</ele></trkpt><trkpt lat="47.516195" lon="11.12628"><ele>1060.6</ele></trkpt><trkpt lat="47.515966" lon="11.125851"><ele>1060.2</ele></trkpt><trkpt lat="47.515803" lon="11.124963"><ele>1055.5</ele></trkpt><trkpt lat="47.515746" lon="11.1249"><ele>1042</ele></trkpt><trkpt lat="47.515484" lon="11.124463"><ele>1036.8</ele></trkpt><trkpt lat="47.515147" lon="11.12412"><ele>1032.8</ele></trkpt><trkpt lat="47.514785" lon="11.123915"><ele>1033</ele></trkpt><trkpt lat="47.514555" lon="11.123735"><ele>1027.6</ele></trkpt><trkpt lat="47.514469" lon="11.123623"><ele>1026.6</ele></trkpt><trkpt lat="47.514281" lon="11.123031"><ele>1023</ele></trkpt><trkpt lat="47.514064" lon="11.122572"><ele>1022.8</ele></trkpt><trkpt lat="47.513913" lon="11.122364"><ele>989</ele></trkpt><trkpt lat="47.513778" lon="11.122196"><ele>992.6</ele></trkpt><trkpt lat="47.513476" lon="11.122111"><ele>990.1</ele></trkpt><trkpt lat="47.513096" lon="11.121939"><ele>988</ele></trkpt><trkpt lat="47.512732" lon="11.12171"><ele>984.7</ele></trkpt><trkpt lat="47.51247" lon="11.121438"><ele>981.1</ele></trkpt><trkpt lat="47.512232" lon="11.121255"><ele>980.8</ele></trkpt><trkpt lat="47.511623" lon="11.120892"><ele>983</ele></trkpt><trkpt lat="47.511334" lon="11.120728"><ele>960.6</ele></trkpt><trkpt lat="47.510933" lon="11.120417"><ele>961.9</ele></trkpt><trkpt lat="47.51068" lon="11.12025"><ele>956</ele></trkpt><trkpt lat="47.510642" lon="11.120223"><ele>956</ele></trkpt><trkpt lat="47.510538" lon="11.120103"><ele>944.9</ele></trkpt><trkpt lat="47.510449" lon="11.120051"><ele>942.4</ele></trkpt><trkpt lat="47.510337" lon="11.120057"><ele>940.5</ele></trkpt><trkpt lat="47.509998" lon="11.119968"><ele>932.3</ele></trkpt><trkpt lat="47.509498" lon="11.119742"><ele>930.4</ele></trkpt><trkpt lat="47.50935" lon="11.119649"><ele>928.7</ele></trkpt><trkpt lat="47.509171" lon="11.119463"><ele>921.6</ele></trkpt><trkpt lat="47.509096" lon="11.119312"><ele>919.4</ele></trkpt><trkpt lat="47.508972" lon="11.118908"><ele>913.4</ele></trkpt><trkpt lat="47.508801" lon="11.118716"><ele>912.5</ele></trkpt><trkpt lat="47.508398" lon="11.118473"><ele>909.7</ele></trkpt><trkpt lat="47.50828" lon="11.11836"><ele>908.1</ele></trkpt><trkpt lat="47.508042" lon="11.117926"><ele>885</ele></trkpt><trkpt lat="47.507915" lon="11.117634"><ele>878.8</ele></trkpt><trkpt lat="47.507816" lon="11.117478"><ele>878.2</ele></trkpt><trkpt lat="47.507806" lon="11.117462"><ele>877.6</ele></trkpt><trkpt lat="47.50768" lon="11.117403"><ele>878.5</ele></trkpt><trkpt lat="47.507376" lon="11.117335"><ele>878</ele></trkpt><trkpt lat="47.507226" lon="11.117278"><ele>878</ele></trkpt><trkpt lat="47.507127" lon="11.117213"><ele>878</ele></trkpt><trkpt lat="47.507045" lon="11.117098"><ele>878</ele></trkpt><trkpt lat="47.506938" lon="11.116845"><ele>871.6</ele></trkpt><trkpt lat="47.506906" lon="11.116676"><ele>870.8</ele></trkpt><trkpt lat="47.506759" lon="11.116515"><ele>870.5</ele></trkpt><trkpt lat="47.506687" lon="11.116407"><ele>871.2</ele></trkpt><trkpt lat="47.506636" lon="11.116175"><ele>872</ele></trkpt><trkpt lat="47.506511" lon="11.115875"><ele>872</ele></trkpt><trkpt lat="47.506234" lon="11.115603"><ele>857.9</ele></trkpt><trkpt lat="47.506112" lon="11.115522"><ele>857.1</ele></trkpt><trkpt lat="47.505293" lon="11.115201"><ele>854</ele></trkpt><trkpt lat="47.50516" lon="11.115129"><ele>852</ele></trkpt><trkpt lat="47.505061" lon="11.11506"><ele>850.9</ele></trkpt><trkpt lat="47.504845" lon="11.114857"><ele>849.4</ele></trkpt><trkpt lat="47.504622" lon="11.114575"><ele>849.7</ele></trkpt><trkpt lat="47.504555" lon="11.114526"><ele>844</ele></trkpt><trkpt lat="47.504283" lon="11.114383"><ele>844.3</ele></trkpt><trkpt lat="47.504201" lon="11.114317"><ele>844.3</ele></trkpt><trkpt lat="47.50407" lon="11.114141"><ele>845</ele></trkpt><trkpt lat="47.503823" lon="11.113903"><ele>845</ele></trkpt><trkpt lat="47.503714" lon="11.113743"><ele>845</ele></trkpt><trkpt lat="47.503642" lon="11.113597"><ele>845</ele></trkpt><trkpt lat="47.503531" lon="11.113334"><ele>840.9</ele></trkpt><trkpt lat="47.503193" lon="11.11272"><ele>842</ele></trkpt><trkpt lat="47.503009" lon="11.112473"><ele>827</ele></trkpt><trkpt lat="47.502796" lon="11.112096"><ele>828.1</ele></trkpt><trkpt lat="47.502392" lon="11.111713"><ele>824</ele></trkpt><trkpt lat="47.502159" lon="11.111532"><ele>810</ele></trkpt><trkpt lat="47.501856" lon="11.111327"><ele>810</ele></trkpt><trkpt lat="47.501835" lon="11.111277"><ele>810</ele></trkpt><trkpt lat="47.501826" lon="11.111189"><ele>810</ele></trkpt><trkpt lat="47.501715" lon="11.111191"><ele>803.5</ele></trkpt><trkpt lat="47.50152" lon="11.111116"><ele>797</ele></trkpt><trkpt lat="47.501265" lon="11.111039"><ele>791.5</ele></trkpt><trkpt lat="47.50093" lon="11.111023"><ele>790.5</ele></trkpt><trkpt lat="47.500567" lon="11.111108"><ele>789.9</ele></trkpt><trkpt lat="47.500303" lon="11.111246"><ele>790.3</ele></trkpt><trkpt lat="47.500229" lon="11.111216"><ele>790.4</ele></trkpt><trkpt lat="47.50002" lon="11.111009"><ele>788</ele></trkpt><trkpt lat="47.499927" lon="11.110882"><ele>779.1</ele></trkpt><trkpt lat="47.499873" lon="11.110858"><ele>779.5</ele></trkpt><trkpt lat="47.499763" lon="11.110867"><ele>777</ele></trkpt><trkpt lat="47.499767" lon="11.110622"><ele>769</ele></trkpt><trkpt lat="47.499589" lon="11.110613"><ele>769</ele></trkpt><trkpt lat="47.499587" lon="11.110533"><ele>769</ele></trkpt><trkpt lat="47.499625" lon="11.110473"><ele>769</ele></trkpt><trkpt lat="47.499626" lon="11.110441"><ele>769</ele></trkpt><trkpt lat="47.499631" lon="11.110243"><ele>769</ele></trkpt><trkpt lat="47.499632" lon="11.11021"><ele>769</ele></trkpt><trkpt lat="47.499631" lon="11.110243"><ele>769</ele></trkpt><trkpt lat="47.499626" lon="11.110441"><ele>769</ele></trkpt><trkpt lat="47.499625" lon="11.110473"><ele>769</ele></trkpt><trkpt lat="47.499587" lon="11.110533"><ele>769</ele></trkpt><trkpt lat="47.499589" lon="11.110613"><ele>769</ele></trkpt><trkpt lat="47.499767" lon="11.110622"><ele>769</ele></trkpt><trkpt lat="47.499763" lon="11.110867"><ele>777</ele></trkpt><trkpt lat="47.499658" lon="11.111037"><ele>777</ele></trkpt><trkpt lat="47.499592" lon="11.111086"><ele>777</ele></trkpt><trkpt lat="47.499363" lon="11.111189"><ele>775</ele></trkpt><trkpt lat="47.499343" lon="11.111197"><ele>773.1</ele></trkpt><trkpt lat="47.499187" lon="11.111193"><ele>772</ele></trkpt><trkpt lat="47.499086" lon="11.111239"><ele>755</ele></trkpt><trkpt lat="47.49882" lon="11.111251"><ele>755</ele></trkpt><trkpt lat="47.498706" lon="11.111208"><ele>755</ele></trkpt><trkpt lat="47.498647" lon="11.111184"><ele>755</ele></trkpt><trkpt lat="47.498386" lon="11.111217"><ele>745.9</ele></trkpt><trkpt lat="47.498296" lon="11.111256"><ele>726</ele></trkpt><trkpt lat="47.498274" lon="11.111268"><ele>726</ele></trkpt><trkpt lat="47.498173" lon="11.111344"><ele>726</ele></trkpt><trkpt lat="47.498077" lon="11.111453"><ele>730</ele></trkpt><trkpt lat="47.498007" lon="11.111568"><ele>730.4</ele></trkpt><trkpt lat="47.497662" lon="11.111781"><ele>730.5</ele></trkpt><trkpt lat="47.49764" lon="11.111801"><ele>730</ele></trkpt><trkpt lat="47.497571" lon="11.111864"><ele>729.5</ele></trkpt><trkpt lat="47.497276" lon="11.112296"><ele>723</ele></trkpt><trkpt lat="47.497107" lon="11.112546"><ele>727</ele></trkpt><trkpt lat="47.496958" lon="11.112717"><ele>726.8</ele></trkpt><trkpt lat="47.496727" lon="11.11292"><ele>726.6</ele></trkpt><trkpt lat="47.496683" lon="11.112939"><ele>728</ele></trkpt><trkpt lat="47.496639" lon="11.112939"><ele>725</ele></trkpt><trkpt lat="47.496614" lon="11.113164"><ele>728.6</ele></trkpt><trkpt lat="47.496413" lon="11.113964"><ele>729.6</ele></trkpt><trkpt lat="47.496183" lon="11.114538"><ele>729.9</ele></trkpt><trkpt lat="47.496033" lon="11.114795"><ele>730.2</ele></trkpt><trkpt lat="47.495892" lon="11.114996"><ele>732</ele></trkpt><trkpt lat="47.495751" lon="11.115051"><ele>732.5</ele></trkpt><trkpt lat="47.495683" lon="11.11503"><ele>732.5</ele></trkpt><trkpt lat="47.495552" lon="11.114892"><ele>731</ele></trkpt><trkpt lat="47.495527" lon="11.114861"><ele>731</ele></trkpt><trkpt lat="47.495479" lon="11.114534"><ele>730.2</ele></trkpt><trkpt lat="47.495358" lon="11.114183"><ele>730.3</ele></trkpt><trkpt lat="47.495224" lon="11.113887"><ele>730</ele></trkpt><trkpt lat="47.4951" lon="11.113744"><ele>728</ele></trkpt><trkpt lat="47.495078" lon="11.113615"><ele>728</ele></trkpt><trkpt lat="47.495087" lon="11.113456"><ele>728</ele></trkpt><trkpt lat="47.495023" lon="11.113468"><ele>728.5</ele></trkpt><trkpt lat="47.495087" lon="11.113456"><ele>728</ele></trkpt><trkpt lat="47.495126" lon="11.113292"><ele>725</ele></trkpt><trkpt lat="47.495206" lon="11.112685"><ele>725</ele></trkpt><trkpt lat="47.495198" lon="11.112332"><ele>721</ele></trkpt><trkpt lat="47.495155" lon="11.112284"><ele>721</ele></trkpt><trkpt lat="47.495127" lon="11.112123"><ele>721</ele></trkpt><trkpt lat="47.495141" lon="11.112026"><ele>721</ele></trkpt><trkpt lat="47.495044" lon="11.111802"><ele>719.7</ele></trkpt><trkpt lat="47.4947" lon="11.111165"><ele>718</ele></trkpt><trkpt lat="47.494648" lon="11.110982"><ele>717.3</ele></trkpt><trkpt lat="47.494598" lon="11.110642"><ele>716</ele></trkpt><trkpt lat="47.494561" lon="11.11047"><ele>716</ele></trkpt><trkpt lat="47.494496" lon="11.110292"><ele>716</ele></trkpt><trkpt lat="47.494483" lon="11.110159"><ele>716</ele></trkpt><trkpt lat="47.494475" lon="11.11017"><ele>717</ele></trkpt><trkpt lat="47.493783" lon="11.111118"><ele>718</ele></trkpt><trkpt lat="47.493747" lon="11.111163"><ele>718</ele></trkpt><trkpt lat="47.493646" lon="11.111309"><ele>718</ele></trkpt><trkpt lat="47.49346" lon="11.111554"><ele>718</ele></trkpt><trkpt lat="47.493165" lon="11.111973"><ele>715</ele></trkpt><trkpt lat="47.492629" lon="11.112608"><ele>717.2</ele></trkpt><trkpt lat="47.492538" lon="11.112793"><ele>717.2</ele></trkpt><trkpt lat="47.492099" lon="11.11336"><ele>718.2</ele></trkpt><trkpt lat="47.491887" lon="11.113547"><ele>722</ele></trkpt><trkpt lat="47.491828" lon="11.11358"><ele>721.7</ele></trkpt><trkpt lat="47.491631" lon="11.113597"><ele>721</ele></trkpt><trkpt lat="47.491344" lon="11.113565"><ele>721</ele></trkpt><trkpt lat="47.491267" lon="11.113524"><ele>721</ele></trkpt><trkpt lat="47.491204" lon="11.11349"><ele>721</ele></trkpt><trkpt lat="47.491062" lon="11.113477"><ele>721</ele></trkpt><trkpt lat="47.490874" lon="11.11346"><ele>721</ele></trkpt><trkpt lat="47.490797" lon="11.113461"><ele>719.5</ele></trkpt><trkpt lat="47.490874" lon="11.11346"><ele>721</ele></trkpt><trkpt lat="47.491062" lon="11.113477"><ele>721</ele></trkpt><trkpt lat="47.491204" lon="11.11349"><ele>721</ele></trkpt><trkpt lat="47.491267" lon="11.113524"><ele>721</ele></trkpt><trkpt lat="47.491344" lon="11.113565"><ele>721</ele></trkpt><trkpt lat="47.491631" lon="11.113597"><ele>721</ele></trkpt><trkpt lat="47.491828" lon="11.11358"><ele>721.7</ele></trkpt><trkpt lat="47.491887" lon="11.113547"><ele>722</ele></trkpt><trkpt lat="47.492099" lon="11.11336"><ele>718.2</ele></trkpt><trkpt lat="47.492538" lon="11.112793"><ele>717.2</ele></trkpt><trkpt lat="47.492629" lon="11.112608"><ele>717.2</ele></trkpt><trkpt lat="47.493165" lon="11.111973"><ele>715</ele></trkpt><trkpt lat="47.49346" lon="11.111554"><ele>718</ele></trkpt><trkpt lat="47.493646" lon="11.111309"><ele>718</ele></trkpt><trkpt lat="47.493747" lon="11.111163"><ele>718</ele></trkpt><trkpt lat="47.493783" lon="11.111118"><ele>718</ele></trkpt><trkpt lat="47.494483" lon="11.110159"><ele>716</ele></trkpt><trkpt lat="47.494895" lon="11.109467"><ele>714.6</ele></trkpt><trkpt lat="47.495229" lon="11.108997"><ele>714</ele></trkpt><trkpt lat="47.495268" lon="11.108959"><ele>714</ele></trkpt><trkpt lat="47.495238" lon="11.108885"><ele>714</ele></trkpt><trkpt lat="47.495215" lon="11.10883"><ele>714</ele></trkpt><trkpt lat="47.495193" lon="11.108669"><ele>714</ele></trkpt><trkpt lat="47.495144" lon="11.108507"><ele>714</ele></trkpt><trkpt lat="47.4951" lon="11.108426"><ele>714</ele></trkpt><trkpt lat="47.495072" lon="11.108367"><ele>714</ele></trkpt><trkpt lat="47.495041" lon="11.108237"><ele>711</ele></trkpt><trkpt lat="47.494773" lon="11.107616"><ele>711</ele></trkpt><trkpt lat="47.494578" lon="11.107093"><ele>710</ele></trkpt><trkpt lat="47.494306" lon="11.106365"><ele>709</ele></trkpt><trkpt lat="47.494087" lon="11.105704"><ele>709</ele></trkpt><trkpt lat="47.494035" lon="11.105515"><ele>709</ele></trkpt><trkpt lat="47.493935" lon="11.105205"><ele>709</ele></trkpt><trkpt lat="47.493731" lon="11.104546"><ele>711</ele></trkpt><trkpt lat="47.493679" lon="11.104379"><ele>711</ele></trkpt><trkpt lat="47.493395" lon="11.10351"><ele>710</ele></trkpt><trkpt lat="47.493054" lon="11.10256"><ele>708</ele></trkpt><trkpt lat="47.492667" lon="11.101664"><ele>710</ele></trkpt><trkpt lat="47.492472" lon="11.101244"><ele>709</ele></trkpt><trkpt lat="47.492225" lon="11.100638"><ele>710</ele></trkpt><trkpt lat="47.492105" lon="11.100248"><ele>710</ele></trkpt><trkpt lat="47.492029" lon="11.099972"><ele>710</ele></trkpt><trkpt lat="47.492019" lon="11.099936"><ele>710</ele></trkpt><trkpt lat="47.492" lon="11.099865"><ele>710</ele></trkpt><trkpt lat="47.491933" lon="11.099895"><ele>710</ele></trkpt><trkpt lat="47.491751" lon="11.099202"><ele>710</ele></trkpt><trkpt lat="47.491679" lon="11.098944"><ele>708</ele></trkpt><trkpt lat="47.491617" lon="11.098727"><ele>708</ele></trkpt><trkpt lat="47.491518" lon="11.09837"><ele>708</ele></trkpt><trkpt lat="47.491389" lon="11.098451"><ele>708</ele></trkpt><trkpt lat="47.491241" lon="11.097939"><ele>706</ele></trkpt><trkpt lat="47.491187" lon="11.097942"><ele>706</ele></trkpt><trkpt lat="47.491138" lon="11.097949"><ele>706</ele></trkpt><trkpt lat="47.491069" lon="11.097989"><ele>706</ele></trkpt><trkpt lat="47.491056" lon="11.097946"><ele>706</ele></trkpt><trkpt lat="47.491125" lon="11.097903"><ele>706</ele></trkpt><trkpt lat="47.491436" lon="11.097704"><ele>706</ele></trkpt><trkpt lat="47.491428" lon="11.097675"><ele>706</ele></trkpt><trkpt lat="47.491377" lon="11.097508"><ele>706</ele></trkpt><trkpt lat="47.491347" lon="11.097412"><ele>706</ele></trkpt><trkpt lat="47.491423" lon="11.097365"><ele>706</ele></trkpt><trkpt lat="47.491411" lon="11.097324"><ele>706</ele></trkpt><trkpt lat="47.491428" lon="11.097313"><ele>706</ele></trkpt><trkpt lat="47.49149" lon="11.097273"><ele>706</ele></trkpt><trkpt lat="47.491507" lon="11.097263"><ele>706</ele></trkpt><trkpt lat="47.491454" lon="11.097079"><ele>706</ele></trkpt><trkpt lat="47.491499" lon="11.09705"><ele>706</ele></trkpt><trkpt lat="47.491518" lon="11.097038"><ele>706</ele></trkpt><trkpt lat="47.49152" lon="11.097044"><ele>706</ele></trkpt></trkseg></trk></gpx>