<gpx xmlns="http://www.topografix.com/GPX/1/1" xmlns:xsi="http://www.w3.org/2001/XMLSchema-instance" xsi:schemaLocation="http://www.topografix.com/GPX/1/1 http://www.topografix.com/GPX/1/1/gpx.xsd" version="1.1" creator="togpx"><metadata/><wpt lat="27.71571875412554" lon="85.31039625406267"><name></name><desc>label=Street Momos, Kathmandu,TH,Nepal</desc></wpt><wpt lat="27.71543619199342" lon="85.29030114412309"><name></name><desc>label=Swayambhunath, Kathmandu,TH,Nepal</desc></wpt><wpt lat="27.714863942071542" lon="85.29053449630739"><name></name><desc>label=Anantapur, Kathmandu,TH,Nepal</desc></wpt><wpt lat="27.714847320659644" lon="85.29027163982393"><name></name><desc>label=Agam Chhen, Kathmandu,TH,Nepal</desc></wpt><wpt lat="27.715068147782407" lon="85.29036283493043"><name></name><desc>label=Swayambhu Hill, Kathmandu,TH,Nepal</desc></wpt><wpt lat="27.715806609429173" lon="85.28924167156221"><name></name><desc>label=Budhhabihar marg, Kathmandu,TH,Nepal</desc></wpt><wpt lat="27.716067800454447" lon="85.28805613517763"><name></name><desc>label=Manjushri Marg, Kathmandu,TH,Nepal</desc></wpt><wpt lat="27.704726785045185" lon="85.30738949775696"><name></name><desc>label=Gopinath Temple, Kathmandu,TH,Nepal</desc></wpt><wpt lat="27.704551056519232" lon="85.30716419219972"><name></name><desc>label=Jagan Nath Temple, Kathmandu,TH,Nepal</desc></wpt><wpt lat="27.703648662333165" lon="85.30891835689545"><name></name><desc>label=Durbar Square Ticket Counter, Kathmandu,TH,Nepal</desc></wpt><wpt lat="27.72083561395962" lon="85.36183297634126"><name></name><desc>label=Nabil Bank, Kathmandu,TH,Nepal</desc></wpt><wpt lat="27.72179010137925" lon="85.36158084869386"><name></name><desc>label=Noryang Hotel, Kathmandu,TH,Nepal</desc></wpt><wpt lat="27.721220259148765" lon="85.3624874353409"><name></name><desc>label=Kunzom, Kathmandu,TH,Nepal</desc></wpt><wpt lat="27.70981329079092" lon="85.3489100933075"><name></name><desc>label=Āryaghāt, Kathmandu,TH,Nepal</desc></wpt><wpt lat="27.715706881781763" lon="85.31045258045198"><name></name><desc>label=Street Momos, Kathmandu,TH,Nepal</desc></wpt><trk><name></name><desc>ascent=556.5
descent=556.5
opacity=0.9</desc><trkseg><trkpt lat="27.715707" lon="85.310395"><ele>1317.6</ele></trkpt><trkpt lat="27.715708" lon="85.310378"><ele>1317</ele></trkpt><trkpt lat="27.715776" lon="85.310372"><ele>1317</ele></trkpt><trkpt lat="27.715845" lon="85.310323"><ele>1318.6</ele></trkpt><trkpt lat="27.715871" lon="85.310277"><ele>1318.5</ele></trkpt><trkpt lat="27.715923" lon="85.310165"><ele>1318.4</ele></trkpt><trkpt lat="27.71596" lon="85.31"><ele>1319</ele></trkpt><trkpt lat="27.716176" lon="85.309991"><ele>1318.6</ele></trkpt><trkpt lat="27.71641" lon="85.310031"><ele>1318.9</ele></trkpt><trkpt lat="27.716595" lon="85.310141"><ele>1318.9</ele></trkpt><trkpt lat="27.716696" lon="85.310168"><ele>1319</ele></trkpt><trkpt lat="27.717052" lon="85.310239"><ele>1319</ele></trkpt><trkpt lat="27.717156" lon="85.30984"><ele>1319</ele></trkpt><trkpt lat="27.717235" lon="85.309665"><ele>1319</ele></trkpt><trkpt lat="27.717329" lon="85.309467"><ele>1319.7</ele></trkpt><trkpt lat="27.717447" lon="85.309129"><ele>1321</ele></trkpt><trkpt lat="27.717517" lon="85.308945"><ele>1320.4</ele></trkpt><trkpt lat="27.717419" lon="85.308787"><ele>1320.9</ele></trkpt><trkpt lat="27.717387" lon="85.308705"><ele>1320.9</ele></trkpt><trkpt lat="27.717388" lon="85.308614"><ele>1321</ele></trkpt><trkpt lat="27.717386" lon="85.308518"><ele>1321</ele></trkpt><trkpt lat="27.717212" lon="85.308404"><ele>1321</ele></trkpt><trkpt lat="27.717193" lon="85.308372"><ele>1321</ele></trkpt><trkpt lat="27.717021" lon="85.308038"><ele>1317</ele></trkpt><trkpt lat="27.717173" lon="85.307911"><ele>1317</ele></trkpt><trkpt lat="27.717109" lon="85.30781"><ele>1317</ele></trkpt><trkpt lat="27.717113" lon="85.307772"><ele>1317</ele></trkpt><trkpt lat="27.717222" lon="85.307587"><ele>1317</ele></trkpt><trkpt lat="27.717329" lon="85.307151"><ele>1309.2</ele></trkpt><trkpt lat="27.717372" lon="85.307138"><ele>1309</ele></trkpt><trkpt lat="27.717526" lon="85.307239"><ele>1308.7</ele></trkpt><trkpt lat="27.717615" lon="85.307275"><ele>1303</ele></trkpt><trkpt lat="27.717667" lon="85.307145"><ele>1303</ele></trkpt><trkpt lat="27.717703" lon="85.307113"><ele>1303</ele></trkpt><trkpt lat="27.71774" lon="85.307108"><ele>1303</ele></trkpt><trkpt lat="27.717898" lon="85.306971"><ele>1303</ele></trkpt><trkpt lat="27.71767" lon="85.306609"><ele>1301</ele></trkpt><trkpt lat="27.717612" lon="85.30656"><ele>1300.9</ele></trkpt><trkpt lat="27.717549" lon="85.306549"><ele>1300.8</ele></trkpt><trkpt lat="27.717509" lon="85.30651"><ele>1300.7</ele></trkpt><trkpt lat="27.717518" lon="85.306345"><ele>1300.5</ele></trkpt><trkpt lat="27.717438" lon="85.306183"><ele>1302</ele></trkpt><trkpt lat="27.717711" lon="85.305971"><ele>1300</ele></trkpt><trkpt lat="27.717914" lon="85.305818"><ele>1298.7</ele></trkpt><trkpt lat="27.718108" lon="85.305734"><ele>1298</ele></trkpt><trkpt lat="27.717719" lon="85.30502"><ele>1297.2</ele></trkpt><trkpt lat="27.717536" lon="85.304779"><ele>1297</ele></trkpt><trkpt lat="27.717355" lon="85.304494"><ele>1297.2</ele></trkpt><trkpt lat="27.717123" lon="85.303965"><ele>1297.5</ele></trkpt><trkpt lat="27.717049" lon="85.303857"><ele>1298</ele></trkpt><trkpt lat="27.717084" lon="85.303515"><ele>1298</ele></trkpt><trkpt lat="27.716965" lon="85.303524"><ele>1298</ele></trkpt><trkpt lat="27.716973" lon="85.303341"><ele>1298</ele></trkpt><trkpt lat="27.716984" lon="85.303046"><ele>1298</ele></trkpt><trkpt lat="27.716814" lon="85.303037"><ele>1297.7</ele></trkpt><trkpt lat="27.716189" lon="85.30283"><ele>1297</ele></trkpt><trkpt lat="27.716294" lon="85.302494"><ele>1295</ele></trkpt><trkpt lat="27.716394" lon="85.30204"><ele>1295</ele></trkpt><trkpt lat="27.715914" lon="85.302101"><ele>1295</ele></trkpt><trkpt lat="27.71581" lon="85.302141"><ele>1295.8</ele></trkpt><trkpt lat="27.715555" lon="85.302124"><ele>1295.8</ele></trkpt><trkpt lat="27.715097" lon="85.302031"><ele>1295.7</ele></trkpt><trkpt lat="27.715058" lon="85.301946"><ele>1296</ele></trkpt><trkpt lat="27.715039" lon="85.301889"><ele>1296</ele></trkpt><trkpt lat="27.714877" lon="85.301507"><ele>1307</ele></trkpt><trkpt lat="27.714809" lon="85.301303"><ele>1307</ele></trkpt><trkpt lat="27.714563" lon="85.301347"><ele>1307</ele></trkpt><trkpt lat="27.714493" lon="85.301337"><ele>1307</ele></trkpt><trkpt lat="27.714476" lon="85.301208"><ele>1307</ele></trkpt><trkpt lat="27.714473" lon="85.301195"><ele>1307</ele></trkpt><trkpt lat="27.714462" lon="85.30101"><ele>1307</ele></trkpt><trkpt lat="27.714452" lon="85.300953"><ele>1307</ele></trkpt><trkpt lat="27.714284" lon="85.300997"><ele>1307</ele></trkpt><trkpt lat="27.714257" lon="85.300959"><ele>1307</ele></trkpt><trkpt lat="27.714178" lon="85.300719"><ele>1313.7</ele></trkpt><trkpt lat="27.714163" lon="85.300585"><ele>1313.9</ele></trkpt><trkpt lat="27.714085" lon="85.300438"><ele>1318</ele></trkpt><trkpt lat="27.714023" lon="85.300355"><ele>1318</ele></trkpt><trkpt lat="27.713979" lon="85.300177"><ele>1318</ele></trkpt><trkpt lat="27.713971" lon="85.300107"><ele>1319.9</ele></trkpt><trkpt lat="27.71387" lon="85.29989"><ele>1320.4</ele></trkpt><trkpt lat="27.713751" lon="85.299707"><ele>1320.2</ele></trkpt><trkpt lat="27.713669" lon="85.299654"><ele>1321</ele></trkpt><trkpt lat="27.713667" lon="85.299598"><ele>1320.5</ele></trkpt><trkpt lat="27.713542" lon="85.299087"><ele>1320.4</ele></trkpt><trkpt lat="27.713501" lon="85.298764"><ele>1320</ele></trkpt><trkpt lat="27.713434" lon="85.298727"><ele>1319.1</ele></trkpt><trkpt lat="27.713375" lon="85.298662"><ele>1318.9</ele></trkpt><trkpt lat="27.713358" lon="85.298473"><ele>1318.7</ele></trkpt><trkpt lat="27.713284" lon="85.298152"><ele>1318.5</ele></trkpt><trkpt lat="27.713184" lon="85.298013"><ele>1317</ele></trkpt><trkpt lat="27.7131" lon="85.297812"><ele>1317</ele></trkpt><trkpt lat="27.713077" lon="85.297682"><ele>1317</ele></trkpt><trkpt lat="27.712944" lon="85.297146"><ele>1317</ele></trkpt><trkpt lat="27.712925" lon="85.297032"><ele>1317</ele></trkpt><trkpt lat="27.712927" lon="85.296729"><ele>1317</ele></trkpt><trkpt lat="27.712808" lon="85.296385"><ele>1318.3</ele></trkpt><trkpt lat="27.712622" lon="85.296195"><ele>1319</ele></trkpt><trkpt lat="27.712451" lon="85.296122"><ele>1311</ele></trkpt><trkpt lat="27.712395" lon="85.296093"><ele>1311</ele></trkpt><trkpt lat="27.712256" lon="85.295893"><ele>1311</ele></trkpt><trkpt lat="27.712241" lon="85.295812"><ele>1314.4</ele></trkpt><trkpt lat="27.712279" lon="85.295693"><ele>1316</ele></trkpt><trkpt lat="27.712284" lon="85.295678"><ele>1316</ele></trkpt><trkpt lat="27.712321" lon="85.295588"><ele>1316</ele></trkpt><trkpt lat="27.712344" lon="85.295457"><ele>1316</ele></trkpt><trkpt lat="27.712332" lon="85.295437"><ele>1316</ele></trkpt><trkpt lat="27.712356" lon="85.295366"><ele>1316</ele></trkpt><trkpt lat="27.712369" lon="85.295302"><ele>1316</ele></trkpt><trkpt lat="27.712376" lon="85.29527"><ele>1316</ele></trkpt><trkpt lat="27.712337" lon="85.295194"><ele>1316</ele></trkpt><trkpt lat="27.712439" lon="85.295076"><ele>1316</ele></trkpt><trkpt lat="27.712493" lon="85.295021"><ele>1316</ele></trkpt><trkpt lat="27.712822" lon="85.29471"><ele>1317.6</ele></trkpt><trkpt lat="27.712881" lon="85.294619"><ele>1317.5</ele></trkpt><trkpt lat="27.712995" lon="85.294499"><ele>1317.5</ele></trkpt><trkpt lat="27.713087" lon="85.294335"><ele>1318</ele></trkpt><trkpt lat="27.713163" lon="85.294199"><ele>1320.9</ele></trkpt><trkpt lat="27.713283" lon="85.293877"><ele>1320.9</ele></trkpt><trkpt lat="27.713384" lon="85.293671"><ele>1322</ele></trkpt><trkpt lat="27.713515" lon="85.293404"><ele>1322</ele></trkpt><trkpt lat="27.713645" lon="85.29324"><ele>1322</ele></trkpt><trkpt lat="27.713729" lon="85.293179"><ele>1322</ele></trkpt><trkpt lat="27.713681" lon="85.292915"><ele>1322</ele></trkpt><trkpt lat="27.713808" lon="85.292932"><ele>1322</ele></trkpt><trkpt lat="27.71394" lon="85.292952"><ele>1322</ele></trkpt><trkpt lat="27.714363" lon="85.292745"><ele>1339</ele></trkpt><trkpt lat="27.714491" lon="85.2921"><ele>1357.6</ele></trkpt><trkpt lat="27.714567" lon="85.29179"><ele>1358.2</ele></trkpt><trkpt lat="27.714692" lon="85.291698"><ele>1359</ele></trkpt><trkpt lat="27.714734" lon="85.291598"><ele>1374</ele></trkpt><trkpt lat="27.714802" lon="85.291585"><ele>1380.6</ele></trkpt><trkpt lat="27.714941" lon="85.291451"><ele>1383.8</ele></trkpt><trkpt lat="27.715038" lon="85.291384"><ele>1397</ele></trkpt><trkpt lat="27.715196" lon="85.291219"><ele>1399.3</ele></trkpt><trkpt lat="27.715244" lon="85.291121"><ele>1399.5</ele></trkpt><trkpt lat="27.715297" lon="85.290971"><ele>1399.9</ele></trkpt><trkpt lat="27.715328" lon="85.290672"><ele>1400.3</ele></trkpt><trkpt lat="27.715351" lon="85.29057"><ele>1400.1</ele></trkpt><trkpt lat="27.715388" lon="85.290522"><ele>1399.9</ele></trkpt><trkpt lat="27.715447" lon="85.290306"><ele>1403</ele></trkpt><trkpt lat="27.715437" lon="85.2903"><ele>1403</ele></trkpt><trkpt lat="27.715326" lon="85.290235"><ele>1403</ele></trkpt><trkpt lat="27.715236" lon="85.290226"><ele>1403</ele></trkpt><trkpt lat="27.715209" lon="85.290243"><ele>1403</ele></trkpt><trkpt lat="27.715167" lon="85.290459"><ele>1403</ele></trkpt><trkpt lat="27.715066" lon="85.290405"><ele>1403</ele></trkpt><trkpt lat="27.71504" lon="85.290482"><ele>1390.3</ele></trkpt><trkpt lat="27.715014" lon="85.290512"><ele>1388.4</ele></trkpt><trkpt lat="27.714947" lon="85.290545"><ele>1387.7</ele></trkpt><trkpt lat="27.71491" lon="85.290545"><ele>1377</ele></trkpt><trkpt lat="27.714868" lon="85.290531"><ele>1377</ele></trkpt><trkpt lat="27.714805" lon="85.290465"><ele>1377</ele></trkpt><trkpt lat="27.714789" lon="85.29037"><ele>1377</ele></trkpt><trkpt lat="27.714824" lon="85.290282"><ele>1377</ele></trkpt><trkpt lat="27.714846" lon="85.290268"><ele>1377</ele></trkpt><trkpt lat="27.714899" lon="85.290234"><ele>1377</ele></trkpt><trkpt lat="27.714972" lon="85.290239"><ele>1377</ele></trkpt><trkpt lat="27.715033" lon="85.290286"><ele>1397.9</ele></trkpt><trkpt lat="27.715065" lon="85.290362"><ele>1396.1</ele></trkpt><trkpt lat="27.715065" lon="85.290363"><ele>1399.6</ele></trkpt><trkpt lat="27.715066" lon="85.290405"><ele>1403</ele></trkpt><trkpt lat="27.715167" lon="85.290459"><ele>1403</ele></trkpt><trkpt lat="27.715209" lon="85.290243"><ele>1403</ele></trkpt><trkpt lat="27.715236" lon="85.290226"><ele>1403</ele></trkpt><trkpt lat="27.715326" lon="85.290235"><ele>1403</ele></trkpt><trkpt lat="27.715447" lon="85.290306"><ele>1403</ele></trkpt><trkpt lat="27.715476" lon="85.290334"><ele>1403</ele></trkpt><trkpt lat="27.715512" lon="85.290322"><ele>1403</ele></trkpt><trkpt lat="27.715552" lon="85.290337"><ele>1403</ele></trkpt><trkpt lat="27.715582" lon="85.290306"><ele>1403</ele></trkpt><trkpt lat="27.715621" lon="85.290284"><ele>1403</ele></trkpt><trkpt lat="27.71569" lon="85.290288"><ele>1403</ele></trkpt><trkpt lat="27.715707" lon="85.289928"><ele>1383.6</ele></trkpt><trkpt lat="27.715682" lon="85.289729"><ele>1376</ele></trkpt><trkpt lat="27.715694" lon="85.289667"><ele>1376</ele></trkpt><trkpt lat="27.715748" lon="85.289594"><ele>1376</ele></trkpt><trkpt lat="27.715798" lon="85.28949"><ele>1376</ele></trkpt><trkpt lat="27.715805" lon="85.289409"><ele>1376</ele></trkpt><trkpt lat="27.715825" lon="85.289375"><ele>1376</ele></trkpt><trkpt lat="27.715814" lon="85.289246"><ele>1376</ele></trkpt><trkpt lat="27.715814" lon="85.289243"><ele>1369</ele></trkpt><trkpt lat="27.715826" lon="85.289137"><ele>1362</ele></trkpt><trkpt lat="27.715924" lon="85.289132"><ele>1387.4</ele></trkpt><trkpt lat="27.71597" lon="85.288939"><ele>1386.7</ele></trkpt><trkpt lat="27.715926" lon="85.288642"><ele>1385</ele></trkpt><trkpt lat="27.715852" lon="85.288349"><ele>1384</ele></trkpt><trkpt lat="27.71592" lon="85.288071"><ele>1382.9</ele></trkpt><trkpt lat="27.716045" lon="85.287988"><ele>1386</ele></trkpt><trkpt lat="27.716088" lon="85.288024"><ele>1385.8</ele></trkpt><trkpt lat="27.716045" lon="85.287988"><ele>1386</ele></trkpt><trkpt lat="27.71592" lon="85.288071"><ele>1382.9</ele></trkpt><trkpt lat="27.715852" lon="85.288349"><ele>1384</ele></trkpt><trkpt lat="27.715926" lon="85.288642"><ele>1385</ele></trkpt><trkpt lat="27.71597" lon="85.288939"><ele>1386.7</ele></trkpt><trkpt lat="27.715924" lon="85.289132"><ele>1387.4</ele></trkpt><trkpt lat="27.715826" lon="85.289137"><ele>1362</ele></trkpt><trkpt lat="27.715814" lon="85.289246"><ele>1376</ele></trkpt><trkpt lat="27.715825" lon="85.289375"><ele>1376</ele></trkpt><trkpt lat="27.715805" lon="85.289409"><ele>1376</ele></trkpt><trkpt lat="27.715798" lon="85.28949"><ele>1376</ele></trkpt><trkpt lat="27.715748" lon="85.289594"><ele>1376</ele></trkpt><trkpt lat="27.715694" lon="85.289667"><ele>1376</ele></trkpt><trkpt lat="27.715682" lon="85.289729"><ele>1376</ele></trkpt><trkpt lat="27.715707" lon="85.289928"><ele>1383.6</ele></trkpt><trkpt lat="27.71569" lon="85.290288"><ele>1403</ele></trkpt><trkpt lat="27.715621" lon="85.290284"><ele>1403</ele></trkpt><trkpt lat="27.715582" lon="85.290306"><ele>1403</ele></trkpt><trkpt lat="27.715552" lon="85.290337"><ele>1403</ele></trkpt><trkpt lat="27.715512" lon="85.290322"><ele>1403</ele></trkpt><trkpt lat="27.715476" lon="85.290334"><ele>1403</ele></trkpt><trkpt lat="27.715447" lon="85.290306"><ele>1403</ele></trkpt><trkpt lat="27.715388" lon="85.290522"><ele>1399.9</ele></trkpt><trkpt lat="27.715351" lon="85.29057"><ele>1400.1</ele></trkpt><trkpt lat="27.715328" lon="85.290672"><ele>1400.3</ele></trkpt><trkpt lat="27.715297" lon="85.290971"><ele>1399.9</ele></trkpt><trkpt lat="27.715244" lon="85.291121"><ele>1399.5</ele></trkpt><trkpt lat="27.715196" lon="85.291219"><ele>1399.3</ele></trkpt><trkpt lat="27.715038" lon="85.291384"><ele>1397</ele></trkpt><trkpt lat="27.714941" lon="85.291451"><ele>1383.8</ele></trkpt><trkpt lat="27.714802" lon="85.291585"><ele>1380.6</ele></trkpt><trkpt lat="27.714734" lon="85.291598"><ele>1374</ele></trkpt><trkpt lat="27.714692" lon="85.291698"><ele>1359</ele></trkpt><trkpt lat="27.714567" lon="85.29179"><ele>1358.2</ele></trkpt><trkpt lat="27.714491" lon="85.2921"><ele>1357.6</ele></trkpt><trkpt lat="27.714363" lon="85.292745"><ele>1339</ele></trkpt><trkpt lat="27.71394" lon="85.292952"><ele>1322</ele></trkpt><trkpt lat="27.713808" lon="85.292932"><ele>1322</ele></trkpt><trkpt lat="27.713681" lon="85.292915"><ele>1322</ele></trkpt><trkpt lat="27.713729" lon="85.293179"><ele>1322</ele></trkpt><trkpt lat="27.713645" lon="85.29324"><ele>1322</ele></trkpt><trkpt lat="27.713515" lon="85.293404"><ele>1322</ele></trkpt><trkpt lat="27.713384" lon="85.293671"><ele>1322</ele></trkpt><trkpt lat="27.713283" lon="85.293877"><ele>1320.9</ele></trkpt><trkpt lat="27.713163" lon="85.294199"><ele>1320.9</ele></trkpt><trkpt lat="27.713087" lon="85.294335"><ele>1318</ele></trkpt><trkpt lat="27.712995" lon="85.294499"><ele>1317.5</ele></trkpt><trkpt lat="27.712881" lon="85.294619"><ele>1317.5</ele></trkpt><trkpt lat="27.712822" lon="85.29471"><ele>1317.6</ele></trkpt><trkpt lat="27.712493" lon="85.295021"><ele>1316</ele></trkpt><trkpt lat="27.712439" lon="85.295076"><ele>1316</ele></trkpt><trkpt lat="27.712337" lon="85.295194"><ele>1316</ele></trkpt><trkpt lat="27.712267" lon="85.295271"><ele>1316</ele></trkpt><trkpt lat="27.712095" lon="85.295436"><ele>1316</ele></trkpt><trkpt lat="27.71195" lon="85.2957"><ele>1316</ele></trkpt><trkpt lat="27.711874" lon="85.295782"><ele>1316</ele></trkpt><trkpt lat="27.711633" lon="85.296119"><ele>1308</ele></trkpt><trkpt lat="27.711392" lon="85.296472"><ele>1308</ele></trkpt><trkpt lat="27.711196" lon="85.296692"><ele>1308</ele></trkpt><trkpt lat="27.711161" lon="85.296712"><ele>1308</ele></trkpt><trkpt lat="27.711121" lon="85.29677"><ele>1308</ele></trkpt><trkpt lat="27.71087" lon="85.297005"><ele>1308</ele></trkpt><trkpt lat="27.71073" lon="85.297181"><ele>1312</ele></trkpt><trkpt lat="27.710389" lon="85.297712"><ele>1307</ele></trkpt><trkpt lat="27.710286" lon="85.29785"><ele>1307</ele></trkpt><trkpt lat="27.710247" lon="85.297926"><ele>1307</ele></trkpt><trkpt lat="27.710218" lon="85.298014"><ele>1307</ele></trkpt><trkpt lat="27.710177" lon="85.298314"><ele>1307</ele></trkpt><trkpt lat="27.710081" lon="85.298296"><ele>1308.6</ele></trkpt><trkpt lat="27.709987" lon="85.298237"><ele>1312</ele></trkpt><trkpt lat="27.709915" lon="85.298424"><ele>1309.5</ele></trkpt><trkpt lat="27.709914" lon="85.298461"><ele>1307</ele></trkpt><trkpt lat="27.709849" lon="85.298488"><ele>1307</ele></trkpt><trkpt lat="27.709556" lon="85.298355"><ele>1307</ele></trkpt><trkpt lat="27.709505" lon="85.298483"><ele>1307</ele></trkpt><trkpt lat="27.709285" lon="85.298372"><ele>1307</ele></trkpt><trkpt lat="27.709244" lon="85.298496"><ele>1307</ele></trkpt><trkpt lat="27.709144" lon="85.298446"><ele>1309.4</ele></trkpt><trkpt lat="27.709069" lon="85.298386"><ele>1309.6</ele></trkpt><trkpt lat="27.709014" lon="85.298315"><ele>1309.8</ele></trkpt><trkpt lat="27.708937" lon="85.29827"><ele>1309.5</ele></trkpt><trkpt lat="27.708916" lon="85.298266"><ele>1309.2</ele></trkpt><trkpt lat="27.708853" lon="85.298338"><ele>1308.5</ele></trkpt><trkpt lat="27.708735" lon="85.298385"><ele>1307</ele></trkpt><trkpt lat="27.708702" lon="85.298329"><ele>1313</ele></trkpt><trkpt lat="27.708658" lon="85.298354"><ele>1305.8</ele></trkpt><trkpt lat="27.708522" lon="85.298757"><ele>1305</ele></trkpt><trkpt lat="27.708482" lon="85.29884"><ele>1304.9</ele></trkpt><trkpt lat="27.708436" lon="85.298864"><ele>1304.7</ele></trkpt><trkpt lat="27.708311" lon="85.298989"><ele>1304.5</ele></trkpt><trkpt lat="27.708062" lon="85.299397"><ele>1304.4</ele></trkpt><trkpt lat="27.707807" lon="85.29973"><ele>1304.3</ele></trkpt><trkpt lat="27.707719" lon="85.299744"><ele>1302</ele></trkpt><trkpt lat="27.707692" lon="85.299962"><ele>1299.9</ele></trkpt><trkpt lat="27.707627" lon="85.300194"><ele>1299.6</ele></trkpt><trkpt lat="27.707634" lon="85.300318"><ele>1299.7</ele></trkpt><trkpt lat="27.707759" lon="85.300696"><ele>1299</ele></trkpt><trkpt lat="27.707666" lon="85.300788"><ele>1298.3</ele></trkpt><trkpt lat="27.707597" lon="85.300888"><ele>1297</ele></trkpt><trkpt lat="27.707457" lon="85.301279"><ele>1296.1</ele></trkpt><trkpt lat="27.70741" lon="85.301358"><ele>1296</ele></trkpt><trkpt lat="27.707218" lon="85.301588"><ele>1295.7</ele></trkpt><trkpt lat="27.707147" lon="85.301726"><ele>1295.5</ele></trkpt><trkpt lat="27.707122" lon="85.30183"><ele>1294</ele></trkpt><trkpt lat="27.707112" lon="85.301867"><ele>1294</ele></trkpt><trkpt lat="27.707094" lon="85.301953"><ele>1294</ele></trkpt><trkpt lat="27.707084" lon="85.302"><ele>1294</ele></trkpt><trkpt lat="27.706832" lon="85.302586"><ele>1292</ele></trkpt><trkpt lat="27.706835" lon="85.302696"><ele>1292</ele></trkpt><trkpt lat="27.706606" lon="85.302616"><ele>1293.4</ele></trkpt><trkpt lat="27.706339" lon="85.302591"><ele>1294</ele></trkpt><trkpt lat="27.706323" lon="85.302754"><ele>1295.6</ele></trkpt><trkpt lat="27.706369" lon="85.302914"><ele>1295.5</ele></trkpt><trkpt lat="27.706336" lon="85.30305"><ele>1295.5</ele></trkpt><trkpt lat="27.7063" lon="85.303173"><ele>1295.5</ele></trkpt><trkpt lat="27.706178" lon="85.303369"><ele>1295.8</ele></trkpt><trkpt lat="27.706052" lon="85.303621"><ele>1296.1</ele></trkpt><trkpt lat="27.705944" lon="85.303782"><ele>1296.3</ele></trkpt><trkpt lat="27.705881" lon="85.303845"><ele>1296.4</ele></trkpt><trkpt lat="27.705502" lon="85.304124"><ele>1296.7</ele></trkpt><trkpt lat="27.705303" lon="85.304233"><ele>1300</ele></trkpt><trkpt lat="27.705243" lon="85.304297"><ele>1300</ele></trkpt><trkpt lat="27.705131" lon="85.304357"><ele>1300</ele></trkpt><trkpt lat="27.704896" lon="85.30446"><ele>1299</ele></trkpt><trkpt lat="27.704807" lon="85.304473"><ele>1299</ele></trkpt><trkpt lat="27.70478" lon="85.304554"><ele>1299</ele></trkpt><trkpt lat="27.704565" lon="85.304959"><ele>1299</ele></trkpt><trkpt lat="27.704378" lon="85.305422"><ele>1305.6</ele></trkpt><trkpt lat="27.704307" lon="85.305532"><ele>1305.8</ele></trkpt><trkpt lat="27.704185" lon="85.305671"><ele>1307</ele></trkpt><trkpt lat="27.704122" lon="85.305799"><ele>1313</ele></trkpt><trkpt lat="27.704031" lon="85.305882"><ele>1313</ele></trkpt><trkpt lat="27.704017" lon="85.305924"><ele>1313</ele></trkpt><trkpt lat="27.703936" lon="85.305985"><ele>1313</ele></trkpt><trkpt lat="27.70405" lon="85.306242"><ele>1313</ele></trkpt><trkpt lat="27.704089" lon="85.306334"><ele>1313</ele></trkpt><trkpt lat="27.704112" lon="85.306429"><ele>1312.3</ele></trkpt><trkpt lat="27.704176" lon="85.306472"><ele>1311</ele></trkpt><trkpt lat="27.704161" lon="85.306525"><ele>1313</ele></trkpt><trkpt lat="27.70429" lon="85.306566"><ele>1311.5</ele></trkpt><trkpt lat="27.704604" lon="85.306858"><ele>1311</ele></trkpt><trkpt lat="27.704874" lon="85.30711"><ele>1311</ele></trkpt><trkpt lat="27.704956" lon="85.307219"><ele>1311</ele></trkpt><trkpt lat="27.704898" lon="85.307445"><ele>1311</ele></trkpt><trkpt lat="27.704725" lon="85.307397"><ele>1311</ele></trkpt><trkpt lat="27.70453" lon="85.307343"><ele>1311</ele></trkpt><trkpt lat="27.704518" lon="85.307275"><ele>1311</ele></trkpt><trkpt lat="27.704541" lon="85.307162"><ele>1311</ele></trkpt><trkpt lat="27.704604" lon="85.306858"><ele>1311</ele></trkpt><trkpt lat="27.70429" lon="85.306566"><ele>1311.5</ele></trkpt><trkpt lat="27.704161" lon="85.306525"><ele>1313</ele></trkpt><trkpt lat="27.70394" lon="85.30646"><ele>1313</ele></trkpt><trkpt lat="27.703889" lon="85.306506"><ele>1313</ele></trkpt><trkpt lat="27.703737" lon="85.307335"><ele>1313.2</ele></trkpt><trkpt lat="27.703738" lon="85.307512"><ele>1313</ele></trkpt><trkpt lat="27.703743" lon="85.308058"><ele>1313.8</ele></trkpt><trkpt lat="27.70366" lon="85.30892"><ele>1313.9</ele></trkpt><trkpt lat="27.703655" lon="85.308976"><ele>1314</ele></trkpt><trkpt lat="27.703635" lon="85.309038"><ele>1315</ele></trkpt><trkpt lat="27.703583" lon="85.309067"><ele>1315</ele></trkpt><trkpt lat="27.703558" lon="85.309127"><ele>1315</ele></trkpt><trkpt lat="27.703364" lon="85.309113"><ele>1315</ele></trkpt><trkpt lat="27.703335" lon="85.309215"><ele>1314</ele></trkpt><trkpt lat="27.703274" lon="85.309306"><ele>1313</ele></trkpt><trkpt lat="27.703268" lon="85.309566"><ele>1313</ele></trkpt><trkpt lat="27.703245" lon="85.309744"><ele>1313</ele></trkpt><trkpt lat="27.703265" lon="85.309949"><ele>1313</ele></trkpt><trkpt lat="27.703218" lon="85.310147"><ele>1314</ele></trkpt><trkpt lat="27.703393" lon="85.310214"><ele>1316</ele></trkpt><trkpt lat="27.703465" lon="85.310225"><ele>1316</ele></trkpt><trkpt lat="27.703521" lon="85.310231"><ele>1316</ele></trkpt><trkpt lat="27.703815" lon="85.31028"><ele>1316</ele></trkpt><trkpt lat="27.704091" lon="85.310369"><ele>1316</ele></trkpt><trkpt lat="27.703995" lon="85.311172"><ele>1317</ele></trkpt><trkpt lat="27.704156" lon="85.311185"><ele>1317</ele></trkpt><trkpt lat="27.704332" lon="85.311206"><ele>1319</ele></trkpt><trkpt lat="27.704607" lon="85.311275"><ele>1319</ele></trkpt><trkpt lat="27.704553" lon="85.312048"><ele>1317</ele></trkpt><trkpt lat="27.704595" lon="85.31207"><ele>1317</ele></trkpt><trkpt lat="27.704647" lon="85.31208"><ele>1317</ele></trkpt><trkpt lat="27.70468" lon="85.312088"><ele>1317</ele></trkpt><trkpt lat="27.704746" lon="85.312099"><ele>1317</ele></trkpt><trkpt lat="27.704816" lon="85.312112"><ele>1317</ele></trkpt><trkpt lat="27.704847" lon="85.31212"><ele>1317</ele></trkpt><trkpt lat="27.704904" lon="85.312138"><ele>1317</ele></trkpt><trkpt lat="27.704935" lon="85.312136"><ele>1317</ele></trkpt><trkpt lat="27.704961" lon="85.312155"><ele>1317</ele></trkpt><trkpt lat="27.704975" lon="85.312146"><ele>1317</ele></trkpt><trkpt lat="27.705063" lon="85.312168"><ele>1318</ele></trkpt><trkpt lat="27.705111" lon="85.312178"><ele>1318</ele></trkpt><trkpt lat="27.705393" lon="85.312173"><ele>1318</ele></trkpt><trkpt lat="27.705571" lon="85.312172"><ele>1318</ele></trkpt><trkpt lat="27.705753" lon="85.31218"><ele>1318</ele></trkpt><trkpt lat="27.705711" lon="85.312518"><ele>1316.8</ele></trkpt><trkpt lat="27.705733" lon="85.312569"><ele>1316.6</ele></trkpt><trkpt lat="27.705908" lon="85.312619"><ele>1317</ele></trkpt><trkpt lat="27.705858" lon="85.313034"><ele>1317</ele></trkpt><trkpt lat="27.705785" lon="85.313608"><ele>1311</ele></trkpt><trkpt lat="27.705758" lon="85.313745"><ele>1311</ele></trkpt><trkpt lat="27.70575" lon="85.313817"><ele>1311</ele></trkpt><trkpt lat="27.705777" lon="85.313821"><ele>1311.8</ele></trkpt><trkpt lat="27.705773" lon="85.313895"><ele>1311.7</ele></trkpt><trkpt lat="27.705807" lon="85.313985"><ele>1311.6</ele></trkpt><trkpt lat="27.705867" lon="85.314017"><ele>1311.7</ele></trkpt><trkpt lat="27.706738" lon="85.314124"><ele>1314</ele></trkpt><trkpt lat="27.706727" lon="85.314282"><ele>1311.8</ele></trkpt><trkpt lat="27.706724" lon="85.314345"><ele>1311</ele></trkpt><trkpt lat="27.706877" lon="85.314494"><ele>1309.5</ele></trkpt><trkpt lat="27.706869" lon="85.314565"><ele>1309.1</ele></trkpt><trkpt lat="27.706503" lon="85.315217"><ele>1305</ele></trkpt><trkpt lat="27.706583" lon="85.315266"><ele>1305</ele></trkpt><trkpt lat="27.706345" lon="85.31592"><ele>1305.7</ele></trkpt><trkpt lat="27.706237" lon="85.316122"><ele>1305.7</ele></trkpt><trkpt lat="27.70615" lon="85.316217"><ele>1306</ele></trkpt><trkpt lat="27.705953" lon="85.317167"><ele>1306</ele></trkpt><trkpt lat="27.705891" lon="85.317618"><ele>1307</ele></trkpt><trkpt lat="27.705829" lon="85.318495"><ele>1305</ele></trkpt><trkpt lat="27.705803" lon="85.318751"><ele>1305</ele></trkpt><trkpt lat="27.705771" lon="85.319142"><ele>1305</ele></trkpt><trkpt lat="27.705758" lon="85.319294"><ele>1305</ele></trkpt><trkpt lat="27.70573" lon="85.319619"><ele>1305</ele></trkpt><trkpt lat="27.705709" lon="85.319881"><ele>1305</ele></trkpt><trkpt lat="27.705679" lon="85.320422"><ele>1303</ele></trkpt><trkpt lat="27.705664" lon="85.320778"><ele>1303</ele></trkpt><trkpt lat="27.705633" lon="85.321568"><ele>1304</ele></trkpt><trkpt lat="27.70563" lon="85.321758"><ele>1303</ele></trkpt><trkpt lat="27.70562" lon="85.32209"><ele>1303</ele></trkpt><trkpt lat="27.705621" lon="85.322476"><ele>1303</ele></trkpt><trkpt lat="27.705626" lon="85.322829"><ele>1303</ele></trkpt><trkpt lat="27.705647" lon="85.32287"><ele>1303</ele></trkpt><trkpt lat="27.705618" lon="85.324062"><ele>1307</ele></trkpt><trkpt lat="27.705632" lon="85.324199"><ele>1311</ele></trkpt><trkpt lat="27.705566" lon="85.32461"><ele>1311</ele></trkpt><trkpt lat="27.705512" lon="85.325132"><ele>1313</ele></trkpt><trkpt lat="27.705472" lon="85.325535"><ele>1313</ele></trkpt><trkpt lat="27.705874" lon="85.325778"><ele>1310</ele></trkpt><trkpt lat="27.705736" lon="85.32631"><ele>1315</ele></trkpt><trkpt lat="27.705821" lon="85.326343"><ele>1314.6</ele></trkpt><trkpt lat="27.705791" lon="85.326517"><ele>1314.7</ele></trkpt><trkpt lat="27.705811" lon="85.326571"><ele>1314.8</ele></trkpt><trkpt lat="27.705841" lon="85.326589"><ele>1313</ele></trkpt><trkpt lat="27.705865" lon="85.326638"><ele>1313</ele></trkpt><trkpt lat="27.705863" lon="85.326863"><ele>1315</ele></trkpt><trkpt lat="27.7057" lon="85.327694"><ele>1316.7</ele></trkpt><trkpt lat="27.70563" lon="85.327789"><ele>1317</ele></trkpt><trkpt lat="27.706048" lon="85.328197"><ele>1315</ele></trkpt><trkpt lat="27.70593" lon="85.328515"><ele>1316</ele></trkpt><trkpt lat="27.705564" lon="85.328356"><ele>1314</ele></trkpt><trkpt lat="27.705446" lon="85.328694"><ele>1313.8</ele></trkpt><trkpt lat="27.705426" lon="85.328813"><ele>1313.8</ele></trkpt><trkpt lat="27.705428" lon="85.328908"><ele>1313.7</ele></trkpt><trkpt lat="27.705278" lon="85.329354"><ele>1313</ele></trkpt><trkpt lat="27.705212" lon="85.329285"><ele>1313</ele></trkpt><trkpt lat="27.70537" lon="85.329608"><ele>1311.7</ele></trkpt><trkpt lat="27.705695" lon="85.330033"><ele>1307</ele></trkpt><trkpt lat="27.70605" lon="85.330493"><ele>1308.5</ele></trkpt><trkpt lat="27.706066" lon="85.330604"><ele>1308.6</ele></trkpt><trkpt lat="27.706106" lon="85.330701"><ele>1309</ele></trkpt><trkpt lat="27.706171" lon="85.331012"><ele>1307.4</ele></trkpt><trkpt lat="27.706238" lon="85.331202"><ele>1305</ele></trkpt><trkpt lat="27.7063" lon="85.331505"><ele>1305</ele></trkpt><trkpt lat="27.706319" lon="85.331613"><ele>1305</ele></trkpt><trkpt lat="27.706371" lon="85.332203"><ele>1304</ele></trkpt><trkpt lat="27.706447" lon="85.332538"><ele>1305</ele></trkpt><trkpt lat="27.70642" lon="85.332986"><ele>1305.1</ele></trkpt><trkpt lat="27.706932" lon="85.333232"><ele>1304.9</ele></trkpt><trkpt lat="27.706964" lon="85.33326"><ele>1304.8</ele></trkpt><trkpt lat="27.706979" lon="85.333424"><ele>1306</ele></trkpt><trkpt lat="27.707106" lon="85.333391"><ele>1306</ele></trkpt><trkpt lat="27.707367" lon="85.333347"><ele>1306.7</ele></trkpt><trkpt lat="27.708218" lon="85.333327"><ele>1308</ele></trkpt><trkpt lat="27.708379" lon="85.333388"><ele>1310.6</ele></trkpt><trkpt lat="27.708562" lon="85.333605"><ele>1310.9</ele></trkpt><trkpt lat="27.708878" lon="85.333851"><ele>1311.4</ele></trkpt><trkpt lat="27.709083" lon="85.333872"><ele>1311.8</ele></trkpt><trkpt lat="27.709251" lon="85.333943"><ele>1312.3</ele></trkpt><trkpt lat="27.709311" lon="85.333998"><ele>1319</ele></trkpt><trkpt lat="27.709244" lon="85.334056"><ele>1314.1</ele></trkpt><trkpt lat="27.708952" lon="85.33442"><ele>1306</ele></trkpt><trkpt lat="27.709372" lon="85.334966"><ele>1309</ele></trkpt><trkpt lat="27.709698" lon="85.335656"><ele>1305</ele></trkpt><trkpt lat="27.709864" lon="85.33596"><ele>1307</ele></trkpt><trkpt lat="27.709972" lon="85.336216"><ele>1306.3</ele></trkpt><trkpt lat="27.710094" lon="85.336423"><ele>1305</ele></trkpt><trkpt lat="27.710225" lon="85.336525"><ele>1305</ele></trkpt><trkpt lat="27.710343" lon="85.336592"><ele>1305</ele></trkpt><trkpt lat="27.710762" lon="85.336832"><ele>1305</ele></trkpt><trkpt lat="27.710855" lon="85.336864"><ele>1305</ele></trkpt><trkpt lat="27.711345" lon="85.337086"><ele>1305</ele></trkpt><trkpt lat="27.711456" lon="85.337177"><ele>1305</ele></trkpt><trkpt lat="27.711604" lon="85.337203"><ele>1305</ele></trkpt><trkpt lat="27.711703" lon="85.337163"><ele>1306.5</ele></trkpt><trkpt lat="27.71188" lon="85.336957"><ele>1307</ele></trkpt><trkpt lat="27.71196" lon="85.336937"><ele>1307</ele></trkpt><trkpt lat="27.712607" lon="85.337209"><ele>1308.3</ele></trkpt><trkpt lat="27.712763" lon="85.337233"><ele>1309</ele></trkpt><trkpt lat="27.712952" lon="85.337262"><ele>1309</ele></trkpt><trkpt lat="27.713062" lon="85.337263"><ele>1309</ele></trkpt><trkpt lat="27.713371" lon="85.337248"><ele>1307</ele></trkpt><trkpt lat="27.713597" lon="85.337265"><ele>1307</ele></trkpt><trkpt lat="27.7138" lon="85.337255"><ele>1306.4</ele></trkpt><trkpt lat="27.714097" lon="85.337325"><ele>1306.6</ele></trkpt><trkpt lat="27.714273" lon="85.337403"><ele>1305</ele></trkpt><trkpt lat="27.714203" lon="85.337679"><ele>1305.7</ele></trkpt><trkpt lat="27.714179" lon="85.337833"><ele>1306</ele></trkpt><trkpt lat="27.714182" lon="85.338248"><ele>1306</ele></trkpt><trkpt lat="27.714227" lon="85.338252"><ele>1306</ele></trkpt><trkpt lat="27.714205" lon="85.338473"><ele>1307</ele></trkpt><trkpt lat="27.71398" lon="85.338451"><ele>1306</ele></trkpt><trkpt lat="27.713888" lon="85.339174"><ele>1311.2</ele></trkpt><trkpt lat="27.713893" lon="85.339214"><ele>1311.6</ele></trkpt><trkpt lat="27.71391" lon="85.339239"><ele>1312.1</ele></trkpt><trkpt lat="27.714135" lon="85.339379"><ele>1315</ele></trkpt><trkpt lat="27.714201" lon="85.339406"><ele>1314.9</ele></trkpt><trkpt lat="27.714308" lon="85.339393"><ele>1315.4</ele></trkpt><trkpt lat="27.714505" lon="85.33942"><ele>1315.6</ele></trkpt><trkpt lat="27.714696" lon="85.33947"><ele>1315.9</ele></trkpt><trkpt lat="27.714721" lon="85.339621"><ele>1316.5</ele></trkpt><trkpt lat="27.714774" lon="85.339738"><ele>1317.1</ele></trkpt><trkpt lat="27.714841" lon="85.339821"><ele>1317.8</ele></trkpt><trkpt lat="27.714851" lon="85.340081"><ele>1318.1</ele></trkpt><trkpt lat="27.714839" lon="85.340254"><ele>1317.9</ele></trkpt><trkpt lat="27.714968" lon="85.340418"><ele>1317</ele></trkpt><trkpt lat="27.715085" lon="85.340492"><ele>1318</ele></trkpt><trkpt lat="27.71512" lon="85.340725"><ele>1319.2</ele></trkpt><trkpt lat="27.715364" lon="85.341035"><ele>1323</ele></trkpt><trkpt lat="27.71543" lon="85.341128"><ele>1323</ele></trkpt><trkpt lat="27.715454" lon="85.341256"><ele>1323</ele></trkpt><trkpt lat="27.715451" lon="85.341384"><ele>1323</ele></trkpt><trkpt lat="27.715401" lon="85.341649"><ele>1323</ele></trkpt><trkpt lat="27.715316" lon="85.342008"><ele>1330</ele></trkpt><trkpt lat="27.715433" lon="85.342757"><ele>1333</ele></trkpt><trkpt lat="27.715467" lon="85.342874"><ele>1333</ele></trkpt><trkpt lat="27.715563" lon="85.343105"><ele>1333</ele></trkpt><trkpt lat="27.715582" lon="85.343267"><ele>1333</ele></trkpt><trkpt lat="27.715569" lon="85.343384"><ele>1333</ele></trkpt><trkpt lat="27.715687" lon="85.343548"><ele>1333.6</ele></trkpt><trkpt lat="27.715777" lon="85.343873"><ele>1333.5</ele></trkpt><trkpt lat="27.715886" lon="85.344053"><ele>1335</ele></trkpt><trkpt lat="27.716003" lon="85.344148"><ele>1335</ele></trkpt><trkpt lat="27.716087" lon="85.344155"><ele>1335</ele></trkpt><trkpt lat="27.716681" lon="85.344913"><ele>1338.6</ele></trkpt><trkpt lat="27.716752" lon="85.34523"><ele>1342</ele></trkpt><trkpt lat="27.716761" lon="85.345333"><ele>1342</ele></trkpt><trkpt lat="27.716763" lon="85.345342"><ele>1342</ele></trkpt><trkpt lat="27.716799" lon="85.345417"><ele>1342.7</ele></trkpt><trkpt lat="27.716934" lon="85.345842"><ele>1344</ele></trkpt><trkpt lat="27.716977" lon="85.346426"><ele>1344</ele></trkpt><trkpt lat="27.717008" lon="85.346503"><ele>1344</ele></trkpt><trkpt lat="27.717025" lon="85.34657"><ele>1344</ele></trkpt><trkpt lat="27.717024" lon="85.34666"><ele>1344</ele></trkpt><trkpt lat="27.717028" lon="85.346687"><ele>1340</ele></trkpt><trkpt lat="27.717223" lon="85.346925"><ele>1340</ele></trkpt><trkpt lat="27.717503" lon="85.347404"><ele>1341</ele></trkpt><trkpt lat="27.717444" lon="85.347523"><ele>1334.3</ele></trkpt><trkpt lat="27.717398" lon="85.347666"><ele>1332</ele></trkpt><trkpt lat="27.717361" lon="85.348"><ele>1333.8</ele></trkpt><trkpt lat="27.717304" lon="85.348232"><ele>1334</ele></trkpt><trkpt lat="27.717268" lon="85.348283"><ele>1334.2</ele></trkpt><trkpt lat="27.717227" lon="85.348305"><ele>1334.4</ele></trkpt><trkpt lat="27.71703" lon="85.3483"><ele>1334.9</ele></trkpt><trkpt lat="27.716995" lon="85.348334"><ele>1335.2</ele></trkpt><trkpt lat="27.716964" lon="85.348593"><ele>1338</ele></trkpt><trkpt lat="27.716997" lon="85.348805"><ele>1338</ele></trkpt><trkpt lat="27.717189" lon="85.349113"><ele>1341.5</ele></trkpt><trkpt lat="27.717332" lon="85.349397"><ele>1341.8</ele></trkpt><trkpt lat="27.717351" lon="85.349519"><ele>1341.7</ele></trkpt><trkpt lat="27.717393" lon="85.349655"><ele>1341.5</ele></trkpt><trkpt lat="27.717418" lon="85.349996"><ele>1343</ele></trkpt><trkpt lat="27.717442" lon="85.350398"><ele>1343</ele></trkpt><trkpt lat="27.717434" lon="85.350618"><ele>1342.3</ele></trkpt><trkpt lat="27.717462" lon="85.350897"><ele>1340</ele></trkpt><trkpt lat="27.717396" lon="85.35102"><ele>1340</ele></trkpt><trkpt lat="27.717412" lon="85.351146"><ele>1336.5</ele></trkpt><trkpt lat="27.717451" lon="85.351184"><ele>1336.3</ele></trkpt><trkpt lat="27.717658" lon="85.351281"><ele>1335.5</ele></trkpt><trkpt lat="27.717913" lon="85.351431"><ele>1335.4</ele></trkpt><trkpt lat="27.71818" lon="85.351624"><ele>1335.2</ele></trkpt><trkpt lat="27.718343" lon="85.351792"><ele>1335</ele></trkpt><trkpt lat="27.718356" lon="85.351915"><ele>1334.9</ele></trkpt><trkpt lat="27.718314" lon="85.351975"><ele>1334.8</ele></trkpt><trkpt lat="27.718219" lon="85.352023"><ele>1335.1</ele></trkpt><trkpt lat="27.71814" lon="85.352601"><ele>1330</ele></trkpt><trkpt lat="27.718206" lon="85.352739"><ele>1330</ele></trkpt><trkpt lat="27.718214" lon="85.352809"><ele>1330</ele></trkpt><trkpt lat="27.718144" lon="85.353226"><ele>1330</ele></trkpt><trkpt lat="27.718098" lon="85.353554"><ele>1334</ele></trkpt><trkpt lat="27.718071" lon="85.353679"><ele>1334.3</ele></trkpt><trkpt lat="27.718128" lon="85.353856"><ele>1334.2</ele></trkpt><trkpt lat="27.718037" lon="85.35424"><ele>1334.3</ele></trkpt><trkpt lat="27.718041" lon="85.354315"><ele>1335</ele></trkpt><trkpt lat="27.718531" lon="85.354411"><ele>1335.6</ele></trkpt><trkpt lat="27.718585" lon="85.354469"><ele>1336</ele></trkpt><trkpt lat="27.718839" lon="85.354512"><ele>1336</ele></trkpt><trkpt lat="27.718901" lon="85.354604"><ele>1336</ele></trkpt><trkpt lat="27.718999" lon="85.354622"><ele>1336</ele></trkpt><trkpt lat="27.719039" lon="85.354656"><ele>1336</ele></trkpt><trkpt lat="27.719209" lon="85.354659"><ele>1336.5</ele></trkpt><trkpt lat="27.719399" lon="85.354571"><ele>1337</ele></trkpt><trkpt lat="27.719449" lon="85.354876"><ele>1337</ele></trkpt><trkpt lat="27.719648" lon="85.355652"><ele>1337</ele></trkpt><trkpt lat="27.72004" lon="85.357246"><ele>1338</ele></trkpt><trkpt lat="27.720112" lon="85.357716"><ele>1338</ele></trkpt><trkpt lat="27.720342" lon="85.359077"><ele>1337</ele></trkpt><trkpt lat="27.720498" lon="85.36012"><ele>1332</ele></trkpt><trkpt lat="27.720561" lon="85.360476"><ele>1332</ele></trkpt><trkpt lat="27.720659" lon="85.361222"><ele>1328</ele></trkpt><trkpt lat="27.720671" lon="85.361432"><ele>1328</ele></trkpt><trkpt lat="27.720647" lon="85.361711"><ele>1328</ele></trkpt><trkpt lat="27.720641" lon="85.361753"><ele>1328</ele></trkpt><trkpt lat="27.720839" lon="85.36182"><ele>1331.1</ele></trkpt><trkpt lat="27.720928" lon="85.36185"><ele>1334.3</ele></trkpt><trkpt lat="27.720978" lon="85.361882"><ele>1338</ele></trkpt><trkpt lat="27.721027" lon="85.361703"><ele>1338.7</ele></trkpt><trkpt lat="27.721084" lon="85.361604"><ele>1338.8</ele></trkpt><trkpt lat="27.721144" lon="85.361534"><ele>1338.8</ele></trkpt><trkpt lat="27.721207" lon="85.36149"><ele>1338.7</ele></trkpt><trkpt lat="27.721333" lon="85.36144"><ele>1339</ele></trkpt><trkpt lat="27.721449" lon="85.361438"><ele>1339</ele></trkpt><trkpt lat="27.721511" lon="85.361438"><ele>1339</ele></trkpt><trkpt lat="27.72162" lon="85.361456"><ele>1338.7</ele></trkpt><trkpt lat="27.721694" lon="85.361492"><ele>1338</ele></trkpt><trkpt lat="27.721792" lon="85.361578"><ele>1338.7</ele></trkpt><trkpt lat="27.721819" lon="85.361602"><ele>1339.3</ele></trkpt><trkpt lat="27.721872" lon="85.361682"><ele>1339.5</ele></trkpt><trkpt lat="27.721942" lon="85.361861"><ele>1339.3</ele></trkpt><trkpt lat="27.721962" lon="85.361979"><ele>1340</ele></trkpt><trkpt lat="27.721959" lon="85.362116"><ele>1340</ele></trkpt><trkpt lat="27.721921" lon="85.362266"><ele>1340</ele></trkpt><trkpt lat="27.721869" lon="85.362328"><ele>1338.8</ele></trkpt><trkpt lat="27.721752" lon="85.3624"><ele>1338.6</ele></trkpt><trkpt lat="27.721591" lon="85.362449"><ele>1338.5</ele></trkpt><trkpt lat="27.721522" lon="85.362532"><ele>1338.6</ele></trkpt><trkpt lat="27.721513" lon="85.36257"><ele>1338</ele></trkpt><trkpt lat="27.721304" lon="85.362583"><ele>1338</ele></trkpt><trkpt lat="27.721211" lon="85.362502"><ele>1338</ele></trkpt><trkpt lat="27.721189" lon="85.362483"><ele>1338</ele></trkpt><trkpt lat="27.721111" lon="85.362417"><ele>1338</ele></trkpt><trkpt lat="27.721018" lon="85.362264"><ele>1338</ele></trkpt><trkpt lat="27.720968" lon="85.362033"><ele>1338</ele></trkpt><trkpt lat="27.720978" lon="85.361882"><ele>1338</ele></trkpt><trkpt lat="27.720928" lon="85.36185"><ele>1334.3</ele></trkpt><trkpt lat="27.720641" lon="85.361753"><ele>1328</ele></trkpt><trkpt lat="27.720647" lon="85.361711"><ele>1328</ele></trkpt><trkpt lat="27.720671" lon="85.361432"><ele>1328</ele></trkpt><trkpt lat="27.720659" lon="85.361222"><ele>1328</ele></trkpt><trkpt lat="27.720561" lon="85.360476"><ele>1332</ele></trkpt><trkpt lat="27.72015" lon="85.36058"><ele>1327</ele></trkpt><trkpt lat="27.720061" lon="85.360291"><ele>1326.2</ele></trkpt><trkpt lat="27.719946" lon="85.360164"><ele>1326</ele></trkpt><trkpt lat="27.719895" lon="85.360132"><ele>1326</ele></trkpt><trkpt lat="27.71981" lon="85.36008"><ele>1325.8</ele></trkpt><trkpt lat="27.719727" lon="85.360054"><ele>1325.8</ele></trkpt><trkpt lat="27.719612" lon="85.360043"><ele>1325.8</ele></trkpt><trkpt lat="27.719389" lon="85.360054"><ele>1325.7</ele></trkpt><trkpt lat="27.719369" lon="85.360019"><ele>1325.8</ele></trkpt><trkpt lat="27.719277" lon="85.359996"><ele>1325.6</ele></trkpt><trkpt lat="27.719257" lon="85.359957"><ele>1325.5</ele></trkpt><trkpt lat="27.719177" lon="85.35992"><ele>1325.4</ele></trkpt><trkpt lat="27.71912" lon="85.359935"><ele>1325.2</ele></trkpt><trkpt lat="27.719072" lon="85.359891"><ele>1325.2</ele></trkpt><trkpt lat="27.718934" lon="85.359854"><ele>1325.2</ele></trkpt><trkpt lat="27.718597" lon="85.359678"><ele>1325.1</ele></trkpt><trkpt lat="27.71838" lon="85.359488"><ele>1325.2</ele></trkpt><trkpt lat="27.718345" lon="85.359476"><ele>1324</ele></trkpt><trkpt lat="27.718178" lon="85.359343"><ele>1319</ele></trkpt><trkpt lat="27.718162" lon="85.359321"><ele>1319</ele></trkpt><trkpt lat="27.718077" lon="85.359284"><ele>1319</ele></trkpt><trkpt lat="27.717997" lon="85.359351"><ele>1319</ele></trkpt><trkpt lat="27.717949" lon="85.359444"><ele>1319</ele></trkpt><trkpt lat="27.717883" lon="85.359514"><ele>1319</ele></trkpt><trkpt lat="27.717862" lon="85.359591"><ele>1319</ele></trkpt><trkpt lat="27.717701" lon="85.359375"><ele>1319</ele></trkpt><trkpt lat="27.71765" lon="85.359395"><ele>1317.8</ele></trkpt><trkpt lat="27.717337" lon="85.35939"><ele>1314</ele></trkpt><trkpt lat="27.71679" lon="85.359273"><ele>1314</ele></trkpt><trkpt lat="27.716736" lon="85.359161"><ele>1313</ele></trkpt><trkpt lat="27.71644" lon="85.35852"><ele>1312</ele></trkpt><trkpt lat="27.71625" lon="85.358356"><ele>1312.7</ele></trkpt><trkpt lat="27.716091" lon="85.358258"><ele>1314</ele></trkpt><trkpt lat="27.716062" lon="85.358239"><ele>1314</ele></trkpt><trkpt lat="27.715575" lon="85.357948"><ele>1311</ele></trkpt><trkpt lat="27.715372" lon="85.357824"><ele>1311</ele></trkpt><trkpt lat="27.715148" lon="85.357619"><ele>1311</ele></trkpt><trkpt lat="27.715013" lon="85.357494"><ele>1315</ele></trkpt><trkpt lat="27.714726" lon="85.357279"><ele>1312</ele></trkpt><trkpt lat="27.714337" lon="85.356915"><ele>1311.7</ele></trkpt><trkpt lat="27.714086" lon="85.356793"><ele>1311</ele></trkpt><trkpt lat="27.713625" lon="85.356661"><ele>1308</ele></trkpt><trkpt lat="27.713365" lon="85.356561"><ele>1308</ele></trkpt><trkpt lat="27.713207" lon="85.356568"><ele>1307</ele></trkpt><trkpt lat="27.713219" lon="85.355923"><ele>1307</ele></trkpt><trkpt lat="27.712861" lon="85.355823"><ele>1310</ele></trkpt><trkpt lat="27.712644" lon="85.355768"><ele>1310</ele></trkpt><trkpt lat="27.712344" lon="85.355752"><ele>1309</ele></trkpt><trkpt lat="27.712449" lon="85.355205"><ele>1309</ele></trkpt><trkpt lat="27.712385" lon="85.355179"><ele>1309.8</ele></trkpt><trkpt lat="27.712379" lon="85.355152"><ele>1310</ele></trkpt><trkpt lat="27.712424" lon="85.354757"><ele>1311</ele></trkpt><trkpt lat="27.712459" lon="85.354603"><ele>1311</ele></trkpt><trkpt lat="27.712524" lon="85.354336"><ele>1311</ele></trkpt><trkpt lat="27.712576" lon="85.354029"><ele>1312</ele></trkpt><trkpt lat="27.712075" lon="85.353812"><ele>1317</ele></trkpt><trkpt lat="27.711911" lon="85.353741"><ele>1317</ele></trkpt><trkpt lat="27.711702" lon="85.353619"><ele>1317</ele></trkpt><trkpt lat="27.711503" lon="85.353591"><ele>1331</ele></trkpt><trkpt lat="27.711594" lon="85.353444"><ele>1335.3</ele></trkpt><trkpt lat="27.711664" lon="85.353258"><ele>1344</ele></trkpt><trkpt lat="27.711515" lon="85.353148"><ele>1344.9</ele></trkpt><trkpt lat="27.711222" lon="85.353008"><ele>1345.2</ele></trkpt><trkpt lat="27.711247" lon="85.352955"><ele>1345.1</ele></trkpt><trkpt lat="27.711088" lon="85.352605"><ele>1345.6</ele></trkpt><trkpt lat="27.710936" lon="85.352211"><ele>1346.5</ele></trkpt><trkpt lat="27.710642" lon="85.351569"><ele>1352</ele></trkpt><trkpt lat="27.710642" lon="85.351471"><ele>1352</ele></trkpt><trkpt lat="27.710458" lon="85.351412"><ele>1352</ele></trkpt><trkpt lat="27.710406" lon="85.351416"><ele>1352</ele></trkpt><trkpt lat="27.710055" lon="85.351198"><ele>1350.3</ele></trkpt><trkpt lat="27.709751" lon="85.350909"><ele>1348</ele></trkpt><trkpt lat="27.709771" lon="85.350739"><ele>1331.4</ele></trkpt><trkpt lat="27.709678" lon="85.350583"><ele>1331.6</ele></trkpt><trkpt lat="27.709604" lon="85.35033"><ele>1331.7</ele></trkpt><trkpt lat="27.709527" lon="85.349943"><ele>1329.9</ele></trkpt><trkpt lat="27.709483" lon="85.349862"><ele>1328.3</ele></trkpt><trkpt lat="27.709569" lon="85.34959"><ele>1317</ele></trkpt><trkpt lat="27.709645" lon="85.349429"><ele>1317</ele></trkpt><trkpt lat="27.709779" lon="85.34897"><ele>1310</ele></trkpt><trkpt lat="27.709797" lon="85.348904"><ele>1310</ele></trkpt><trkpt lat="27.709807" lon="85.348867"><ele>1310</ele></trkpt><trkpt lat="27.709893" lon="85.348648"><ele>1310</ele></trkpt><trkpt lat="27.70992" lon="85.348601"><ele>1310</ele></trkpt><trkpt lat="27.709918" lon="85.348473"><ele>1310.5</ele></trkpt><trkpt lat="27.709876" lon="85.348403"><ele>1310.6</ele></trkpt><trkpt lat="27.70994" lon="85.348141"><ele>1312</ele></trkpt><trkpt lat="27.710077" lon="85.347444"><ele>1316</ele></trkpt><trkpt lat="27.710091" lon="85.347349"><ele>1316</ele></trkpt><trkpt lat="27.710146" lon="85.346859"><ele>1319.3</ele></trkpt><trkpt lat="27.710158" lon="85.346502"><ele>1326</ele></trkpt><trkpt lat="27.710158" lon="85.34644"><ele>1326</ele></trkpt><trkpt lat="27.710214" lon="85.346158"><ele>1326</ele></trkpt><trkpt lat="27.710183" lon="85.345824"><ele>1332</ele></trkpt><trkpt lat="27.710175" lon="85.34567"><ele>1335</ele></trkpt><trkpt lat="27.710251" lon="85.344961"><ele>1336.1</ele></trkpt><trkpt lat="27.710258" lon="85.344592"><ele>1338</ele></trkpt><trkpt lat="27.710307" lon="85.344444"><ele>1338</ele></trkpt><trkpt lat="27.710377" lon="85.3444"><ele>1338</ele></trkpt><trkpt lat="27.710426" lon="85.3442"><ele>1338</ele></trkpt><trkpt lat="27.710343" lon="85.344172"><ele>1338</ele></trkpt><trkpt lat="27.710525" lon="85.343751"><ele>1341.8</ele></trkpt><trkpt lat="27.710561" lon="85.343678"><ele>1341.4</ele></trkpt><trkpt lat="27.710619" lon="85.343607"><ele>1343</ele></trkpt><trkpt lat="27.710739" lon="85.343417"><ele>1343</ele></trkpt><trkpt lat="27.710831" lon="85.343135"><ele>1337.5</ele></trkpt><trkpt lat="27.710872" lon="85.343108"><ele>1337.1</ele></trkpt><trkpt lat="27.711024" lon="85.342812"><ele>1336</ele></trkpt><trkpt lat="27.711072" lon="85.342775"><ele>1336.8</ele></trkpt><trkpt lat="27.711123" lon="85.342665"><ele>1336.9</ele></trkpt><trkpt lat="27.711153" lon="85.342657"><ele>1337.1</ele></trkpt><trkpt lat="27.711202" lon="85.342466"><ele>1337.2</ele></trkpt><trkpt lat="27.711392" lon="85.34214"><ele>1338</ele></trkpt><trkpt lat="27.711486" lon="85.341965"><ele>1338</ele></trkpt><trkpt lat="27.711689" lon="85.341518"><ele>1335.5</ele></trkpt><trkpt lat="27.711712" lon="85.341428"><ele>1334</ele></trkpt><trkpt lat="27.711753" lon="85.34136"><ele>1332</ele></trkpt><trkpt lat="27.711951" lon="85.340789"><ele>1328</ele></trkpt><trkpt lat="27.712031" lon="85.340572"><ele>1328</ele></trkpt><trkpt lat="27.712222" lon="85.340804"><ele>1328</ele></trkpt><trkpt lat="27.712484" lon="85.340692"><ele>1328</ele></trkpt><trkpt lat="27.712619" lon="85.34053"><ele>1327.3</ele></trkpt><trkpt lat="27.712982" lon="85.34031"><ele>1327</ele></trkpt><trkpt lat="27.713217" lon="85.340084"><ele>1327</ele></trkpt><trkpt lat="27.713284" lon="85.339968"><ele>1322</ele></trkpt><trkpt lat="27.713517" lon="85.339529"><ele>1315</ele></trkpt><trkpt lat="27.713565" lon="85.339472"><ele>1315</ele></trkpt><trkpt lat="27.713628" lon="85.339464"><ele>1315</ele></trkpt><trkpt lat="27.713843" lon="85.339637"><ele>1315</ele></trkpt><trkpt lat="27.713921" lon="85.339672"><ele>1315</ele></trkpt><trkpt lat="27.714102" lon="85.339463"><ele>1315</ele></trkpt><trkpt lat="27.714135" lon="85.339379"><ele>1315</ele></trkpt><trkpt lat="27.71391" lon="85.339239"><ele>1312.1</ele></trkpt><trkpt lat="27.713893" lon="85.339214"><ele>1311.6</ele></trkpt><trkpt lat="27.713888" lon="85.339174"><ele>1311.2</ele></trkpt><trkpt lat="27.71398" lon="85.338451"><ele>1306</ele></trkpt><trkpt lat="27.714205" lon="85.338473"><ele>1307</ele></trkpt><trkpt lat="27.714227" lon="85.338252"><ele>1306</ele></trkpt><trkpt lat="27.714182" lon="85.338248"><ele>1306</ele></trkpt><trkpt lat="27.714179" lon="85.337833"><ele>1306</ele></trkpt><trkpt lat="27.714203" lon="85.337679"><ele>1305.7</ele></trkpt><trkpt lat="27.714273" lon="85.337403"><ele>1305</ele></trkpt><trkpt lat="27.714408" lon="85.33745"><ele>1305</ele></trkpt><trkpt lat="27.714505" lon="85.33688"><ele>1305</ele></trkpt><trkpt lat="27.714536" lon="85.336649"><ele>1311</ele></trkpt><trkpt lat="27.714405" lon="85.336629"><ele>1311</ele></trkpt><trkpt lat="27.714422" lon="85.336268"><ele>1311</ele></trkpt><trkpt lat="27.714449" lon="85.336075"><ele>1311</ele></trkpt><trkpt lat="27.71446" lon="85.335991"><ele>1312.3</ele></trkpt><trkpt lat="27.714574" lon="85.335684"><ele>1312.6</ele></trkpt><trkpt lat="27.714575" lon="85.33555"><ele>1315</ele></trkpt><trkpt lat="27.714573" lon="85.335505"><ele>1315</ele></trkpt><trkpt lat="27.714648" lon="85.335247"><ele>1315</ele></trkpt><trkpt lat="27.714553" lon="85.335226"><ele>1315</ele></trkpt><trkpt lat="27.714591" lon="85.335"><ele>1316.3</ele></trkpt><trkpt lat="27.71467" lon="85.334789"><ele>1319</ele></trkpt><trkpt lat="27.714682" lon="85.334604"><ele>1319</ele></trkpt><trkpt lat="27.714724" lon="85.334505"><ele>1319</ele></trkpt><trkpt lat="27.714708" lon="85.334478"><ele>1319</ele></trkpt><trkpt lat="27.71465" lon="85.33447"><ele>1319</ele></trkpt><trkpt lat="27.71467" lon="85.334253"><ele>1319</ele></trkpt><trkpt lat="27.714763" lon="85.334056"><ele>1319</ele></trkpt><trkpt lat="27.714936" lon="85.333639"><ele>1319</ele></trkpt><trkpt lat="27.715033" lon="85.333512"><ele>1318.3</ele></trkpt><trkpt lat="27.715103" lon="85.333468"><ele>1318</ele></trkpt><trkpt lat="27.715211" lon="85.333324"><ele>1320</ele></trkpt><trkpt lat="27.715232" lon="85.333276"><ele>1320</ele></trkpt><trkpt lat="27.715279" lon="85.332985"><ele>1320</ele></trkpt><trkpt lat="27.715285" lon="85.332802"><ele>1320</ele></trkpt><trkpt lat="27.715374" lon="85.332581"><ele>1320</ele></trkpt><trkpt lat="27.71536" lon="85.33251"><ele>1320</ele></trkpt><trkpt lat="27.715373" lon="85.332388"><ele>1318.6</ele></trkpt><trkpt lat="27.715421" lon="85.332326"><ele>1318.5</ele></trkpt><trkpt lat="27.715469" lon="85.332024"><ele>1318</ele></trkpt><trkpt lat="27.715493" lon="85.331915"><ele>1318</ele></trkpt><trkpt lat="27.715517" lon="85.331871"><ele>1318</ele></trkpt><trkpt lat="27.715589" lon="85.331701"><ele>1317</ele></trkpt><trkpt lat="27.715633" lon="85.331519"><ele>1316.9</ele></trkpt><trkpt lat="27.715595" lon="85.331465"><ele>1316.7</ele></trkpt><trkpt lat="27.715355" lon="85.331346"><ele>1316.7</ele></trkpt><trkpt lat="27.715352" lon="85.331246"><ele>1316.6</ele></trkpt><trkpt lat="27.715394" lon="85.331102"><ele>1316</ele></trkpt><trkpt lat="27.715367" lon="85.331011"><ele>1316</ele></trkpt><trkpt lat="27.715275" lon="85.330938"><ele>1316</ele></trkpt><trkpt lat="27.715125" lon="85.330882"><ele>1316</ele></trkpt><trkpt lat="27.715159" lon="85.330829"><ele>1317.9</ele></trkpt><trkpt lat="27.714835" lon="85.330647"><ele>1318.2</ele></trkpt><trkpt lat="27.714833" lon="85.330483"><ele>1318.7</ele></trkpt><trkpt lat="27.714191" lon="85.330272"><ele>1320</ele></trkpt><trkpt lat="27.714256" lon="85.330054"><ele>1320</ele></trkpt><trkpt lat="27.71443" lon="85.329414"><ele>1315</ele></trkpt><trkpt lat="27.714307" lon="85.329322"><ele>1316</ele></trkpt><trkpt lat="27.713811" lon="85.329133"><ele>1317</ele></trkpt><trkpt lat="27.713604" lon="85.32905"><ele>1317</ele></trkpt><trkpt lat="27.713648" lon="85.328779"><ele>1317.5</ele></trkpt><trkpt lat="27.713596" lon="85.328646"><ele>1317.4</ele></trkpt><trkpt lat="27.713568" lon="85.328527"><ele>1317.4</ele></trkpt><trkpt lat="27.713735" lon="85.327939"><ele>1317.6</ele></trkpt><trkpt lat="27.7138" lon="85.327823"><ele>1317.7</ele></trkpt><trkpt lat="27.713906" lon="85.327766"><ele>1319</ele></trkpt><trkpt lat="27.714092" lon="85.326875"><ele>1319</ele></trkpt><trkpt lat="27.713995" lon="85.326856"><ele>1319</ele></trkpt><trkpt lat="27.714065" lon="85.326553"><ele>1317.9</ele></trkpt><trkpt lat="27.714025" lon="85.326523"><ele>1317.8</ele></trkpt><trkpt lat="27.713925" lon="85.326494"><ele>1317.7</ele></trkpt><trkpt lat="27.713847" lon="85.326433"><ele>1317</ele></trkpt><trkpt lat="27.713817" lon="85.326323"><ele>1317</ele></trkpt><trkpt lat="27.713888" lon="85.326177"><ele>1317</ele></trkpt><trkpt lat="27.713937" lon="85.326174"><ele>1317</ele></trkpt><trkpt lat="27.71403" lon="85.325905"><ele>1317</ele></trkpt><trkpt lat="27.713711" lon="85.325808"><ele>1316.4</ele></trkpt><trkpt lat="27.713711" lon="85.325742"><ele>1316.4</ele></trkpt><trkpt lat="27.713425" lon="85.325655"><ele>1316</ele></trkpt><trkpt lat="27.713435" lon="85.32548"><ele>1315.8</ele></trkpt><trkpt lat="27.713425" lon="85.32539"><ele>1315.7</ele></trkpt><trkpt lat="27.713291" lon="85.324985"><ele>1315</ele></trkpt><trkpt lat="27.713165" lon="85.324574"><ele>1315</ele></trkpt><trkpt lat="27.713218" lon="85.32415"><ele>1315</ele></trkpt><trkpt lat="27.713298" lon="85.323868"><ele>1315</ele></trkpt><trkpt lat="27.713317" lon="85.323814"><ele>1315</ele></trkpt><trkpt lat="27.713376" lon="85.323675"><ele>1317</ele></trkpt><trkpt lat="27.713636" lon="85.322967"><ele>1312.9</ele></trkpt><trkpt lat="27.713667" lon="85.322745"><ele>1312.9</ele></trkpt><trkpt lat="27.71367" lon="85.321945"><ele>1309</ele></trkpt><trkpt lat="27.713648" lon="85.321017"><ele>1308</ele></trkpt><trkpt lat="27.713649" lon="85.320171"><ele>1307</ele></trkpt><trkpt lat="27.713649" lon="85.31981"><ele>1311</ele></trkpt><trkpt lat="27.713617" lon="85.319533"><ele>1311.3</ele></trkpt><trkpt lat="27.71351" lon="85.31913"><ele>1312</ele></trkpt><trkpt lat="27.71326" lon="85.318138"><ele>1314</ele></trkpt><trkpt lat="27.713212" lon="85.317892"><ele>1314</ele></trkpt><trkpt lat="27.713217" lon="85.317791"><ele>1314</ele></trkpt><trkpt lat="27.713234" lon="85.31766"><ele>1314</ele></trkpt><trkpt lat="27.71326" lon="85.317513"><ele>1314</ele></trkpt><trkpt lat="27.7133" lon="85.317312"><ele>1314</ele></trkpt><trkpt lat="27.713651" lon="85.315395"><ele>1309</ele></trkpt><trkpt lat="27.713786" lon="85.3147"><ele>1310</ele></trkpt><trkpt lat="27.713865" lon="85.314293"><ele>1310</ele></trkpt><trkpt lat="27.713927" lon="85.31397"><ele>1315</ele></trkpt><trkpt lat="27.713969" lon="85.313757"><ele>1315</ele></trkpt><trkpt lat="27.7141" lon="85.313081"><ele>1316</ele></trkpt><trkpt lat="27.714228" lon="85.312417"><ele>1321</ele></trkpt><trkpt lat="27.714621" lon="85.312488"><ele>1320</ele></trkpt><trkpt lat="27.714928" lon="85.312582"><ele>1318</ele></trkpt><trkpt lat="27.715009" lon="85.312185"><ele>1323</ele></trkpt><trkpt lat="27.715064" lon="85.311908"><ele>1323</ele></trkpt><trkpt lat="27.715086" lon="85.311859"><ele>1323</ele></trkpt><trkpt lat="27.715089" lon="85.311724"><ele>1323</ele></trkpt><trkpt lat="27.715101" lon="85.311531"><ele>1323</ele></trkpt><trkpt lat="27.715138" lon="85.311364"><ele>1323</ele></trkpt><trkpt lat="27.7157" lon="85.311492"><ele>1323</ele></trkpt><trkpt lat="27.715724" lon="85.311324"><ele>1323</ele></trkpt><trkpt lat="27.71572" lon="85.311298"><ele>1323</ele></trkpt><trkpt lat="27.715669" lon="85.311283"><ele>1323</ele></trkpt><trkpt lat="27.715702" lon="85.311108"><ele>1323</ele></trkpt><trkpt lat="27.715798" lon="85.310617"><ele>1318</ele></trkpt><trkpt lat="27.715686" lon="85.310608"><ele>1318.3</ele></trkpt><trkpt lat="27.715701" lon="85.310452"><ele>1317.6</ele></trkpt></trkseg></trk></gpx>