<gpx xmlns="http://www.topografix.com/GPX/1/1" xmlns:xsi="http://www.w3.org/2001/XMLSchema-instance" xsi:schemaLocation="http://www.topografix.com/GPX/1/1 http://www.topografix.com/GPX/1/1/gpx.xsd" version="1.1" creator="togpx"><metadata/><wpt lat="47.50612051409625" lon="11.278232932090761"><name></name><desc>label=Krün - Kranzbach, Krün,BY,Germany</desc></wpt><wpt lat="47.51044706435243" lon="11.260685920715332"><name></name><desc>label=Jungfinz, Wallgau,BY,Germany</desc></wpt><wpt lat="47.50256189476163" lon="11.242983341217041"><name></name><desc>label=Badeufer am Barmsee, Krün,BY,Germany</desc></wpt><wpt lat="47.49409561489397" lon="11.220817565917969"><name></name><desc>label=Magerrasen &amp; Feuchtgebiete, Krün,BY,Germany</desc></wpt><wpt lat="47.491529366654" lon="11.213929653167725"><name></name><desc>label=Gerold 15, Krün,BY,Germany</desc></wpt><wpt lat="47.48874549795311" lon="11.220881938934328"><name></name><desc>label=Köchelgraben, Krün,BY,Germany</desc></wpt><wpt lat="47.482800284335354" lon="11.240853667259218"><name></name><desc>label=Bahnhofstraße, Krün,BY,Germany</desc></wpt><wpt lat="47.48557359271295" lon="11.237463355064394"><name></name><desc>label=Hauptstraße, Krün,BY,Germany</desc></wpt><wpt lat="47.494182604162184" lon="11.248562335968018"><name></name><desc>label=Am Barmsee, Krün,BY,Germany</desc></wpt><wpt lat="47.49864785970502" lon="11.261394023895265"><name></name><desc>label=B 2, Krün,BY,Germany</desc></wpt><wpt lat="47.50577625901851" lon="11.278420686721804"><name></name><desc>label=Gh. Post/Cafe Kranzbach, Krün,BY,Germany</desc></wpt><trk><name></name><desc>ascent=285.6
descent=285.3
opacity=0.9</desc><trkseg><trkpt lat="47.506125" lon="11.278288"><ele>875.4</ele></trkpt><trkpt lat="47.50606" lon="11.278299"><ele>875.4</ele></trkpt><trkpt lat="47.505732" lon="11.278397"><ele>876</ele></trkpt><trkpt lat="47.505707" lon="11.278402"><ele>876</ele></trkpt><trkpt lat="47.505814" lon="11.27775"><ele>875</ele></trkpt><trkpt lat="47.505912" lon="11.277322"><ele>874</ele></trkpt><trkpt lat="47.50594" lon="11.277098"><ele>874</ele></trkpt><trkpt lat="47.505933" lon="11.276912"><ele>874</ele></trkpt><trkpt lat="47.505901" lon="11.276768"><ele>874</ele></trkpt><trkpt lat="47.505765" lon="11.276282"><ele>873.3</ele></trkpt><trkpt lat="47.505749" lon="11.276143"><ele>873.3</ele></trkpt><trkpt lat="47.505763" lon="11.275985"><ele>873.3</ele></trkpt><trkpt lat="47.505819" lon="11.275855"><ele>873</ele></trkpt><trkpt lat="47.505998" lon="11.275326"><ele>875.8</ele></trkpt><trkpt lat="47.506108" lon="11.274684"><ele>875.7</ele></trkpt><trkpt lat="47.5062" lon="11.273897"><ele>875.8</ele></trkpt><trkpt lat="47.506389" lon="11.273032"><ele>876</ele></trkpt><trkpt lat="47.506418" lon="11.272908"><ele>876</ele></trkpt><trkpt lat="47.506505" lon="11.272535"><ele>876</ele></trkpt><trkpt lat="47.506661" lon="11.271995"><ele>876.7</ele></trkpt><trkpt lat="47.507158" lon="11.270817"><ele>878</ele></trkpt><trkpt lat="47.507427" lon="11.27016"><ele>878</ele></trkpt><trkpt lat="47.508185" lon="11.268306"><ele>884</ele></trkpt><trkpt lat="47.50837" lon="11.267987"><ele>886</ele></trkpt><trkpt lat="47.508578" lon="11.267677"><ele>886.3</ele></trkpt><trkpt lat="47.508683" lon="11.267483"><ele>886.7</ele></trkpt><trkpt lat="47.509374" lon="11.265718"><ele>890</ele></trkpt><trkpt lat="47.510078" lon="11.263893"><ele>890</ele></trkpt><trkpt lat="47.510163" lon="11.263603"><ele>891.9</ele></trkpt><trkpt lat="47.510491" lon="11.261455"><ele>895.1</ele></trkpt><trkpt lat="47.510504" lon="11.261156"><ele>895.1</ele></trkpt><trkpt lat="47.510497" lon="11.260684"><ele>895.2</ele></trkpt><trkpt lat="47.510497" lon="11.260652"><ele>895.3</ele></trkpt><trkpt lat="47.510527" lon="11.260421"><ele>896.2</ele></trkpt><trkpt lat="47.510687" lon="11.259808"><ele>898</ele></trkpt><trkpt lat="47.51081" lon="11.259328"><ele>898</ele></trkpt><trkpt lat="47.510839" lon="11.25909"><ele>900.4</ele></trkpt><trkpt lat="47.510895" lon="11.258147"><ele>900.5</ele></trkpt><trkpt lat="47.510913" lon="11.25731"><ele>902</ele></trkpt><trkpt lat="47.510955" lon="11.257236"><ele>902</ele></trkpt><trkpt lat="47.511006" lon="11.257005"><ele>902</ele></trkpt><trkpt lat="47.511071" lon="11.256151"><ele>902</ele></trkpt><trkpt lat="47.511061" lon="11.255799"><ele>902</ele></trkpt><trkpt lat="47.510869" lon="11.255749"><ele>902</ele></trkpt><trkpt lat="47.510825" lon="11.255147"><ele>900.4</ele></trkpt><trkpt lat="47.510775" lon="11.254765"><ele>900.1</ele></trkpt><trkpt lat="47.510427" lon="11.252986"><ele>900</ele></trkpt><trkpt lat="47.510316" lon="11.252445"><ele>901.3</ele></trkpt><trkpt lat="47.509687" lon="11.250524"><ele>897</ele></trkpt><trkpt lat="47.50936" lon="11.249396"><ele>896</ele></trkpt><trkpt lat="47.509295" lon="11.2492"><ele>896</ele></trkpt><trkpt lat="47.508984" lon="11.248269"><ele>895</ele></trkpt><trkpt lat="47.508779" lon="11.24774"><ele>895.2</ele></trkpt><trkpt lat="47.508547" lon="11.247338"><ele>895.2</ele></trkpt><trkpt lat="47.507869" lon="11.246282"><ele>895.6</ele></trkpt><trkpt lat="47.507661" lon="11.246064"><ele>896</ele></trkpt><trkpt lat="47.507533" lon="11.245938"><ele>895</ele></trkpt><trkpt lat="47.507308" lon="11.245768"><ele>894</ele></trkpt><trkpt lat="47.50714" lon="11.245705"><ele>893.5</ele></trkpt><trkpt lat="47.505938" lon="11.245545"><ele>891</ele></trkpt><trkpt lat="47.505582" lon="11.245496"><ele>888</ele></trkpt><trkpt lat="47.504881" lon="11.245294"><ele>890</ele></trkpt><trkpt lat="47.504184" lon="11.244867"><ele>897</ele></trkpt><trkpt lat="47.503764" lon="11.244582"><ele>903</ele></trkpt><trkpt lat="47.503689" lon="11.244531"><ele>903</ele></trkpt><trkpt lat="47.503399" lon="11.244335"><ele>907</ele></trkpt><trkpt lat="47.503207" lon="11.244072"><ele>906.8</ele></trkpt><trkpt lat="47.502862" lon="11.243418"><ele>909.8</ele></trkpt><trkpt lat="47.502617" lon="11.243021"><ele>912.4</ele></trkpt><trkpt lat="47.502571" lon="11.242966"><ele>914.8</ele></trkpt><trkpt lat="47.50212" lon="11.24242"><ele>917.3</ele></trkpt><trkpt lat="47.501887" lon="11.24228"><ele>921</ele></trkpt><trkpt lat="47.501493" lon="11.242066"><ele>906.4</ele></trkpt><trkpt lat="47.501203" lon="11.241835"><ele>905.9</ele></trkpt><trkpt lat="47.501011" lon="11.24158"><ele>905.4</ele></trkpt><trkpt lat="47.500815" lon="11.24107"><ele>902.8</ele></trkpt><trkpt lat="47.500603" lon="11.240786"><ele>900</ele></trkpt><trkpt lat="47.499827" lon="11.239522"><ele>899.3</ele></trkpt><trkpt lat="47.499576" lon="11.239325"><ele>898.3</ele></trkpt><trkpt lat="47.499379" lon="11.23934"><ele>897</ele></trkpt><trkpt lat="47.499037" lon="11.23929"><ele>893.7</ele></trkpt><trkpt lat="47.498807" lon="11.239314"><ele>893.3</ele></trkpt><trkpt lat="47.498647" lon="11.239299"><ele>892.9</ele></trkpt><trkpt lat="47.498219" lon="11.239149"><ele>894</ele></trkpt><trkpt lat="47.498107" lon="11.239083"><ele>898.4</ele></trkpt><trkpt lat="47.497943" lon="11.238946"><ele>898</ele></trkpt><trkpt lat="47.497783" lon="11.238671"><ele>897.8</ele></trkpt><trkpt lat="47.497611" lon="11.238432"><ele>898.9</ele></trkpt><trkpt lat="47.497422" lon="11.238128"><ele>899.8</ele></trkpt><trkpt lat="47.497299" lon="11.238013"><ele>900.2</ele></trkpt><trkpt lat="47.497168" lon="11.237726"><ele>901.7</ele></trkpt><trkpt lat="47.497049" lon="11.237361"><ele>903.7</ele></trkpt><trkpt lat="47.496921" lon="11.237074"><ele>904.9</ele></trkpt><trkpt lat="47.496859" lon="11.237013"><ele>905.1</ele></trkpt><trkpt lat="47.496735" lon="11.236985"><ele>905.2</ele></trkpt><trkpt lat="47.496628" lon="11.236934"><ele>906.3</ele></trkpt><trkpt lat="47.496286" lon="11.23668"><ele>908.2</ele></trkpt><trkpt lat="47.496202" lon="11.236485"><ele>909.5</ele></trkpt><trkpt lat="47.496175" lon="11.236354"><ele>914</ele></trkpt><trkpt lat="47.496189" lon="11.236127"><ele>923.8</ele></trkpt><trkpt lat="47.496285" lon="11.235522"><ele>924</ele></trkpt><trkpt lat="47.496289" lon="11.235174"><ele>924.9</ele></trkpt><trkpt lat="47.496275" lon="11.235081"><ele>926.1</ele></trkpt><trkpt lat="47.49618" lon="11.234897"><ele>927.8</ele></trkpt><trkpt lat="47.495866" lon="11.234494"><ele>929.5</ele></trkpt><trkpt lat="47.495616" lon="11.234058"><ele>937.7</ele></trkpt><trkpt lat="47.495458" lon="11.233543"><ele>943.9</ele></trkpt><trkpt lat="47.495385" lon="11.23336"><ele>946.1</ele></trkpt><trkpt lat="47.495155" lon="11.23252"><ele>950.9</ele></trkpt><trkpt lat="47.495072" lon="11.232316"><ele>951.1</ele></trkpt><trkpt lat="47.495017" lon="11.232012"><ele>953</ele></trkpt><trkpt lat="47.49508" lon="11.231739"><ele>959.5</ele></trkpt><trkpt lat="47.495071" lon="11.231672"><ele>959</ele></trkpt><trkpt lat="47.494983" lon="11.231632"><ele>959.5</ele></trkpt><trkpt lat="47.494908" lon="11.231497"><ele>960.4</ele></trkpt><trkpt lat="47.494895" lon="11.231374"><ele>960.8</ele></trkpt><trkpt lat="47.494915" lon="11.231284"><ele>961.2</ele></trkpt><trkpt lat="47.49485" lon="11.230957"><ele>962.1</ele></trkpt><trkpt lat="47.494834" lon="11.230739"><ele>961.9</ele></trkpt><trkpt lat="47.494866" lon="11.230444"><ele>959</ele></trkpt><trkpt lat="47.494862" lon="11.230316"><ele>956.6</ele></trkpt><trkpt lat="47.494829" lon="11.230166"><ele>956.6</ele></trkpt><trkpt lat="47.494736" lon="11.229914"><ele>956.5</ele></trkpt><trkpt lat="47.494673" lon="11.2296"><ele>956.3</ele></trkpt><trkpt lat="47.494415" lon="11.22906"><ele>955.9</ele></trkpt><trkpt lat="47.494224" lon="11.228444"><ele>954</ele></trkpt><trkpt lat="47.49419" lon="11.228283"><ele>947.4</ele></trkpt><trkpt lat="47.494227" lon="11.228048"><ele>947</ele></trkpt><trkpt lat="47.494213" lon="11.227916"><ele>947.1</ele></trkpt><trkpt lat="47.494143" lon="11.227659"><ele>946.9</ele></trkpt><trkpt lat="47.494131" lon="11.227455"><ele>946.2</ele></trkpt><trkpt lat="47.494251" lon="11.22693"><ele>946</ele></trkpt><trkpt lat="47.494326" lon="11.22644"><ele>944.9</ele></trkpt><trkpt lat="47.494344" lon="11.226093"><ele>941</ele></trkpt><trkpt lat="47.494376" lon="11.225838"><ele>939.8</ele></trkpt><trkpt lat="47.494378" lon="11.225689"><ele>939.8</ele></trkpt><trkpt lat="47.494324" lon="11.225482"><ele>940.1</ele></trkpt><trkpt lat="47.494338" lon="11.224234"><ele>939.3</ele></trkpt><trkpt lat="47.494423" lon="11.2239"><ele>938.7</ele></trkpt><trkpt lat="47.494391" lon="11.223736"><ele>938</ele></trkpt><trkpt lat="47.494119" lon="11.22332"><ele>935.7</ele></trkpt><trkpt lat="47.494048" lon="11.223186"><ele>935.2</ele></trkpt><trkpt lat="47.494005" lon="11.223048"><ele>934.5</ele></trkpt><trkpt lat="47.494008" lon="11.222921"><ele>934.3</ele></trkpt><trkpt lat="47.494036" lon="11.222728"><ele>934.1</ele></trkpt><trkpt lat="47.494149" lon="11.22215"><ele>932.6</ele></trkpt><trkpt lat="47.494187" lon="11.221839"><ele>931.8</ele></trkpt><trkpt lat="47.494141" lon="11.221474"><ele>930.5</ele></trkpt><trkpt lat="47.49415" lon="11.220819"><ele>930.7</ele></trkpt><trkpt lat="47.494152" lon="11.220669"><ele>930.8</ele></trkpt><trkpt lat="47.494185" lon="11.219885"><ele>932.3</ele></trkpt><trkpt lat="47.49396" lon="11.219211"><ele>934.5</ele></trkpt><trkpt lat="47.493835" lon="11.218719"><ele>934.5</ele></trkpt><trkpt lat="47.493701" lon="11.21837"><ele>934.4</ele></trkpt><trkpt lat="47.493572" lon="11.217947"><ele>933.5</ele></trkpt><trkpt lat="47.493272" lon="11.21715"><ele>934</ele></trkpt><trkpt lat="47.492924" lon="11.216181"><ele>931.3</ele></trkpt><trkpt lat="47.492803" lon="11.215725"><ele>931.1</ele></trkpt><trkpt lat="47.492711" lon="11.215448"><ele>930.6</ele></trkpt><trkpt lat="47.492644" lon="11.215095"><ele>930.1</ele></trkpt><trkpt lat="47.492483" lon="11.214557"><ele>929.2</ele></trkpt><trkpt lat="47.492464" lon="11.21434"><ele>928.9</ele></trkpt><trkpt lat="47.492484" lon="11.213726"><ele>927.6</ele></trkpt><trkpt lat="47.492462" lon="11.213563"><ele>927.4</ele></trkpt><trkpt lat="47.492432" lon="11.213475"><ele>926</ele></trkpt><trkpt lat="47.492301" lon="11.213481"><ele>926.4</ele></trkpt><trkpt lat="47.491955" lon="11.213742"><ele>926.5</ele></trkpt><trkpt lat="47.4917" lon="11.213895"><ele>926.6</ele></trkpt><trkpt lat="47.491577" lon="11.213947"><ele>926.6</ele></trkpt><trkpt lat="47.491532" lon="11.213956"><ele>926.8</ele></trkpt><trkpt lat="47.491105" lon="11.214046"><ele>927</ele></trkpt><trkpt lat="47.49073" lon="11.214479"><ele>927.6</ele></trkpt><trkpt lat="47.490608" lon="11.214481"><ele>927.6</ele></trkpt><trkpt lat="47.490553" lon="11.214448"><ele>928</ele></trkpt><trkpt lat="47.490014" lon="11.215181"><ele>925.9</ele></trkpt><trkpt lat="47.489895" lon="11.215419"><ele>925.3</ele></trkpt><trkpt lat="47.489793" lon="11.215733"><ele>922</ele></trkpt><trkpt lat="47.48974" lon="11.215798"><ele>921.3</ele></trkpt><trkpt lat="47.489699" lon="11.215902"><ele>921.2</ele></trkpt><trkpt lat="47.489687" lon="11.216089"><ele>921.2</ele></trkpt><trkpt lat="47.489664" lon="11.216171"><ele>921.2</ele></trkpt><trkpt lat="47.489598" lon="11.216253"><ele>921.3</ele></trkpt><trkpt lat="47.489512" lon="11.216312"><ele>921</ele></trkpt><trkpt lat="47.489362" lon="11.21641"><ele>921</ele></trkpt><trkpt lat="47.489313" lon="11.216495"><ele>920.3</ele></trkpt><trkpt lat="47.489082" lon="11.217895"><ele>920.6</ele></trkpt><trkpt lat="47.489078" lon="11.219811"><ele>922.1</ele></trkpt><trkpt lat="47.488903" lon="11.22067"><ele>923</ele></trkpt><trkpt lat="47.488834" lon="11.220933"><ele>923</ele></trkpt><trkpt lat="47.488817" lon="11.220998"><ele>923.1</ele></trkpt><trkpt lat="47.488426" lon="11.222158"><ele>926</ele></trkpt><trkpt lat="47.488354" lon="11.222089"><ele>926</ele></trkpt><trkpt lat="47.488292" lon="11.222044"><ele>924</ele></trkpt><trkpt lat="47.488266" lon="11.222048"><ele>924.8</ele></trkpt><trkpt lat="47.488169" lon="11.222419"><ele>925</ele></trkpt><trkpt lat="47.488026" lon="11.222873"><ele>925.1</ele></trkpt><trkpt lat="47.487712" lon="11.223774"><ele>924.8</ele></trkpt><trkpt lat="47.487425" lon="11.224655"><ele>924.7</ele></trkpt><trkpt lat="47.487223" lon="11.225224"><ele>924.5</ele></trkpt><trkpt lat="47.487026" lon="11.225682"><ele>926.2</ele></trkpt><trkpt lat="47.486846" lon="11.226046"><ele>926.7</ele></trkpt><trkpt lat="47.486331" lon="11.226921"><ele>936</ele></trkpt><trkpt lat="47.485787" lon="11.227801"><ele>943.3</ele></trkpt><trkpt lat="47.485677" lon="11.227941"><ele>947</ele></trkpt><trkpt lat="47.4856" lon="11.228233"><ele>935</ele></trkpt><trkpt lat="47.485283" lon="11.229037"><ele>932.9</ele></trkpt><trkpt lat="47.485132" lon="11.229481"><ele>933.8</ele></trkpt><trkpt lat="47.484793" lon="11.230559"><ele>929.7</ele></trkpt><trkpt lat="47.484402" lon="11.231916"><ele>922</ele></trkpt><trkpt lat="47.484126" lon="11.232848"><ele>943.7</ele></trkpt><trkpt lat="47.484013" lon="11.233358"><ele>942.7</ele></trkpt><trkpt lat="47.483914" lon="11.234019"><ele>948</ele></trkpt><trkpt lat="47.483862" lon="11.234233"><ele>939.7</ele></trkpt><trkpt lat="47.483459" lon="11.235427"><ele>950.4</ele></trkpt><trkpt lat="47.483025" lon="11.236885"><ele>958</ele></trkpt><trkpt lat="47.482791" lon="11.237712"><ele>943</ele></trkpt><trkpt lat="47.482698" lon="11.237954"><ele>943</ele></trkpt><trkpt lat="47.482509" lon="11.238334"><ele>935</ele></trkpt><trkpt lat="47.482341" lon="11.238502"><ele>942</ele></trkpt><trkpt lat="47.482079" lon="11.23876"><ele>942</ele></trkpt><trkpt lat="47.482016" lon="11.238873"><ele>942</ele></trkpt><trkpt lat="47.481998" lon="11.23954"><ele>939</ele></trkpt><trkpt lat="47.481995" lon="11.239654"><ele>939</ele></trkpt><trkpt lat="47.481994" lon="11.239749"><ele>939</ele></trkpt><trkpt lat="47.481995" lon="11.240345"><ele>939</ele></trkpt><trkpt lat="47.48203" lon="11.240749"><ele>939</ele></trkpt><trkpt lat="47.482142" lon="11.240824"><ele>939</ele></trkpt><trkpt lat="47.482278" lon="11.240833"><ele>939</ele></trkpt><trkpt lat="47.482476" lon="11.240652"><ele>938.3</ele></trkpt><trkpt lat="47.482604" lon="11.240601"><ele>936</ele></trkpt><trkpt lat="47.482677" lon="11.24059"><ele>936</ele></trkpt><trkpt lat="47.482629" lon="11.240808"><ele>935.5</ele></trkpt><trkpt lat="47.48256" lon="11.241449"><ele>935.4</ele></trkpt><trkpt lat="47.482568" lon="11.241534"><ele>935</ele></trkpt><trkpt lat="47.482782" lon="11.241766"><ele>933</ele></trkpt><trkpt lat="47.482746" lon="11.241324"><ele>934.8</ele></trkpt><trkpt lat="47.482774" lon="11.240991"><ele>934.8</ele></trkpt><trkpt lat="47.482795" lon="11.240852"><ele>935.4</ele></trkpt><trkpt lat="47.482844" lon="11.240542"><ele>936</ele></trkpt><trkpt lat="47.482882" lon="11.240335"><ele>936</ele></trkpt><trkpt lat="47.483113" lon="11.239384"><ele>936.3</ele></trkpt><trkpt lat="47.4833" lon="11.238737"><ele>935</ele></trkpt><trkpt lat="47.483466" lon="11.238094"><ele>933</ele></trkpt><trkpt lat="47.483821" lon="11.237889"><ele>943</ele></trkpt><trkpt lat="47.484026" lon="11.237814"><ele>944.1</ele></trkpt><trkpt lat="47.484177" lon="11.238013"><ele>945.3</ele></trkpt><trkpt lat="47.484449" lon="11.238102"><ele>945</ele></trkpt><trkpt lat="47.484805" lon="11.237784"><ele>946.2</ele></trkpt><trkpt lat="47.485161" lon="11.23778"><ele>960</ele></trkpt><trkpt lat="47.48545" lon="11.237538"><ele>961.8</ele></trkpt><trkpt lat="47.485575" lon="11.23747"><ele>962</ele></trkpt><trkpt lat="47.485628" lon="11.237442"><ele>962.2</ele></trkpt><trkpt lat="47.485834" lon="11.237552"><ele>962</ele></trkpt><trkpt lat="47.486417" lon="11.238268"><ele>962.7</ele></trkpt><trkpt lat="47.486668" lon="11.239083"><ele>960.2</ele></trkpt><trkpt lat="47.486876" lon="11.239204"><ele>959.9</ele></trkpt><trkpt lat="47.487144" lon="11.239288"><ele>958.2</ele></trkpt><trkpt lat="47.487345" lon="11.239427"><ele>957.3</ele></trkpt><trkpt lat="47.487572" lon="11.239464"><ele>956.3</ele></trkpt><trkpt lat="47.487769" lon="11.239474"><ele>956.3</ele></trkpt><trkpt lat="47.487927" lon="11.239409"><ele>956.4</ele></trkpt><trkpt lat="47.488295" lon="11.239325"><ele>955.7</ele></trkpt><trkpt lat="47.488392" lon="11.239369"><ele>946</ele></trkpt><trkpt lat="47.488548" lon="11.239431"><ele>943.9</ele></trkpt><trkpt lat="47.488769" lon="11.239581"><ele>942</ele></trkpt><trkpt lat="47.48893" lon="11.239581"><ele>941.6</ele></trkpt><trkpt lat="47.489165" lon="11.239664"><ele>940.2</ele></trkpt><trkpt lat="47.489451" lon="11.239889"><ele>939.1</ele></trkpt><trkpt lat="47.489647" lon="11.240128"><ele>938.4</ele></trkpt><trkpt lat="47.489921" lon="11.240605"><ele>937</ele></trkpt><trkpt lat="47.49004" lon="11.24088"><ele>934.4</ele></trkpt><trkpt lat="47.490128" lon="11.241297"><ele>928.1</ele></trkpt><trkpt lat="47.49039" lon="11.242003"><ele>922.9</ele></trkpt><trkpt lat="47.490514" lon="11.24218"><ele>921</ele></trkpt><trkpt lat="47.490689" lon="11.24223"><ele>920</ele></trkpt><trkpt lat="47.490839" lon="11.242242"><ele>917.5</ele></trkpt><trkpt lat="47.491287" lon="11.242118"><ele>916.9</ele></trkpt><trkpt lat="47.491412" lon="11.242006"><ele>916.8</ele></trkpt><trkpt lat="47.491636" lon="11.241726"><ele>912</ele></trkpt><trkpt lat="47.491613" lon="11.241871"><ele>912</ele></trkpt><trkpt lat="47.491618" lon="11.241956"><ele>912</ele></trkpt><trkpt lat="47.491662" lon="11.242126"><ele>912</ele></trkpt><trkpt lat="47.491673" lon="11.242189"><ele>914.3</ele></trkpt><trkpt lat="47.491803" lon="11.242471"><ele>915.1</ele></trkpt><trkpt lat="47.491988" lon="11.243008"><ele>914.8</ele></trkpt><trkpt lat="47.492614" lon="11.243858"><ele>913.2</ele></trkpt><trkpt lat="47.49288" lon="11.244842"><ele>912.9</ele></trkpt><trkpt lat="47.492912" lon="11.245034"><ele>912.6</ele></trkpt><trkpt lat="47.493" lon="11.245392"><ele>913.1</ele></trkpt><trkpt lat="47.493062" lon="11.24554"><ele>913.6</ele></trkpt><trkpt lat="47.493336" lon="11.245998"><ele>914</ele></trkpt><trkpt lat="47.493443" lon="11.246228"><ele>913.7</ele></trkpt><trkpt lat="47.493714" lon="11.247083"><ele>913.3</ele></trkpt><trkpt lat="47.493838" lon="11.247383"><ele>913</ele></trkpt><trkpt lat="47.493826" lon="11.247429"><ele>913.7</ele></trkpt><trkpt lat="47.493612" lon="11.247719"><ele>915</ele></trkpt><trkpt lat="47.493669" lon="11.247794"><ele>915</ele></trkpt><trkpt lat="47.49376" lon="11.247931"><ele>915</ele></trkpt><trkpt lat="47.493855" lon="11.248075"><ele>915</ele></trkpt><trkpt lat="47.493937" lon="11.248131"><ele>915</ele></trkpt><trkpt lat="47.493991" lon="11.248184"><ele>914</ele></trkpt><trkpt lat="47.494086" lon="11.248332"><ele>913.8</ele></trkpt><trkpt lat="47.49419" lon="11.248554"><ele>913.4</ele></trkpt><trkpt lat="47.49448" lon="11.24917"><ele>913</ele></trkpt><trkpt lat="47.494859" lon="11.249456"><ele>910.2</ele></trkpt><trkpt lat="47.494993" lon="11.249504"><ele>909.8</ele></trkpt><trkpt lat="47.495175" lon="11.249896"><ele>909.3</ele></trkpt><trkpt lat="47.495257" lon="11.250018"><ele>902</ele></trkpt><trkpt lat="47.495267" lon="11.250035"><ele>902</ele></trkpt><trkpt lat="47.495384" lon="11.250512"><ele>900</ele></trkpt><trkpt lat="47.49539" lon="11.250839"><ele>896</ele></trkpt><trkpt lat="47.495401" lon="11.250946"><ele>899.1</ele></trkpt><trkpt lat="47.495455" lon="11.251185"><ele>898.9</ele></trkpt><trkpt lat="47.495539" lon="11.251321"><ele>898.6</ele></trkpt><trkpt lat="47.495647" lon="11.251453"><ele>898.4</ele></trkpt><trkpt lat="47.495899" lon="11.251665"><ele>898.7</ele></trkpt><trkpt lat="47.495996" lon="11.251918"><ele>899.6</ele></trkpt><trkpt lat="47.496046" lon="11.25214"><ele>900</ele></trkpt><trkpt lat="47.496116" lon="11.252347"><ele>905</ele></trkpt><trkpt lat="47.496112" lon="11.252803"><ele>900</ele></trkpt><trkpt lat="47.496146" lon="11.253085"><ele>900</ele></trkpt><trkpt lat="47.495934" lon="11.253306"><ele>900</ele></trkpt><trkpt lat="47.49575" lon="11.253493"><ele>894</ele></trkpt><trkpt lat="47.495697" lon="11.253556"><ele>894</ele></trkpt><trkpt lat="47.495744" lon="11.254"><ele>893.6</ele></trkpt><trkpt lat="47.495893" lon="11.254631"><ele>893.8</ele></trkpt><trkpt lat="47.495897" lon="11.254826"><ele>894</ele></trkpt><trkpt lat="47.495798" lon="11.255512"><ele>892</ele></trkpt><trkpt lat="47.495762" lon="11.255819"><ele>892</ele></trkpt><trkpt lat="47.495787" lon="11.256133"><ele>893</ele></trkpt><trkpt lat="47.495974" lon="11.256826"><ele>894</ele></trkpt><trkpt lat="47.496098" lon="11.257276"><ele>894.7</ele></trkpt><trkpt lat="47.496167" lon="11.257673"><ele>894.8</ele></trkpt><trkpt lat="47.49628" lon="11.258045"><ele>894.7</ele></trkpt><trkpt lat="47.496378" lon="11.258245"><ele>895</ele></trkpt><trkpt lat="47.496396" lon="11.258308"><ele>895</ele></trkpt><trkpt lat="47.496434" lon="11.258357"><ele>892</ele></trkpt><trkpt lat="47.497166" lon="11.259334"><ele>890</ele></trkpt><trkpt lat="47.49742" lon="11.259706"><ele>890.5</ele></trkpt><trkpt lat="47.498184" lon="11.260748"><ele>890.4</ele></trkpt><trkpt lat="47.498454" lon="11.261125"><ele>890.1</ele></trkpt><trkpt lat="47.498611" lon="11.261379"><ele>890</ele></trkpt><trkpt lat="47.498632" lon="11.261414"><ele>891</ele></trkpt><trkpt lat="47.498611" lon="11.261379"><ele>890</ele></trkpt><trkpt lat="47.498687" lon="11.261324"><ele>889.8</ele></trkpt><trkpt lat="47.49904" lon="11.261196"><ele>889.7</ele></trkpt><trkpt lat="47.499294" lon="11.261072"><ele>889.1</ele></trkpt><trkpt lat="47.499651" lon="11.260851"><ele>888.7</ele></trkpt><trkpt lat="47.499943" lon="11.260723"><ele>888.3</ele></trkpt><trkpt lat="47.500584" lon="11.260805"><ele>887.6</ele></trkpt><trkpt lat="47.500979" lon="11.26083"><ele>886.8</ele></trkpt><trkpt lat="47.501213" lon="11.260771"><ele>886.5</ele></trkpt><trkpt lat="47.501435" lon="11.260613"><ele>886.6</ele></trkpt><trkpt lat="47.501602" lon="11.260462"><ele>886.6</ele></trkpt><trkpt lat="47.501802" lon="11.260349"><ele>886.5</ele></trkpt><trkpt lat="47.502199" lon="11.260333"><ele>887.2</ele></trkpt><trkpt lat="47.502491" lon="11.260485"><ele>887.5</ele></trkpt><trkpt lat="47.503058" lon="11.261096"><ele>887.9</ele></trkpt><trkpt lat="47.503131" lon="11.26167"><ele>887.8</ele></trkpt><trkpt lat="47.503124" lon="11.261987"><ele>888</ele></trkpt><trkpt lat="47.50323" lon="11.261886"><ele>888</ele></trkpt><trkpt lat="47.503311" lon="11.261825"><ele>888</ele></trkpt><trkpt lat="47.503398" lon="11.261938"><ele>886.7</ele></trkpt><trkpt lat="47.504471" lon="11.263673"><ele>884.2</ele></trkpt><trkpt lat="47.50501" lon="11.264698"><ele>884</ele></trkpt><trkpt lat="47.505152" lon="11.264893"><ele>884</ele></trkpt><trkpt lat="47.50537" lon="11.265109"><ele>884</ele></trkpt><trkpt lat="47.505838" lon="11.265564"><ele>885</ele></trkpt><trkpt lat="47.506099" lon="11.265855"><ele>885</ele></trkpt><trkpt lat="47.506799" lon="11.2668"><ele>885</ele></trkpt><trkpt lat="47.507036" lon="11.267122"><ele>884.3</ele></trkpt><trkpt lat="47.507882" lon="11.268"><ele>884</ele></trkpt><trkpt lat="47.508185" lon="11.268306"><ele>884</ele></trkpt><trkpt lat="47.507427" lon="11.27016"><ele>878</ele></trkpt><trkpt lat="47.507158" lon="11.270817"><ele>878</ele></trkpt><trkpt lat="47.506661" lon="11.271995"><ele>876.7</ele></trkpt><trkpt lat="47.506505" lon="11.272535"><ele>876</ele></trkpt><trkpt lat="47.506418" lon="11.272908"><ele>876</ele></trkpt><trkpt lat="47.506389" lon="11.273032"><ele>876</ele></trkpt><trkpt lat="47.5062" lon="11.273897"><ele>875.8</ele></trkpt><trkpt lat="47.506108" lon="11.274684"><ele>875.7</ele></trkpt><trkpt lat="47.505998" lon="11.275326"><ele>875.8</ele></trkpt><trkpt lat="47.505819" lon="11.275855"><ele>873</ele></trkpt><trkpt lat="47.505763" lon="11.275985"><ele>873.3</ele></trkpt><trkpt lat="47.505749" lon="11.276143"><ele>873.3</ele></trkpt><trkpt lat="47.505765" lon="11.276282"><ele>873.3</ele></trkpt><trkpt lat="47.505901" lon="11.276768"><ele>874</ele></trkpt><trkpt lat="47.505933" lon="11.276912"><ele>874</ele></trkpt><trkpt lat="47.50594" lon="11.277098"><ele>874</ele></trkpt><trkpt lat="47.505912" lon="11.277322"><ele>874</ele></trkpt><trkpt lat="47.505814" lon="11.27775"><ele>875</ele></trkpt><trkpt lat="47.505707" lon="11.278402"><ele>876</ele></trkpt><trkpt lat="47.505732" lon="11.278397"><ele>876</ele></trkpt><trkpt lat="47.505771" lon="11.278385"><ele>875.7</ele></trkpt></trkseg></trk></gpx>