<gpx xmlns="http://www.topografix.com/GPX/1/1" xmlns:xsi="http://www.w3.org/2001/XMLSchema-instance" xsi:schemaLocation="http://www.topografix.com/GPX/1/1 http://www.topografix.com/GPX/1/1/gpx.xsd" version="1.1" creator="togpx"><metadata/><wpt lat="47.59641844007447" lon="11.080232262611275"><name></name><desc>label=Aufackerstraße, Oberammergau,BY,Germany</desc></wpt><wpt lat="47.584964221195136" lon="11.10049366950989"><name></name><desc>label=Schartenkopfweg, Oberammergau,BY,Germany</desc></wpt><wpt lat="47.58561550742145" lon="11.10998868942261"><name></name><desc>label=Soilasee, Oberammergau,BY,Germany</desc></wpt><wpt lat="47.59121623446196" lon="11.115245819091797"><name></name><desc>label=Klettersteig Ettaler Mandl, Oberammergau,BY,Germany</desc></wpt><wpt lat="47.599608966775996" lon="11.117069721221926"><name></name><desc>label=Kaspar-Schisler-Weg, Schwaigen,BY,Germany</desc></wpt><wpt lat="47.59887103912017" lon="11.11344337463379"><name></name><desc>label=Laine, Oberammergau,BY,Germany</desc></wpt><wpt lat="47.59600604487383" lon="11.08173966407776"><name></name><desc>label=Am Anger, Oberammergau,BY,Germany</desc></wpt><wpt lat="47.59722151613761" lon="11.079046726226807"><name></name><desc>label=Ludwig-Lang-Straße 33, Oberammergau,BY,Germany</desc></wpt><wpt lat="47.598733580857875" lon="11.065689325332643"><name></name><desc>label=Sankt-Lukas-Straße, Oberammergau,BY,Germany</desc></wpt><wpt lat="47.59970120700119" lon="11.056969463825226"><name></name><desc>label=Rottenbucher Straße, Oberammergau,BY,Germany</desc></wpt><trk><name></name><desc>ascent=953.5
descent=994.7
opacity=0.9</desc><trkseg><trkpt lat="47.596415" lon="11.080233"><ele>876</ele></trkpt><trkpt lat="47.596412" lon="11.080199"><ele>876</ele></trkpt><trkpt lat="47.596137" lon="11.080317"><ele>876</ele></trkpt><trkpt lat="47.595995" lon="11.080348"><ele>876</ele></trkpt><trkpt lat="47.59589" lon="11.08053"><ele>876</ele></trkpt><trkpt lat="47.595868" lon="11.080615"><ele>876</ele></trkpt><trkpt lat="47.595924" lon="11.081088"><ele>878.5</ele></trkpt><trkpt lat="47.595944" lon="11.081432"><ele>886</ele></trkpt><trkpt lat="47.596029" lon="11.081972"><ele>886</ele></trkpt><trkpt lat="47.596062" lon="11.082135"><ele>886</ele></trkpt><trkpt lat="47.596098" lon="11.082386"><ele>886</ele></trkpt><trkpt lat="47.596107" lon="11.082435"><ele>886</ele></trkpt><trkpt lat="47.596142" lon="11.082615"><ele>886</ele></trkpt><trkpt lat="47.59609" lon="11.082823"><ele>886.3</ele></trkpt><trkpt lat="47.596029" lon="11.08288"><ele>886.2</ele></trkpt><trkpt lat="47.595482" lon="11.083077"><ele>887</ele></trkpt><trkpt lat="47.595413" lon="11.083163"><ele>887</ele></trkpt><trkpt lat="47.595352" lon="11.083481"><ele>897.7</ele></trkpt><trkpt lat="47.595368" lon="11.083618"><ele>903</ele></trkpt><trkpt lat="47.595355" lon="11.083733"><ele>903</ele></trkpt><trkpt lat="47.595409" lon="11.084039"><ele>903</ele></trkpt><trkpt lat="47.595333" lon="11.084296"><ele>905.5</ele></trkpt><trkpt lat="47.595226" lon="11.084456"><ele>905.2</ele></trkpt><trkpt lat="47.595088" lon="11.08459"><ele>906.2</ele></trkpt><trkpt lat="47.594753" lon="11.084724"><ele>906.9</ele></trkpt><trkpt lat="47.594457" lon="11.084799"><ele>908.3</ele></trkpt><trkpt lat="47.593884" lon="11.084824"><ele>916.3</ele></trkpt><trkpt lat="47.593537" lon="11.085063"><ele>919.2</ele></trkpt><trkpt lat="47.593288" lon="11.085288"><ele>926.2</ele></trkpt><trkpt lat="47.592871" lon="11.085906"><ele>952</ele></trkpt><trkpt lat="47.592729" lon="11.08619"><ele>952</ele></trkpt><trkpt lat="47.592686" lon="11.086382"><ele>952</ele></trkpt><trkpt lat="47.592701" lon="11.086554"><ele>952</ele></trkpt><trkpt lat="47.592741" lon="11.086693"><ele>952</ele></trkpt><trkpt lat="47.592825" lon="11.086839"><ele>952</ele></trkpt><trkpt lat="47.593023" lon="11.087049"><ele>952</ele></trkpt><trkpt lat="47.593099" lon="11.087081"><ele>952</ele></trkpt><trkpt lat="47.593285" lon="11.087158"><ele>977.6</ele></trkpt><trkpt lat="47.593391" lon="11.087241"><ele>976.9</ele></trkpt><trkpt lat="47.593627" lon="11.087667"><ele>983.4</ele></trkpt><trkpt lat="47.59377" lon="11.08781"><ele>984.6</ele></trkpt><trkpt lat="47.594254" lon="11.087832"><ele>986.7</ele></trkpt><trkpt lat="47.59456" lon="11.087811"><ele>991.7</ele></trkpt><trkpt lat="47.594681" lon="11.087824"><ele>995.3</ele></trkpt><trkpt lat="47.594775" lon="11.087868"><ele>999.2</ele></trkpt><trkpt lat="47.594858" lon="11.087953"><ele>999.2</ele></trkpt><trkpt lat="47.595544" lon="11.089065"><ele>1000.2</ele></trkpt><trkpt lat="47.595879" lon="11.089938"><ele>1001.4</ele></trkpt><trkpt lat="47.596017" lon="11.090249"><ele>1001.6</ele></trkpt><trkpt lat="47.596092" lon="11.090841"><ele>1004.9</ele></trkpt><trkpt lat="47.596003" lon="11.092227"><ele>1010.8</ele></trkpt><trkpt lat="47.596022" lon="11.092702"><ele>1026</ele></trkpt><trkpt lat="47.595616" lon="11.092969"><ele>1064.2</ele></trkpt><trkpt lat="47.595326" lon="11.09296"><ele>1064.2</ele></trkpt><trkpt lat="47.595259" lon="11.092943"><ele>1064.2</ele></trkpt><trkpt lat="47.595112" lon="11.092781"><ele>1064.4</ele></trkpt><trkpt lat="47.595011" lon="11.092596"><ele>1064.4</ele></trkpt><trkpt lat="47.594914" lon="11.092509"><ele>1064.4</ele></trkpt><trkpt lat="47.594798" lon="11.092483"><ele>1064.3</ele></trkpt><trkpt lat="47.594685" lon="11.092512"><ele>1064.1</ele></trkpt><trkpt lat="47.594553" lon="11.092499"><ele>1065.9</ele></trkpt><trkpt lat="47.594346" lon="11.092596"><ele>1066</ele></trkpt><trkpt lat="47.59424" lon="11.092773"><ele>1066</ele></trkpt><trkpt lat="47.594107" lon="11.092918"><ele>1066</ele></trkpt><trkpt lat="47.593962" lon="11.09298"><ele>1066</ele></trkpt><trkpt lat="47.593872" lon="11.092967"><ele>1066</ele></trkpt><trkpt lat="47.593878" lon="11.093009"><ele>1065.8</ele></trkpt><trkpt lat="47.593699" lon="11.093154"><ele>1068</ele></trkpt><trkpt lat="47.593604" lon="11.093231"><ele>1155.9</ele></trkpt><trkpt lat="47.593437" lon="11.093254"><ele>1157.7</ele></trkpt><trkpt lat="47.593385" lon="11.093389"><ele>1161.6</ele></trkpt><trkpt lat="47.593301" lon="11.09346"><ele>1163.4</ele></trkpt><trkpt lat="47.593172" lon="11.093522"><ele>1166.1</ele></trkpt><trkpt lat="47.593111" lon="11.093686"><ele>1168.9</ele></trkpt><trkpt lat="47.593108" lon="11.093883"><ele>1168.9</ele></trkpt><trkpt lat="47.59313" lon="11.093993"><ele>1168.7</ele></trkpt><trkpt lat="47.593185" lon="11.094047"><ele>1168.5</ele></trkpt><trkpt lat="47.593137" lon="11.094157"><ele>1168.7</ele></trkpt><trkpt lat="47.593166" lon="11.094325"><ele>1168.5</ele></trkpt><trkpt lat="47.593114" lon="11.094425"><ele>1168.3</ele></trkpt><trkpt lat="47.593122" lon="11.094626"><ele>1168.3</ele></trkpt><trkpt lat="47.593101" lon="11.094716"><ele>1168.1</ele></trkpt><trkpt lat="47.593072" lon="11.094756"><ele>1168.1</ele></trkpt><trkpt lat="47.592991" lon="11.09466"><ele>1167.9</ele></trkpt><trkpt lat="47.592874" lon="11.094826"><ele>1173.2</ele></trkpt><trkpt lat="47.592826" lon="11.094862"><ele>1174.4</ele></trkpt><trkpt lat="47.592752" lon="11.09504"><ele>1176.6</ele></trkpt><trkpt lat="47.592708" lon="11.094892"><ele>1176.1</ele></trkpt><trkpt lat="47.592626" lon="11.095033"><ele>1177.8</ele></trkpt><trkpt lat="47.592589" lon="11.095181"><ele>1179.8</ele></trkpt><trkpt lat="47.592594" lon="11.095301"><ele>1179.9</ele></trkpt><trkpt lat="47.592386" lon="11.09523"><ele>1182.6</ele></trkpt><trkpt lat="47.592321" lon="11.095079"><ele>1182.8</ele></trkpt><trkpt lat="47.592171" lon="11.095008"><ele>1183</ele></trkpt><trkpt lat="47.592248" lon="11.095134"><ele>1183.2</ele></trkpt><trkpt lat="47.59222" lon="11.095344"><ele>1185.8</ele></trkpt><trkpt lat="47.59214" lon="11.095362"><ele>1189.7</ele></trkpt><trkpt lat="47.592047" lon="11.095285"><ele>1190.1</ele></trkpt><trkpt lat="47.591995" lon="11.095288"><ele>1191.9</ele></trkpt><trkpt lat="47.591893" lon="11.095619"><ele>1198.7</ele></trkpt><trkpt lat="47.591854" lon="11.096071"><ele>1201.2</ele></trkpt><trkpt lat="47.591801" lon="11.096141"><ele>1201.7</ele></trkpt><trkpt lat="47.591737" lon="11.096163"><ele>1202.1</ele></trkpt><trkpt lat="47.591637" lon="11.096319"><ele>1203.7</ele></trkpt><trkpt lat="47.591571" lon="11.096361"><ele>1204.2</ele></trkpt><trkpt lat="47.591457" lon="11.096593"><ele>1205.9</ele></trkpt><trkpt lat="47.591296" lon="11.09684"><ele>1207</ele></trkpt><trkpt lat="47.59127" lon="11.097001"><ele>1255</ele></trkpt><trkpt lat="47.591345" lon="11.097077"><ele>1260.8</ele></trkpt><trkpt lat="47.591552" lon="11.097032"><ele>1254.7</ele></trkpt><trkpt lat="47.59169" lon="11.096967"><ele>1256.4</ele></trkpt><trkpt lat="47.591878" lon="11.096936"><ele>1250.8</ele></trkpt><trkpt lat="47.591817" lon="11.097007"><ele>1256.2</ele></trkpt><trkpt lat="47.591883" lon="11.09704"><ele>1258</ele></trkpt><trkpt lat="47.591893" lon="11.097069"><ele>1260</ele></trkpt><trkpt lat="47.591856" lon="11.097087"><ele>1265.1</ele></trkpt><trkpt lat="47.591872" lon="11.097121"><ele>1267.2</ele></trkpt><trkpt lat="47.591837" lon="11.097201"><ele>1269.5</ele></trkpt><trkpt lat="47.591824" lon="11.097348"><ele>1276.7</ele></trkpt><trkpt lat="47.591763" lon="11.097518"><ele>1281.3</ele></trkpt><trkpt lat="47.591737" lon="11.097664"><ele>1283.8</ele></trkpt><trkpt lat="47.591732" lon="11.097847"><ele>1288.1</ele></trkpt><trkpt lat="47.591599" lon="11.098106"><ele>1289.8</ele></trkpt><trkpt lat="47.591557" lon="11.098287"><ele>1294.1</ele></trkpt><trkpt lat="47.591371" lon="11.098546"><ele>1298.2</ele></trkpt><trkpt lat="47.591447" lon="11.09869"><ele>1300.7</ele></trkpt><trkpt lat="47.591363" lon="11.098815"><ele>1312.2</ele></trkpt><trkpt lat="47.591266" lon="11.09903"><ele>1329.4</ele></trkpt><trkpt lat="47.5913" lon="11.099045"><ele>1325.4</ele></trkpt><trkpt lat="47.591219" lon="11.099281"><ele>1331.6</ele></trkpt><trkpt lat="47.59113" lon="11.099474"><ele>1337.1</ele></trkpt><trkpt lat="47.591029" lon="11.099802"><ele>1353.5</ele></trkpt><trkpt lat="47.590953" lon="11.099942"><ele>1360.8</ele></trkpt><trkpt lat="47.590849" lon="11.100239"><ele>1364.3</ele></trkpt><trkpt lat="47.590828" lon="11.100416"><ele>1365.6</ele></trkpt><trkpt lat="47.590745" lon="11.100453"><ele>1367.1</ele></trkpt><trkpt lat="47.590461" lon="11.101248"><ele>1383.6</ele></trkpt><trkpt lat="47.590461" lon="11.101344"><ele>1381.5</ele></trkpt><trkpt lat="47.590415" lon="11.101527"><ele>1379.3</ele></trkpt><trkpt lat="47.590402" lon="11.101751"><ele>1379.2</ele></trkpt><trkpt lat="47.590348" lon="11.101818"><ele>1406</ele></trkpt><trkpt lat="47.59012" lon="11.101403"><ele>1421</ele></trkpt><trkpt lat="47.590084" lon="11.101838"><ele>1422.2</ele></trkpt><trkpt lat="47.590016" lon="11.102062"><ele>1423.6</ele></trkpt><trkpt lat="47.589761" lon="11.10168"><ele>1430.8</ele></trkpt><trkpt lat="47.589683" lon="11.1017"><ele>1432.6</ele></trkpt><trkpt lat="47.589438" lon="11.101348"><ele>1440</ele></trkpt><trkpt lat="47.589506" lon="11.101229"><ele>1438.5</ele></trkpt><trkpt lat="47.589277" lon="11.101114"><ele>1441.9</ele></trkpt><trkpt lat="47.588699" lon="11.100911"><ele>1446.8</ele></trkpt><trkpt lat="47.588636" lon="11.100723"><ele>1445.7</ele></trkpt><trkpt lat="47.588353" lon="11.100334"><ele>1446</ele></trkpt><trkpt lat="47.588225" lon="11.100192"><ele>1445.7</ele></trkpt><trkpt lat="47.588089" lon="11.100093"><ele>1444.2</ele></trkpt><trkpt lat="47.588079" lon="11.099916"><ele>1442.1</ele></trkpt><trkpt lat="47.587876" lon="11.099703"><ele>1396</ele></trkpt><trkpt lat="47.587668" lon="11.099557"><ele>1472.1</ele></trkpt><trkpt lat="47.587496" lon="11.099328"><ele>1485.8</ele></trkpt><trkpt lat="47.587407" lon="11.099088"><ele>1498.3</ele></trkpt><trkpt lat="47.587241" lon="11.098901"><ele>1507.6</ele></trkpt><trkpt lat="47.587058" lon="11.098766"><ele>1500.3</ele></trkpt><trkpt lat="47.586824" lon="11.098656"><ele>1497.6</ele></trkpt><trkpt lat="47.586741" lon="11.09849"><ele>1498.8</ele></trkpt><trkpt lat="47.586759" lon="11.098318"><ele>1496</ele></trkpt><trkpt lat="47.586454" lon="11.097824"><ele>1487.7</ele></trkpt><trkpt lat="47.586213" lon="11.0976"><ele>1504.7</ele></trkpt><trkpt lat="47.585823" lon="11.09729"><ele>1527</ele></trkpt><trkpt lat="47.585386" lon="11.097043"><ele>1543.2</ele></trkpt><trkpt lat="47.585231" lon="11.09679"><ele>1552.9</ele></trkpt><trkpt lat="47.585099" lon="11.096779"><ele>1552.3</ele></trkpt><trkpt lat="47.585054" lon="11.096884"><ele>1551.7</ele></trkpt><trkpt lat="47.585009" lon="11.096913"><ele>1551</ele></trkpt><trkpt lat="47.584943" lon="11.096907"><ele>1552.4</ele></trkpt><trkpt lat="47.584909" lon="11.096858"><ele>1551.8</ele></trkpt><trkpt lat="47.584872" lon="11.09673"><ele>1549.5</ele></trkpt><trkpt lat="47.584691" lon="11.096417"><ele>1548</ele></trkpt><trkpt lat="47.584597" lon="11.09609"><ele>1547.8</ele></trkpt><trkpt lat="47.584375" lon="11.095533"><ele>1541.5</ele></trkpt><trkpt lat="47.584266" lon="11.095194"><ele>1540.2</ele></trkpt><trkpt lat="47.58419" lon="11.094666"><ele>1538.6</ele></trkpt><trkpt lat="47.584084" lon="11.094373"><ele>1538.3</ele></trkpt><trkpt lat="47.584019" lon="11.094091"><ele>1538</ele></trkpt><trkpt lat="47.58392" lon="11.09405"><ele>1537.6</ele></trkpt><trkpt lat="47.583811" lon="11.094054"><ele>1537.6</ele></trkpt><trkpt lat="47.583847" lon="11.094304"><ele>1538.1</ele></trkpt><trkpt lat="47.583844" lon="11.094594"><ele>1538.5</ele></trkpt><trkpt lat="47.583743" lon="11.094488"><ele>1538.2</ele></trkpt><trkpt lat="47.583701" lon="11.094476"><ele>1538.2</ele></trkpt><trkpt lat="47.583696" lon="11.094582"><ele>1538.3</ele></trkpt><trkpt lat="47.583625" lon="11.094485"><ele>1538.3</ele></trkpt><trkpt lat="47.583654" lon="11.094715"><ele>1538.8</ele></trkpt><trkpt lat="47.583693" lon="11.094838"><ele>1538.8</ele></trkpt><trkpt lat="47.583647" lon="11.09481"><ele>1538.9</ele></trkpt><trkpt lat="47.583643" lon="11.094941"><ele>1539</ele></trkpt><trkpt lat="47.583605" lon="11.094915"><ele>1539.1</ele></trkpt><trkpt lat="47.583574" lon="11.094933"><ele>1539.2</ele></trkpt><trkpt lat="47.583534" lon="11.094852"><ele>1538.9</ele></trkpt><trkpt lat="47.583464" lon="11.094773"><ele>1537</ele></trkpt><trkpt lat="47.583467" lon="11.095032"><ele>1546.6</ele></trkpt><trkpt lat="47.583528" lon="11.095179"><ele>1547.6</ele></trkpt><trkpt lat="47.583505" lon="11.095271"><ele>1548.5</ele></trkpt><trkpt lat="47.583528" lon="11.095576"><ele>1549.4</ele></trkpt><trkpt lat="47.58346" lon="11.09588"><ele>1554.6</ele></trkpt><trkpt lat="47.583322" lon="11.095407"><ele>1549.7</ele></trkpt><trkpt lat="47.583304" lon="11.095385"><ele>1549.7</ele></trkpt><trkpt lat="47.583265" lon="11.095448"><ele>1550.6</ele></trkpt><trkpt lat="47.583232" lon="11.09536"><ele>1550.7</ele></trkpt><trkpt lat="47.583207" lon="11.09546"><ele>1551.6</ele></trkpt><trkpt lat="47.583186" lon="11.095461"><ele>1552.2</ele></trkpt><trkpt lat="47.583202" lon="11.095878"><ele>1558.9</ele></trkpt><trkpt lat="47.583292" lon="11.09599"><ele>1560.6</ele></trkpt><trkpt lat="47.583309" lon="11.096052"><ele>1562.2</ele></trkpt><trkpt lat="47.583287" lon="11.096176"><ele>1563.8</ele></trkpt><trkpt lat="47.583244" lon="11.096274"><ele>1563.9</ele></trkpt><trkpt lat="47.583254" lon="11.096435"><ele>1565.4</ele></trkpt><trkpt lat="47.583269" lon="11.096587"><ele>1566.9</ele></trkpt><trkpt lat="47.583376" lon="11.097113"><ele>1572.1</ele></trkpt><trkpt lat="47.583371" lon="11.09723"><ele>1573.1</ele></trkpt><trkpt lat="47.583276" lon="11.097397"><ele>1583.1</ele></trkpt><trkpt lat="47.583219" lon="11.097554"><ele>1586.6</ele></trkpt><trkpt lat="47.583238" lon="11.097717"><ele>1589.1</ele></trkpt><trkpt lat="47.583298" lon="11.097795"><ele>1591.3</ele></trkpt><trkpt lat="47.583327" lon="11.097807"><ele>1590.3</ele></trkpt><trkpt lat="47.583341" lon="11.097973"><ele>1591.6</ele></trkpt><trkpt lat="47.583519" lon="11.097971"><ele>1592.9</ele></trkpt><trkpt lat="47.583573" lon="11.098129"><ele>1594.6</ele></trkpt><trkpt lat="47.583685" lon="11.098315"><ele>1598.6</ele></trkpt><trkpt lat="47.583678" lon="11.098425"><ele>1599.6</ele></trkpt><trkpt lat="47.583783" lon="11.098714"><ele>1599.8</ele></trkpt><trkpt lat="47.583868" lon="11.098801"><ele>1600</ele></trkpt><trkpt lat="47.583909" lon="11.099073"><ele>1600.6</ele></trkpt><trkpt lat="47.584012" lon="11.099459"><ele>1600.8</ele></trkpt><trkpt lat="47.584028" lon="11.099585"><ele>1601</ele></trkpt><trkpt lat="47.584104" lon="11.099924"><ele>1599.9</ele></trkpt><trkpt lat="47.584127" lon="11.099944"><ele>1600.2</ele></trkpt><trkpt lat="47.58416" lon="11.099917"><ele>1600.5</ele></trkpt><trkpt lat="47.584212" lon="11.099761"><ele>1600.8</ele></trkpt><trkpt lat="47.584268" lon="11.099723"><ele>1600.3</ele></trkpt><trkpt lat="47.584301" lon="11.099834"><ele>1600</ele></trkpt><trkpt lat="47.584309" lon="11.09994"><ele>1598.7</ele></trkpt><trkpt lat="47.584348" lon="11.099989"><ele>1599</ele></trkpt><trkpt lat="47.584397" lon="11.099914"><ele>1599.2</ele></trkpt><trkpt lat="47.584417" lon="11.099739"><ele>1600.3</ele></trkpt><trkpt lat="47.58445" lon="11.099623"><ele>1599.6</ele></trkpt><trkpt lat="47.584538" lon="11.099538"><ele>1599.2</ele></trkpt><trkpt lat="47.584628" lon="11.09959"><ele>1597.9</ele></trkpt><trkpt lat="47.584657" lon="11.099712"><ele>1597.3</ele></trkpt><trkpt lat="47.584834" lon="11.100022"><ele>1594.7</ele></trkpt><trkpt lat="47.584878" lon="11.100339"><ele>1594.8</ele></trkpt><trkpt lat="47.584936" lon="11.100514"><ele>1594.5</ele></trkpt><trkpt lat="47.584945" lon="11.100541"><ele>1594.1</ele></trkpt><trkpt lat="47.585027" lon="11.100625"><ele>1595.3</ele></trkpt><trkpt lat="47.585112" lon="11.100821"><ele>1596.1</ele></trkpt><trkpt lat="47.585169" lon="11.101007"><ele>1597.2</ele></trkpt><trkpt lat="47.585349" lon="11.101212"><ele>1595.7</ele></trkpt><trkpt lat="47.585626" lon="11.101622"><ele>1599.5</ele></trkpt><trkpt lat="47.585737" lon="11.101884"><ele>1602.5</ele></trkpt><trkpt lat="47.585947" lon="11.102164"><ele>1604.5</ele></trkpt><trkpt lat="47.586015" lon="11.102422"><ele>1627</ele></trkpt><trkpt lat="47.586074" lon="11.102607"><ele>1627</ele></trkpt><trkpt lat="47.586156" lon="11.102731"><ele>1627</ele></trkpt><trkpt lat="47.586218" lon="11.102905"><ele>1627</ele></trkpt><trkpt lat="47.58615" lon="11.103369"><ele>1627</ele></trkpt><trkpt lat="47.58606" lon="11.103374"><ele>1627</ele></trkpt><trkpt lat="47.586095" lon="11.103462"><ele>1614.4</ele></trkpt><trkpt lat="47.586098" lon="11.103605"><ele>1613.1</ele></trkpt><trkpt lat="47.586304" lon="11.104685"><ele>1611.1</ele></trkpt><trkpt lat="47.586306" lon="11.104787"><ele>1611.6</ele></trkpt><trkpt lat="47.586263" lon="11.104879"><ele>1606</ele></trkpt><trkpt lat="47.586288" lon="11.104923"><ele>1600.7</ele></trkpt><trkpt lat="47.586334" lon="11.10495"><ele>1600.4</ele></trkpt><trkpt lat="47.586343" lon="11.105012"><ele>1600.1</ele></trkpt><trkpt lat="47.586336" lon="11.105064"><ele>1599.7</ele></trkpt><trkpt lat="47.586284" lon="11.105056"><ele>1599.4</ele></trkpt><trkpt lat="47.586201" lon="11.104978"><ele>1599</ele></trkpt><trkpt lat="47.586054" lon="11.104711"><ele>1598.2</ele></trkpt><trkpt lat="47.58586" lon="11.104451"><ele>1597.3</ele></trkpt><trkpt lat="47.585811" lon="11.104406"><ele>1596.8</ele></trkpt><trkpt lat="47.585736" lon="11.104415"><ele>1596.3</ele></trkpt><trkpt lat="47.585553" lon="11.104328"><ele>1595.8</ele></trkpt><trkpt lat="47.585341" lon="11.104433"><ele>1594.6</ele></trkpt><trkpt lat="47.585043" lon="11.104636"><ele>1558</ele></trkpt><trkpt lat="47.584978" lon="11.104696"><ele>1549</ele></trkpt><trkpt lat="47.584902" lon="11.104838"><ele>1547.9</ele></trkpt><trkpt lat="47.584899" lon="11.104955"><ele>1547.5</ele></trkpt><trkpt lat="47.584852" lon="11.105049"><ele>1547</ele></trkpt><trkpt lat="47.584867" lon="11.105188"><ele>1546.6</ele></trkpt><trkpt lat="47.584854" lon="11.105326"><ele>1546.1</ele></trkpt><trkpt lat="47.584752" lon="11.105222"><ele>1545.6</ele></trkpt><trkpt lat="47.584736" lon="11.105176"><ele>1545.1</ele></trkpt><trkpt lat="47.584708" lon="11.105162"><ele>1544.5</ele></trkpt><trkpt lat="47.584661" lon="11.105302"><ele>1544</ele></trkpt><trkpt lat="47.584589" lon="11.105917"><ele>1542.1</ele></trkpt><trkpt lat="47.584547" lon="11.106021"><ele>1541.5</ele></trkpt><trkpt lat="47.584532" lon="11.106112"><ele>1540.8</ele></trkpt><trkpt lat="47.584475" lon="11.10613"><ele>1541.1</ele></trkpt><trkpt lat="47.584445" lon="11.106189"><ele>1541.5</ele></trkpt><trkpt lat="47.584472" lon="11.106277"><ele>1541.9</ele></trkpt><trkpt lat="47.584516" lon="11.106302"><ele>1542.3</ele></trkpt><trkpt lat="47.584553" lon="11.106389"><ele>1542.8</ele></trkpt><trkpt lat="47.584547" lon="11.106474"><ele>1543.2</ele></trkpt><trkpt lat="47.584513" lon="11.106526"><ele>1543.1</ele></trkpt><trkpt lat="47.584496" lon="11.10674"><ele>1532</ele></trkpt><trkpt lat="47.584547" lon="11.106783"><ele>1532.7</ele></trkpt><trkpt lat="47.584594" lon="11.106729"><ele>1532.7</ele></trkpt><trkpt lat="47.584654" lon="11.106814"><ele>1532.7</ele></trkpt><trkpt lat="47.584702" lon="11.106629"><ele>1532.6</ele></trkpt><trkpt lat="47.584776" lon="11.106462"><ele>1532.3</ele></trkpt><trkpt lat="47.584871" lon="11.106434"><ele>1532.4</ele></trkpt><trkpt lat="47.584987" lon="11.106446"><ele>1532.4</ele></trkpt><trkpt lat="47.584906" lon="11.106613"><ele>1532.6</ele></trkpt><trkpt lat="47.584975" lon="11.106602"><ele>1532.6</ele></trkpt><trkpt lat="47.585044" lon="11.106564"><ele>1532.4</ele></trkpt><trkpt lat="47.584953" lon="11.106722"><ele>1532.7</ele></trkpt><trkpt lat="47.585009" lon="11.106756"><ele>1532.7</ele></trkpt><trkpt lat="47.585076" lon="11.106697"><ele>1532.7</ele></trkpt><trkpt lat="47.585197" lon="11.106724"><ele>1532.7</ele></trkpt><trkpt lat="47.585078" lon="11.106855"><ele>1533</ele></trkpt><trkpt lat="47.585017" lon="11.106996"><ele>1533.2</ele></trkpt><trkpt lat="47.585116" lon="11.10694"><ele>1533</ele></trkpt><trkpt lat="47.585202" lon="11.106921"><ele>1533.1</ele></trkpt><trkpt lat="47.585253" lon="11.106955"><ele>1533.1</ele></trkpt><trkpt lat="47.585169" lon="11.107121"><ele>1533.3</ele></trkpt><trkpt lat="47.585083" lon="11.107236"><ele>1533.4</ele></trkpt><trkpt lat="47.585064" lon="11.10738"><ele>1533.6</ele></trkpt><trkpt lat="47.584935" lon="11.107612"><ele>1535.2</ele></trkpt><trkpt lat="47.584921" lon="11.107696"><ele>1535.3</ele></trkpt><trkpt lat="47.58478" lon="11.107819"><ele>1535.3</ele></trkpt><trkpt lat="47.584677" lon="11.10815"><ele>1535.4</ele></trkpt><trkpt lat="47.584633" lon="11.108333"><ele>1535.3</ele></trkpt><trkpt lat="47.58468" lon="11.108504"><ele>1535.8</ele></trkpt><trkpt lat="47.584674" lon="11.108713"><ele>1536</ele></trkpt><trkpt lat="47.584636" lon="11.108904"><ele>1536.2</ele></trkpt><trkpt lat="47.584554" lon="11.109086"><ele>1536.3</ele></trkpt><trkpt lat="47.584569" lon="11.109269"><ele>1536.3</ele></trkpt><trkpt lat="47.584693" lon="11.109056"><ele>1536</ele></trkpt><trkpt lat="47.584698" lon="11.109409"><ele>1535.8</ele></trkpt><trkpt lat="47.584731" lon="11.109396"><ele>1535.6</ele></trkpt><trkpt lat="47.584794" lon="11.109285"><ele>1535.4</ele></trkpt><trkpt lat="47.58495" lon="11.109103"><ele>1535</ele></trkpt><trkpt lat="47.5851" lon="11.109021"><ele>1534.8</ele></trkpt><trkpt lat="47.585262" lon="11.108986"><ele>1532.5</ele></trkpt><trkpt lat="47.585253" lon="11.10917"><ele>1530.1</ele></trkpt><trkpt lat="47.585167" lon="11.10931"><ele>1529.4</ele></trkpt><trkpt lat="47.585219" lon="11.109355"><ele>1529.1</ele></trkpt><trkpt lat="47.585192" lon="11.109437"><ele>1528.7</ele></trkpt><trkpt lat="47.585283" lon="11.10998"><ele>1522.7</ele></trkpt><trkpt lat="47.585277" lon="11.110188"><ele>1520</ele></trkpt><trkpt lat="47.585393" lon="11.110069"><ele>1519.3</ele></trkpt><trkpt lat="47.585471" lon="11.110025"><ele>1519</ele></trkpt><trkpt lat="47.585616" lon="11.110012"><ele>1516.3</ele></trkpt><trkpt lat="47.585743" lon="11.110002"><ele>1513.6</ele></trkpt><trkpt lat="47.585917" lon="11.110027"><ele>1507.5</ele></trkpt><trkpt lat="47.586037" lon="11.110092"><ele>1502.9</ele></trkpt><trkpt lat="47.586216" lon="11.110296"><ele>1495.4</ele></trkpt><trkpt lat="47.58625" lon="11.110473"><ele>1492.3</ele></trkpt><trkpt lat="47.586349" lon="11.110528"><ele>1483.7</ele></trkpt><trkpt lat="47.586408" lon="11.110645"><ele>1481.9</ele></trkpt><trkpt lat="47.58669" lon="11.110948"><ele>1468.6</ele></trkpt><trkpt lat="47.58684" lon="11.111087"><ele>1469.1</ele></trkpt><trkpt lat="47.586993" lon="11.111145"><ele>1466.8</ele></trkpt><trkpt lat="47.587315" lon="11.111395"><ele>1461.8</ele></trkpt><trkpt lat="47.587395" lon="11.111483"><ele>1459.3</ele></trkpt><trkpt lat="47.587548" lon="11.111533"><ele>1457.1</ele></trkpt><trkpt lat="47.587734" lon="11.111737"><ele>1455.2</ele></trkpt><trkpt lat="47.587833" lon="11.111917"><ele>1426</ele></trkpt><trkpt lat="47.587851" lon="11.111995"><ele>1416.3</ele></trkpt><trkpt lat="47.587887" lon="11.112027"><ele>1415.2</ele></trkpt><trkpt lat="47.587978" lon="11.112008"><ele>1414.8</ele></trkpt><trkpt lat="47.588063" lon="11.111914"><ele>1413.9</ele></trkpt><trkpt lat="47.588094" lon="11.111902"><ele>1413.4</ele></trkpt><trkpt lat="47.588114" lon="11.111927"><ele>1412.9</ele></trkpt><trkpt lat="47.588128" lon="11.112019"><ele>1412.3</ele></trkpt><trkpt lat="47.58818" lon="11.112092"><ele>1411.8</ele></trkpt><trkpt lat="47.588231" lon="11.112128"><ele>1411.2</ele></trkpt><trkpt lat="47.588297" lon="11.112268"><ele>1410</ele></trkpt><trkpt lat="47.588329" lon="11.112309"><ele>1409.4</ele></trkpt><trkpt lat="47.5885" lon="11.112384"><ele>1408</ele></trkpt><trkpt lat="47.58855" lon="11.112463"><ele>1408.4</ele></trkpt><trkpt lat="47.588591" lon="11.112613"><ele>1408.7</ele></trkpt><trkpt lat="47.588637" lon="11.112693"><ele>1409</ele></trkpt><trkpt lat="47.588773" lon="11.112831"><ele>1409.4</ele></trkpt><trkpt lat="47.588889" lon="11.112855"><ele>1410.2</ele></trkpt><trkpt lat="47.589001" lon="11.112807"><ele>1410.6</ele></trkpt><trkpt lat="47.589099" lon="11.11282"><ele>1400</ele></trkpt><trkpt lat="47.589501" lon="11.112818"><ele>1391.3</ele></trkpt><trkpt lat="47.589584" lon="11.113011"><ele>1391.6</ele></trkpt><trkpt lat="47.58965" lon="11.113119"><ele>1391.7</ele></trkpt><trkpt lat="47.589707" lon="11.11333"><ele>1387.5</ele></trkpt><trkpt lat="47.589965" lon="11.113661"><ele>1387.1</ele></trkpt><trkpt lat="47.590211" lon="11.114141"><ele>1381.7</ele></trkpt><trkpt lat="47.590532" lon="11.114661"><ele>1363.4</ele></trkpt><trkpt lat="47.590998" lon="11.115061"><ele>1359.4</ele></trkpt><trkpt lat="47.591199" lon="11.11528"><ele>1357.9</ele></trkpt><trkpt lat="47.591328" lon="11.11542"><ele>1356.4</ele></trkpt><trkpt lat="47.59144" lon="11.115592"><ele>1358.4</ele></trkpt><trkpt lat="47.591547" lon="11.115857"><ele>1356.8</ele></trkpt><trkpt lat="47.591647" lon="11.115959"><ele>1351.3</ele></trkpt><trkpt lat="47.59179" lon="11.116246"><ele>1349.3</ele></trkpt><trkpt lat="47.59219" lon="11.116568"><ele>1343</ele></trkpt><trkpt lat="47.592487" lon="11.116985"><ele>1341.7</ele></trkpt><trkpt lat="47.592628" lon="11.117138"><ele>1323</ele></trkpt><trkpt lat="47.592787" lon="11.117237"><ele>1323</ele></trkpt><trkpt lat="47.592935" lon="11.117437"><ele>1323</ele></trkpt><trkpt lat="47.593452" lon="11.117452"><ele>1311.3</ele></trkpt><trkpt lat="47.593631" lon="11.117493"><ele>1309.7</ele></trkpt><trkpt lat="47.59385" lon="11.117451"><ele>1310</ele></trkpt><trkpt lat="47.594161" lon="11.117471"><ele>1310</ele></trkpt><trkpt lat="47.594637" lon="11.117351"><ele>1308.7</ele></trkpt><trkpt lat="47.595281" lon="11.117335"><ele>1307</ele></trkpt><trkpt lat="47.595461" lon="11.117351"><ele>1273</ele></trkpt><trkpt lat="47.595803" lon="11.11744"><ele>1265</ele></trkpt><trkpt lat="47.595937" lon="11.117519"><ele>1265.8</ele></trkpt><trkpt lat="47.59605" lon="11.117639"><ele>1266.5</ele></trkpt><trkpt lat="47.596208" lon="11.117861"><ele>1267.4</ele></trkpt><trkpt lat="47.596318" lon="11.118089"><ele>1268.1</ele></trkpt><trkpt lat="47.596469" lon="11.118334"><ele>1265.8</ele></trkpt><trkpt lat="47.596623" lon="11.118758"><ele>1266</ele></trkpt><trkpt lat="47.596696" lon="11.119067"><ele>1266.5</ele></trkpt><trkpt lat="47.596812" lon="11.120029"><ele>1267.6</ele></trkpt><trkpt lat="47.596863" lon="11.120349"><ele>1259.6</ele></trkpt><trkpt lat="47.596972" lon="11.120714"><ele>1252</ele></trkpt><trkpt lat="47.597044" lon="11.120833"><ele>1248.2</ele></trkpt><trkpt lat="47.597299" lon="11.121104"><ele>1239</ele></trkpt><trkpt lat="47.597672" lon="11.121361"><ele>1229.6</ele></trkpt><trkpt lat="47.597763" lon="11.121445"><ele>1227.6</ele></trkpt><trkpt lat="47.597895" lon="11.121491"><ele>1223.3</ele></trkpt><trkpt lat="47.598027" lon="11.121445"><ele>1223.8</ele></trkpt><trkpt lat="47.598186" lon="11.12133"><ele>1224.8</ele></trkpt><trkpt lat="47.598317" lon="11.121135"><ele>1224.5</ele></trkpt><trkpt lat="47.598472" lon="11.120822"><ele>1225.5</ele></trkpt><trkpt lat="47.598575" lon="11.120444"><ele>1225.1</ele></trkpt><trkpt lat="47.598729" lon="11.120185"><ele>1223.8</ele></trkpt><trkpt lat="47.599074" lon="11.119775"><ele>1222.1</ele></trkpt><trkpt lat="47.599168" lon="11.119618"><ele>1221.6</ele></trkpt><trkpt lat="47.599267" lon="11.119398"><ele>1220.7</ele></trkpt><trkpt lat="47.599321" lon="11.119151"><ele>1220.2</ele></trkpt><trkpt lat="47.599351" lon="11.118853"><ele>1219.7</ele></trkpt><trkpt lat="47.599397" lon="11.117898"><ele>1218.4</ele></trkpt><trkpt lat="47.59942" lon="11.117744"><ele>1218.5</ele></trkpt><trkpt lat="47.599461" lon="11.117623"><ele>1214</ele></trkpt><trkpt lat="47.599621" lon="11.117461"><ele>1214</ele></trkpt><trkpt lat="47.599614" lon="11.117208"><ele>1214</ele></trkpt><trkpt lat="47.59958" lon="11.117087"><ele>1214</ele></trkpt><trkpt lat="47.599451" lon="11.116628"><ele>1214</ele></trkpt><trkpt lat="47.599452" lon="11.116427"><ele>1202.9</ele></trkpt><trkpt lat="47.599359" lon="11.116195"><ele>1202.9</ele></trkpt><trkpt lat="47.599239" lon="11.115976"><ele>1197.4</ele></trkpt><trkpt lat="47.599246" lon="11.115576"><ele>1192.5</ele></trkpt><trkpt lat="47.599125" lon="11.114813"><ele>1181.3</ele></trkpt><trkpt lat="47.598883" lon="11.114236"><ele>1166.1</ele></trkpt><trkpt lat="47.598891" lon="11.113941"><ele>1164.5</ele></trkpt><trkpt lat="47.598873" lon="11.113617"><ele>1163</ele></trkpt><trkpt lat="47.598876" lon="11.113444"><ele>1163.5</ele></trkpt><trkpt lat="47.598879" lon="11.113322"><ele>1164.1</ele></trkpt><trkpt lat="47.59874" lon="11.112909"><ele>1163.1</ele></trkpt><trkpt lat="47.598769" lon="11.112719"><ele>1162.2</ele></trkpt><trkpt lat="47.598708" lon="11.112367"><ele>1152</ele></trkpt><trkpt lat="47.598338" lon="11.111128"><ele>1107.3</ele></trkpt><trkpt lat="47.598274" lon="11.110679"><ele>1104.9</ele></trkpt><trkpt lat="47.598196" lon="11.109932"><ele>1095.3</ele></trkpt><trkpt lat="47.598013" lon="11.108911"><ele>1100.3</ele></trkpt><trkpt lat="47.597866" lon="11.10859"><ele>1101.8</ele></trkpt><trkpt lat="47.597593" lon="11.107467"><ele>1112</ele></trkpt><trkpt lat="47.597643" lon="11.106604"><ele>1116.5</ele></trkpt><trkpt lat="47.597658" lon="11.106473"><ele>1115.9</ele></trkpt><trkpt lat="47.597742" lon="11.106109"><ele>1115.2</ele></trkpt><trkpt lat="47.597773" lon="11.105865"><ele>1118</ele></trkpt><trkpt lat="47.597805" lon="11.105616"><ele>1092</ele></trkpt><trkpt lat="47.597782" lon="11.105376"><ele>1102</ele></trkpt><trkpt lat="47.597608" lon="11.104402"><ele>1110.2</ele></trkpt><trkpt lat="47.59743" lon="11.103637"><ele>1113</ele></trkpt><trkpt lat="47.597158" lon="11.102517"><ele>1105</ele></trkpt><trkpt lat="47.597085" lon="11.102109"><ele>1103.4</ele></trkpt><trkpt lat="47.596958" lon="11.101603"><ele>1089.4</ele></trkpt><trkpt lat="47.596844" lon="11.100635"><ele>1086.3</ele></trkpt><trkpt lat="47.596768" lon="11.099733"><ele>1077.7</ele></trkpt><trkpt lat="47.596739" lon="11.098852"><ele>1074.2</ele></trkpt><trkpt lat="47.59652" lon="11.097006"><ele>1057</ele></trkpt><trkpt lat="47.596533" lon="11.09672"><ele>1051.9</ele></trkpt><trkpt lat="47.596643" lon="11.096365"><ele>1051.1</ele></trkpt><trkpt lat="47.596855" lon="11.095893"><ele>1050.3</ele></trkpt><trkpt lat="47.596925" lon="11.095666"><ele>1049.3</ele></trkpt><trkpt lat="47.596875" lon="11.095264"><ele>1049.9</ele></trkpt><trkpt lat="47.596726" lon="11.094965"><ele>1046.2</ele></trkpt><trkpt lat="47.596149" lon="11.093288"><ele>1032.7</ele></trkpt><trkpt lat="47.596069" lon="11.092924"><ele>1026</ele></trkpt><trkpt lat="47.596022" lon="11.092702"><ele>1026</ele></trkpt><trkpt lat="47.596003" lon="11.092227"><ele>1010.8</ele></trkpt><trkpt lat="47.596092" lon="11.090841"><ele>1004.9</ele></trkpt><trkpt lat="47.596017" lon="11.090249"><ele>1001.6</ele></trkpt><trkpt lat="47.595879" lon="11.089938"><ele>1001.4</ele></trkpt><trkpt lat="47.595544" lon="11.089065"><ele>1000.2</ele></trkpt><trkpt lat="47.594858" lon="11.087953"><ele>999.2</ele></trkpt><trkpt lat="47.594775" lon="11.087868"><ele>999.2</ele></trkpt><trkpt lat="47.594681" lon="11.087824"><ele>995.3</ele></trkpt><trkpt lat="47.59456" lon="11.087811"><ele>991.7</ele></trkpt><trkpt lat="47.594254" lon="11.087832"><ele>986.7</ele></trkpt><trkpt lat="47.59377" lon="11.08781"><ele>984.6</ele></trkpt><trkpt lat="47.593627" lon="11.087667"><ele>983.4</ele></trkpt><trkpt lat="47.593391" lon="11.087241"><ele>976.9</ele></trkpt><trkpt lat="47.593285" lon="11.087158"><ele>977.6</ele></trkpt><trkpt lat="47.593099" lon="11.087081"><ele>952</ele></trkpt><trkpt lat="47.593023" lon="11.087049"><ele>952</ele></trkpt><trkpt lat="47.592825" lon="11.086839"><ele>952</ele></trkpt><trkpt lat="47.592741" lon="11.086693"><ele>952</ele></trkpt><trkpt lat="47.592701" lon="11.086554"><ele>952</ele></trkpt><trkpt lat="47.592686" lon="11.086382"><ele>952</ele></trkpt><trkpt lat="47.592729" lon="11.08619"><ele>952</ele></trkpt><trkpt lat="47.592871" lon="11.085906"><ele>952</ele></trkpt><trkpt lat="47.593288" lon="11.085288"><ele>926.2</ele></trkpt><trkpt lat="47.593537" lon="11.085063"><ele>919.2</ele></trkpt><trkpt lat="47.593884" lon="11.084824"><ele>916.3</ele></trkpt><trkpt lat="47.594457" lon="11.084799"><ele>908.3</ele></trkpt><trkpt lat="47.594753" lon="11.084724"><ele>906.9</ele></trkpt><trkpt lat="47.595088" lon="11.08459"><ele>906.2</ele></trkpt><trkpt lat="47.595226" lon="11.084456"><ele>905.2</ele></trkpt><trkpt lat="47.595333" lon="11.084296"><ele>905.5</ele></trkpt><trkpt lat="47.595409" lon="11.084039"><ele>903</ele></trkpt><trkpt lat="47.595355" lon="11.083733"><ele>903</ele></trkpt><trkpt lat="47.595368" lon="11.083618"><ele>903</ele></trkpt><trkpt lat="47.595352" lon="11.083481"><ele>897.7</ele></trkpt><trkpt lat="47.595413" lon="11.083163"><ele>887</ele></trkpt><trkpt lat="47.595482" lon="11.083077"><ele>887</ele></trkpt><trkpt lat="47.596029" lon="11.08288"><ele>886.2</ele></trkpt><trkpt lat="47.59609" lon="11.082823"><ele>886.3</ele></trkpt><trkpt lat="47.596142" lon="11.082615"><ele>886</ele></trkpt><trkpt lat="47.596107" lon="11.082435"><ele>886</ele></trkpt><trkpt lat="47.596098" lon="11.082386"><ele>886</ele></trkpt><trkpt lat="47.596062" lon="11.082135"><ele>886</ele></trkpt><trkpt lat="47.596029" lon="11.081972"><ele>886</ele></trkpt><trkpt lat="47.595993" lon="11.081744"><ele>886</ele></trkpt><trkpt lat="47.595944" lon="11.081432"><ele>886</ele></trkpt><trkpt lat="47.595924" lon="11.081088"><ele>878.5</ele></trkpt><trkpt lat="47.595868" lon="11.080615"><ele>876</ele></trkpt><trkpt lat="47.59589" lon="11.08053"><ele>876</ele></trkpt><trkpt lat="47.595995" lon="11.080348"><ele>876</ele></trkpt><trkpt lat="47.596137" lon="11.080317"><ele>876</ele></trkpt><trkpt lat="47.596412" lon="11.080199"><ele>876</ele></trkpt><trkpt lat="47.59681" lon="11.079962"><ele>876</ele></trkpt><trkpt lat="47.596895" lon="11.07991"><ele>876</ele></trkpt><trkpt lat="47.597078" lon="11.079798"><ele>876</ele></trkpt><trkpt lat="47.597216" lon="11.079713"><ele>876</ele></trkpt><trkpt lat="47.597341" lon="11.079636"><ele>876</ele></trkpt><trkpt lat="47.59731" lon="11.079455"><ele>873.3</ele></trkpt><trkpt lat="47.597237" lon="11.079176"><ele>874</ele></trkpt><trkpt lat="47.597216" lon="11.079049"><ele>873.3</ele></trkpt><trkpt lat="47.597158" lon="11.078693"><ele>872.6</ele></trkpt><trkpt lat="47.597137" lon="11.078398"><ele>868</ele></trkpt><trkpt lat="47.597157" lon="11.078057"><ele>868</ele></trkpt><trkpt lat="47.597167" lon="11.077511"><ele>868</ele></trkpt><trkpt lat="47.597159" lon="11.077228"><ele>866.6</ele></trkpt><trkpt lat="47.597113" lon="11.076763"><ele>862</ele></trkpt><trkpt lat="47.597056" lon="11.076456"><ele>862</ele></trkpt><trkpt lat="47.596937" lon="11.075937"><ele>862</ele></trkpt><trkpt lat="47.596903" lon="11.075503"><ele>862</ele></trkpt><trkpt lat="47.596908" lon="11.075398"><ele>862</ele></trkpt><trkpt lat="47.596919" lon="11.075263"><ele>862</ele></trkpt><trkpt lat="47.596958" lon="11.075043"><ele>862</ele></trkpt><trkpt lat="47.597034" lon="11.07488"><ele>857.7</ele></trkpt><trkpt lat="47.59728" lon="11.074539"><ele>857.3</ele></trkpt><trkpt lat="47.597327" lon="11.074431"><ele>857.2</ele></trkpt><trkpt lat="47.597554" lon="11.073671"><ele>856.5</ele></trkpt><trkpt lat="47.597668" lon="11.073231"><ele>856</ele></trkpt><trkpt lat="47.597899" lon="11.071984"><ele>854.1</ele></trkpt><trkpt lat="47.597905" lon="11.071576"><ele>853.2</ele></trkpt><trkpt lat="47.597855" lon="11.071059"><ele>852</ele></trkpt><trkpt lat="47.597825" lon="11.070712"><ele>852</ele></trkpt><trkpt lat="47.598078" lon="11.070696"><ele>852</ele></trkpt><trkpt lat="47.598081" lon="11.070644"><ele>847</ele></trkpt><trkpt lat="47.598163" lon="11.069782"><ele>846.1</ele></trkpt><trkpt lat="47.598223" lon="11.069425"><ele>845.9</ele></trkpt><trkpt lat="47.598329" lon="11.06899"><ele>846</ele></trkpt><trkpt lat="47.598703" lon="11.067872"><ele>843</ele></trkpt><trkpt lat="47.598812" lon="11.067535"><ele>843</ele></trkpt><trkpt lat="47.598871" lon="11.067285"><ele>843</ele></trkpt><trkpt lat="47.598866" lon="11.067257"><ele>843</ele></trkpt><trkpt lat="47.598774" lon="11.066881"><ele>842</ele></trkpt><trkpt lat="47.59872" lon="11.066476"><ele>840</ele></trkpt><trkpt lat="47.598768" lon="11.066066"><ele>840</ele></trkpt><trkpt lat="47.598744" lon="11.065688"><ele>840</ele></trkpt><trkpt lat="47.598742" lon="11.065653"><ele>840</ele></trkpt><trkpt lat="47.598651" lon="11.065264"><ele>840</ele></trkpt><trkpt lat="47.598602" lon="11.064861"><ele>840</ele></trkpt><trkpt lat="47.598538" lon="11.064389"><ele>839</ele></trkpt><trkpt lat="47.598608" lon="11.0643"><ele>839</ele></trkpt><trkpt lat="47.598661" lon="11.063809"><ele>839</ele></trkpt><trkpt lat="47.598659" lon="11.063407"><ele>839</ele></trkpt><trkpt lat="47.598536" lon="11.062698"><ele>839</ele></trkpt><trkpt lat="47.598508" lon="11.062416"><ele>838</ele></trkpt><trkpt lat="47.598427" lon="11.062032"><ele>836</ele></trkpt><trkpt lat="47.598378" lon="11.061741"><ele>836</ele></trkpt><trkpt lat="47.598371" lon="11.061625"><ele>836</ele></trkpt><trkpt lat="47.598425" lon="11.061568"><ele>836</ele></trkpt><trkpt lat="47.598442" lon="11.06146"><ele>836</ele></trkpt><trkpt lat="47.598603" lon="11.060292"><ele>836</ele></trkpt><trkpt lat="47.598661" lon="11.059927"><ele>835</ele></trkpt><trkpt lat="47.598716" lon="11.059543"><ele>835</ele></trkpt><trkpt lat="47.598732" lon="11.059434"><ele>835</ele></trkpt><trkpt lat="47.598778" lon="11.059093"><ele>835</ele></trkpt><trkpt lat="47.598797" lon="11.058975"><ele>835</ele></trkpt><trkpt lat="47.598862" lon="11.058543"><ele>835</ele></trkpt><trkpt lat="47.598881" lon="11.058394"><ele>835</ele></trkpt><trkpt lat="47.598971" lon="11.057843"><ele>835</ele></trkpt><trkpt lat="47.599007" lon="11.057616"><ele>835</ele></trkpt><trkpt lat="47.599136" lon="11.05764"><ele>835</ele></trkpt><trkpt lat="47.599217" lon="11.057613"><ele>835</ele></trkpt><trkpt lat="47.599336" lon="11.057499"><ele>835</ele></trkpt><trkpt lat="47.599391" lon="11.057281"><ele>835</ele></trkpt><trkpt lat="47.599406" lon="11.057215"><ele>835</ele></trkpt><trkpt lat="47.599369" lon="11.05707"><ele>835</ele></trkpt><trkpt lat="47.599457" lon="11.057012"><ele>835</ele></trkpt><trkpt lat="47.599661" lon="11.05711"><ele>835</ele></trkpt><trkpt lat="47.59967" lon="11.057069"><ele>835</ele></trkpt><trkpt lat="47.599691" lon="11.056976"><ele>835</ele></trkpt><trkpt lat="47.599703" lon="11.056983"><ele>834.8</ele></trkpt><trkpt lat="47.599705" lon="11.056972"><ele>834.8</ele></trkpt></trkseg></trk></gpx>