<gpx xmlns="http://www.topografix.com/GPX/1/1" xmlns:xsi="http://www.w3.org/2001/XMLSchema-instance" xsi:schemaLocation="http://www.topografix.com/GPX/1/1 http://www.topografix.com/GPX/1/1/gpx.xsd" version="1.1" creator="togpx"><metadata/><wpt lat="47.66064183724118" lon="11.370994448661806"><name></name><desc>label=Kochel, BY,Germany</desc></wpt><wpt lat="47.65519850100304" lon="11.380183696746828"><name></name><desc>label=Kohlleite, Kochel,BY,Germany</desc></wpt><wpt lat="47.65093810287759" lon="11.381707191467287"><name></name><desc>label=Unterer Lainbachfall, Kochel,BY,Germany</desc></wpt><wpt lat="47.649395023077304" lon="11.376664638519289"><name></name><desc>label=Vogellehrpfad Lainbachtal, Kochel,BY,Germany</desc></wpt><wpt lat="47.64359090020492" lon="11.372995376586916"><name></name><desc>label=Zimmermoosbrücke, Kochel,BY,Germany</desc></wpt><wpt lat="47.63939823096526" lon="11.376063823699951"><name></name><desc>label=Sonnenspitz, Kochel,BY,Germany</desc></wpt><wpt lat="47.62903077330461" lon="11.381535530090334"><name></name><desc>label=Kotalpe, Jachenau,BY,Germany</desc></wpt><wpt lat="47.62309422482121" lon="11.375076770782472"><name></name><desc>label=451, Kochel,BY,Germany</desc></wpt><wpt lat="47.62595050465765" lon="11.371858119964601"><name></name><desc>label=Panoramatafel, Jachenau,BY,Germany</desc></wpt><wpt lat="47.61775726353152" lon="11.345808506011965"><name></name><desc>label=B 11, Kochel,BY,Germany</desc></wpt><trk><name></name><desc>ascent=1204.3
descent=1008.8
opacity=0.9</desc><trkseg><trkpt lat="47.660642" lon="11.370993"><ele>609</ele></trkpt><trkpt lat="47.66053" lon="11.371046"><ele>609</ele></trkpt><trkpt lat="47.66055" lon="11.371133"><ele>609</ele></trkpt><trkpt lat="47.660613" lon="11.371404"><ele>609</ele></trkpt><trkpt lat="47.66046" lon="11.371488"><ele>609</ele></trkpt><trkpt lat="47.660533" lon="11.371792"><ele>611</ele></trkpt><trkpt lat="47.660427" lon="11.37194"><ele>612</ele></trkpt><trkpt lat="47.660406" lon="11.37188"><ele>612</ele></trkpt><trkpt lat="47.660134" lon="11.371878"><ele>613</ele></trkpt><trkpt lat="47.659863" lon="11.371836"><ele>615</ele></trkpt><trkpt lat="47.658971" lon="11.371683"><ele>616.3</ele></trkpt><trkpt lat="47.65883" lon="11.37171"><ele>617</ele></trkpt><trkpt lat="47.658143" lon="11.371945"><ele>619.4</ele></trkpt><trkpt lat="47.658066" lon="11.371946"><ele>619.7</ele></trkpt><trkpt lat="47.657763" lon="11.371804"><ele>621</ele></trkpt><trkpt lat="47.657559" lon="11.373302"><ele>623.7</ele></trkpt><trkpt lat="47.657528" lon="11.373434"><ele>626</ele></trkpt><trkpt lat="47.657335" lon="11.373606"><ele>627</ele></trkpt><trkpt lat="47.657324" lon="11.373802"><ele>627.9</ele></trkpt><trkpt lat="47.657257" lon="11.37412"><ele>627.7</ele></trkpt><trkpt lat="47.657233" lon="11.374331"><ele>630</ele></trkpt><trkpt lat="47.657234" lon="11.374385"><ele>630</ele></trkpt><trkpt lat="47.657233" lon="11.374475"><ele>630</ele></trkpt><trkpt lat="47.657234" lon="11.374565"><ele>630</ele></trkpt><trkpt lat="47.65682" lon="11.37497"><ele>631.9</ele></trkpt><trkpt lat="47.656631" lon="11.375189"><ele>636</ele></trkpt><trkpt lat="47.656611" lon="11.375221"><ele>636</ele></trkpt><trkpt lat="47.656514" lon="11.375409"><ele>637.3</ele></trkpt><trkpt lat="47.656442" lon="11.375627"><ele>637.6</ele></trkpt><trkpt lat="47.656405" lon="11.375855"><ele>641</ele></trkpt><trkpt lat="47.656348" lon="11.376229"><ele>643.1</ele></trkpt><trkpt lat="47.656286" lon="11.376424"><ele>642.8</ele></trkpt><trkpt lat="47.656304" lon="11.376465"><ele>642.7</ele></trkpt><trkpt lat="47.656284" lon="11.376715"><ele>642.9</ele></trkpt><trkpt lat="47.656205" lon="11.376831"><ele>643.3</ele></trkpt><trkpt lat="47.656197" lon="11.376982"><ele>643.9</ele></trkpt><trkpt lat="47.656149" lon="11.377161"><ele>648</ele></trkpt><trkpt lat="47.656112" lon="11.377154"><ele>648</ele></trkpt><trkpt lat="47.655979" lon="11.377114"><ele>648</ele></trkpt><trkpt lat="47.655916" lon="11.376994"><ele>648</ele></trkpt><trkpt lat="47.655898" lon="11.376992"><ele>648</ele></trkpt><trkpt lat="47.655887" lon="11.377223"><ele>648</ele></trkpt><trkpt lat="47.655843" lon="11.377339"><ele>648</ele></trkpt><trkpt lat="47.655637" lon="11.377842"><ele>692</ele></trkpt><trkpt lat="47.655675" lon="11.378218"><ele>698.9</ele></trkpt><trkpt lat="47.655641" lon="11.378489"><ele>703.3</ele></trkpt><trkpt lat="47.655684" lon="11.378676"><ele>703.6</ele></trkpt><trkpt lat="47.655686" lon="11.379241"><ele>710.4</ele></trkpt><trkpt lat="47.655633" lon="11.379447"><ele>716</ele></trkpt><trkpt lat="47.655638" lon="11.3798"><ele>721.8</ele></trkpt><trkpt lat="47.655548" lon="11.380089"><ele>724.5</ele></trkpt><trkpt lat="47.655472" lon="11.380131"><ele>724.1</ele></trkpt><trkpt lat="47.655198" lon="11.380145"><ele>727.7</ele></trkpt><trkpt lat="47.65478" lon="11.380166"><ele>731.3</ele></trkpt><trkpt lat="47.654668" lon="11.380122"><ele>730.4</ele></trkpt><trkpt lat="47.654345" lon="11.380127"><ele>731.7</ele></trkpt><trkpt lat="47.653892" lon="11.379786"><ele>755</ele></trkpt><trkpt lat="47.653761" lon="11.379602"><ele>754</ele></trkpt><trkpt lat="47.653462" lon="11.379346"><ele>753.9</ele></trkpt><trkpt lat="47.653069" lon="11.379172"><ele>753.8</ele></trkpt><trkpt lat="47.652828" lon="11.379027"><ele>753.3</ele></trkpt><trkpt lat="47.652664" lon="11.378954"><ele>753.3</ele></trkpt><trkpt lat="47.652567" lon="11.378952"><ele>752</ele></trkpt><trkpt lat="47.652381" lon="11.379"><ele>750</ele></trkpt><trkpt lat="47.652289" lon="11.379121"><ele>750</ele></trkpt><trkpt lat="47.65217" lon="11.379516"><ele>749</ele></trkpt><trkpt lat="47.652092" lon="11.379714"><ele>761.6</ele></trkpt><trkpt lat="47.651923" lon="11.38034"><ele>765.1</ele></trkpt><trkpt lat="47.651828" lon="11.380585"><ele>765.5</ele></trkpt><trkpt lat="47.651787" lon="11.380733"><ele>766</ele></trkpt><trkpt lat="47.651804" lon="11.381099"><ele>766.4</ele></trkpt><trkpt lat="47.65179" lon="11.381128"><ele>766.2</ele></trkpt><trkpt lat="47.651891" lon="11.381576"><ele>766.8</ele></trkpt><trkpt lat="47.651786" lon="11.381784"><ele>780</ele></trkpt><trkpt lat="47.651663" lon="11.381821"><ele>777.9</ele></trkpt><trkpt lat="47.651593" lon="11.381889"><ele>777.8</ele></trkpt><trkpt lat="47.651506" lon="11.382151"><ele>777</ele></trkpt><trkpt lat="47.651469" lon="11.382144"><ele>777</ele></trkpt><trkpt lat="47.651428" lon="11.381828"><ele>774.9</ele></trkpt><trkpt lat="47.651374" lon="11.381655"><ele>773.9</ele></trkpt><trkpt lat="47.651315" lon="11.381547"><ele>772.9</ele></trkpt><trkpt lat="47.651227" lon="11.381517"><ele>771.9</ele></trkpt><trkpt lat="47.651104" lon="11.381796"><ele>772.3</ele></trkpt><trkpt lat="47.651034" lon="11.381879"><ele>772.6</ele></trkpt><trkpt lat="47.650953" lon="11.381688"><ele>773</ele></trkpt><trkpt lat="47.650936" lon="11.381693"><ele>773.5</ele></trkpt><trkpt lat="47.650832" lon="11.381724"><ele>774</ele></trkpt><trkpt lat="47.650718" lon="11.381911"><ele>775</ele></trkpt><trkpt lat="47.650598" lon="11.381935"><ele>776</ele></trkpt><trkpt lat="47.65056" lon="11.381636"><ele>776.4</ele></trkpt><trkpt lat="47.650499" lon="11.381604"><ele>782</ele></trkpt><trkpt lat="47.650483" lon="11.381605"><ele>784.5</ele></trkpt><trkpt lat="47.650366" lon="11.381956"><ele>785.1</ele></trkpt><trkpt lat="47.650351" lon="11.381958"><ele>785.6</ele></trkpt><trkpt lat="47.650347" lon="11.3819"><ele>788</ele></trkpt><trkpt lat="47.650355" lon="11.381734"><ele>788</ele></trkpt><trkpt lat="47.650349" lon="11.381693"><ele>788</ele></trkpt><trkpt lat="47.650298" lon="11.381746"><ele>788</ele></trkpt><trkpt lat="47.650198" lon="11.381895"><ele>788</ele></trkpt><trkpt lat="47.650127" lon="11.3819"><ele>788</ele></trkpt><trkpt lat="47.650109" lon="11.381824"><ele>788</ele></trkpt><trkpt lat="47.650101" lon="11.381702"><ele>784</ele></trkpt><trkpt lat="47.65012" lon="11.381642"><ele>782</ele></trkpt><trkpt lat="47.650161" lon="11.38158"><ele>782</ele></trkpt><trkpt lat="47.650155" lon="11.381338"><ele>782</ele></trkpt><trkpt lat="47.650039" lon="11.381171"><ele>782</ele></trkpt><trkpt lat="47.650042" lon="11.38108"><ele>782</ele></trkpt><trkpt lat="47.650133" lon="11.380961"><ele>782</ele></trkpt><trkpt lat="47.650188" lon="11.380954"><ele>782</ele></trkpt><trkpt lat="47.650223" lon="11.380995"><ele>782</ele></trkpt><trkpt lat="47.650217" lon="11.381084"><ele>782</ele></trkpt><trkpt lat="47.650244" lon="11.381108"><ele>782</ele></trkpt><trkpt lat="47.650371" lon="11.380934"><ele>782</ele></trkpt><trkpt lat="47.650449" lon="11.380798"><ele>773</ele></trkpt><trkpt lat="47.650601" lon="11.3803"><ele>773</ele></trkpt><trkpt lat="47.650762" lon="11.380067"><ele>773</ele></trkpt><trkpt lat="47.650825" lon="11.379843"><ele>753</ele></trkpt><trkpt lat="47.650817" lon="11.379546"><ele>746.7</ele></trkpt><trkpt lat="47.650551" lon="11.3791"><ele>734</ele></trkpt><trkpt lat="47.650339" lon="11.378927"><ele>735.2</ele></trkpt><trkpt lat="47.650212" lon="11.378563"><ele>735</ele></trkpt><trkpt lat="47.650122" lon="11.378208"><ele>733.5</ele></trkpt><trkpt lat="47.649681" lon="11.377554"><ele>739.7</ele></trkpt><trkpt lat="47.649377" lon="11.376679"><ele>742.5</ele></trkpt><trkpt lat="47.649308" lon="11.376482"><ele>745.3</ele></trkpt><trkpt lat="47.649079" lon="11.375537"><ele>744</ele></trkpt><trkpt lat="47.648982" lon="11.376032"><ele>762.5</ele></trkpt><trkpt lat="47.648995" lon="11.376706"><ele>768.9</ele></trkpt><trkpt lat="47.649088" lon="11.377053"><ele>767.8</ele></trkpt><trkpt lat="47.64935" lon="11.377684"><ele>769</ele></trkpt><trkpt lat="47.649545" lon="11.378034"><ele>767.3</ele></trkpt><trkpt lat="47.649563" lon="11.378186"><ele>768.1</ele></trkpt><trkpt lat="47.649506" lon="11.378274"><ele>769.6</ele></trkpt><trkpt lat="47.649389" lon="11.378252"><ele>770.3</ele></trkpt><trkpt lat="47.64912" lon="11.377729"><ele>773.5</ele></trkpt><trkpt lat="47.648761" lon="11.37718"><ele>770.7</ele></trkpt><trkpt lat="47.648454" lon="11.376838"><ele>777.2</ele></trkpt><trkpt lat="47.648252" lon="11.376692"><ele>781.4</ele></trkpt><trkpt lat="47.64782" lon="11.376183"><ele>781.4</ele></trkpt><trkpt lat="47.647662" lon="11.376082"><ele>781.8</ele></trkpt><trkpt lat="47.647326" lon="11.375691"><ele>801</ele></trkpt><trkpt lat="47.647181" lon="11.375704"><ele>801</ele></trkpt><trkpt lat="47.647162" lon="11.375788"><ele>801</ele></trkpt><trkpt lat="47.647022" lon="11.375641"><ele>801</ele></trkpt><trkpt lat="47.64694" lon="11.375357"><ele>813</ele></trkpt><trkpt lat="47.646557" lon="11.374812"><ele>837</ele></trkpt><trkpt lat="47.646262" lon="11.374721"><ele>877.4</ele></trkpt><trkpt lat="47.646061" lon="11.374722"><ele>876.6</ele></trkpt><trkpt lat="47.645818" lon="11.374932"><ele>881.4</ele></trkpt><trkpt lat="47.645719" lon="11.374627"><ele>882.8</ele></trkpt><trkpt lat="47.645398" lon="11.374718"><ele>887.7</ele></trkpt><trkpt lat="47.645137" lon="11.374441"><ele>895.6</ele></trkpt><trkpt lat="47.644907" lon="11.374243"><ele>907.5</ele></trkpt><trkpt lat="47.644436" lon="11.373897"><ele>920.7</ele></trkpt><trkpt lat="47.644178" lon="11.373435"><ele>926.8</ele></trkpt><trkpt lat="47.643978" lon="11.37315"><ele>932.3</ele></trkpt><trkpt lat="47.64377" lon="11.373028"><ele>922</ele></trkpt><trkpt lat="47.643686" lon="11.372995"><ele>922</ele></trkpt><trkpt lat="47.643595" lon="11.373024"><ele>922</ele></trkpt><trkpt lat="47.643481" lon="11.37306"><ele>922</ele></trkpt><trkpt lat="47.643694" lon="11.373751"><ele>982.8</ele></trkpt><trkpt lat="47.643691" lon="11.37396"><ele>982.7</ele></trkpt><trkpt lat="47.643546" lon="11.373912"><ele>982.9</ele></trkpt><trkpt lat="47.643571" lon="11.374099"><ele>981.5</ele></trkpt><trkpt lat="47.643512" lon="11.374124"><ele>980.2</ele></trkpt><trkpt lat="47.643439" lon="11.374081"><ele>981.4</ele></trkpt><trkpt lat="47.643283" lon="11.374232"><ele>988.7</ele></trkpt><trkpt lat="47.643287" lon="11.374317"><ele>990.2</ele></trkpt><trkpt lat="47.643187" lon="11.374324"><ele>991.7</ele></trkpt><trkpt lat="47.643121" lon="11.37443"><ele>993.1</ele></trkpt><trkpt lat="47.643005" lon="11.374288"><ele>994.4</ele></trkpt><trkpt lat="47.642915" lon="11.374567"><ele>995.7</ele></trkpt><trkpt lat="47.642844" lon="11.37443"><ele>996.9</ele></trkpt><trkpt lat="47.642804" lon="11.374504"><ele>998.1</ele></trkpt><trkpt lat="47.642719" lon="11.3744"><ele>999.2</ele></trkpt><trkpt lat="47.642565" lon="11.374675"><ele>1003.9</ele></trkpt><trkpt lat="47.642555" lon="11.374965"><ele>1009.9</ele></trkpt><trkpt lat="47.642423" lon="11.374963"><ele>1015.2</ele></trkpt><trkpt lat="47.642429" lon="11.375376"><ele>1032.4</ele></trkpt><trkpt lat="47.642489" lon="11.375574"><ele>1106</ele></trkpt><trkpt lat="47.642321" lon="11.375933"><ele>1169.4</ele></trkpt><trkpt lat="47.642249" lon="11.375825"><ele>1171</ele></trkpt><trkpt lat="47.641964" lon="11.376042"><ele>1181.7</ele></trkpt><trkpt lat="47.641879" lon="11.375802"><ele>1186.5</ele></trkpt><trkpt lat="47.641708" lon="11.375871"><ele>1192.9</ele></trkpt><trkpt lat="47.641602" lon="11.376238"><ele>1197.3</ele></trkpt><trkpt lat="47.641526" lon="11.376251"><ele>1197.3</ele></trkpt><trkpt lat="47.641517" lon="11.376139"><ele>1197.4</ele></trkpt><trkpt lat="47.641433" lon="11.37617"><ele>1197.4</ele></trkpt><trkpt lat="47.641437" lon="11.376093"><ele>1197.5</ele></trkpt><trkpt lat="47.641297" lon="11.37617"><ele>1199.3</ele></trkpt><trkpt lat="47.641259" lon="11.376106"><ele>1199.4</ele></trkpt><trkpt lat="47.641191" lon="11.376148"><ele>1204.8</ele></trkpt><trkpt lat="47.641185" lon="11.375942"><ele>1200.9</ele></trkpt><trkpt lat="47.641069" lon="11.376034"><ele>1205.4</ele></trkpt><trkpt lat="47.640806" lon="11.376296"><ele>1210.4</ele></trkpt><trkpt lat="47.640686" lon="11.376157"><ele>1211.8</ele></trkpt><trkpt lat="47.64061" lon="11.376278"><ele>1212.1</ele></trkpt><trkpt lat="47.640503" lon="11.376144"><ele>1212.3</ele></trkpt><trkpt lat="47.640267" lon="11.376076"><ele>1212.1</ele></trkpt><trkpt lat="47.639871" lon="11.376322"><ele>1216.5</ele></trkpt><trkpt lat="47.639635" lon="11.376263"><ele>1220</ele></trkpt><trkpt lat="47.639514" lon="11.376199"><ele>1220</ele></trkpt><trkpt lat="47.639395" lon="11.37607"><ele>1244.5</ele></trkpt><trkpt lat="47.639384" lon="11.376058"><ele>1269</ele></trkpt><trkpt lat="47.639393" lon="11.376105"><ele>1236.1</ele></trkpt><trkpt lat="47.639335" lon="11.376307"><ele>1240.5</ele></trkpt><trkpt lat="47.639296" lon="11.376398"><ele>1243.5</ele></trkpt><trkpt lat="47.639233" lon="11.376477"><ele>1246.4</ele></trkpt><trkpt lat="47.63896" lon="11.376675"><ele>1251.9</ele></trkpt><trkpt lat="47.638657" lon="11.377007"><ele>1252.1</ele></trkpt><trkpt lat="47.638472" lon="11.377242"><ele>1251.8</ele></trkpt><trkpt lat="47.638355" lon="11.377334"><ele>1251.8</ele></trkpt><trkpt lat="47.638218" lon="11.377319"><ele>1252.6</ele></trkpt><trkpt lat="47.638115" lon="11.377221"><ele>1252.3</ele></trkpt><trkpt lat="47.637996" lon="11.377023"><ele>1251.8</ele></trkpt><trkpt lat="47.637848" lon="11.376718"><ele>1251</ele></trkpt><trkpt lat="47.637322" lon="11.376516"><ele>1244</ele></trkpt><trkpt lat="47.637015" lon="11.377134"><ele>1232.7</ele></trkpt><trkpt lat="47.636924" lon="11.377213"><ele>1231.3</ele></trkpt><trkpt lat="47.636759" lon="11.377232"><ele>1224.9</ele></trkpt><trkpt lat="47.63668" lon="11.37734"><ele>1221.3</ele></trkpt><trkpt lat="47.636584" lon="11.37739"><ele>1219.5</ele></trkpt><trkpt lat="47.636473" lon="11.377328"><ele>1218</ele></trkpt><trkpt lat="47.636342" lon="11.377336"><ele>1217.1</ele></trkpt><trkpt lat="47.636161" lon="11.377507"><ele>1216.2</ele></trkpt><trkpt lat="47.635876" lon="11.377695"><ele>1208.2</ele></trkpt><trkpt lat="47.635566" lon="11.378098"><ele>1203.1</ele></trkpt><trkpt lat="47.635211" lon="11.378376"><ele>1201.7</ele></trkpt><trkpt lat="47.635102" lon="11.378558"><ele>1199.7</ele></trkpt><trkpt lat="47.635006" lon="11.378806"><ele>1198.6</ele></trkpt><trkpt lat="47.634764" lon="11.379065"><ele>1176</ele></trkpt><trkpt lat="47.634778" lon="11.379169"><ele>1187</ele></trkpt><trkpt lat="47.635127" lon="11.380503"><ele>1184</ele></trkpt><trkpt lat="47.635072" lon="11.380503"><ele>1184</ele></trkpt><trkpt lat="47.635027" lon="11.380579"><ele>1184</ele></trkpt><trkpt lat="47.635041" lon="11.38069"><ele>1184</ele></trkpt><trkpt lat="47.634936" lon="11.380635"><ele>1182</ele></trkpt><trkpt lat="47.634813" lon="11.380597"><ele>1183.8</ele></trkpt><trkpt lat="47.634747" lon="11.380603"><ele>1184</ele></trkpt><trkpt lat="47.634616" lon="11.380679"><ele>1184.2</ele></trkpt><trkpt lat="47.634486" lon="11.380807"><ele>1184.5</ele></trkpt><trkpt lat="47.634271" lon="11.380863"><ele>1182.8</ele></trkpt><trkpt lat="47.634001" lon="11.380876"><ele>1181.6</ele></trkpt><trkpt lat="47.633947" lon="11.380913"><ele>1180.7</ele></trkpt><trkpt lat="47.633623" lon="11.38142"><ele>1177.4</ele></trkpt><trkpt lat="47.633321" lon="11.381838"><ele>1174.5</ele></trkpt><trkpt lat="47.633189" lon="11.382048"><ele>1174.5</ele></trkpt><trkpt lat="47.632952" lon="11.382165"><ele>1173.7</ele></trkpt><trkpt lat="47.632701" lon="11.382357"><ele>1173.2</ele></trkpt><trkpt lat="47.632491" lon="11.382433"><ele>1163</ele></trkpt><trkpt lat="47.632096" lon="11.381895"><ele>1166.5</ele></trkpt><trkpt lat="47.631981" lon="11.381841"><ele>1167.1</ele></trkpt><trkpt lat="47.63159" lon="11.381755"><ele>1171.6</ele></trkpt><trkpt lat="47.631023" lon="11.381825"><ele>1172.7</ele></trkpt><trkpt lat="47.630387" lon="11.382424"><ele>1183</ele></trkpt><trkpt lat="47.630131" lon="11.382378"><ele>1199.4</ele></trkpt><trkpt lat="47.629824" lon="11.382286"><ele>1200.9</ele></trkpt><trkpt lat="47.629691" lon="11.382023"><ele>1200.7</ele></trkpt><trkpt lat="47.629591" lon="11.382202"><ele>1200.2</ele></trkpt><trkpt lat="47.629508" lon="11.381999"><ele>1200</ele></trkpt><trkpt lat="47.629437" lon="11.381906"><ele>1199.7</ele></trkpt><trkpt lat="47.629344" lon="11.381902"><ele>1199.4</ele></trkpt><trkpt lat="47.629273" lon="11.382032"><ele>1199</ele></trkpt><trkpt lat="47.629193" lon="11.382098"><ele>1203</ele></trkpt><trkpt lat="47.629124" lon="11.382086"><ele>1258.1</ele></trkpt><trkpt lat="47.629144" lon="11.381969"><ele>1257.5</ele></trkpt><trkpt lat="47.628981" lon="11.381633"><ele>1258.6</ele></trkpt><trkpt lat="47.629002" lon="11.381523"><ele>1258.6</ele></trkpt><trkpt lat="47.629018" lon="11.381441"><ele>1258.7</ele></trkpt><trkpt lat="47.628966" lon="11.381409"><ele>1258.8</ele></trkpt><trkpt lat="47.628989" lon="11.381262"><ele>1258.9</ele></trkpt><trkpt lat="47.628917" lon="11.38125"><ele>1261.3</ele></trkpt><trkpt lat="47.628989" lon="11.38105"><ele>1260.1</ele></trkpt><trkpt lat="47.628981" lon="11.380995"><ele>1261.3</ele></trkpt><trkpt lat="47.628908" lon="11.380988"><ele>1261.3</ele></trkpt><trkpt lat="47.628828" lon="11.381093"><ele>1261.3</ele></trkpt><trkpt lat="47.628739" lon="11.381065"><ele>1261.3</ele></trkpt><trkpt lat="47.62876" lon="11.380889"><ele>1261.3</ele></trkpt><trkpt lat="47.628686" lon="11.380945"><ele>1261.3</ele></trkpt><trkpt lat="47.628618" lon="11.380655"><ele>1264.5</ele></trkpt><trkpt lat="47.628178" lon="11.381026"><ele>1269.1</ele></trkpt><trkpt lat="47.62802" lon="11.38082"><ele>1277</ele></trkpt><trkpt lat="47.627951" lon="11.380862"><ele>1277.3</ele></trkpt><trkpt lat="47.627662" lon="11.380809"><ele>1288.9</ele></trkpt><trkpt lat="47.627668" lon="11.380581"><ele>1292.1</ele></trkpt><trkpt lat="47.627323" lon="11.38057"><ele>1310.3</ele></trkpt><trkpt lat="47.62718" lon="11.380535"><ele>1316.1</ele></trkpt><trkpt lat="47.626962" lon="11.38058"><ele>1321.4</ele></trkpt><trkpt lat="47.626747" lon="11.380586"><ele>1328.7</ele></trkpt><trkpt lat="47.626424" lon="11.380361"><ele>1333.8</ele></trkpt><trkpt lat="47.626294" lon="11.380124"><ele>1337.6</ele></trkpt><trkpt lat="47.62614" lon="11.379993"><ele>1338.9</ele></trkpt><trkpt lat="47.625634" lon="11.379861"><ele>1366</ele></trkpt><trkpt lat="47.625389" lon="11.379778"><ele>1364.9</ele></trkpt><trkpt lat="47.625144" lon="11.379878"><ele>1365.1</ele></trkpt><trkpt lat="47.625047" lon="11.379827"><ele>1365.2</ele></trkpt><trkpt lat="47.625032" lon="11.379604"><ele>1365.3</ele></trkpt><trkpt lat="47.624844" lon="11.379325"><ele>1362</ele></trkpt><trkpt lat="47.624808" lon="11.379263"><ele>1362</ele></trkpt><trkpt lat="47.62473" lon="11.37915"><ele>1365.6</ele></trkpt><trkpt lat="47.624655" lon="11.378886"><ele>1365.7</ele></trkpt><trkpt lat="47.624537" lon="11.37868"><ele>1365.7</ele></trkpt><trkpt lat="47.624146" lon="11.378114"><ele>1366.6</ele></trkpt><trkpt lat="47.624021" lon="11.377629"><ele>1367.6</ele></trkpt><trkpt lat="47.62384" lon="11.376696"><ele>1367.5</ele></trkpt><trkpt lat="47.623807" lon="11.376597"><ele>1368</ele></trkpt><trkpt lat="47.623758" lon="11.376308"><ele>1371.1</ele></trkpt><trkpt lat="47.623547" lon="11.375898"><ele>1371.1</ele></trkpt><trkpt lat="47.623468" lon="11.375705"><ele>1372</ele></trkpt><trkpt lat="47.623255" lon="11.375443"><ele>1372.3</ele></trkpt><trkpt lat="47.623084" lon="11.375088"><ele>1372.9</ele></trkpt><trkpt lat="47.622951" lon="11.374813"><ele>1373.5</ele></trkpt><trkpt lat="47.622604" lon="11.37484"><ele>1374.5</ele></trkpt><trkpt lat="47.621848" lon="11.372767"><ele>1382</ele></trkpt><trkpt lat="47.62195" lon="11.372724"><ele>1380.7</ele></trkpt><trkpt lat="47.621999" lon="11.372637"><ele>1380.4</ele></trkpt><trkpt lat="47.622068" lon="11.372337"><ele>1378</ele></trkpt><trkpt lat="47.622164" lon="11.372363"><ele>1379.5</ele></trkpt><trkpt lat="47.622258" lon="11.372557"><ele>1380</ele></trkpt><trkpt lat="47.622381" lon="11.372541"><ele>1382</ele></trkpt><trkpt lat="47.622554" lon="11.372513"><ele>1390.1</ele></trkpt><trkpt lat="47.622675" lon="11.372367"><ele>1390.9</ele></trkpt><trkpt lat="47.622848" lon="11.372047"><ele>1391.6</ele></trkpt><trkpt lat="47.622929" lon="11.371668"><ele>1392.5</ele></trkpt><trkpt lat="47.623114" lon="11.371082"><ele>1393.4</ele></trkpt><trkpt lat="47.623193" lon="11.370653"><ele>1397.1</ele></trkpt><trkpt lat="47.623275" lon="11.37035"><ele>1397.8</ele></trkpt><trkpt lat="47.623563" lon="11.369681"><ele>1407.6</ele></trkpt><trkpt lat="47.623719" lon="11.36928"><ele>1412.7</ele></trkpt><trkpt lat="47.623807" lon="11.368992"><ele>1412.4</ele></trkpt><trkpt lat="47.624066" lon="11.368302"><ele>1415.7</ele></trkpt><trkpt lat="47.624107" lon="11.368228"><ele>1415.3</ele></trkpt><trkpt lat="47.624109" lon="11.368137"><ele>1414.9</ele></trkpt><trkpt lat="47.624215" lon="11.367861"><ele>1417.6</ele></trkpt><trkpt lat="47.624236" lon="11.367698"><ele>1447</ele></trkpt><trkpt lat="47.624435" lon="11.368278"><ele>1461.8</ele></trkpt><trkpt lat="47.624491" lon="11.368281"><ele>1463.3</ele></trkpt><trkpt lat="47.62447" lon="11.368558"><ele>1466</ele></trkpt><trkpt lat="47.624537" lon="11.369141"><ele>1470.9</ele></trkpt><trkpt lat="47.624578" lon="11.369196"><ele>1473</ele></trkpt><trkpt lat="47.624579" lon="11.369383"><ele>1473.4</ele></trkpt><trkpt lat="47.624604" lon="11.369508"><ele>1475.3</ele></trkpt><trkpt lat="47.624661" lon="11.3694"><ele>1475.8</ele></trkpt><trkpt lat="47.624657" lon="11.369511"><ele>1476.2</ele></trkpt><trkpt lat="47.624682" lon="11.369667"><ele>1480</ele></trkpt><trkpt lat="47.624732" lon="11.369586"><ele>1479.7</ele></trkpt><trkpt lat="47.624742" lon="11.369693"><ele>1481.1</ele></trkpt><trkpt lat="47.624839" lon="11.369561"><ele>1482.4</ele></trkpt><trkpt lat="47.624876" lon="11.369602"><ele>1483.1</ele></trkpt><trkpt lat="47.625025" lon="11.369438"><ele>1483.8</ele></trkpt><trkpt lat="47.625119" lon="11.369485"><ele>1483.7</ele></trkpt><trkpt lat="47.625199" lon="11.370183"><ele>1490.6</ele></trkpt><trkpt lat="47.625342" lon="11.370567"><ele>1493.6</ele></trkpt><trkpt lat="47.62539" lon="11.37074"><ele>1493.7</ele></trkpt><trkpt lat="47.625416" lon="11.370974"><ele>1494.5</ele></trkpt><trkpt lat="47.625495" lon="11.371172"><ele>1496</ele></trkpt><trkpt lat="47.625564" lon="11.371407"><ele>1503.1</ele></trkpt><trkpt lat="47.625668" lon="11.371628"><ele>1503</ele></trkpt><trkpt lat="47.625925" lon="11.37191"><ele>1524.5</ele></trkpt><trkpt lat="47.625668" lon="11.371628"><ele>1503</ele></trkpt><trkpt lat="47.625564" lon="11.371407"><ele>1503.1</ele></trkpt><trkpt lat="47.625495" lon="11.371172"><ele>1496</ele></trkpt><trkpt lat="47.625416" lon="11.370974"><ele>1494.5</ele></trkpt><trkpt lat="47.62539" lon="11.37074"><ele>1493.7</ele></trkpt><trkpt lat="47.625342" lon="11.370567"><ele>1493.6</ele></trkpt><trkpt lat="47.625199" lon="11.370183"><ele>1490.6</ele></trkpt><trkpt lat="47.625119" lon="11.369485"><ele>1483.7</ele></trkpt><trkpt lat="47.625025" lon="11.369438"><ele>1483.8</ele></trkpt><trkpt lat="47.624876" lon="11.369602"><ele>1483.1</ele></trkpt><trkpt lat="47.624839" lon="11.369561"><ele>1482.4</ele></trkpt><trkpt lat="47.624742" lon="11.369693"><ele>1481.1</ele></trkpt><trkpt lat="47.624732" lon="11.369586"><ele>1479.7</ele></trkpt><trkpt lat="47.624682" lon="11.369667"><ele>1480</ele></trkpt><trkpt lat="47.624657" lon="11.369511"><ele>1476.2</ele></trkpt><trkpt lat="47.624661" lon="11.3694"><ele>1475.8</ele></trkpt><trkpt lat="47.624604" lon="11.369508"><ele>1475.3</ele></trkpt><trkpt lat="47.624579" lon="11.369383"><ele>1473.4</ele></trkpt><trkpt lat="47.624578" lon="11.369196"><ele>1473</ele></trkpt><trkpt lat="47.624537" lon="11.369141"><ele>1470.9</ele></trkpt><trkpt lat="47.62447" lon="11.368558"><ele>1466</ele></trkpt><trkpt lat="47.624491" lon="11.368281"><ele>1463.3</ele></trkpt><trkpt lat="47.624435" lon="11.368278"><ele>1461.8</ele></trkpt><trkpt lat="47.624236" lon="11.367698"><ele>1447</ele></trkpt><trkpt lat="47.624194" lon="11.367509"><ele>1405.9</ele></trkpt><trkpt lat="47.624102" lon="11.367257"><ele>1403.9</ele></trkpt><trkpt lat="47.62403" lon="11.366949"><ele>1400.1</ele></trkpt><trkpt lat="47.623964" lon="11.366939"><ele>1398.8</ele></trkpt><trkpt lat="47.623793" lon="11.366558"><ele>1394.1</ele></trkpt><trkpt lat="47.623684" lon="11.366254"><ele>1391.2</ele></trkpt><trkpt lat="47.623635" lon="11.366265"><ele>1391.6</ele></trkpt><trkpt lat="47.623575" lon="11.365954"><ele>1387.5</ele></trkpt><trkpt lat="47.62349" lon="11.365657"><ele>1377</ele></trkpt><trkpt lat="47.623341" lon="11.365401"><ele>1373.1</ele></trkpt><trkpt lat="47.623282" lon="11.365243"><ele>1370.2</ele></trkpt><trkpt lat="47.623187" lon="11.364785"><ele>1364.4</ele></trkpt><trkpt lat="47.623083" lon="11.364859"><ele>1363.3</ele></trkpt><trkpt lat="47.623042" lon="11.364538"><ele>1360.9</ele></trkpt><trkpt lat="47.623003" lon="11.36449"><ele>1356.9</ele></trkpt><trkpt lat="47.622945" lon="11.364237"><ele>1356.2</ele></trkpt><trkpt lat="47.622907" lon="11.364265"><ele>1356.4</ele></trkpt><trkpt lat="47.62287" lon="11.364161"><ele>1353.5</ele></trkpt><trkpt lat="47.622803" lon="11.364212"><ele>1353.8</ele></trkpt><trkpt lat="47.62282" lon="11.364077"><ele>1353.5</ele></trkpt><trkpt lat="47.622764" lon="11.364062"><ele>1352.4</ele></trkpt><trkpt lat="47.622713" lon="11.363976"><ele>1351.1</ele></trkpt><trkpt lat="47.622626" lon="11.363969"><ele>1350</ele></trkpt><trkpt lat="47.622498" lon="11.363692"><ele>1343.4</ele></trkpt><trkpt lat="47.622422" lon="11.363432"><ele>1341.6</ele></trkpt><trkpt lat="47.622256" lon="11.363297"><ele>1339.7</ele></trkpt><trkpt lat="47.622118" lon="11.363112"><ele>1337.3</ele></trkpt><trkpt lat="47.622093" lon="11.363015"><ele>1335.7</ele></trkpt><trkpt lat="47.622137" lon="11.362819"><ele>1334.1</ele></trkpt><trkpt lat="47.622028" lon="11.36264"><ele>1331.1</ele></trkpt><trkpt lat="47.621995" lon="11.362448"><ele>1326.2</ele></trkpt><trkpt lat="47.621937" lon="11.362275"><ele>1322.2</ele></trkpt><trkpt lat="47.621813" lon="11.362184"><ele>1317.3</ele></trkpt><trkpt lat="47.621728" lon="11.362153"><ele>1316.4</ele></trkpt><trkpt lat="47.621649" lon="11.362194"><ele>1303</ele></trkpt><trkpt lat="47.621574" lon="11.361961"><ele>1291.2</ele></trkpt><trkpt lat="47.621603" lon="11.361793"><ele>1292.7</ele></trkpt><trkpt lat="47.621746" lon="11.361755"><ele>1291.5</ele></trkpt><trkpt lat="47.622094" lon="11.361611"><ele>1284.4</ele></trkpt><trkpt lat="47.622733" lon="11.361484"><ele>1281.1</ele></trkpt><trkpt lat="47.622933" lon="11.36134"><ele>1270.7</ele></trkpt><trkpt lat="47.6231" lon="11.361184"><ele>1265</ele></trkpt><trkpt lat="47.62318" lon="11.36107"><ele>1264</ele></trkpt><trkpt lat="47.623181" lon="11.360982"><ele>1217</ele></trkpt><trkpt lat="47.623096" lon="11.360895"><ele>1216.8</ele></trkpt><trkpt lat="47.623021" lon="11.36078"><ele>1214.1</ele></trkpt><trkpt lat="47.622962" lon="11.36061"><ele>1213.9</ele></trkpt><trkpt lat="47.622931" lon="11.360388"><ele>1213.8</ele></trkpt><trkpt lat="47.62283" lon="11.360327"><ele>1212.5</ele></trkpt><trkpt lat="47.622722" lon="11.360224"><ele>1213.3</ele></trkpt><trkpt lat="47.622662" lon="11.36009"><ele>1212.9</ele></trkpt><trkpt lat="47.622546" lon="11.360184"><ele>1213.6</ele></trkpt><trkpt lat="47.622576" lon="11.360042"><ele>1212.9</ele></trkpt><trkpt lat="47.622493" lon="11.359935"><ele>1212.3</ele></trkpt><trkpt lat="47.622503" lon="11.35981"><ele>1210.5</ele></trkpt><trkpt lat="47.622722" lon="11.359571"><ele>1207.2</ele></trkpt><trkpt lat="47.622572" lon="11.359394"><ele>1205.6</ele></trkpt><trkpt lat="47.622343" lon="11.359364"><ele>1201.4</ele></trkpt><trkpt lat="47.622378" lon="11.359281"><ele>1199.4</ele></trkpt><trkpt lat="47.622526" lon="11.359156"><ele>1198.5</ele></trkpt><trkpt lat="47.622382" lon="11.359046"><ele>1195.6</ele></trkpt><trkpt lat="47.622564" lon="11.359023"><ele>1194.7</ele></trkpt><trkpt lat="47.622829" lon="11.358816"><ele>1193.2</ele></trkpt><trkpt lat="47.622644" lon="11.358683"><ele>1189.2</ele></trkpt><trkpt lat="47.6227" lon="11.358567"><ele>1187.1</ele></trkpt><trkpt lat="47.62272" lon="11.358401"><ele>1185</ele></trkpt><trkpt lat="47.622558" lon="11.358405"><ele>1182.3</ele></trkpt><trkpt lat="47.62253" lon="11.358221"><ele>1177.4</ele></trkpt><trkpt lat="47.622296" lon="11.358097"><ele>1169.7</ele></trkpt><trkpt lat="47.622401" lon="11.357924"><ele>1163</ele></trkpt><trkpt lat="47.622381" lon="11.357812"><ele>1160.6</ele></trkpt><trkpt lat="47.622259" lon="11.357742"><ele>1155.6</ele></trkpt><trkpt lat="47.622226" lon="11.357589"><ele>1153.2</ele></trkpt><trkpt lat="47.622034" lon="11.357363"><ele>1141.3</ele></trkpt><trkpt lat="47.622049" lon="11.35701"><ele>1124.3</ele></trkpt><trkpt lat="47.62198" lon="11.356627"><ele>1112.4</ele></trkpt><trkpt lat="47.622167" lon="11.356289"><ele>1103.1</ele></trkpt><trkpt lat="47.62216" lon="11.356095"><ele>1097.6</ele></trkpt><trkpt lat="47.621962" lon="11.355829"><ele>1087.7</ele></trkpt><trkpt lat="47.622006" lon="11.355562"><ele>1080.1</ele></trkpt><trkpt lat="47.621912" lon="11.35535"><ele>1073.2</ele></trkpt><trkpt lat="47.621683" lon="11.355026"><ele>1063.3</ele></trkpt><trkpt lat="47.622101" lon="11.354357"><ele>1046</ele></trkpt><trkpt lat="47.62187" lon="11.354242"><ele>1043.5</ele></trkpt><trkpt lat="47.621867" lon="11.353879"><ele>1035.6</ele></trkpt><trkpt lat="47.622036" lon="11.35354"><ele>1026.2</ele></trkpt><trkpt lat="47.622052" lon="11.353357"><ele>1019.8</ele></trkpt><trkpt lat="47.621982" lon="11.353205"><ele>1006.8</ele></trkpt><trkpt lat="47.621871" lon="11.353036"><ele>998.3</ele></trkpt><trkpt lat="47.621989" lon="11.352886"><ele>995.9</ele></trkpt><trkpt lat="47.621882" lon="11.352751"><ele>996.2</ele></trkpt><trkpt lat="47.621991" lon="11.352617"><ele>993.5</ele></trkpt><trkpt lat="47.622181" lon="11.352121"><ele>978.6</ele></trkpt><trkpt lat="47.622222" lon="11.351846"><ele>975.3</ele></trkpt><trkpt lat="47.622069" lon="11.351472"><ele>969.9</ele></trkpt><trkpt lat="47.622044" lon="11.351334"><ele>960.1</ele></trkpt><trkpt lat="47.622223" lon="11.351332"><ele>958.9</ele></trkpt><trkpt lat="47.622518" lon="11.35147"><ele>959.4</ele></trkpt><trkpt lat="47.622597" lon="11.351329"><ele>951.4</ele></trkpt><trkpt lat="47.622466" lon="11.350937"><ele>939</ele></trkpt><trkpt lat="47.622234" lon="11.35057"><ele>927.8</ele></trkpt><trkpt lat="47.621877" lon="11.350225"><ele>918.7</ele></trkpt><trkpt lat="47.62154" lon="11.349616"><ele>888.9</ele></trkpt><trkpt lat="47.621144" lon="11.349553"><ele>878.3</ele></trkpt><trkpt lat="47.620908" lon="11.349287"><ele>864</ele></trkpt><trkpt lat="47.62093" lon="11.349272"><ele>864</ele></trkpt><trkpt lat="47.620913" lon="11.349213"><ele>864</ele></trkpt><trkpt lat="47.620901" lon="11.349175"><ele>864</ele></trkpt><trkpt lat="47.620897" lon="11.349162"><ele>884</ele></trkpt><trkpt lat="47.620813" lon="11.349221"><ele>863.4</ele></trkpt><trkpt lat="47.620718" lon="11.349237"><ele>862.2</ele></trkpt><trkpt lat="47.620642" lon="11.349204"><ele>861.1</ele></trkpt><trkpt lat="47.620597" lon="11.349171"><ele>860.1</ele></trkpt><trkpt lat="47.620526" lon="11.348993"><ele>860.9</ele></trkpt><trkpt lat="47.620363" lon="11.34886"><ele>868</ele></trkpt><trkpt lat="47.62028" lon="11.348687"><ele>868</ele></trkpt><trkpt lat="47.620212" lon="11.348631"><ele>868</ele></trkpt><trkpt lat="47.620111" lon="11.348612"><ele>868</ele></trkpt><trkpt lat="47.620061" lon="11.34854"><ele>852.5</ele></trkpt><trkpt lat="47.620006" lon="11.348553"><ele>853.9</ele></trkpt><trkpt lat="47.61991" lon="11.348652"><ele>851.2</ele></trkpt><trkpt lat="47.619777" lon="11.349033"><ele>848.9</ele></trkpt><trkpt lat="47.619688" lon="11.34915"><ele>847.9</ele></trkpt><trkpt lat="47.619542" lon="11.349081"><ele>847</ele></trkpt><trkpt lat="47.619487" lon="11.349146"><ele>838</ele></trkpt><trkpt lat="47.619423" lon="11.349037"><ele>838</ele></trkpt><trkpt lat="47.619444" lon="11.348557"><ele>834.8</ele></trkpt><trkpt lat="47.619429" lon="11.348453"><ele>834.5</ele></trkpt><trkpt lat="47.61921" lon="11.347643"><ele>831.5</ele></trkpt><trkpt lat="47.619153" lon="11.347373"><ele>828.1</ele></trkpt><trkpt lat="47.619123" lon="11.347284"><ele>829</ele></trkpt><trkpt lat="47.619026" lon="11.347201"><ele>817</ele></trkpt><trkpt lat="47.618941" lon="11.347048"><ele>817</ele></trkpt><trkpt lat="47.618813" lon="11.346795"><ele>817</ele></trkpt><trkpt lat="47.618745" lon="11.346778"><ele>817</ele></trkpt><trkpt lat="47.618735" lon="11.346961"><ele>817</ele></trkpt><trkpt lat="47.618624" lon="11.346814"><ele>817</ele></trkpt><trkpt lat="47.618556" lon="11.346751"><ele>817</ele></trkpt><trkpt lat="47.618505" lon="11.346572"><ele>816.2</ele></trkpt><trkpt lat="47.61842" lon="11.346392"><ele>814.2</ele></trkpt><trkpt lat="47.618353" lon="11.346293"><ele>811.9</ele></trkpt><trkpt lat="47.618103" lon="11.346048"><ele>798</ele></trkpt><trkpt lat="47.617773" lon="11.345768"><ele>804.5</ele></trkpt></trkseg></trk></gpx>