<gpx xmlns="http://www.topografix.com/GPX/1/1" xmlns:xsi="http://www.w3.org/2001/XMLSchema-instance" xsi:schemaLocation="http://www.topografix.com/GPX/1/1 http://www.topografix.com/GPX/1/1/gpx.xsd" version="1.1" creator="togpx"><metadata/><wpt lat="48.47001199715102" lon="11.930487155914307"><name></name><desc>label=Bahnhofstraße 43, Moosburg an der Isar,BY,Germany</desc></wpt><wpt lat="48.46098080018206" lon="11.923390030860903"><name></name><desc>label=Münchener Straße 92, Moosburg an der Isar,BY,Germany</desc></wpt><wpt lat="48.45734154546547" lon="11.918867826461794"><name></name><desc>label=Oberreit, Moosburg an der Isar,BY,Germany</desc></wpt><wpt lat="48.441429638620946" lon="11.885704994201662"><name></name><desc>label=Schmidhausen - Moosburg, Langenbach,BY,Germany</desc></wpt><wpt lat="48.43345046005155" lon="11.883966922760012"><name></name><desc>label=Kirchenweg, Langenbach,BY,Germany</desc></wpt><wpt lat="48.42723565545583" lon="11.875298023223879"><name></name><desc>label=Kirchstraße, Langenbach,BY,Germany</desc></wpt><wpt lat="48.423647380954456" lon="11.87301278114319"><name></name><desc>label=Kaltenbachweg, Langenbach,BY,Germany</desc></wpt><wpt lat="48.40456261837628" lon="11.799842119216919"><name></name><desc>label=Eichenweg, Marzling,BY,Germany</desc></wpt><wpt lat="48.40288167668831" lon="11.785733699798586"><name></name><desc>label=Am Sportplatz, Marzling,BY,Germany</desc></wpt><wpt lat="48.40552414902494" lon="11.77713990211487"><name></name><desc>label=Damm, Freising,BY,Germany</desc></wpt><wpt lat="48.40603695793815" lon="11.767258644104004"><name></name><desc>label=Landshuter Straße, Freising,BY,Germany</desc></wpt><wpt lat="48.40507543698438" lon="11.764436960220339"><name></name><desc>label=Marzlinger Fußweg, Freising,BY,Germany</desc></wpt><wpt lat="48.402489923821506" lon="11.760821342468263"><name></name><desc>label=Parkstraße, Freising,BY,Germany</desc></wpt><wpt lat="48.40013934325875" lon="11.756991147994997"><name></name><desc>label=Damm, Freising,BY,Germany</desc></wpt><wpt lat="48.39923469694555" lon="11.754577159881594"><name></name><desc>label=Luitpoldstraße, Freising,BY,Germany</desc></wpt><wpt lat="48.39935579226654" lon="11.749711632728578"><name></name><desc>label=Heiliggeistgasse 28, Freising,BY,Germany</desc></wpt><wpt lat="48.395160027532654" lon="11.744545698165895"><name></name><desc>label=Freising, BY,Germany</desc></wpt><trk><name></name><desc>ascent=129.4
descent=101.4
opacity=0.9</desc><trkseg><trkpt lat="48.470002" lon="11.930544"><ele>416</ele></trkpt><trkpt lat="48.469777" lon="11.930456"><ele>415</ele></trkpt><trkpt lat="48.469774" lon="11.930487"><ele>415</ele></trkpt><trkpt lat="48.469772" lon="11.9305"><ele>415</ele></trkpt><trkpt lat="48.469767" lon="11.930534"><ele>415</ele></trkpt><trkpt lat="48.469779" lon="11.930538"><ele>415</ele></trkpt><trkpt lat="48.469753" lon="11.930711"><ele>415</ele></trkpt><trkpt lat="48.469724" lon="11.930699"><ele>415</ele></trkpt><trkpt lat="48.469711" lon="11.930769"><ele>415</ele></trkpt><trkpt lat="48.469443" lon="11.930663"><ele>415</ele></trkpt><trkpt lat="48.469189" lon="11.930562"><ele>415</ele></trkpt><trkpt lat="48.469052" lon="11.930506"><ele>415</ele></trkpt><trkpt lat="48.468687" lon="11.930352"><ele>415</ele></trkpt><trkpt lat="48.468544" lon="11.930245"><ele>415</ele></trkpt><trkpt lat="48.46841" lon="11.930108"><ele>415</ele></trkpt><trkpt lat="48.468307" lon="11.930003"><ele>414</ele></trkpt><trkpt lat="48.467677" lon="11.929354"><ele>416</ele></trkpt><trkpt lat="48.467484" lon="11.929147"><ele>415</ele></trkpt><trkpt lat="48.467261" lon="11.928907"><ele>415</ele></trkpt><trkpt lat="48.466868" lon="11.928379"><ele>415</ele></trkpt><trkpt lat="48.466755" lon="11.928226"><ele>415</ele></trkpt><trkpt lat="48.466644" lon="11.92807"><ele>416</ele></trkpt><trkpt lat="48.466538" lon="11.927918"><ele>416</ele></trkpt><trkpt lat="48.466083" lon="11.927266"><ele>416</ele></trkpt><trkpt lat="48.465743" lon="11.926799"><ele>420</ele></trkpt><trkpt lat="48.465583" lon="11.926595"><ele>420.8</ele></trkpt><trkpt lat="48.465429" lon="11.926526"><ele>420.7</ele></trkpt><trkpt lat="48.465156" lon="11.926529"><ele>421</ele></trkpt><trkpt lat="48.46506" lon="11.926518"><ele>422.3</ele></trkpt><trkpt lat="48.464978" lon="11.926459"><ele>425</ele></trkpt><trkpt lat="48.464919" lon="11.926649"><ele>425</ele></trkpt><trkpt lat="48.464815" lon="11.926491"><ele>425</ele></trkpt><trkpt lat="48.464738" lon="11.926223"><ele>425</ele></trkpt><trkpt lat="48.464721" lon="11.925936"><ele>425</ele></trkpt><trkpt lat="48.464736" lon="11.925634"><ele>425</ele></trkpt><trkpt lat="48.46472" lon="11.925567"><ele>425</ele></trkpt><trkpt lat="48.464523" lon="11.925219"><ele>425</ele></trkpt><trkpt lat="48.464384" lon="11.925363"><ele>425</ele></trkpt><trkpt lat="48.464205" lon="11.92559"><ele>425</ele></trkpt><trkpt lat="48.463832" lon="11.925036"><ele>428</ele></trkpt><trkpt lat="48.463233" lon="11.925462"><ele>430</ele></trkpt><trkpt lat="48.462514" lon="11.925941"><ele>430</ele></trkpt><trkpt lat="48.462259" lon="11.926141"><ele>429</ele></trkpt><trkpt lat="48.462111" lon="11.926258"><ele>429</ele></trkpt><trkpt lat="48.461875" lon="11.926441"><ele>429</ele></trkpt><trkpt lat="48.461667" lon="11.925404"><ele>423.7</ele></trkpt><trkpt lat="48.461556" lon="11.924627"><ele>423.7</ele></trkpt><trkpt lat="48.461473" lon="11.924332"><ele>423</ele></trkpt><trkpt lat="48.46125" lon="11.923815"><ele>422.3</ele></trkpt><trkpt lat="48.461134" lon="11.923584"><ele>418</ele></trkpt><trkpt lat="48.461016" lon="11.923386"><ele>417.7</ele></trkpt><trkpt lat="48.460994" lon="11.923362"><ele>417.3</ele></trkpt><trkpt lat="48.460793" lon="11.923141"><ele>417</ele></trkpt><trkpt lat="48.460617" lon="11.92299"><ele>417.3</ele></trkpt><trkpt lat="48.460296" lon="11.922771"><ele>417.2</ele></trkpt><trkpt lat="48.459928" lon="11.922565"><ele>417.2</ele></trkpt><trkpt lat="48.45987" lon="11.922512"><ele>417.2</ele></trkpt><trkpt lat="48.459795" lon="11.922382"><ele>417.3</ele></trkpt><trkpt lat="48.45979" lon="11.922273"><ele>418</ele></trkpt><trkpt lat="48.459818" lon="11.922014"><ele>417.7</ele></trkpt><trkpt lat="48.459944" lon="11.921356"><ele>417</ele></trkpt><trkpt lat="48.459909" lon="11.921342"><ele>417</ele></trkpt><trkpt lat="48.459745" lon="11.921304"><ele>417</ele></trkpt><trkpt lat="48.459673" lon="11.921287"><ele>417.6</ele></trkpt><trkpt lat="48.459311" lon="11.921102"><ele>417.4</ele></trkpt><trkpt lat="48.459116" lon="11.920958"><ele>417.6</ele></trkpt><trkpt lat="48.458982" lon="11.920679"><ele>419</ele></trkpt><trkpt lat="48.458745" lon="11.920269"><ele>422</ele></trkpt><trkpt lat="48.458492" lon="11.919777"><ele>422.3</ele></trkpt><trkpt lat="48.45828" lon="11.91929"><ele>423</ele></trkpt><trkpt lat="48.458187" lon="11.919182"><ele>422.7</ele></trkpt><trkpt lat="48.458108" lon="11.919166"><ele>424</ele></trkpt><trkpt lat="48.458045" lon="11.919224"><ele>425</ele></trkpt><trkpt lat="48.45801" lon="11.91926"><ele>425</ele></trkpt><trkpt lat="48.457938" lon="11.919424"><ele>425</ele></trkpt><trkpt lat="48.457922" lon="11.919558"><ele>425</ele></trkpt><trkpt lat="48.457853" lon="11.919714"><ele>424</ele></trkpt><trkpt lat="48.457838" lon="11.920063"><ele>421</ele></trkpt><trkpt lat="48.457791" lon="11.919909"><ele>425</ele></trkpt><trkpt lat="48.457633" lon="11.919456"><ele>425</ele></trkpt><trkpt lat="48.457559" lon="11.919292"><ele>425</ele></trkpt><trkpt lat="48.457406" lon="11.918919"><ele>427.7</ele></trkpt><trkpt lat="48.457359" lon="11.918843"><ele>427.6</ele></trkpt><trkpt lat="48.457091" lon="11.918421"><ele>427.5</ele></trkpt><trkpt lat="48.456872" lon="11.918131"><ele>427.5</ele></trkpt><trkpt lat="48.456587" lon="11.917702"><ele>428</ele></trkpt><trkpt lat="48.456263" lon="11.917143"><ele>428</ele></trkpt><trkpt lat="48.455981" lon="11.916664"><ele>426</ele></trkpt><trkpt lat="48.455923" lon="11.916584"><ele>426</ele></trkpt><trkpt lat="48.455732" lon="11.91629"><ele>426.3</ele></trkpt><trkpt lat="48.455593" lon="11.915977"><ele>426.5</ele></trkpt><trkpt lat="48.455368" lon="11.915356"><ele>426.4</ele></trkpt><trkpt lat="48.455106" lon="11.91454"><ele>425</ele></trkpt><trkpt lat="48.455114" lon="11.91442"><ele>425.2</ele></trkpt><trkpt lat="48.4551" lon="11.914285"><ele>425.5</ele></trkpt><trkpt lat="48.454911" lon="11.913665"><ele>425.8</ele></trkpt><trkpt lat="48.454575" lon="11.912716"><ele>425.9</ele></trkpt><trkpt lat="48.454556" lon="11.912499"><ele>426.1</ele></trkpt><trkpt lat="48.454454" lon="11.912206"><ele>426.1</ele></trkpt><trkpt lat="48.454137" lon="11.911649"><ele>425.8</ele></trkpt><trkpt lat="48.453912" lon="11.911098"><ele>425.8</ele></trkpt><trkpt lat="48.453569" lon="11.909886"><ele>425.7</ele></trkpt><trkpt lat="48.453049" lon="11.908682"><ele>425.9</ele></trkpt><trkpt lat="48.452639" lon="11.907867"><ele>425.5</ele></trkpt><trkpt lat="48.452106" lon="11.906935"><ele>425.9</ele></trkpt><trkpt lat="48.451679" lon="11.906259"><ele>426.5</ele></trkpt><trkpt lat="48.451325" lon="11.905736"><ele>427</ele></trkpt><trkpt lat="48.450813" lon="11.905014"><ele>428</ele></trkpt><trkpt lat="48.450682" lon="11.904824"><ele>426</ele></trkpt><trkpt lat="48.450348" lon="11.904324"><ele>426.2</ele></trkpt><trkpt lat="48.449981" lon="11.903893"><ele>425</ele></trkpt><trkpt lat="48.449897" lon="11.903767"><ele>425.3</ele></trkpt><trkpt lat="48.449738" lon="11.903458"><ele>425.3</ele></trkpt><trkpt lat="48.449423" lon="11.902957"><ele>426</ele></trkpt><trkpt lat="48.448522" lon="11.901235"><ele>427</ele></trkpt><trkpt lat="48.44764" lon="11.899226"><ele>426.6</ele></trkpt><trkpt lat="48.447346" lon="11.898371"><ele>427</ele></trkpt><trkpt lat="48.447131" lon="11.89768"><ele>428</ele></trkpt><trkpt lat="48.446575" lon="11.89578"><ele>429</ele></trkpt><trkpt lat="48.445948" lon="11.893532"><ele>429</ele></trkpt><trkpt lat="48.445424" lon="11.892032"><ele>431</ele></trkpt><trkpt lat="48.444823" lon="11.890559"><ele>431</ele></trkpt><trkpt lat="48.444545" lon="11.88995"><ele>431</ele></trkpt><trkpt lat="48.444441" lon="11.88968"><ele>431</ele></trkpt><trkpt lat="48.444307" lon="11.889263"><ele>431</ele></trkpt><trkpt lat="48.443697" lon="11.886998"><ele>433.5</ele></trkpt><trkpt lat="48.443358" lon="11.885431"><ele>434</ele></trkpt><trkpt lat="48.442731" lon="11.885638"><ele>434.1</ele></trkpt><trkpt lat="48.441918" lon="11.885776"><ele>434.8</ele></trkpt><trkpt lat="48.44143" lon="11.885707"><ele>435.4</ele></trkpt><trkpt lat="48.440469" lon="11.88557"><ele>436</ele></trkpt><trkpt lat="48.43953" lon="11.885516"><ele>435</ele></trkpt><trkpt lat="48.438942" lon="11.88545"><ele>434</ele></trkpt><trkpt lat="48.436439" lon="11.885186"><ele>431</ele></trkpt><trkpt lat="48.436194" lon="11.885047"><ele>431</ele></trkpt><trkpt lat="48.43595" lon="11.884684"><ele>431</ele></trkpt><trkpt lat="48.435911" lon="11.884615"><ele>429.5</ele></trkpt><trkpt lat="48.435679" lon="11.884529"><ele>429</ele></trkpt><trkpt lat="48.435531" lon="11.884498"><ele>427</ele></trkpt><trkpt lat="48.435471" lon="11.884189"><ele>427</ele></trkpt><trkpt lat="48.435323" lon="11.884255"><ele>426.4</ele></trkpt><trkpt lat="48.434738" lon="11.884191"><ele>426.2</ele></trkpt><trkpt lat="48.434525" lon="11.884199"><ele>426</ele></trkpt><trkpt lat="48.434438" lon="11.884141"><ele>426</ele></trkpt><trkpt lat="48.434214" lon="11.883937"><ele>426</ele></trkpt><trkpt lat="48.433928" lon="11.883713"><ele>424</ele></trkpt><trkpt lat="48.433452" lon="11.883974"><ele>424</ele></trkpt><trkpt lat="48.433358" lon="11.884026"><ele>424</ele></trkpt><trkpt lat="48.432927" lon="11.884341"><ele>424</ele></trkpt><trkpt lat="48.43276" lon="11.883703"><ele>424</ele></trkpt><trkpt lat="48.432626" lon="11.883395"><ele>424</ele></trkpt><trkpt lat="48.432516" lon="11.883225"><ele>424.3</ele></trkpt><trkpt lat="48.431963" lon="11.882504"><ele>425</ele></trkpt><trkpt lat="48.431551" lon="11.88205"><ele>423</ele></trkpt><trkpt lat="48.431193" lon="11.881521"><ele>424</ele></trkpt><trkpt lat="48.43093" lon="11.881097"><ele>424</ele></trkpt><trkpt lat="48.430816" lon="11.880953"><ele>424</ele></trkpt><trkpt lat="48.430693" lon="11.880832"><ele>424</ele></trkpt><trkpt lat="48.43055" lon="11.88074"><ele>424</ele></trkpt><trkpt lat="48.430135" lon="11.880591"><ele>424</ele></trkpt><trkpt lat="48.430139" lon="11.880408"><ele>424.2</ele></trkpt><trkpt lat="48.430054" lon="11.879985"><ele>425</ele></trkpt><trkpt lat="48.429875" lon="11.879568"><ele>424</ele></trkpt><trkpt lat="48.429617" lon="11.879104"><ele>425</ele></trkpt><trkpt lat="48.429405" lon="11.878751"><ele>425</ele></trkpt><trkpt lat="48.429171" lon="11.878308"><ele>429</ele></trkpt><trkpt lat="48.428974" lon="11.878074"><ele>428.6</ele></trkpt><trkpt lat="48.428686" lon="11.877803"><ele>428.5</ele></trkpt><trkpt lat="48.428431" lon="11.87748"><ele>428.6</ele></trkpt><trkpt lat="48.42837" lon="11.877468"><ele>429</ele></trkpt><trkpt lat="48.428307" lon="11.877182"><ele>428</ele></trkpt><trkpt lat="48.428198" lon="11.876843"><ele>430.4</ele></trkpt><trkpt lat="48.428109" lon="11.876683"><ele>430.1</ele></trkpt><trkpt lat="48.427766" lon="11.876191"><ele>430.7</ele></trkpt><trkpt lat="48.427623" lon="11.875722"><ele>436</ele></trkpt><trkpt lat="48.427439" lon="11.875223"><ele>431</ele></trkpt><trkpt lat="48.42744" lon="11.875399"><ele>431</ele></trkpt><trkpt lat="48.427235" lon="11.875302"><ele>431</ele></trkpt><trkpt lat="48.427169" lon="11.87527"><ele>431</ele></trkpt><trkpt lat="48.427063" lon="11.875523"><ele>431</ele></trkpt><trkpt lat="48.427021" lon="11.875636"><ele>431</ele></trkpt><trkpt lat="48.426999" lon="11.875692"><ele>431</ele></trkpt><trkpt lat="48.42661" lon="11.875372"><ele>430.2</ele></trkpt><trkpt lat="48.426268" lon="11.875332"><ele>430</ele></trkpt><trkpt lat="48.426204" lon="11.875322"><ele>430</ele></trkpt><trkpt lat="48.425913" lon="11.875195"><ele>430</ele></trkpt><trkpt lat="48.425578" lon="11.87512"><ele>430</ele></trkpt><trkpt lat="48.425092" lon="11.874808"><ele>429.7</ele></trkpt><trkpt lat="48.424776" lon="11.874564"><ele>429.9</ele></trkpt><trkpt lat="48.42448" lon="11.874194"><ele>430</ele></trkpt><trkpt lat="48.424627" lon="11.87381"><ele>430</ele></trkpt><trkpt lat="48.424164" lon="11.873397"><ele>428.3</ele></trkpt><trkpt lat="48.424022" lon="11.873327"><ele>428.4</ele></trkpt><trkpt lat="48.423868" lon="11.873285"><ele>428.1</ele></trkpt><trkpt lat="48.423801" lon="11.873243"><ele>428.1</ele></trkpt><trkpt lat="48.423696" lon="11.873124"><ele>428</ele></trkpt><trkpt lat="48.423637" lon="11.873027"><ele>427.9</ele></trkpt><trkpt lat="48.423625" lon="11.873008"><ele>427.9</ele></trkpt><trkpt lat="48.423492" lon="11.87269"><ele>427.7</ele></trkpt><trkpt lat="48.423434" lon="11.872598"><ele>427.6</ele></trkpt><trkpt lat="48.422836" lon="11.872269"><ele>424</ele></trkpt><trkpt lat="48.422679" lon="11.872238"><ele>426.2</ele></trkpt><trkpt lat="48.422176" lon="11.87197"><ele>427.1</ele></trkpt><trkpt lat="48.421914" lon="11.871866"><ele>430</ele></trkpt><trkpt lat="48.421819" lon="11.871836"><ele>430</ele></trkpt><trkpt lat="48.42157" lon="11.871905"><ele>433</ele></trkpt><trkpt lat="48.42112" lon="11.871687"><ele>433</ele></trkpt><trkpt lat="48.42085" lon="11.871647"><ele>431</ele></trkpt><trkpt lat="48.420761" lon="11.871601"><ele>433.5</ele></trkpt><trkpt lat="48.420565" lon="11.87129"><ele>433.6</ele></trkpt><trkpt lat="48.420448" lon="11.871176"><ele>433.6</ele></trkpt><trkpt lat="48.420365" lon="11.871175"><ele>433.7</ele></trkpt><trkpt lat="48.420281" lon="11.871227"><ele>433.7</ele></trkpt><trkpt lat="48.420145" lon="11.871384"><ele>434</ele></trkpt><trkpt lat="48.418156" lon="11.873977"><ele>431.1</ele></trkpt><trkpt lat="48.418062" lon="11.874044"><ele>430.9</ele></trkpt><trkpt lat="48.417987" lon="11.874053"><ele>430.8</ele></trkpt><trkpt lat="48.417921" lon="11.874038"><ele>430.7</ele></trkpt><trkpt lat="48.41771" lon="11.873927"><ele>430</ele></trkpt><trkpt lat="48.417684" lon="11.873436"><ele>429.6</ele></trkpt><trkpt lat="48.417686" lon="11.872706"><ele>429.3</ele></trkpt><trkpt lat="48.417729" lon="11.871453"><ele>429.5</ele></trkpt><trkpt lat="48.417967" lon="11.868875"><ele>432.5</ele></trkpt><trkpt lat="48.418177" lon="11.865847"><ele>431</ele></trkpt><trkpt lat="48.418256" lon="11.865067"><ele>430.6</ele></trkpt><trkpt lat="48.418475" lon="11.8624"><ele>429.8</ele></trkpt><trkpt lat="48.418543" lon="11.861276"><ele>430.1</ele></trkpt><trkpt lat="48.418548" lon="11.860455"><ele>430.4</ele></trkpt><trkpt lat="48.418478" lon="11.859571"><ele>430.6</ele></trkpt><trkpt lat="48.418346" lon="11.858663"><ele>430.7</ele></trkpt><trkpt lat="48.418216" lon="11.857973"><ele>430.3</ele></trkpt><trkpt lat="48.417856" lon="11.856511"><ele>430.6</ele></trkpt><trkpt lat="48.417313" lon="11.855071"><ele>431.7</ele></trkpt><trkpt lat="48.416881" lon="11.854185"><ele>431.6</ele></trkpt><trkpt lat="48.416575" lon="11.853665"><ele>431.6</ele></trkpt><trkpt lat="48.415689" lon="11.852285"><ele>431.7</ele></trkpt><trkpt lat="48.414713" lon="11.850541"><ele>432</ele></trkpt><trkpt lat="48.414031" lon="11.849205"><ele>433.1</ele></trkpt><trkpt lat="48.413428" lon="11.847824"><ele>433.2</ele></trkpt><trkpt lat="48.412836" lon="11.846363"><ele>432.8</ele></trkpt><trkpt lat="48.412701" lon="11.845991"><ele>432.8</ele></trkpt><trkpt lat="48.412371" lon="11.844936"><ele>432.9</ele></trkpt><trkpt lat="48.412202" lon="11.844302"><ele>432.2</ele></trkpt><trkpt lat="48.412036" lon="11.843585"><ele>431.4</ele></trkpt><trkpt lat="48.411717" lon="11.842015"><ele>433.2</ele></trkpt><trkpt lat="48.41136" lon="11.840671"><ele>433</ele></trkpt><trkpt lat="48.410916" lon="11.839206"><ele>431.8</ele></trkpt><trkpt lat="48.41055" lon="11.838331"><ele>431.8</ele></trkpt><trkpt lat="48.4101" lon="11.837374"><ele>432.9</ele></trkpt><trkpt lat="48.409483" lon="11.836195"><ele>433</ele></trkpt><trkpt lat="48.409452" lon="11.836118"><ele>432.9</ele></trkpt><trkpt lat="48.409419" lon="11.83595"><ele>432.7</ele></trkpt><trkpt lat="48.409435" lon="11.835623"><ele>434</ele></trkpt><trkpt lat="48.409323" lon="11.835442"><ele>433.4</ele></trkpt><trkpt lat="48.408564" lon="11.833934"><ele>432.2</ele></trkpt><trkpt lat="48.407897" lon="11.83286"><ele>431.6</ele></trkpt><trkpt lat="48.407743" lon="11.832553"><ele>431.6</ele></trkpt><trkpt lat="48.407662" lon="11.832318"><ele>431.2</ele></trkpt><trkpt lat="48.407622" lon="11.832149"><ele>431</ele></trkpt><trkpt lat="48.407594" lon="11.831864"><ele>430.7</ele></trkpt><trkpt lat="48.407565" lon="11.831106"><ele>430.6</ele></trkpt><trkpt lat="48.40754" lon="11.830953"><ele>430.7</ele></trkpt><trkpt lat="48.406984" lon="11.82986"><ele>433</ele></trkpt><trkpt lat="48.406859" lon="11.829579"><ele>432.8</ele></trkpt><trkpt lat="48.40682" lon="11.829404"><ele>432.9</ele></trkpt><trkpt lat="48.406855" lon="11.828857"><ele>432.8</ele></trkpt><trkpt lat="48.406851" lon="11.828493"><ele>432.7</ele></trkpt><trkpt lat="48.406833" lon="11.828341"><ele>432.7</ele></trkpt><trkpt lat="48.406678" lon="11.827825"><ele>433</ele></trkpt><trkpt lat="48.406657" lon="11.827321"><ele>432.2</ele></trkpt><trkpt lat="48.406727" lon="11.826514"><ele>432.4</ele></trkpt><trkpt lat="48.406798" lon="11.825911"><ele>432.4</ele></trkpt><trkpt lat="48.406839" lon="11.825337"><ele>432.4</ele></trkpt><trkpt lat="48.406815" lon="11.825182"><ele>432.3</ele></trkpt><trkpt lat="48.406735" lon="11.824901"><ele>432.5</ele></trkpt><trkpt lat="48.40672" lon="11.824755"><ele>432.7</ele></trkpt><trkpt lat="48.406727" lon="11.824662"><ele>434</ele></trkpt><trkpt lat="48.406794" lon="11.823998"><ele>434</ele></trkpt><trkpt lat="48.406826" lon="11.822763"><ele>434.4</ele></trkpt><trkpt lat="48.406818" lon="11.822484"><ele>434.6</ele></trkpt><trkpt lat="48.406764" lon="11.821412"><ele>435.8</ele></trkpt><trkpt lat="48.40647" lon="11.818938"><ele>435.3</ele></trkpt><trkpt lat="48.406424" lon="11.817857"><ele>435</ele></trkpt><trkpt lat="48.406317" lon="11.817166"><ele>436.8</ele></trkpt><trkpt lat="48.406294" lon="11.816903"><ele>436.9</ele></trkpt><trkpt lat="48.406251" lon="11.815864"><ele>436.7</ele></trkpt><trkpt lat="48.406306" lon="11.811954"><ele>437.3</ele></trkpt><trkpt lat="48.406282" lon="11.810288"><ele>437.3</ele></trkpt><trkpt lat="48.40626" lon="11.809731"><ele>437.9</ele></trkpt><trkpt lat="48.40605" lon="11.80724"><ele>439</ele></trkpt><trkpt lat="48.405999" lon="11.806246"><ele>439.4</ele></trkpt><trkpt lat="48.40588" lon="11.804827"><ele>440</ele></trkpt><trkpt lat="48.40585" lon="11.804535"><ele>440.2</ele></trkpt><trkpt lat="48.405771" lon="11.804122"><ele>440.7</ele></trkpt><trkpt lat="48.405627" lon="11.803587"><ele>441</ele></trkpt><trkpt lat="48.405513" lon="11.803043"><ele>440.2</ele></trkpt><trkpt lat="48.405151" lon="11.801769"><ele>440.2</ele></trkpt><trkpt lat="48.404536" lon="11.799861"><ele>440.1</ele></trkpt><trkpt lat="48.404459" lon="11.799622"><ele>440</ele></trkpt><trkpt lat="48.404282" lon="11.799003"><ele>440</ele></trkpt><trkpt lat="48.403894" lon="11.797435"><ele>439.9</ele></trkpt><trkpt lat="48.40373" lon="11.796561"><ele>439.7</ele></trkpt><trkpt lat="48.403184" lon="11.793153"><ele>441</ele></trkpt><trkpt lat="48.403157" lon="11.792819"><ele>441</ele></trkpt><trkpt lat="48.403072" lon="11.792535"><ele>442.4</ele></trkpt><trkpt lat="48.403022" lon="11.79216"><ele>442.8</ele></trkpt><trkpt lat="48.403022" lon="11.791929"><ele>443</ele></trkpt><trkpt lat="48.403051" lon="11.791701"><ele>444</ele></trkpt><trkpt lat="48.402924" lon="11.791368"><ele>442.9</ele></trkpt><trkpt lat="48.402892" lon="11.791253"><ele>442.9</ele></trkpt><trkpt lat="48.402846" lon="11.790967"><ele>442.9</ele></trkpt><trkpt lat="48.402765" lon="11.790213"><ele>442.4</ele></trkpt><trkpt lat="48.402697" lon="11.789374"><ele>442.1</ele></trkpt><trkpt lat="48.402663" lon="11.78864"><ele>442.3</ele></trkpt><trkpt lat="48.402701" lon="11.787271"><ele>443.5</ele></trkpt><trkpt lat="48.402783" lon="11.78634"><ele>443.8</ele></trkpt><trkpt lat="48.402859" lon="11.785759"><ele>443.9</ele></trkpt><trkpt lat="48.402865" lon="11.785726"><ele>443.9</ele></trkpt><trkpt lat="48.403014" lon="11.785011"><ele>443.9</ele></trkpt><trkpt lat="48.403094" lon="11.784448"><ele>443.9</ele></trkpt><trkpt lat="48.403352" lon="11.783525"><ele>444</ele></trkpt><trkpt lat="48.403767" lon="11.782232"><ele>445</ele></trkpt><trkpt lat="48.404391" lon="11.780294"><ele>444.6</ele></trkpt><trkpt lat="48.404756" lon="11.779381"><ele>444.3</ele></trkpt><trkpt lat="48.40535" lon="11.777615"><ele>442.2</ele></trkpt><trkpt lat="48.405466" lon="11.777217"><ele>441.6</ele></trkpt><trkpt lat="48.40549" lon="11.777121"><ele>441.9</ele></trkpt><trkpt lat="48.405799" lon="11.775859"><ele>442.1</ele></trkpt><trkpt lat="48.406064" lon="11.774442"><ele>442.3</ele></trkpt><trkpt lat="48.406174" lon="11.773384"><ele>443.2</ele></trkpt><trkpt lat="48.406248" lon="11.772182"><ele>443.5</ele></trkpt><trkpt lat="48.406316" lon="11.770367"><ele>443.6</ele></trkpt><trkpt lat="48.406323" lon="11.769776"><ele>443.8</ele></trkpt><trkpt lat="48.406262" lon="11.768886"><ele>444</ele></trkpt><trkpt lat="48.40615" lon="11.767908"><ele>443</ele></trkpt><trkpt lat="48.406042" lon="11.767293"><ele>442.9</ele></trkpt><trkpt lat="48.406033" lon="11.767261"><ele>442.4</ele></trkpt><trkpt lat="48.405556" lon="11.765608"><ele>442</ele></trkpt><trkpt lat="48.405082" lon="11.764431"><ele>442.3</ele></trkpt><trkpt lat="48.40498" lon="11.764175"><ele>442.5</ele></trkpt><trkpt lat="48.40468" lon="11.763565"><ele>442.5</ele></trkpt><trkpt lat="48.404327" lon="11.762977"><ele>442.6</ele></trkpt><trkpt lat="48.40407" lon="11.762618"><ele>442.8</ele></trkpt><trkpt lat="48.40334" lon="11.761721"><ele>443.5</ele></trkpt><trkpt lat="48.403092" lon="11.76146"><ele>443</ele></trkpt><trkpt lat="48.402856" lon="11.761224"><ele>443</ele></trkpt><trkpt lat="48.402614" lon="11.760922"><ele>443</ele></trkpt><trkpt lat="48.4025" lon="11.7608"><ele>443</ele></trkpt><trkpt lat="48.40233" lon="11.760619"><ele>443</ele></trkpt><trkpt lat="48.40204" lon="11.76031"><ele>443</ele></trkpt><trkpt lat="48.401784" lon="11.760013"><ele>443.6</ele></trkpt><trkpt lat="48.401412" lon="11.75952"><ele>445</ele></trkpt><trkpt lat="48.401034" lon="11.758928"><ele>444</ele></trkpt><trkpt lat="48.400782" lon="11.75844"><ele>441</ele></trkpt><trkpt lat="48.400644" lon="11.758161"><ele>441</ele></trkpt><trkpt lat="48.400545" lon="11.757859"><ele>441</ele></trkpt><trkpt lat="48.400399" lon="11.757511"><ele>441</ele></trkpt><trkpt lat="48.40032" lon="11.757324"><ele>444</ele></trkpt><trkpt lat="48.400151" lon="11.756979"><ele>443.9</ele></trkpt><trkpt lat="48.400124" lon="11.756923"><ele>443.8</ele></trkpt><trkpt lat="48.399978" lon="11.75656"><ele>443</ele></trkpt><trkpt lat="48.399943" lon="11.756459"><ele>443</ele></trkpt><trkpt lat="48.399274" lon="11.754726"><ele>443.8</ele></trkpt><trkpt lat="48.399232" lon="11.754579"><ele>443.9</ele></trkpt><trkpt lat="48.399152" lon="11.754293"><ele>444</ele></trkpt><trkpt lat="48.399024" lon="11.753701"><ele>444</ele></trkpt><trkpt lat="48.398951" lon="11.753518"><ele>444</ele></trkpt><trkpt lat="48.39894" lon="11.753493"><ele>444</ele></trkpt><trkpt lat="48.398958" lon="11.753137"><ele>443</ele></trkpt><trkpt lat="48.398005" lon="11.751375"><ele>445</ele></trkpt><trkpt lat="48.397942" lon="11.751281"><ele>445</ele></trkpt><trkpt lat="48.39798" lon="11.751245"><ele>445</ele></trkpt><trkpt lat="48.398033" lon="11.751196"><ele>445</ele></trkpt><trkpt lat="48.398063" lon="11.751168"><ele>445</ele></trkpt><trkpt lat="48.398081" lon="11.751081"><ele>445</ele></trkpt><trkpt lat="48.39817" lon="11.750992"><ele>445</ele></trkpt><trkpt lat="48.398327" lon="11.750863"><ele>445</ele></trkpt><trkpt lat="48.398518" lon="11.750737"><ele>446</ele></trkpt><trkpt lat="48.398536" lon="11.75072"><ele>446</ele></trkpt><trkpt lat="48.398562" lon="11.750698"><ele>446</ele></trkpt><trkpt lat="48.398593" lon="11.750672"><ele>446</ele></trkpt><trkpt lat="48.398698" lon="11.750584"><ele>446</ele></trkpt><trkpt lat="48.39879" lon="11.750515"><ele>446</ele></trkpt><trkpt lat="48.398835" lon="11.750493"><ele>446</ele></trkpt><trkpt lat="48.398871" lon="11.750475"><ele>446</ele></trkpt><trkpt lat="48.398882" lon="11.750469"><ele>446</ele></trkpt><trkpt lat="48.398903" lon="11.750423"><ele>446</ele></trkpt><trkpt lat="48.399068" lon="11.750291"><ele>446</ele></trkpt><trkpt lat="48.399096" lon="11.750316"><ele>446</ele></trkpt><trkpt lat="48.399212" lon="11.750237"><ele>443</ele></trkpt><trkpt lat="48.399598" lon="11.749968"><ele>445</ele></trkpt><trkpt lat="48.399713" lon="11.74989"><ele>445</ele></trkpt><trkpt lat="48.399753" lon="11.749841"><ele>445</ele></trkpt><trkpt lat="48.399536" lon="11.749943"><ele>445</ele></trkpt><trkpt lat="48.399353" lon="11.749716"><ele>444.6</ele></trkpt><trkpt lat="48.399072" lon="11.749369"><ele>444.3</ele></trkpt><trkpt lat="48.398356" lon="11.748392"><ele>444</ele></trkpt><trkpt lat="48.398028" lon="11.747936"><ele>443</ele></trkpt><trkpt lat="48.397428" lon="11.747097"><ele>443.2</ele></trkpt><trkpt lat="48.397286" lon="11.746872"><ele>443</ele></trkpt><trkpt lat="48.397266" lon="11.746911"><ele>443</ele></trkpt><trkpt lat="48.39723" lon="11.746978"><ele>443</ele></trkpt><trkpt lat="48.397214" lon="11.747009"><ele>443</ele></trkpt><trkpt lat="48.396909" lon="11.746556"><ele>446</ele></trkpt><trkpt lat="48.396765" lon="11.746295"><ele>446</ele></trkpt><trkpt lat="48.396655" lon="11.746058"><ele>443</ele></trkpt><trkpt lat="48.396544" lon="11.746046"><ele>443</ele></trkpt><trkpt lat="48.396497" lon="11.745983"><ele>443</ele></trkpt><trkpt lat="48.396454" lon="11.745927"><ele>443</ele></trkpt><trkpt lat="48.396423" lon="11.745886"><ele>443</ele></trkpt><trkpt lat="48.396387" lon="11.74584"><ele>443</ele></trkpt><trkpt lat="48.396354" lon="11.745796"><ele>443</ele></trkpt><trkpt lat="48.396314" lon="11.745743"><ele>443</ele></trkpt><trkpt lat="48.396269" lon="11.745684"><ele>443</ele></trkpt><trkpt lat="48.396131" lon="11.74548"><ele>443</ele></trkpt><trkpt lat="48.396105" lon="11.74545"><ele>443</ele></trkpt><trkpt lat="48.396088" lon="11.745472"><ele>443</ele></trkpt><trkpt lat="48.395943" lon="11.745272"><ele>443</ele></trkpt><trkpt lat="48.395867" lon="11.745161"><ele>443</ele></trkpt><trkpt lat="48.395849" lon="11.745022"><ele>443</ele></trkpt><trkpt lat="48.395846" lon="11.74497"><ele>443</ele></trkpt><trkpt lat="48.395843" lon="11.744923"><ele>443</ele></trkpt><trkpt lat="48.395839" lon="11.744831"><ele>443</ele></trkpt><trkpt lat="48.395825" lon="11.744723"><ele>443.5</ele></trkpt><trkpt lat="48.395766" lon="11.74464"><ele>444</ele></trkpt><trkpt lat="48.395731" lon="11.744595"><ele>444</ele></trkpt><trkpt lat="48.395698" lon="11.744551"><ele>444</ele></trkpt><trkpt lat="48.395633" lon="11.744456"><ele>444</ele></trkpt><trkpt lat="48.395515" lon="11.74467"><ele>444</ele></trkpt><trkpt lat="48.395319" lon="11.74442"><ele>444</ele></trkpt><trkpt lat="48.395261" lon="11.744344"><ele>444</ele></trkpt><trkpt lat="48.395241" lon="11.744359"><ele>444</ele></trkpt><trkpt lat="48.395179" lon="11.74428"><ele>444</ele></trkpt><trkpt lat="48.395167" lon="11.744264"><ele>444</ele></trkpt><trkpt lat="48.395107" lon="11.744365"><ele>444</ele></trkpt><trkpt lat="48.395097" lon="11.744381"><ele>444</ele></trkpt><trkpt lat="48.395116" lon="11.744406"><ele>444</ele></trkpt><trkpt lat="48.395128" lon="11.744394"><ele>444</ele></trkpt><trkpt lat="48.395168" lon="11.744447"><ele>444</ele></trkpt><trkpt lat="48.39515" lon="11.744479"><ele>444</ele></trkpt></trkseg></trk></gpx>