<gpx xmlns="http://www.topografix.com/GPX/1/1" xmlns:xsi="http://www.w3.org/2001/XMLSchema-instance" xsi:schemaLocation="http://www.topografix.com/GPX/1/1 http://www.topografix.com/GPX/1/1/gpx.xsd" version="1.1" creator="togpx"><metadata/><wpt lat="47.41097685930236" lon="10.278439340345333"><name></name><desc>label=Bahnhofstraße 2, Oberstdorf,BY,Germany</desc></wpt><wpt lat="47.40585790294714" lon="10.291667448964253"><name></name><desc>label=Oytalstraße, Oberstdorf,BY,Germany</desc></wpt><wpt lat="47.38948116288088" lon="10.345462680979836"><name></name><desc>label=Gleitweg, Oberstdorf,BY,Germany</desc></wpt><wpt lat="47.39842182349771" lon="10.340666123465743"><name></name><desc>label=Seealpsee, Oberstdorf,BY,Germany</desc></wpt><wpt lat="47.42185934141239" lon="10.342345489989386"><name></name><desc>label=Nordwandsteig, Oberstdorf,BY,Germany</desc></wpt><wpt lat="47.410417791816464" lon="10.277419210888146"><name></name><desc>label=Bahnhofplatz, Oberstdorf,BY,Germany</desc></wpt><trk><name></name><desc>ascent=1469.1
descent=1515.8
transfers=0
fare=0
opacity=0.9</desc><trkseg><trkpt lat="47.410986" lon="10.278451"><ele>809</ele></trkpt><trkpt lat="47.410686" lon="10.278931"><ele>810</ele></trkpt><trkpt lat="47.410597" lon="10.279033"><ele>810.2</ele></trkpt><trkpt lat="47.410382" lon="10.279225"><ele>810.4</ele></trkpt><trkpt lat="47.409707" lon="10.279558"><ele>811.7</ele></trkpt><trkpt lat="47.409625" lon="10.279594"><ele>811.9</ele></trkpt><trkpt lat="47.409284" lon="10.279541"><ele>812.4</ele></trkpt><trkpt lat="47.409146" lon="10.27952"><ele>812.6</ele></trkpt><trkpt lat="47.408961" lon="10.279491"><ele>813.3</ele></trkpt><trkpt lat="47.408658" lon="10.280201"><ele>814.8</ele></trkpt><trkpt lat="47.408431" lon="10.280532"><ele>815.4</ele></trkpt><trkpt lat="47.408198" lon="10.280832"><ele>815.9</ele></trkpt><trkpt lat="47.407356" lon="10.281923"><ele>818.1</ele></trkpt><trkpt lat="47.407288" lon="10.282059"><ele>818.3</ele></trkpt><trkpt lat="47.407084" lon="10.282572"><ele>819.4</ele></trkpt><trkpt lat="47.406876" lon="10.283068"><ele>820.3</ele></trkpt><trkpt lat="47.406794" lon="10.2834"><ele>820.7</ele></trkpt><trkpt lat="47.406785" lon="10.283461"><ele>820.9</ele></trkpt><trkpt lat="47.406781" lon="10.283674"><ele>821.1</ele></trkpt><trkpt lat="47.406724" lon="10.283945"><ele>821.5</ele></trkpt><trkpt lat="47.406697" lon="10.284223"><ele>821.9</ele></trkpt><trkpt lat="47.406681" lon="10.284749"><ele>822.3</ele></trkpt><trkpt lat="47.406705" lon="10.284797"><ele>822.5</ele></trkpt><trkpt lat="47.406751" lon="10.284919"><ele>822.6</ele></trkpt><trkpt lat="47.406805" lon="10.285006"><ele>822.7</ele></trkpt><trkpt lat="47.406765" lon="10.285084"><ele>822.7</ele></trkpt><trkpt lat="47.406743" lon="10.285197"><ele>822.8</ele></trkpt><trkpt lat="47.406748" lon="10.285368"><ele>822.8</ele></trkpt><trkpt lat="47.406749" lon="10.2854"><ele>822.9</ele></trkpt><trkpt lat="47.406752" lon="10.285457"><ele>822.9</ele></trkpt><trkpt lat="47.406797" lon="10.285737"><ele>823</ele></trkpt><trkpt lat="47.406847" lon="10.285856"><ele>823</ele></trkpt><trkpt lat="47.406945" lon="10.285993"><ele>823</ele></trkpt><trkpt lat="47.406816" lon="10.28613"><ele>823</ele></trkpt><trkpt lat="47.406618" lon="10.286256"><ele>823</ele></trkpt><trkpt lat="47.406595" lon="10.286293"><ele>823.1</ele></trkpt><trkpt lat="47.406563" lon="10.286418"><ele>823.1</ele></trkpt><trkpt lat="47.406567" lon="10.286445"><ele>823.2</ele></trkpt><trkpt lat="47.406556" lon="10.286448"><ele>823.2</ele></trkpt><trkpt lat="47.406456" lon="10.286491"><ele>823.3</ele></trkpt><trkpt lat="47.406383" lon="10.286529"><ele>823.3</ele></trkpt><trkpt lat="47.406173" lon="10.286673"><ele>823.6</ele></trkpt><trkpt lat="47.406271" lon="10.286982"><ele>823.9</ele></trkpt><trkpt lat="47.406295" lon="10.287121"><ele>824</ele></trkpt><trkpt lat="47.406309" lon="10.287282"><ele>824.2</ele></trkpt><trkpt lat="47.406304" lon="10.287458"><ele>824.3</ele></trkpt><trkpt lat="47.406302" lon="10.287488"><ele>824.5</ele></trkpt><trkpt lat="47.406264" lon="10.287876"><ele>825</ele></trkpt><trkpt lat="47.406166" lon="10.288043"><ele>825.3</ele></trkpt><trkpt lat="47.406145" lon="10.288104"><ele>825.6</ele></trkpt><trkpt lat="47.406147" lon="10.288174"><ele>825.9</ele></trkpt><trkpt lat="47.406364" lon="10.289181"><ele>829.5</ele></trkpt><trkpt lat="47.405923" lon="10.289159"><ele>831.4</ele></trkpt><trkpt lat="47.405911" lon="10.289356"><ele>832.1</ele></trkpt><trkpt lat="47.405818" lon="10.290082"><ele>835.8</ele></trkpt><trkpt lat="47.405773" lon="10.290291"><ele>836.5</ele></trkpt><trkpt lat="47.405745" lon="10.290328"><ele>837.3</ele></trkpt><trkpt lat="47.405644" lon="10.290364"><ele>838</ele></trkpt><trkpt lat="47.405822" lon="10.290841"><ele>841.6</ele></trkpt><trkpt lat="47.405861" lon="10.290984"><ele>842.3</ele></trkpt><trkpt lat="47.405899" lon="10.291131"><ele>843</ele></trkpt><trkpt lat="47.405916" lon="10.291559"><ele>844.9</ele></trkpt><trkpt lat="47.405942" lon="10.29162"><ele>845.7</ele></trkpt><trkpt lat="47.405855" lon="10.291651"><ele>846.7</ele></trkpt><trkpt lat="47.405942" lon="10.29162"><ele>852.8</ele></trkpt><trkpt lat="47.405916" lon="10.291559"><ele>851.9</ele></trkpt><trkpt lat="47.405899" lon="10.291131"><ele>850.9</ele></trkpt><trkpt lat="47.405861" lon="10.290984"><ele>850.8</ele></trkpt><trkpt lat="47.405822" lon="10.290841"><ele>851.1</ele></trkpt><trkpt lat="47.405644" lon="10.290364"><ele>849.9</ele></trkpt><trkpt lat="47.40536" lon="10.289662"><ele>847.1</ele></trkpt><trkpt lat="47.40521" lon="10.289331"><ele>846.3</ele></trkpt><trkpt lat="47.4051" lon="10.289174"><ele>845.4</ele></trkpt><trkpt lat="47.404871" lon="10.288962"><ele>842.7</ele></trkpt><trkpt lat="47.404565" lon="10.288901"><ele>839.6</ele></trkpt><trkpt lat="47.40428" lon="10.288782"><ele>836.1</ele></trkpt><trkpt lat="47.404169" lon="10.28873"><ele>835.1</ele></trkpt><trkpt lat="47.404054" lon="10.288548"><ele>834.6</ele></trkpt><trkpt lat="47.403847" lon="10.288107"><ele>832.8</ele></trkpt><trkpt lat="47.403737" lon="10.287672"><ele>831.7</ele></trkpt><trkpt lat="47.403725" lon="10.28744"><ele>831.5</ele></trkpt><trkpt lat="47.403744" lon="10.287367"><ele>831.4</ele></trkpt><trkpt lat="47.403807" lon="10.287284"><ele>831.4</ele></trkpt><trkpt lat="47.403769" lon="10.287183"><ele>831.5</ele></trkpt><trkpt lat="47.403751" lon="10.287083"><ele>831.8</ele></trkpt><trkpt lat="47.403745" lon="10.286805"><ele>832.4</ele></trkpt><trkpt lat="47.403746" lon="10.28678"><ele>832.7</ele></trkpt><trkpt lat="47.403768" lon="10.286434"><ele>833.3</ele></trkpt><trkpt lat="47.403771" lon="10.286379"><ele>833.6</ele></trkpt><trkpt lat="47.403675" lon="10.286423"><ele>833.9</ele></trkpt><trkpt lat="47.403472" lon="10.286497"><ele>834.8</ele></trkpt><trkpt lat="47.403238" lon="10.286529"><ele>836.3</ele></trkpt><trkpt lat="47.402772" lon="10.286552"><ele>841</ele></trkpt><trkpt lat="47.402603" lon="10.286524"><ele>842</ele></trkpt><trkpt lat="47.402404" lon="10.286428"><ele>844.2</ele></trkpt><trkpt lat="47.402108" lon="10.286429"><ele>848.1</ele></trkpt><trkpt lat="47.40188" lon="10.286471"><ele>851.1</ele></trkpt><trkpt lat="47.401508" lon="10.286467"><ele>857.1</ele></trkpt><trkpt lat="47.401066" lon="10.286626"><ele>864.8</ele></trkpt><trkpt lat="47.400639" lon="10.286853"><ele>871.9</ele></trkpt><trkpt lat="47.400155" lon="10.286983"><ele>875.4</ele></trkpt><trkpt lat="47.399787" lon="10.287259"><ele>876.8</ele></trkpt><trkpt lat="47.399689" lon="10.287314"><ele>877</ele></trkpt><trkpt lat="47.399538" lon="10.287328"><ele>876.8</ele></trkpt><trkpt lat="47.399431" lon="10.287382"><ele>876.4</ele></trkpt><trkpt lat="47.39925" lon="10.287565"><ele>874.8</ele></trkpt><trkpt lat="47.399083" lon="10.287654"><ele>873.6</ele></trkpt><trkpt lat="47.398954" lon="10.287763"><ele>872.6</ele></trkpt><trkpt lat="47.398504" lon="10.28822"><ele>868.7</ele></trkpt><trkpt lat="47.398335" lon="10.288266"><ele>868.3</ele></trkpt><trkpt lat="47.397865" lon="10.288266"><ele>867.2</ele></trkpt><trkpt lat="47.39767" lon="10.288299"><ele>867.2</ele></trkpt><trkpt lat="47.397469" lon="10.288262"><ele>867.4</ele></trkpt><trkpt lat="47.3973" lon="10.288266"><ele>867.6</ele></trkpt><trkpt lat="47.397065" lon="10.288318"><ele>868</ele></trkpt><trkpt lat="47.396887" lon="10.288432"><ele>868.2</ele></trkpt><trkpt lat="47.396712" lon="10.288574"><ele>869.6</ele></trkpt><trkpt lat="47.396604" lon="10.288702"><ele>870.6</ele></trkpt><trkpt lat="47.396507" lon="10.288864"><ele>871.6</ele></trkpt><trkpt lat="47.396412" lon="10.289168"><ele>873.6</ele></trkpt><trkpt lat="47.396352" lon="10.289494"><ele>875.5</ele></trkpt><trkpt lat="47.396348" lon="10.290431"><ele>881.1</ele></trkpt><trkpt lat="47.396383" lon="10.290935"><ele>882.9</ele></trkpt><trkpt lat="47.396397" lon="10.291396"><ele>884.1</ele></trkpt><trkpt lat="47.39638" lon="10.291588"><ele>883.7</ele></trkpt><trkpt lat="47.396122" lon="10.291985"><ele>881.2</ele></trkpt><trkpt lat="47.395982" lon="10.29217"><ele>879.9</ele></trkpt><trkpt lat="47.395688" lon="10.292508"><ele>877.4</ele></trkpt><trkpt lat="47.395532" lon="10.292655"><ele>876.3</ele></trkpt><trkpt lat="47.395378" lon="10.292759"><ele>875.8</ele></trkpt><trkpt lat="47.395297" lon="10.292772"><ele>875.3</ele></trkpt><trkpt lat="47.394992" lon="10.292676"><ele>873.4</ele></trkpt><trkpt lat="47.394722" lon="10.292613"><ele>871.5</ele></trkpt><trkpt lat="47.394637" lon="10.292633"><ele>870.9</ele></trkpt><trkpt lat="47.39417" lon="10.292953"><ele>868.2</ele></trkpt><trkpt lat="47.393963" lon="10.293018"><ele>867.1</ele></trkpt><trkpt lat="47.393745" lon="10.292998"><ele>866.1</ele></trkpt><trkpt lat="47.393671" lon="10.293045"><ele>865.5</ele></trkpt><trkpt lat="47.393681" lon="10.293075"><ele>865</ele></trkpt><trkpt lat="47.393741" lon="10.293243"><ele>864.4</ele></trkpt><trkpt lat="47.393763" lon="10.293305"><ele>863.9</ele></trkpt><trkpt lat="47.393626" lon="10.293567"><ele>862.8</ele></trkpt><trkpt lat="47.393467" lon="10.293755"><ele>861.9</ele></trkpt><trkpt lat="47.393363" lon="10.29382"><ele>861.5</ele></trkpt><trkpt lat="47.393266" lon="10.293846"><ele>861.1</ele></trkpt><trkpt lat="47.392225" lon="10.293851"><ele>857.6</ele></trkpt><trkpt lat="47.391732" lon="10.294069"><ele>856.8</ele></trkpt><trkpt lat="47.391321" lon="10.294129"><ele>857.4</ele></trkpt><trkpt lat="47.391257" lon="10.294176"><ele>857.8</ele></trkpt><trkpt lat="47.391378" lon="10.29462"><ele>859.8</ele></trkpt><trkpt lat="47.391437" lon="10.294922"><ele>861.4</ele></trkpt><trkpt lat="47.391448" lon="10.295053"><ele>862.2</ele></trkpt><trkpt lat="47.391444" lon="10.295187"><ele>863</ele></trkpt><trkpt lat="47.391411" lon="10.295342"><ele>863.9</ele></trkpt><trkpt lat="47.391348" lon="10.295475"><ele>864.8</ele></trkpt><trkpt lat="47.391283" lon="10.295588"><ele>865.6</ele></trkpt><trkpt lat="47.391222" lon="10.295635"><ele>866.5</ele></trkpt><trkpt lat="47.390989" lon="10.295687"><ele>868.3</ele></trkpt><trkpt lat="47.390455" lon="10.295857"><ele>873.3</ele></trkpt><trkpt lat="47.390305" lon="10.295925"><ele>874</ele></trkpt><trkpt lat="47.390257" lon="10.29597"><ele>874.6</ele></trkpt><trkpt lat="47.390215" lon="10.296051"><ele>875.1</ele></trkpt><trkpt lat="47.39022" lon="10.296149"><ele>875.5</ele></trkpt><trkpt lat="47.390441" lon="10.296531"><ele>876.9</ele></trkpt><trkpt lat="47.390491" lon="10.296666"><ele>877.4</ele></trkpt><trkpt lat="47.3905" lon="10.296787"><ele>877.8</ele></trkpt><trkpt lat="47.390477" lon="10.297096"><ele>878.8</ele></trkpt><trkpt lat="47.390453" lon="10.297206"><ele>879.3</ele></trkpt><trkpt lat="47.390423" lon="10.297281"><ele>879.9</ele></trkpt><trkpt lat="47.390266" lon="10.297501"><ele>881.3</ele></trkpt><trkpt lat="47.390233" lon="10.297571"><ele>881.9</ele></trkpt><trkpt lat="47.390166" lon="10.297804"><ele>882.7</ele></trkpt><trkpt lat="47.390149" lon="10.297929"><ele>883.4</ele></trkpt><trkpt lat="47.390165" lon="10.298203"><ele>885.1</ele></trkpt><trkpt lat="47.390202" lon="10.298306"><ele>885.9</ele></trkpt><trkpt lat="47.390401" lon="10.29866"><ele>888.1</ele></trkpt><trkpt lat="47.390429" lon="10.298806"><ele>888.9</ele></trkpt><trkpt lat="47.390411" lon="10.29895"><ele>889.6</ele></trkpt><trkpt lat="47.390308" lon="10.299293"><ele>891.1</ele></trkpt><trkpt lat="47.390152" lon="10.299655"><ele>893.4</ele></trkpt><trkpt lat="47.389733" lon="10.300203"><ele>897.2</ele></trkpt><trkpt lat="47.389706" lon="10.300273"><ele>897.8</ele></trkpt><trkpt lat="47.389692" lon="10.300359"><ele>898.4</ele></trkpt><trkpt lat="47.389692" lon="10.300546"><ele>898.9</ele></trkpt><trkpt lat="47.389665" lon="10.300681"><ele>899.6</ele></trkpt><trkpt lat="47.38958" lon="10.300865"><ele>900.2</ele></trkpt><trkpt lat="47.389478" lon="10.301029"><ele>900.9</ele></trkpt><trkpt lat="47.389421" lon="10.301175"><ele>901.6</ele></trkpt><trkpt lat="47.389351" lon="10.301714"><ele>904.7</ele></trkpt><trkpt lat="47.389412" lon="10.302371"><ele>907.8</ele></trkpt><trkpt lat="47.389408" lon="10.302607"><ele>908.6</ele></trkpt><trkpt lat="47.389286" lon="10.303129"><ele>911.8</ele></trkpt><trkpt lat="47.389288" lon="10.303219"><ele>912.6</ele></trkpt><trkpt lat="47.389336" lon="10.30352"><ele>914.1</ele></trkpt><trkpt lat="47.389332" lon="10.303594"><ele>914.6</ele></trkpt><trkpt lat="47.389174" lon="10.304162"><ele>916.4</ele></trkpt><trkpt lat="47.389142" lon="10.30438"><ele>916.8</ele></trkpt><trkpt lat="47.389141" lon="10.30462"><ele>917.2</ele></trkpt><trkpt lat="47.389269" lon="10.305492"><ele>918.4</ele></trkpt><trkpt lat="47.389313" lon="10.306185"><ele>918.6</ele></trkpt><trkpt lat="47.389324" lon="10.306846"><ele>918.2</ele></trkpt><trkpt lat="47.389353" lon="10.307051"><ele>918.1</ele></trkpt><trkpt lat="47.389528" lon="10.307827"><ele>917.5</ele></trkpt><trkpt lat="47.389544" lon="10.308509"><ele>917.7</ele></trkpt><trkpt lat="47.389588" lon="10.309413"><ele>919.2</ele></trkpt><trkpt lat="47.389718" lon="10.310303"><ele>921.8</ele></trkpt><trkpt lat="47.389721" lon="10.310495"><ele>922.3</ele></trkpt><trkpt lat="47.389672" lon="10.311007"><ele>923.4</ele></trkpt><trkpt lat="47.38967" lon="10.311149"><ele>924</ele></trkpt><trkpt lat="47.389713" lon="10.311366"><ele>924.9</ele></trkpt><trkpt lat="47.38974" lon="10.311671"><ele>926.6</ele></trkpt><trkpt lat="47.389761" lon="10.311767"><ele>927.4</ele></trkpt><trkpt lat="47.38983" lon="10.311901"><ele>928.2</ele></trkpt><trkpt lat="47.389868" lon="10.312015"><ele>928.9</ele></trkpt><trkpt lat="47.389875" lon="10.312134"><ele>929.7</ele></trkpt><trkpt lat="47.389862" lon="10.312266"><ele>930.4</ele></trkpt><trkpt lat="47.389808" lon="10.3125"><ele>931.1</ele></trkpt><trkpt lat="47.389801" lon="10.31263"><ele>932.4</ele></trkpt><trkpt lat="47.389736" lon="10.313473"><ele>941</ele></trkpt><trkpt lat="47.389657" lon="10.313689"><ele>942.6</ele></trkpt><trkpt lat="47.389596" lon="10.313971"><ele>945.7</ele></trkpt><trkpt lat="47.389583" lon="10.314143"><ele>947</ele></trkpt><trkpt lat="47.389592" lon="10.314295"><ele>948.1</ele></trkpt><trkpt lat="47.389665" lon="10.314529"><ele>949.1</ele></trkpt><trkpt lat="47.389696" lon="10.314784"><ele>950.3</ele></trkpt><trkpt lat="47.389746" lon="10.315746"><ele>959.7</ele></trkpt><trkpt lat="47.389603" lon="10.316538"><ele>966.5</ele></trkpt><trkpt lat="47.389589" lon="10.316701"><ele>967.7</ele></trkpt><trkpt lat="47.389639" lon="10.317404"><ele>974</ele></trkpt><trkpt lat="47.389604" lon="10.318517"><ele>982.2</ele></trkpt><trkpt lat="47.389669" lon="10.318985"><ele>984.7</ele></trkpt><trkpt lat="47.389661" lon="10.319265"><ele>985.9</ele></trkpt><trkpt lat="47.389531" lon="10.319689"><ele>987</ele></trkpt><trkpt lat="47.389431" lon="10.320221"><ele>987.6</ele></trkpt><trkpt lat="47.389284" lon="10.321823"><ele>984.9</ele></trkpt><trkpt lat="47.388717" lon="10.32459"><ele>986.5</ele></trkpt><trkpt lat="47.388669" lon="10.324927"><ele>987.1</ele></trkpt><trkpt lat="47.388463" lon="10.327892"><ele>996.3</ele></trkpt><trkpt lat="47.388463" lon="10.329026"><ele>998.7</ele></trkpt><trkpt lat="47.388571" lon="10.335371"><ele>1010.8</ele></trkpt><trkpt lat="47.388583" lon="10.335839"><ele>1012.6</ele></trkpt><trkpt lat="47.388583" lon="10.336033"><ele>1013.3</ele></trkpt><trkpt lat="47.388584" lon="10.336293"><ele>1014</ele></trkpt><trkpt lat="47.388588" lon="10.336518"><ele>1014.7</ele></trkpt><trkpt lat="47.388614" lon="10.337253"><ele>1018.1</ele></trkpt><trkpt lat="47.388596" lon="10.337442"><ele>1018.8</ele></trkpt><trkpt lat="47.388515" lon="10.33809"><ele>1021.3</ele></trkpt><trkpt lat="47.388513" lon="10.338214"><ele>1021.9</ele></trkpt><trkpt lat="47.388519" lon="10.338299"><ele>1022.5</ele></trkpt><trkpt lat="47.388543" lon="10.338374"><ele>1023</ele></trkpt><trkpt lat="47.388584" lon="10.338434"><ele>1023.4</ele></trkpt><trkpt lat="47.3886" lon="10.338448"><ele>1023.7</ele></trkpt><trkpt lat="47.388734" lon="10.338567"><ele>1023.9</ele></trkpt><trkpt lat="47.388746" lon="10.338581"><ele>1023.9</ele></trkpt><trkpt lat="47.388916" lon="10.338791"><ele>1023.8</ele></trkpt><trkpt lat="47.389009" lon="10.339135"><ele>1023.7</ele></trkpt><trkpt lat="47.389007" lon="10.339271"><ele>1023.6</ele></trkpt><trkpt lat="47.388892" lon="10.339781"><ele>1023</ele></trkpt><trkpt lat="47.388738" lon="10.340314"><ele>1022.4</ele></trkpt><trkpt lat="47.388622" lon="10.340789"><ele>1022</ele></trkpt><trkpt lat="47.388767" lon="10.341156"><ele>1022.8</ele></trkpt><trkpt lat="47.388796" lon="10.3414"><ele>1023.2</ele></trkpt><trkpt lat="47.388768" lon="10.341898"><ele>1024.9</ele></trkpt><trkpt lat="47.388767" lon="10.342335"><ele>1026.8</ele></trkpt><trkpt lat="47.388836" lon="10.342522"><ele>1027.5</ele></trkpt><trkpt lat="47.388903" lon="10.342796"><ele>1028.9</ele></trkpt><trkpt lat="47.388889" lon="10.343207"><ele>1031.3</ele></trkpt><trkpt lat="47.388856" lon="10.34336"><ele>1032.1</ele></trkpt><trkpt lat="47.388877" lon="10.343459"><ele>1033</ele></trkpt><trkpt lat="47.388933" lon="10.343545"><ele>1034</ele></trkpt><trkpt lat="47.388983" lon="10.343777"><ele>1034.9</ele></trkpt><trkpt lat="47.389045" lon="10.343896"><ele>1035.8</ele></trkpt><trkpt lat="47.389045" lon="10.343985"><ele>1036.4</ele></trkpt><trkpt lat="47.389153" lon="10.344264"><ele>1037.5</ele></trkpt><trkpt lat="47.389075" lon="10.3444"><ele>1038</ele></trkpt><trkpt lat="47.389106" lon="10.34459"><ele>1038.4</ele></trkpt><trkpt lat="47.389258" lon="10.344991"><ele>1039.8</ele></trkpt><trkpt lat="47.389332" lon="10.345015"><ele>1040.3</ele></trkpt><trkpt lat="47.389344" lon="10.345057"><ele>1040.9</ele></trkpt><trkpt lat="47.389328" lon="10.345162"><ele>1041.5</ele></trkpt><trkpt lat="47.389341" lon="10.345212"><ele>1042.1</ele></trkpt><trkpt lat="47.389374" lon="10.345228"><ele>1042.9</ele></trkpt><trkpt lat="47.389423" lon="10.345381"><ele>1043.7</ele></trkpt><trkpt lat="47.389451" lon="10.345394"><ele>1045.4</ele></trkpt><trkpt lat="47.389484" lon="10.345459"><ele>1047.2</ele></trkpt><trkpt lat="47.389451" lon="10.345394"><ele>1073.6</ele></trkpt><trkpt lat="47.389487" lon="10.345463"><ele>1075.2</ele></trkpt><trkpt lat="47.389526" lon="10.345638"><ele>1075.7</ele></trkpt><trkpt lat="47.389558" lon="10.345672"><ele>1075.9</ele></trkpt><trkpt lat="47.389575" lon="10.345747"><ele>1076</ele></trkpt><trkpt lat="47.389648" lon="10.345827"><ele>1075.9</ele></trkpt><trkpt lat="47.389693" lon="10.346014"><ele>1078.9</ele></trkpt><trkpt lat="47.389719" lon="10.346159"><ele>1081.3</ele></trkpt><trkpt lat="47.389623" lon="10.346147"><ele>1083.2</ele></trkpt><trkpt lat="47.389537" lon="10.346092"><ele>1084.7</ele></trkpt><trkpt lat="47.389254" lon="10.34632"><ele>1088</ele></trkpt><trkpt lat="47.38881" lon="10.346946"><ele>1096.1</ele></trkpt><trkpt lat="47.388864" lon="10.346974"><ele>1098.7</ele></trkpt><trkpt lat="47.388761" lon="10.347151"><ele>1101.5</ele></trkpt><trkpt lat="47.38881" lon="10.347182"><ele>1103.9</ele></trkpt><trkpt lat="47.388741" lon="10.347244"><ele>1106.3</ele></trkpt><trkpt lat="47.38861" lon="10.347563"><ele>1111.3</ele></trkpt><trkpt lat="47.388682" lon="10.347596"><ele>1113.8</ele></trkpt><trkpt lat="47.388949" lon="10.347472"><ele>1117.7</ele></trkpt><trkpt lat="47.388859" lon="10.347795"><ele>1120.3</ele></trkpt><trkpt lat="47.388814" lon="10.348013"><ele>1121.6</ele></trkpt><trkpt lat="47.388878" lon="10.348227"><ele>1123</ele></trkpt><trkpt lat="47.38934" lon="10.348184"><ele>1126.8</ele></trkpt><trkpt lat="47.389615" lon="10.348318"><ele>1127.4</ele></trkpt><trkpt lat="47.389745" lon="10.348338"><ele>1127.9</ele></trkpt><trkpt lat="47.389777" lon="10.348373"><ele>1131.4</ele></trkpt><trkpt lat="47.389804" lon="10.34849"><ele>1134.9</ele></trkpt><trkpt lat="47.389833" lon="10.348575"><ele>1139</ele></trkpt><trkpt lat="47.389914" lon="10.348372"><ele>1143.2</ele></trkpt><trkpt lat="47.390108" lon="10.348196"><ele>1151.7</ele></trkpt><trkpt lat="47.390246" lon="10.347792"><ele>1164.9</ele></trkpt><trkpt lat="47.390365" lon="10.347665"><ele>1169.3</ele></trkpt><trkpt lat="47.390421" lon="10.347485"><ele>1173.7</ele></trkpt><trkpt lat="47.390453" lon="10.34755"><ele>1178</ele></trkpt><trkpt lat="47.390602" lon="10.347111"><ele>1191.1</ele></trkpt><trkpt lat="47.390728" lon="10.346876"><ele>1200.2</ele></trkpt><trkpt lat="47.390815" lon="10.346767"><ele>1205</ele></trkpt><trkpt lat="47.391165" lon="10.346864"><ele>1216</ele></trkpt><trkpt lat="47.391173" lon="10.346829"><ele>1217.6</ele></trkpt><trkpt lat="47.391074" lon="10.346686"><ele>1218.5</ele></trkpt><trkpt lat="47.391109" lon="10.346365"><ele>1220.5</ele></trkpt><trkpt lat="47.391171" lon="10.346457"><ele>1221.3</ele></trkpt><trkpt lat="47.391353" lon="10.346217"><ele>1224.2</ele></trkpt><trkpt lat="47.391514" lon="10.34588"><ele>1229.3</ele></trkpt><trkpt lat="47.391588" lon="10.345977"><ele>1231.5</ele></trkpt><trkpt lat="47.39164" lon="10.345785"><ele>1233.6</ele></trkpt><trkpt lat="47.391701" lon="10.345948"><ele>1235.8</ele></trkpt><trkpt lat="47.391755" lon="10.345756"><ele>1237.9</ele></trkpt><trkpt lat="47.391811" lon="10.345945"><ele>1240</ele></trkpt><trkpt lat="47.391863" lon="10.345795"><ele>1242.1</ele></trkpt><trkpt lat="47.391903" lon="10.34596"><ele>1243.8</ele></trkpt><trkpt lat="47.391945" lon="10.345862"><ele>1245.6</ele></trkpt><trkpt lat="47.391973" lon="10.345986"><ele>1247.4</ele></trkpt><trkpt lat="47.392264" lon="10.345378"><ele>1258.3</ele></trkpt><trkpt lat="47.392297" lon="10.345945"><ele>1264.5</ele></trkpt><trkpt lat="47.392506" lon="10.345623"><ele>1268.5</ele></trkpt><trkpt lat="47.392574" lon="10.345837"><ele>1270</ele></trkpt><trkpt lat="47.392545" lon="10.34594"><ele>1271.8</ele></trkpt><trkpt lat="47.392594" lon="10.34588"><ele>1273.8</ele></trkpt><trkpt lat="47.392614" lon="10.346057"><ele>1276.1</ele></trkpt><trkpt lat="47.392655" lon="10.346087"><ele>1278.6</ele></trkpt><trkpt lat="47.392622" lon="10.346231"><ele>1281.5</ele></trkpt><trkpt lat="47.39261" lon="10.346509"><ele>1287.6</ele></trkpt><trkpt lat="47.392825" lon="10.346424"><ele>1294.7</ele></trkpt><trkpt lat="47.392758" lon="10.346769"><ele>1303.4</ele></trkpt><trkpt lat="47.39269" lon="10.346997"><ele>1307.8</ele></trkpt><trkpt lat="47.392767" lon="10.347225"><ele>1313.7</ele></trkpt><trkpt lat="47.393002" lon="10.34777"><ele>1343</ele></trkpt><trkpt lat="47.393" lon="10.34792"><ele>1350.9</ele></trkpt><trkpt lat="47.393067" lon="10.347913"><ele>1358.5</ele></trkpt><trkpt lat="47.393076" lon="10.34796"><ele>1366</ele></trkpt><trkpt lat="47.393035" lon="10.348042"><ele>1373.3</ele></trkpt><trkpt lat="47.393164" lon="10.348241"><ele>1387.2</ele></trkpt><trkpt lat="47.393185" lon="10.348299"><ele>1393.6</ele></trkpt><trkpt lat="47.393229" lon="10.348321"><ele>1400.2</ele></trkpt><trkpt lat="47.39328" lon="10.34788"><ele>1417.9</ele></trkpt><trkpt lat="47.393447" lon="10.348239"><ele>1432.9</ele></trkpt><trkpt lat="47.393519" lon="10.347873"><ele>1440.8</ele></trkpt><trkpt lat="47.393667" lon="10.348168"><ele>1446.7</ele></trkpt><trkpt lat="47.393727" lon="10.347979"><ele>1449</ele></trkpt><trkpt lat="47.39377" lon="10.348039"><ele>1451.1</ele></trkpt><trkpt lat="47.393796" lon="10.348"><ele>1453.1</ele></trkpt><trkpt lat="47.393859" lon="10.348071"><ele>1455.2</ele></trkpt><trkpt lat="47.393884" lon="10.347919"><ele>1457.3</ele></trkpt><trkpt lat="47.394014" lon="10.347667"><ele>1461.2</ele></trkpt><trkpt lat="47.394136" lon="10.347309"><ele>1466.9</ele></trkpt><trkpt lat="47.39423" lon="10.347549"><ele>1471</ele></trkpt><trkpt lat="47.394286" lon="10.347466"><ele>1473.2</ele></trkpt><trkpt lat="47.394319" lon="10.347581"><ele>1475.3</ele></trkpt><trkpt lat="47.394408" lon="10.347601"><ele>1477.9</ele></trkpt><trkpt lat="47.394489" lon="10.347752"><ele>1480.9</ele></trkpt><trkpt lat="47.394517" lon="10.347989"><ele>1483.7</ele></trkpt><trkpt lat="47.39456" lon="10.348091"><ele>1486.8</ele></trkpt><trkpt lat="47.394776" lon="10.347805"><ele>1496.2</ele></trkpt><trkpt lat="47.39481" lon="10.347871"><ele>1499.3</ele></trkpt><trkpt lat="47.394937" lon="10.347776"><ele>1503.4</ele></trkpt><trkpt lat="47.394932" lon="10.348059"><ele>1511.1</ele></trkpt><trkpt lat="47.395081" lon="10.34802"><ele>1515.2</ele></trkpt><trkpt lat="47.395023" lon="10.348132"><ele>1519.2</ele></trkpt><trkpt lat="47.395325" lon="10.34815"><ele>1533.6</ele></trkpt><trkpt lat="47.395483" lon="10.348105"><ele>1539</ele></trkpt><trkpt lat="47.395776" lon="10.34827"><ele>1556</ele></trkpt><trkpt lat="47.395975" lon="10.348248"><ele>1566.2</ele></trkpt><trkpt lat="47.396027" lon="10.348159"><ele>1571.3</ele></trkpt><trkpt lat="47.396175" lon="10.348023"><ele>1576.6</ele></trkpt><trkpt lat="47.396132" lon="10.347904"><ele>1581.5</ele></trkpt><trkpt lat="47.396036" lon="10.347758"><ele>1585.9</ele></trkpt><trkpt lat="47.39603" lon="10.347716"><ele>1590.2</ele></trkpt><trkpt lat="47.396185" lon="10.347718"><ele>1594.5</ele></trkpt><trkpt lat="47.396356" lon="10.347279"><ele>1606</ele></trkpt><trkpt lat="47.39639" lon="10.34725"><ele>1609.8</ele></trkpt><trkpt lat="47.396406" lon="10.34721"><ele>1613.5</ele></trkpt><trkpt lat="47.39641" lon="10.347095"><ele>1616.8</ele></trkpt><trkpt lat="47.39646" lon="10.34721"><ele>1619.6</ele></trkpt><trkpt lat="47.396477" lon="10.347212"><ele>1621.9</ele></trkpt><trkpt lat="47.396663" lon="10.34699"><ele>1625.9</ele></trkpt><trkpt lat="47.396702" lon="10.347019"><ele>1627.6</ele></trkpt><trkpt lat="47.396696" lon="10.347076"><ele>1629.2</ele></trkpt><trkpt lat="47.396722" lon="10.347088"><ele>1630.6</ele></trkpt><trkpt lat="47.396748" lon="10.347048"><ele>1631.8</ele></trkpt><trkpt lat="47.396977" lon="10.346948"><ele>1634.1</ele></trkpt><trkpt lat="47.397088" lon="10.346875"><ele>1635.2</ele></trkpt><trkpt lat="47.397168" lon="10.346793"><ele>1636.5</ele></trkpt><trkpt lat="47.397161" lon="10.346748"><ele>1637.9</ele></trkpt><trkpt lat="47.397371" lon="10.34642"><ele>1641.2</ele></trkpt><trkpt lat="47.397396" lon="10.346329"><ele>1642.1</ele></trkpt><trkpt lat="47.397408" lon="10.346211"><ele>1642.9</ele></trkpt><trkpt lat="47.397368" lon="10.346126"><ele>1643.7</ele></trkpt><trkpt lat="47.39726" lon="10.345997"><ele>1644.6</ele></trkpt><trkpt lat="47.397194" lon="10.345748"><ele>1646.6</ele></trkpt><trkpt lat="47.397014" lon="10.345337"><ele>1650.1</ele></trkpt><trkpt lat="47.396861" lon="10.345102"><ele>1652.8</ele></trkpt><trkpt lat="47.396672" lon="10.344914"><ele>1655.1</ele></trkpt><trkpt lat="47.396619" lon="10.344837"><ele>1655.9</ele></trkpt><trkpt lat="47.396614" lon="10.3447"><ele>1656</ele></trkpt><trkpt lat="47.396655" lon="10.344616"><ele>1652.9</ele></trkpt><trkpt lat="47.396823" lon="10.344499"><ele>1651.3</ele></trkpt><trkpt lat="47.396973" lon="10.344336"><ele>1651.2</ele></trkpt><trkpt lat="47.397197" lon="10.344292"><ele>1651.2</ele></trkpt><trkpt lat="47.397328" lon="10.344205"><ele>1651.3</ele></trkpt><trkpt lat="47.397443" lon="10.34423"><ele>1651.5</ele></trkpt><trkpt lat="47.397623" lon="10.344159"><ele>1652</ele></trkpt><trkpt lat="47.397721" lon="10.34409"><ele>1652.2</ele></trkpt><trkpt lat="47.397932" lon="10.343897"><ele>1652.4</ele></trkpt><trkpt lat="47.398155" lon="10.343532"><ele>1652.7</ele></trkpt><trkpt lat="47.398219" lon="10.343488"><ele>1653</ele></trkpt><trkpt lat="47.398458" lon="10.343545"><ele>1655</ele></trkpt><trkpt lat="47.398524" lon="10.34361"><ele>1659.6</ele></trkpt><trkpt lat="47.398618" lon="10.343586"><ele>1662.7</ele></trkpt><trkpt lat="47.398699" lon="10.343595"><ele>1665.1</ele></trkpt><trkpt lat="47.398699" lon="10.343528"><ele>1666.3</ele></trkpt><trkpt lat="47.398749" lon="10.343501"><ele>1667.4</ele></trkpt><trkpt lat="47.398761" lon="10.343469"><ele>1668.4</ele></trkpt><trkpt lat="47.398752" lon="10.343438"><ele>1669.3</ele></trkpt><trkpt lat="47.398699" lon="10.343406"><ele>1669.9</ele></trkpt><trkpt lat="47.398599" lon="10.343169"><ele>1670.7</ele></trkpt><trkpt lat="47.398605" lon="10.342885"><ele>1671.2</ele></trkpt><trkpt lat="47.398556" lon="10.342412"><ele>1671.3</ele></trkpt><trkpt lat="47.398563" lon="10.342167"><ele>1671.3</ele></trkpt><trkpt lat="47.398552" lon="10.342069"><ele>1670.4</ele></trkpt><trkpt lat="47.398339" lon="10.341811"><ele>1665.9</ele></trkpt><trkpt lat="47.398289" lon="10.341704"><ele>1664</ele></trkpt><trkpt lat="47.398214" lon="10.341433"><ele>1659.1</ele></trkpt><trkpt lat="47.398218" lon="10.341184"><ele>1657.2</ele></trkpt><trkpt lat="47.398154" lon="10.340683"><ele>1651.9</ele></trkpt><trkpt lat="47.3981" lon="10.340443"><ele>1650.3</ele></trkpt><trkpt lat="47.39811" lon="10.340409"><ele>1648.7</ele></trkpt><trkpt lat="47.398189" lon="10.340396"><ele>1647.1</ele></trkpt><trkpt lat="47.398225" lon="10.34046"><ele>1645.5</ele></trkpt><trkpt lat="47.398268" lon="10.340489"><ele>1643.9</ele></trkpt><trkpt lat="47.398349" lon="10.340504"><ele>1642.3</ele></trkpt><trkpt lat="47.398368" lon="10.340473"><ele>1640.7</ele></trkpt><trkpt lat="47.398406" lon="10.340499"><ele>1639.4</ele></trkpt><trkpt lat="47.398432" lon="10.340663"><ele>1638</ele></trkpt><trkpt lat="47.398447" lon="10.34076"><ele>1640</ele></trkpt><trkpt lat="47.398535" lon="10.340881"><ele>1639.9</ele></trkpt><trkpt lat="47.3988" lon="10.341462"><ele>1639.6</ele></trkpt><trkpt lat="47.398942" lon="10.341713"><ele>1639.7</ele></trkpt><trkpt lat="47.399384" lon="10.342234"><ele>1639.2</ele></trkpt><trkpt lat="47.399568" lon="10.342246"><ele>1639</ele></trkpt><trkpt lat="47.399746" lon="10.342221"><ele>1639</ele></trkpt><trkpt lat="47.399917" lon="10.342057"><ele>1638.8</ele></trkpt><trkpt lat="47.400046" lon="10.341823"><ele>1638.7</ele></trkpt><trkpt lat="47.400081" lon="10.341667"><ele>1638.6</ele></trkpt><trkpt lat="47.400149" lon="10.341673"><ele>1638.8</ele></trkpt><trkpt lat="47.400169" lon="10.34176"><ele>1639</ele></trkpt><trkpt lat="47.400241" lon="10.341771"><ele>1639.3</ele></trkpt><trkpt lat="47.400305" lon="10.341824"><ele>1639.5</ele></trkpt><trkpt lat="47.400415" lon="10.34183"><ele>1639.9</ele></trkpt><trkpt lat="47.400444" lon="10.341857"><ele>1640.2</ele></trkpt><trkpt lat="47.400473" lon="10.341922"><ele>1640.7</ele></trkpt><trkpt lat="47.400451" lon="10.341963"><ele>1641.2</ele></trkpt><trkpt lat="47.400499" lon="10.342067"><ele>1641.8</ele></trkpt><trkpt lat="47.4005" lon="10.342137"><ele>1642.5</ele></trkpt><trkpt lat="47.400529" lon="10.342242"><ele>1643.4</ele></trkpt><trkpt lat="47.400592" lon="10.342248"><ele>1644.5</ele></trkpt><trkpt lat="47.400625" lon="10.342322"><ele>1645.8</ele></trkpt><trkpt lat="47.400679" lon="10.342355"><ele>1647.1</ele></trkpt><trkpt lat="47.400767" lon="10.342544"><ele>1648.4</ele></trkpt><trkpt lat="47.400838" lon="10.342586"><ele>1649.9</ele></trkpt><trkpt lat="47.400869" lon="10.342713"><ele>1651.4</ele></trkpt><trkpt lat="47.400869" lon="10.342781"><ele>1653</ele></trkpt><trkpt lat="47.400959" lon="10.342948"><ele>1654.6</ele></trkpt><trkpt lat="47.400983" lon="10.343191"><ele>1656.3</ele></trkpt><trkpt lat="47.401046" lon="10.343414"><ele>1657.8</ele></trkpt><trkpt lat="47.401046" lon="10.343551"><ele>1659.5</ele></trkpt><trkpt lat="47.401004" lon="10.34369"><ele>1661.1</ele></trkpt><trkpt lat="47.401002" lon="10.343839"><ele>1662.8</ele></trkpt><trkpt lat="47.401032" lon="10.344019"><ele>1664.6</ele></trkpt><trkpt lat="47.401053" lon="10.344023"><ele>1666.4</ele></trkpt><trkpt lat="47.401083" lon="10.34398"><ele>1668.1</ele></trkpt><trkpt lat="47.401133" lon="10.343961"><ele>1669.8</ele></trkpt><trkpt lat="47.401299" lon="10.343978"><ele>1671.5</ele></trkpt><trkpt lat="47.40136" lon="10.343948"><ele>1673.2</ele></trkpt><trkpt lat="47.401466" lon="10.343834"><ele>1674.6</ele></trkpt><trkpt lat="47.4016" lon="10.343579"><ele>1677.2</ele></trkpt><trkpt lat="47.401626" lon="10.343567"><ele>1678.3</ele></trkpt><trkpt lat="47.401639" lon="10.34359"><ele>1679.3</ele></trkpt><trkpt lat="47.401689" lon="10.343589"><ele>1680.3</ele></trkpt><trkpt lat="47.401711" lon="10.343613"><ele>1681.2</ele></trkpt><trkpt lat="47.401726" lon="10.343759"><ele>1682.2</ele></trkpt><trkpt lat="47.401804" lon="10.343854"><ele>1683.3</ele></trkpt><trkpt lat="47.401703" lon="10.343885"><ele>1684.2</ele></trkpt><trkpt lat="47.401705" lon="10.344017"><ele>1685</ele></trkpt><trkpt lat="47.40176" lon="10.344065"><ele>1685.9</ele></trkpt><trkpt lat="47.401773" lon="10.344123"><ele>1686.6</ele></trkpt><trkpt lat="47.401842" lon="10.344181"><ele>1687.4</ele></trkpt><trkpt lat="47.401867" lon="10.344249"><ele>1688</ele></trkpt><trkpt lat="47.401906" lon="10.344376"><ele>1688.5</ele></trkpt><trkpt lat="47.401909" lon="10.344612"><ele>1689</ele></trkpt><trkpt lat="47.401994" lon="10.344773"><ele>1689.5</ele></trkpt><trkpt lat="47.401991" lon="10.344883"><ele>1690</ele></trkpt><trkpt lat="47.402065" lon="10.345069"><ele>1690.4</ele></trkpt><trkpt lat="47.402107" lon="10.345277"><ele>1690.9</ele></trkpt><trkpt lat="47.402199" lon="10.345566"><ele>1691.9</ele></trkpt><trkpt lat="47.402265" lon="10.345609"><ele>1692.4</ele></trkpt><trkpt lat="47.402307" lon="10.345684"><ele>1694.3</ele></trkpt><trkpt lat="47.402391" lon="10.345705"><ele>1696.5</ele></trkpt><trkpt lat="47.402407" lon="10.345959"><ele>1698.8</ele></trkpt><trkpt lat="47.402497" lon="10.346187"><ele>1701.1</ele></trkpt><trkpt lat="47.40262" lon="10.346388"><ele>1705.6</ele></trkpt><trkpt lat="47.402711" lon="10.346442"><ele>1708.6</ele></trkpt><trkpt lat="47.402811" lon="10.346475"><ele>1711.5</ele></trkpt><trkpt lat="47.402839" lon="10.346495"><ele>1714.4</ele></trkpt><trkpt lat="47.403033" lon="10.34674"><ele>1721.5</ele></trkpt><trkpt lat="47.403033" lon="10.346773"><ele>1725.2</ele></trkpt><trkpt lat="47.402975" lon="10.346872"><ele>1729</ele></trkpt><trkpt lat="47.402975" lon="10.346941"><ele>1732.8</ele></trkpt><trkpt lat="47.40307" lon="10.347005"><ele>1736.6</ele></trkpt><trkpt lat="47.403231" lon="10.347043"><ele>1740.4</ele></trkpt><trkpt lat="47.403508" lon="10.347323"><ele>1751.8</ele></trkpt><trkpt lat="47.403582" lon="10.347455"><ele>1755.7</ele></trkpt><trkpt lat="47.403747" lon="10.347642"><ele>1760.5</ele></trkpt><trkpt lat="47.404138" lon="10.347829"><ele>1769.4</ele></trkpt><trkpt lat="47.404421" lon="10.348066"><ele>1775.1</ele></trkpt><trkpt lat="47.404545" lon="10.348121"><ele>1776.6</ele></trkpt><trkpt lat="47.404654" lon="10.348245"><ele>1777.8</ele></trkpt><trkpt lat="47.404692" lon="10.348343"><ele>1779.2</ele></trkpt><trkpt lat="47.404935" lon="10.348484"><ele>1782.5</ele></trkpt><trkpt lat="47.405192" lon="10.348738"><ele>1787.7</ele></trkpt><trkpt lat="47.405343" lon="10.348833"><ele>1789.4</ele></trkpt><trkpt lat="47.405583" lon="10.348787"><ele>1792.8</ele></trkpt><trkpt lat="47.405642" lon="10.348848"><ele>1794.4</ele></trkpt><trkpt lat="47.405905" lon="10.349039"><ele>1799.3</ele></trkpt><trkpt lat="47.406036" lon="10.349"><ele>1800.8</ele></trkpt><trkpt lat="47.406055" lon="10.34901"><ele>1802.2</ele></trkpt><trkpt lat="47.406063" lon="10.349127"><ele>1803.4</ele></trkpt><trkpt lat="47.406078" lon="10.349165"><ele>1804.4</ele></trkpt><trkpt lat="47.40611" lon="10.349172"><ele>1805.4</ele></trkpt><trkpt lat="47.406153" lon="10.349138"><ele>1806.3</ele></trkpt><trkpt lat="47.406185" lon="10.349162"><ele>1807.2</ele></trkpt><trkpt lat="47.406225" lon="10.349332"><ele>1808</ele></trkpt><trkpt lat="47.406468" lon="10.349725"><ele>1810.1</ele></trkpt><trkpt lat="47.406592" lon="10.349763"><ele>1810.8</ele></trkpt><trkpt lat="47.406713" lon="10.349757"><ele>1811.4</ele></trkpt><trkpt lat="47.406749" lon="10.349785"><ele>1812.2</ele></trkpt><trkpt lat="47.406774" lon="10.34983"><ele>1813</ele></trkpt><trkpt lat="47.406815" lon="10.350062"><ele>1813.9</ele></trkpt><trkpt lat="47.407096" lon="10.350597"><ele>1822.2</ele></trkpt><trkpt lat="47.407313" lon="10.350706"><ele>1828.3</ele></trkpt><trkpt lat="47.407616" lon="10.350911"><ele>1838.2</ele></trkpt><trkpt lat="47.40774" lon="10.351063"><ele>1841.5</ele></trkpt><trkpt lat="47.407844" lon="10.35113"><ele>1844.9</ele></trkpt><trkpt lat="47.408004" lon="10.351093"><ele>1848.3</ele></trkpt><trkpt lat="47.40826" lon="10.350924"><ele>1858.3</ele></trkpt><trkpt lat="47.408356" lon="10.35079"><ele>1861.5</ele></trkpt><trkpt lat="47.408506" lon="10.350651"><ele>1864.7</ele></trkpt><trkpt lat="47.408509" lon="10.350588"><ele>1867.8</ele></trkpt><trkpt lat="47.408458" lon="10.350529"><ele>1870.8</ele></trkpt><trkpt lat="47.408455" lon="10.350465"><ele>1873.5</ele></trkpt><trkpt lat="47.40855" lon="10.350491"><ele>1876</ele></trkpt><trkpt lat="47.408565" lon="10.350472"><ele>1878.2</ele></trkpt><trkpt lat="47.408564" lon="10.350437"><ele>1880.2</ele></trkpt><trkpt lat="47.408515" lon="10.35033"><ele>1881.8</ele></trkpt><trkpt lat="47.408494" lon="10.350222"><ele>1883</ele></trkpt><trkpt lat="47.40837" lon="10.34992"><ele>1884.2</ele></trkpt><trkpt lat="47.408347" lon="10.349768"><ele>1884.7</ele></trkpt><trkpt lat="47.408348" lon="10.349573"><ele>1885.3</ele></trkpt><trkpt lat="47.408411" lon="10.349075"><ele>1886.3</ele></trkpt><trkpt lat="47.408526" lon="10.348748"><ele>1886.9</ele></trkpt><trkpt lat="47.408659" lon="10.348593"><ele>1887.1</ele></trkpt><trkpt lat="47.408786" lon="10.348516"><ele>1887.3</ele></trkpt><trkpt lat="47.408868" lon="10.34829"><ele>1887.3</ele></trkpt><trkpt lat="47.408967" lon="10.348236"><ele>1887.2</ele></trkpt><trkpt lat="47.40903" lon="10.3481"><ele>1887.1</ele></trkpt><trkpt lat="47.409149" lon="10.348042"><ele>1886.9</ele></trkpt><trkpt lat="47.409169" lon="10.348015"><ele>1886.6</ele></trkpt><trkpt lat="47.409177" lon="10.347966"><ele>1886.5</ele></trkpt><trkpt lat="47.409164" lon="10.347831"><ele>1886.2</ele></trkpt><trkpt lat="47.409237" lon="10.347687"><ele>1887.1</ele></trkpt><trkpt lat="47.409371" lon="10.347759"><ele>1887.7</ele></trkpt><trkpt lat="47.409608" lon="10.348048"><ele>1889.6</ele></trkpt><trkpt lat="47.409727" lon="10.348137"><ele>1890.2</ele></trkpt><trkpt lat="47.410141" lon="10.348644"><ele>1893.2</ele></trkpt><trkpt lat="47.410256" lon="10.348705"><ele>1893.8</ele></trkpt><trkpt lat="47.410368" lon="10.348808"><ele>1894.5</ele></trkpt><trkpt lat="47.410416" lon="10.348802"><ele>1895.2</ele></trkpt><trkpt lat="47.41043" lon="10.34875"><ele>1896</ele></trkpt><trkpt lat="47.410422" lon="10.348657"><ele>1896.8</ele></trkpt><trkpt lat="47.410465" lon="10.348509"><ele>1897.7</ele></trkpt><trkpt lat="47.410476" lon="10.348214"><ele>1899.3</ele></trkpt><trkpt lat="47.410621" lon="10.347972"><ele>1899.7</ele></trkpt><trkpt lat="47.410676" lon="10.347925"><ele>1899.5</ele></trkpt><trkpt lat="47.410814" lon="10.347893"><ele>1898.8</ele></trkpt><trkpt lat="47.410884" lon="10.347882"><ele>1897.9</ele></trkpt><trkpt lat="47.411396" lon="10.347965"><ele>1893.1</ele></trkpt><trkpt lat="47.411547" lon="10.348012"><ele>1892.2</ele></trkpt><trkpt lat="47.411674" lon="10.348087"><ele>1891.2</ele></trkpt><trkpt lat="47.411756" lon="10.348145"><ele>1890.3</ele></trkpt><trkpt lat="47.411908" lon="10.348146"><ele>1889.3</ele></trkpt><trkpt lat="47.412007" lon="10.348192"><ele>1888.4</ele></trkpt><trkpt lat="47.412092" lon="10.348202"><ele>1887.4</ele></trkpt><trkpt lat="47.41224" lon="10.348169"><ele>1886.5</ele></trkpt><trkpt lat="47.412411" lon="10.348194"><ele>1885.5</ele></trkpt><trkpt lat="47.412432" lon="10.348173"><ele>1884.6</ele></trkpt><trkpt lat="47.412427" lon="10.348102"><ele>1883.7</ele></trkpt><trkpt lat="47.412349" lon="10.347867"><ele>1882.9</ele></trkpt><trkpt lat="47.412302" lon="10.347717"><ele>1882.1</ele></trkpt><trkpt lat="47.412319" lon="10.347615"><ele>1881.3</ele></trkpt><trkpt lat="47.412426" lon="10.347627"><ele>1881.1</ele></trkpt><trkpt lat="47.412452" lon="10.3476"><ele>1881.1</ele></trkpt><trkpt lat="47.412521" lon="10.34744"><ele>1881.3</ele></trkpt><trkpt lat="47.412715" lon="10.347428"><ele>1882.2</ele></trkpt><trkpt lat="47.41295" lon="10.347298"><ele>1883.2</ele></trkpt><trkpt lat="47.413414" lon="10.34682"><ele>1886.4</ele></trkpt><trkpt lat="47.413494" lon="10.346772"><ele>1887.9</ele></trkpt><trkpt lat="47.413559" lon="10.346829"><ele>1889.4</ele></trkpt><trkpt lat="47.413666" lon="10.347015"><ele>1890.9</ele></trkpt><trkpt lat="47.413711" lon="10.347053"><ele>1892.4</ele></trkpt><trkpt lat="47.413806" lon="10.34708"><ele>1893.9</ele></trkpt><trkpt lat="47.414056" lon="10.347181"><ele>1896.9</ele></trkpt><trkpt lat="47.414211" lon="10.347229"><ele>1898.9</ele></trkpt><trkpt lat="47.414301" lon="10.347182"><ele>1901</ele></trkpt><trkpt lat="47.414376" lon="10.347092"><ele>1903.1</ele></trkpt><trkpt lat="47.414613" lon="10.346999"><ele>1907.3</ele></trkpt><trkpt lat="47.415084" lon="10.346738"><ele>1918.5</ele></trkpt><trkpt lat="47.415308" lon="10.34669"><ele>1923.1</ele></trkpt><trkpt lat="47.415523" lon="10.34652"><ele>1926.7</ele></trkpt><trkpt lat="47.415718" lon="10.346329"><ele>1930</ele></trkpt><trkpt lat="47.415907" lon="10.345925"><ele>1935.6</ele></trkpt><trkpt lat="47.416334" lon="10.34554"><ele>1942.5</ele></trkpt><trkpt lat="47.416744" lon="10.345245"><ele>1947.2</ele></trkpt><trkpt lat="47.416798" lon="10.345186"><ele>1948.2</ele></trkpt><trkpt lat="47.416838" lon="10.34509"><ele>1949.5</ele></trkpt><trkpt lat="47.416931" lon="10.344949"><ele>1951.2</ele></trkpt><trkpt lat="47.417005" lon="10.344877"><ele>1953</ele></trkpt><trkpt lat="47.417094" lon="10.344862"><ele>1954.8</ele></trkpt><trkpt lat="47.417119" lon="10.344939"><ele>1956.5</ele></trkpt><trkpt lat="47.417111" lon="10.345235"><ele>1959.4</ele></trkpt><trkpt lat="47.417136" lon="10.345311"><ele>1960.6</ele></trkpt><trkpt lat="47.417345" lon="10.345389"><ele>1963</ele></trkpt><trkpt lat="47.417736" lon="10.345672"><ele>1968.1</ele></trkpt><trkpt lat="47.417999" lon="10.345732"><ele>1970.8</ele></trkpt><trkpt lat="47.418257" lon="10.345762"><ele>1973.6</ele></trkpt><trkpt lat="47.418531" lon="10.345689"><ele>1978.2</ele></trkpt><trkpt lat="47.418917" lon="10.345434"><ele>1982.5</ele></trkpt><trkpt lat="47.419009" lon="10.345423"><ele>1983.6</ele></trkpt><trkpt lat="47.419159" lon="10.345493"><ele>1984.9</ele></trkpt><trkpt lat="47.419402" lon="10.34566"><ele>1987.8</ele></trkpt><trkpt lat="47.419506" lon="10.345786"><ele>1990.3</ele></trkpt><trkpt lat="47.419783" lon="10.346014"><ele>1999.5</ele></trkpt><trkpt lat="47.419975" lon="10.346104"><ele>2006</ele></trkpt><trkpt lat="47.420066" lon="10.346119"><ele>2009.2</ele></trkpt><trkpt lat="47.420191" lon="10.345958"><ele>2012.4</ele></trkpt><trkpt lat="47.420303" lon="10.345966"><ele>2015.6</ele></trkpt><trkpt lat="47.420415" lon="10.346127"><ele>2018.6</ele></trkpt><trkpt lat="47.420493" lon="10.346384"><ele>2024.4</ele></trkpt><trkpt lat="47.42051" lon="10.346665"><ele>2029.9</ele></trkpt><trkpt lat="47.420602" lon="10.346913"><ele>2036.5</ele></trkpt><trkpt lat="47.420863" lon="10.347339"><ele>2052.9</ele></trkpt><trkpt lat="47.420917" lon="10.34741"><ele>2056.4</ele></trkpt><trkpt lat="47.420971" lon="10.347348"><ele>2059.6</ele></trkpt><trkpt lat="47.42103" lon="10.346983"><ele>2065</ele></trkpt><trkpt lat="47.421053" lon="10.346683"><ele>2070.2</ele></trkpt><trkpt lat="47.42112" lon="10.346432"><ele>2075.2</ele></trkpt><trkpt lat="47.421248" lon="10.346174"><ele>2080.1</ele></trkpt><trkpt lat="47.421301" lon="10.345846"><ele>2084.9</ele></trkpt><trkpt lat="47.421379" lon="10.345186"><ele>2094.3</ele></trkpt><trkpt lat="47.421383" lon="10.344717"><ele>2096.4</ele></trkpt><trkpt lat="47.421375" lon="10.34462"><ele>2096.9</ele></trkpt><trkpt lat="47.421307" lon="10.34441"><ele>2097.6</ele></trkpt><trkpt lat="47.421312" lon="10.344337"><ele>2099.3</ele></trkpt><trkpt lat="47.4214" lon="10.344122"><ele>2101.1</ele></trkpt><trkpt lat="47.421436" lon="10.343961"><ele>2103</ele></trkpt><trkpt lat="47.421433" lon="10.343806"><ele>2104.9</ele></trkpt><trkpt lat="47.42131" lon="10.343247"><ele>2112.6</ele></trkpt><trkpt lat="47.421268" lon="10.343113"><ele>2114.6</ele></trkpt><trkpt lat="47.42118" lon="10.342972"><ele>2116.7</ele></trkpt><trkpt lat="47.420974" lon="10.342571"><ele>2123.1</ele></trkpt><trkpt lat="47.420903" lon="10.342397"><ele>2125.7</ele></trkpt><trkpt lat="47.420839" lon="10.342295"><ele>2129</ele></trkpt><trkpt lat="47.420887" lon="10.34222"><ele>2132.3</ele></trkpt><trkpt lat="47.421006" lon="10.341992"><ele>2138.7</ele></trkpt><trkpt lat="47.42119" lon="10.341938"><ele>2144.5</ele></trkpt><trkpt lat="47.421268" lon="10.341884"><ele>2146.3</ele></trkpt><trkpt lat="47.42146" lon="10.341718"><ele>2149.7</ele></trkpt><trkpt lat="47.421672" lon="10.341581"><ele>2153.1</ele></trkpt><trkpt lat="47.421756" lon="10.341806"><ele>2156</ele></trkpt><trkpt lat="47.421807" lon="10.341691"><ele>2158.8</ele></trkpt><trkpt lat="47.421839" lon="10.341757"><ele>2162</ele></trkpt><trkpt lat="47.42184" lon="10.341814"><ele>2165.2</ele></trkpt><trkpt lat="47.42186" lon="10.3419"><ele>2168.2</ele></trkpt><trkpt lat="47.421861" lon="10.342057"><ele>2171.3</ele></trkpt><trkpt lat="47.421823" lon="10.342179"><ele>2174.3</ele></trkpt><trkpt lat="47.421824" lon="10.342275"><ele>2177.3</ele></trkpt><trkpt lat="47.421842" lon="10.342291"><ele>2179.8</ele></trkpt><trkpt lat="47.421861" lon="10.342394"><ele>2181.6</ele></trkpt><trkpt lat="47.421884" lon="10.34237"><ele>2183.4</ele></trkpt><trkpt lat="47.421882" lon="10.342356"><ele>2185.2</ele></trkpt><trkpt lat="47.421868" lon="10.342362"><ele>2187</ele></trkpt><trkpt lat="47.421864" lon="10.342344"><ele>2188.8</ele></trkpt><trkpt lat="47.421868" lon="10.342362"><ele>2200</ele></trkpt><trkpt lat="47.421882" lon="10.342356"><ele>2200</ele></trkpt><trkpt lat="47.421884" lon="10.34237"><ele>2200</ele></trkpt><trkpt lat="47.421861" lon="10.342394"><ele>2200</ele></trkpt><trkpt lat="47.421842" lon="10.342291"><ele>2200</ele></trkpt><trkpt lat="47.421824" lon="10.342275"><ele>2200</ele></trkpt><trkpt lat="47.421823" lon="10.342179"><ele>2200</ele></trkpt><trkpt lat="47.421861" lon="10.342057"><ele>2200</ele></trkpt><trkpt lat="47.42186" lon="10.3419"><ele>2200</ele></trkpt><trkpt lat="47.42184" lon="10.341814"><ele>2200</ele></trkpt><trkpt lat="47.421839" lon="10.341757"><ele>2200</ele></trkpt><trkpt lat="47.421807" lon="10.341691"><ele>2199.2</ele></trkpt><trkpt lat="47.421756" lon="10.341806"><ele>2198.6</ele></trkpt><trkpt lat="47.421672" lon="10.341581"><ele>2196.7</ele></trkpt><trkpt lat="47.42146" lon="10.341718"><ele>2193.1</ele></trkpt><trkpt lat="47.421268" lon="10.341884"><ele>2190.1</ele></trkpt><trkpt lat="47.42119" lon="10.341938"><ele>2188.8</ele></trkpt><trkpt lat="47.421006" lon="10.341992"><ele>2185.2</ele></trkpt><trkpt lat="47.420887" lon="10.34222"><ele>2181.6</ele></trkpt><trkpt lat="47.420839" lon="10.342295"><ele>2179.8</ele></trkpt><trkpt lat="47.420903" lon="10.342397"><ele>2177.3</ele></trkpt><trkpt lat="47.420974" lon="10.342571"><ele>2174.3</ele></trkpt><trkpt lat="47.42118" lon="10.342972"><ele>2165.2</ele></trkpt><trkpt lat="47.421268" lon="10.343113"><ele>2162</ele></trkpt><trkpt lat="47.42131" lon="10.343247"><ele>2158.8</ele></trkpt><trkpt lat="47.421433" lon="10.343806"><ele>2149.7</ele></trkpt><trkpt lat="47.421436" lon="10.343961"><ele>2148</ele></trkpt><trkpt lat="47.4214" lon="10.344122"><ele>2146.3</ele></trkpt><trkpt lat="47.421312" lon="10.344337"><ele>2144.5</ele></trkpt><trkpt lat="47.421307" lon="10.34441"><ele>2141.8</ele></trkpt><trkpt lat="47.421375" lon="10.34462"><ele>2138.7</ele></trkpt><trkpt lat="47.421383" lon="10.344717"><ele>2135.5</ele></trkpt><trkpt lat="47.421379" lon="10.345186"><ele>2125.7</ele></trkpt><trkpt lat="47.421301" lon="10.345846"><ele>2114.6</ele></trkpt><trkpt lat="47.421248" lon="10.346174"><ele>2110.6</ele></trkpt><trkpt lat="47.42112" lon="10.346432"><ele>2106.8</ele></trkpt><trkpt lat="47.421053" lon="10.346683"><ele>2103</ele></trkpt><trkpt lat="47.42103" lon="10.346983"><ele>2099.3</ele></trkpt><trkpt lat="47.420971" lon="10.347348"><ele>2096.9</ele></trkpt><trkpt lat="47.420917" lon="10.34741"><ele>2096.4</ele></trkpt><trkpt lat="47.420863" lon="10.347339"><ele>2095.9</ele></trkpt><trkpt lat="47.420602" lon="10.346913"><ele>2091.6</ele></trkpt><trkpt lat="47.42051" lon="10.346665"><ele>2087.2</ele></trkpt><trkpt lat="47.420493" lon="10.346384"><ele>2082.5</ele></trkpt><trkpt lat="47.420415" lon="10.346127"><ele>2077.6</ele></trkpt><trkpt lat="47.420303" lon="10.345966"><ele>2075.2</ele></trkpt><trkpt lat="47.420191" lon="10.345958"><ele>2072.7</ele></trkpt><trkpt lat="47.420066" lon="10.346119"><ele>2070.2</ele></trkpt><trkpt lat="47.419975" lon="10.346104"><ele>2067.6</ele></trkpt><trkpt lat="47.419783" lon="10.346014"><ele>2062.5</ele></trkpt><trkpt lat="47.419506" lon="10.345786"><ele>2052.9</ele></trkpt><trkpt lat="47.419402" lon="10.34566"><ele>2048.5</ele></trkpt><trkpt lat="47.419159" lon="10.345493"><ele>2040.3</ele></trkpt><trkpt lat="47.419009" lon="10.345423"><ele>2036.5</ele></trkpt><trkpt lat="47.418917" lon="10.345434"><ele>2033</ele></trkpt><trkpt lat="47.418531" lon="10.345689"><ele>2021.6</ele></trkpt><trkpt lat="47.418257" lon="10.345762"><ele>2012.4</ele></trkpt><trkpt lat="47.417999" lon="10.345732"><ele>2006</ele></trkpt><trkpt lat="47.417736" lon="10.345672"><ele>1999.5</ele></trkpt><trkpt lat="47.417345" lon="10.345389"><ele>1987.8</ele></trkpt><trkpt lat="47.417136" lon="10.345311"><ele>1984.9</ele></trkpt><trkpt lat="47.417111" lon="10.345235"><ele>1983.6</ele></trkpt><trkpt lat="47.417119" lon="10.344939"><ele>1981.4</ele></trkpt><trkpt lat="47.417094" lon="10.344862"><ele>1980.4</ele></trkpt><trkpt lat="47.417005" lon="10.344877"><ele>1979.3</ele></trkpt><trkpt lat="47.416931" lon="10.344949"><ele>1978.2</ele></trkpt><trkpt lat="47.416838" lon="10.34509"><ele>1976.8</ele></trkpt><trkpt lat="47.416798" lon="10.345186"><ele>1975.2</ele></trkpt><trkpt lat="47.416744" lon="10.345245"><ele>1973.6</ele></trkpt><trkpt lat="47.416334" lon="10.34554"><ele>1966.8</ele></trkpt><trkpt lat="47.415907" lon="10.345925"><ele>1960.6</ele></trkpt><trkpt lat="47.415718" lon="10.346329"><ele>1956.5</ele></trkpt><trkpt lat="47.415523" lon="10.34652"><ele>1953</ele></trkpt><trkpt lat="47.415308" lon="10.34669"><ele>1949.5</ele></trkpt><trkpt lat="47.415084" lon="10.346738"><ele>1947.2</ele></trkpt><trkpt lat="47.414613" lon="10.346999"><ele>1942.5</ele></trkpt><trkpt lat="47.414376" lon="10.347092"><ele>1940.3</ele></trkpt><trkpt lat="47.414301" lon="10.347182"><ele>1938.9</ele></trkpt><trkpt lat="47.414211" lon="10.347229"><ele>1937.5</ele></trkpt><trkpt lat="47.414056" lon="10.347181"><ele>1935.6</ele></trkpt><trkpt lat="47.413806" lon="10.34708"><ele>1931.8</ele></trkpt><trkpt lat="47.413711" lon="10.347053"><ele>1930</ele></trkpt><trkpt lat="47.413666" lon="10.347015"><ele>1928.3</ele></trkpt><trkpt lat="47.413559" lon="10.346829"><ele>1926.7</ele></trkpt><trkpt lat="47.413494" lon="10.346772"><ele>1925.4</ele></trkpt><trkpt lat="47.413414" lon="10.34682"><ele>1923.1</ele></trkpt><trkpt lat="47.41295" lon="10.347298"><ele>1909.5</ele></trkpt><trkpt lat="47.412715" lon="10.347428"><ele>1905.2</ele></trkpt><trkpt lat="47.412521" lon="10.34744"><ele>1901</ele></trkpt><trkpt lat="47.412317" lon="10.347322"><ele>1896.2</ele></trkpt><trkpt lat="47.412223" lon="10.347238"><ele>1894.3</ele></trkpt><trkpt lat="47.412205" lon="10.347191"><ele>1892.4</ele></trkpt><trkpt lat="47.412226" lon="10.347103"><ele>1890.3</ele></trkpt><trkpt lat="47.412272" lon="10.347088"><ele>1888.2</ele></trkpt><trkpt lat="47.412454" lon="10.347141"><ele>1883.9</ele></trkpt><trkpt lat="47.412561" lon="10.347101"><ele>1881.8</ele></trkpt><trkpt lat="47.412628" lon="10.34703"><ele>1880.5</ele></trkpt><trkpt lat="47.412693" lon="10.34689"><ele>1879.2</ele></trkpt><trkpt lat="47.412699" lon="10.346796"><ele>1877.8</ele></trkpt><trkpt lat="47.412657" lon="10.346709"><ele>1876.4</ele></trkpt><trkpt lat="47.412565" lon="10.346621"><ele>1874.9</ele></trkpt><trkpt lat="47.412436" lon="10.346614"><ele>1873.3</ele></trkpt><trkpt lat="47.412399" lon="10.346591"><ele>1871.8</ele></trkpt><trkpt lat="47.412378" lon="10.346552"><ele>1870.3</ele></trkpt><trkpt lat="47.412369" lon="10.346485"><ele>1868.7</ele></trkpt><trkpt lat="47.412389" lon="10.346348"><ele>1867.2</ele></trkpt><trkpt lat="47.412474" lon="10.346139"><ele>1865.7</ele></trkpt><trkpt lat="47.412577" lon="10.34573"><ele>1862.7</ele></trkpt><trkpt lat="47.412612" lon="10.345412"><ele>1860.5</ele></trkpt><trkpt lat="47.412617" lon="10.345242"><ele>1859.4</ele></trkpt><trkpt lat="47.41258" lon="10.344675"><ele>1852.5</ele></trkpt><trkpt lat="47.412453" lon="10.344352"><ele>1847.6</ele></trkpt><trkpt lat="47.412397" lon="10.344277"><ele>1845.1</ele></trkpt><trkpt lat="47.412257" lon="10.344288"><ele>1842.6</ele></trkpt><trkpt lat="47.412173" lon="10.344255"><ele>1840</ele></trkpt><trkpt lat="47.41215" lon="10.344226"><ele>1837.4</ele></trkpt><trkpt lat="47.412016" lon="10.343815"><ele>1829.1</ele></trkpt><trkpt lat="47.412041" lon="10.343757"><ele>1826.5</ele></trkpt><trkpt lat="47.412102" lon="10.343698"><ele>1824</ele></trkpt><trkpt lat="47.412335" lon="10.343536"><ele>1818.8</ele></trkpt><trkpt lat="47.412378" lon="10.343477"><ele>1816.4</ele></trkpt><trkpt lat="47.412424" lon="10.34337"><ele>1814</ele></trkpt><trkpt lat="47.412456" lon="10.343087"><ele>1809.5</ele></trkpt><trkpt lat="47.4125" lon="10.34295"><ele>1807.6</ele></trkpt><trkpt lat="47.412556" lon="10.342878"><ele>1806</ele></trkpt><trkpt lat="47.412667" lon="10.342799"><ele>1804.7</ele></trkpt><trkpt lat="47.41269" lon="10.342729"><ele>1803.8</ele></trkpt><trkpt lat="47.412667" lon="10.342662"><ele>1803.2</ele></trkpt><trkpt lat="47.412643" lon="10.342641"><ele>1802.7</ele></trkpt><trkpt lat="47.412302" lon="10.342571"><ele>1801.6</ele></trkpt><trkpt lat="47.4121" lon="10.342557"><ele>1798.8</ele></trkpt><trkpt lat="47.412012" lon="10.342548"><ele>1794.4</ele></trkpt><trkpt lat="47.41188" lon="10.342485"><ele>1790</ele></trkpt><trkpt lat="47.411603" lon="10.342417"><ele>1776.7</ele></trkpt><trkpt lat="47.411584" lon="10.342409"><ele>1772.3</ele></trkpt><trkpt lat="47.41156" lon="10.342356"><ele>1767.9</ele></trkpt><trkpt lat="47.411596" lon="10.342277"><ele>1763.6</ele></trkpt><trkpt lat="47.411779" lon="10.342116"><ele>1755</ele></trkpt><trkpt lat="47.411799" lon="10.342077"><ele>1750.6</ele></trkpt><trkpt lat="47.411802" lon="10.342026"><ele>1746.1</ele></trkpt><trkpt lat="47.411789" lon="10.342006"><ele>1741.5</ele></trkpt><trkpt lat="47.41162" lon="10.342006"><ele>1736.9</ele></trkpt><trkpt lat="47.411605" lon="10.341994"><ele>1732.3</ele></trkpt><trkpt lat="47.411601" lon="10.341957"><ele>1727.6</ele></trkpt><trkpt lat="47.41173" lon="10.341753"><ele>1718.2</ele></trkpt><trkpt lat="47.411875" lon="10.341447"><ele>1711</ele></trkpt><trkpt lat="47.411986" lon="10.341312"><ele>1710.6</ele></trkpt><trkpt lat="47.412009" lon="10.341247"><ele>1710.2</ele></trkpt><trkpt lat="47.411995" lon="10.341182"><ele>1709.8</ele></trkpt><trkpt lat="47.411848" lon="10.341167"><ele>1709.5</ele></trkpt><trkpt lat="47.411815" lon="10.341103"><ele>1709.1</ele></trkpt><trkpt lat="47.411813" lon="10.341057"><ele>1708.8</ele></trkpt><trkpt lat="47.411944" lon="10.340671"><ele>1708</ele></trkpt><trkpt lat="47.412012" lon="10.340579"><ele>1707.9</ele></trkpt><trkpt lat="47.412413" lon="10.340373"><ele>1707.1</ele></trkpt><trkpt lat="47.412691" lon="10.340286"><ele>1704.6</ele></trkpt><trkpt lat="47.412806" lon="10.340216"><ele>1702.5</ele></trkpt><trkpt lat="47.412961" lon="10.340055"><ele>1697.8</ele></trkpt><trkpt lat="47.413347" lon="10.339519"><ele>1684.6</ele></trkpt><trkpt lat="47.413412" lon="10.339377"><ele>1681.6</ele></trkpt><trkpt lat="47.413424" lon="10.339258"><ele>1678.5</ele></trkpt><trkpt lat="47.413396" lon="10.339114"><ele>1675.3</ele></trkpt><trkpt lat="47.413296" lon="10.338815"><ele>1668.6</ele></trkpt><trkpt lat="47.413182" lon="10.338552"><ele>1661.7</ele></trkpt><trkpt lat="47.413081" lon="10.338159"><ele>1650.8</ele></trkpt><trkpt lat="47.413006" lon="10.338088"><ele>1647.4</ele></trkpt><trkpt lat="47.412818" lon="10.337988"><ele>1642.1</ele></trkpt><trkpt lat="47.412512" lon="10.337307"><ele>1629.5</ele></trkpt><trkpt lat="47.412387" lon="10.336754"><ele>1621.5</ele></trkpt><trkpt lat="47.412375" lon="10.336577"><ele>1619.8</ele></trkpt><trkpt lat="47.41238" lon="10.336338"><ele>1616.5</ele></trkpt><trkpt lat="47.412349" lon="10.336222"><ele>1613.5</ele></trkpt><trkpt lat="47.412051" lon="10.335772"><ele>1602.7</ele></trkpt><trkpt lat="47.411978" lon="10.335484"><ele>1598.2</ele></trkpt><trkpt lat="47.411944" lon="10.33545"><ele>1596</ele></trkpt><trkpt lat="47.411914" lon="10.335483"><ele>1592.7</ele></trkpt><trkpt lat="47.411694" lon="10.33592"><ele>1579.6</ele></trkpt><trkpt lat="47.411683" lon="10.33598"><ele>1576.4</ele></trkpt><trkpt lat="47.41172" lon="10.336191"><ele>1573.2</ele></trkpt><trkpt lat="47.411714" lon="10.336242"><ele>1569.8</ele></trkpt><trkpt lat="47.411678" lon="10.336235"><ele>1566.4</ele></trkpt><trkpt lat="47.41148" lon="10.335947"><ele>1557.6</ele></trkpt><trkpt lat="47.411422" lon="10.33582"><ele>1555.6</ele></trkpt><trkpt lat="47.411386" lon="10.33581"><ele>1553.7</ele></trkpt><trkpt lat="47.411373" lon="10.335833"><ele>1551.7</ele></trkpt><trkpt lat="47.411344" lon="10.336143"><ele>1547.9</ele></trkpt><trkpt lat="47.411276" lon="10.336499"><ele>1544.2</ele></trkpt><trkpt lat="47.411252" lon="10.336894"><ele>1541.9</ele></trkpt><trkpt lat="47.411213" lon="10.337045"><ele>1540.4</ele></trkpt><trkpt lat="47.411167" lon="10.33705"><ele>1538</ele></trkpt><trkpt lat="47.411143" lon="10.33701"><ele>1535.5</ele></trkpt><trkpt lat="47.410588" lon="10.335982"><ele>1510.2</ele></trkpt><trkpt lat="47.410376" lon="10.335554"><ele>1500</ele></trkpt><trkpt lat="47.410352" lon="10.335454"><ele>1496.3</ele></trkpt><trkpt lat="47.410306" lon="10.335025"><ele>1484.7</ele></trkpt><trkpt lat="47.410265" lon="10.334809"><ele>1480.6</ele></trkpt><trkpt lat="47.410174" lon="10.334466"><ele>1475.3</ele></trkpt><trkpt lat="47.410126" lon="10.334472"><ele>1473</ele></trkpt><trkpt lat="47.410015" lon="10.334729"><ele>1468.9</ele></trkpt><trkpt lat="47.409874" lon="10.334928"><ele>1465.4</ele></trkpt><trkpt lat="47.409838" lon="10.33496"><ele>1463.9</ele></trkpt><trkpt lat="47.409802" lon="10.334959"><ele>1462.5</ele></trkpt><trkpt lat="47.409735" lon="10.334883"><ele>1461.2</ele></trkpt><trkpt lat="47.409577" lon="10.334408"><ele>1457.5</ele></trkpt><trkpt lat="47.409063" lon="10.33328"><ele>1444.9</ele></trkpt><trkpt lat="47.409009" lon="10.333112"><ele>1443.5</ele></trkpt><trkpt lat="47.408718" lon="10.331837"><ele>1425.6</ele></trkpt><trkpt lat="47.408577" lon="10.330957"><ele>1411.2</ele></trkpt><trkpt lat="47.408554" lon="10.330507"><ele>1403</ele></trkpt><trkpt lat="47.408565" lon="10.329973"><ele>1393.3</ele></trkpt><trkpt lat="47.408535" lon="10.329435"><ele>1384.7</ele></trkpt><trkpt lat="47.40853" lon="10.32914"><ele>1380.6</ele></trkpt><trkpt lat="47.408494" lon="10.328836"><ele>1376.6</ele></trkpt><trkpt lat="47.408456" lon="10.327988"><ele>1369</ele></trkpt><trkpt lat="47.408583" lon="10.326928"><ele>1362</ele></trkpt><trkpt lat="47.408603" lon="10.326659"><ele>1360.1</ele></trkpt><trkpt lat="47.408603" lon="10.325758"><ele>1354.7</ele></trkpt><trkpt lat="47.408617" lon="10.325262"><ele>1352.4</ele></trkpt><trkpt lat="47.408673" lon="10.324927"><ele>1350.5</ele></trkpt><trkpt lat="47.408668" lon="10.324853"><ele>1349.5</ele></trkpt><trkpt lat="47.408608" lon="10.324738"><ele>1348.5</ele></trkpt><trkpt lat="47.40848" lon="10.324594"><ele>1347.5</ele></trkpt><trkpt lat="47.408361" lon="10.324324"><ele>1345.6</ele></trkpt><trkpt lat="47.40831" lon="10.324239"><ele>1344.2</ele></trkpt><trkpt lat="47.408251" lon="10.32406"><ele>1342.7</ele></trkpt><trkpt lat="47.408235" lon="10.32387"><ele>1341.3</ele></trkpt><trkpt lat="47.40824" lon="10.323615"><ele>1340</ele></trkpt><trkpt lat="47.408225" lon="10.323529"><ele>1338.6</ele></trkpt><trkpt lat="47.408159" lon="10.323437"><ele>1337.3</ele></trkpt><trkpt lat="47.407997" lon="10.323301"><ele>1334.9</ele></trkpt><trkpt lat="47.407979" lon="10.32319"><ele>1333.7</ele></trkpt><trkpt lat="47.40803" lon="10.32296"><ele>1332.6</ele></trkpt><trkpt lat="47.408093" lon="10.322775"><ele>1331.5</ele></trkpt><trkpt lat="47.408146" lon="10.322677"><ele>1330.4</ele></trkpt><trkpt lat="47.408297" lon="10.322491"><ele>1328.5</ele></trkpt><trkpt lat="47.408445" lon="10.322251"><ele>1325.8</ele></trkpt><trkpt lat="47.40862" lon="10.322019"><ele>1322.3</ele></trkpt><trkpt lat="47.408672" lon="10.32191"><ele>1320.5</ele></trkpt><trkpt lat="47.408715" lon="10.321746"><ele>1318.7</ele></trkpt><trkpt lat="47.408796" lon="10.321269"><ele>1314.6</ele></trkpt><trkpt lat="47.40884" lon="10.319951"><ele>1301.7</ele></trkpt><trkpt lat="47.408812" lon="10.319564"><ele>1298.6</ele></trkpt><trkpt lat="47.408815" lon="10.319391"><ele>1297.4</ele></trkpt><trkpt lat="47.408893" lon="10.318708"><ele>1294.7</ele></trkpt><trkpt lat="47.408891" lon="10.318545"><ele>1294.1</ele></trkpt><trkpt lat="47.408972" lon="10.317743"><ele>1290.2</ele></trkpt><trkpt lat="47.40897" lon="10.317593"><ele>1289.5</ele></trkpt><trkpt lat="47.408897" lon="10.316891"><ele>1286.4</ele></trkpt><trkpt lat="47.408711" lon="10.316253"><ele>1283.6</ele></trkpt><trkpt lat="47.408512" lon="10.315724"><ele>1281</ele></trkpt><trkpt lat="47.408436" lon="10.31549"><ele>1280.5</ele></trkpt><trkpt lat="47.408414" lon="10.315123"><ele>1279.5</ele></trkpt><trkpt lat="47.40834" lon="10.314648"><ele>1278.4</ele></trkpt><trkpt lat="47.408328" lon="10.314487"><ele>1278.2</ele></trkpt><trkpt lat="47.408385" lon="10.314313"><ele>1277.7</ele></trkpt><trkpt lat="47.408461" lon="10.314142"><ele>1277.2</ele></trkpt><trkpt lat="47.408485" lon="10.31403"><ele>1276.5</ele></trkpt><trkpt lat="47.408622" lon="10.313704"><ele>1275.2</ele></trkpt><trkpt lat="47.40866" lon="10.313361"><ele>1274</ele></trkpt><trkpt lat="47.408771" lon="10.313314"><ele>1273.1</ele></trkpt><trkpt lat="47.408815" lon="10.313308"><ele>1272.3</ele></trkpt><trkpt lat="47.408933" lon="10.313096"><ele>1270.7</ele></trkpt><trkpt lat="47.408968" lon="10.312965"><ele>1269.9</ele></trkpt><trkpt lat="47.408977" lon="10.312036"><ele>1265.2</ele></trkpt><trkpt lat="47.409064" lon="10.311534"><ele>1262.8</ele></trkpt><trkpt lat="47.409139" lon="10.310948"><ele>1260.2</ele></trkpt><trkpt lat="47.409155" lon="10.310473"><ele>1257.8</ele></trkpt><trkpt lat="47.409186" lon="10.310192"><ele>1255.3</ele></trkpt><trkpt lat="47.409284" lon="10.310032"><ele>1254</ele></trkpt><trkpt lat="47.409447" lon="10.309898"><ele>1251.3</ele></trkpt><trkpt lat="47.409554" lon="10.309769"><ele>1249.5</ele></trkpt><trkpt lat="47.409582" lon="10.30968"><ele>1247.5</ele></trkpt><trkpt lat="47.409572" lon="10.309573"><ele>1245.4</ele></trkpt><trkpt lat="47.409443" lon="10.309344"><ele>1241.1</ele></trkpt><trkpt lat="47.409349" lon="10.308893"><ele>1234.7</ele></trkpt><trkpt lat="47.40935" lon="10.308763"><ele>1232.2</ele></trkpt><trkpt lat="47.408986" lon="10.308292"><ele>1216.9</ele></trkpt><trkpt lat="47.408845" lon="10.308085"><ele>1210.6</ele></trkpt><trkpt lat="47.408738" lon="10.307584"><ele>1202.8</ele></trkpt><trkpt lat="47.408703" lon="10.306392"><ele>1184</ele></trkpt><trkpt lat="47.408703" lon="10.306152"><ele>1181.3</ele></trkpt><trkpt lat="47.408671" lon="10.305985"><ele>1179</ele></trkpt><trkpt lat="47.408572" lon="10.30576"><ele>1175.1</ele></trkpt><trkpt lat="47.408519" lon="10.305575"><ele>1173.5</ele></trkpt><trkpt lat="47.408396" lon="10.304342"><ele>1160.9</ele></trkpt><trkpt lat="47.408365" lon="10.304126"><ele>1159.3</ele></trkpt><trkpt lat="47.408395" lon="10.304096"><ele>1157.8</ele></trkpt><trkpt lat="47.40838" lon="10.30395"><ele>1156.3</ele></trkpt><trkpt lat="47.408286" lon="10.303795"><ele>1154.3</ele></trkpt><trkpt lat="47.408267" lon="10.303687"><ele>1152.2</ele></trkpt><trkpt lat="47.40825" lon="10.303588"><ele>1150.2</ele></trkpt><trkpt lat="47.408289" lon="10.303261"><ele>1146.7</ele></trkpt><trkpt lat="47.408332" lon="10.303182"><ele>1144.9</ele></trkpt><trkpt lat="47.408314" lon="10.303051"><ele>1143.2</ele></trkpt><trkpt lat="47.408373" lon="10.30295"><ele>1141.7</ele></trkpt><trkpt lat="47.408281" lon="10.30157"><ele>1122.9</ele></trkpt><trkpt lat="47.408163" lon="10.300468"><ele>1106.8</ele></trkpt><trkpt lat="47.408121" lon="10.30021"><ele>1104.5</ele></trkpt><trkpt lat="47.40798" lon="10.300128"><ele>1100.3</ele></trkpt><trkpt lat="47.407903" lon="10.299865"><ele>1092.2</ele></trkpt><trkpt lat="47.4079" lon="10.299509"><ele>1084.5</ele></trkpt><trkpt lat="47.407946" lon="10.299306"><ele>1080.8</ele></trkpt><trkpt lat="47.408045" lon="10.299196"><ele>1077.2</ele></trkpt><trkpt lat="47.407811" lon="10.299093"><ele>1070.5</ele></trkpt><trkpt lat="47.407864" lon="10.29894"><ele>1067.5</ele></trkpt><trkpt lat="47.407924" lon="10.298861"><ele>1063.8</ele></trkpt><trkpt lat="47.407734" lon="10.298876"><ele>1056.9</ele></trkpt><trkpt lat="47.407609" lon="10.298847"><ele>1053.6</ele></trkpt><trkpt lat="47.407676" lon="10.298659"><ele>1050.5</ele></trkpt><trkpt lat="47.407779" lon="10.298497"><ele>1047.5</ele></trkpt><trkpt lat="47.407798" lon="10.298367"><ele>1044.2</ele></trkpt><trkpt lat="47.407884" lon="10.298334"><ele>1041.1</ele></trkpt><trkpt lat="47.408119" lon="10.298413"><ele>1035</ele></trkpt><trkpt lat="47.408263" lon="10.298328"><ele>1033.5</ele></trkpt><trkpt lat="47.408562" lon="10.297888"><ele>1027.5</ele></trkpt><trkpt lat="47.408863" lon="10.297733"><ele>1023.1</ele></trkpt><trkpt lat="47.409153" lon="10.297712"><ele>1019.1</ele></trkpt><trkpt lat="47.409473" lon="10.297785"><ele>1016.3</ele></trkpt><trkpt lat="47.409771" lon="10.297691"><ele>1014</ele></trkpt><trkpt lat="47.409798" lon="10.29761"><ele>1013.6</ele></trkpt><trkpt lat="47.409778" lon="10.297526"><ele>1013.1</ele></trkpt><trkpt lat="47.409576" lon="10.297419"><ele>1012.2</ele></trkpt><trkpt lat="47.409439" lon="10.297321"><ele>1010.8</ele></trkpt><trkpt lat="47.409619" lon="10.297213"><ele>1008.2</ele></trkpt><trkpt lat="47.40972" lon="10.296974"><ele>1005.7</ele></trkpt><trkpt lat="47.409565" lon="10.296687"><ele>1001.4</ele></trkpt><trkpt lat="47.409573" lon="10.296612"><ele>999</ele></trkpt><trkpt lat="47.409706" lon="10.296538"><ele>996.5</ele></trkpt><trkpt lat="47.409994" lon="10.296459"><ele>989.2</ele></trkpt><trkpt lat="47.410045" lon="10.296414"><ele>986.8</ele></trkpt><trkpt lat="47.410156" lon="10.296131"><ele>982</ele></trkpt><trkpt lat="47.410344" lon="10.29586"><ele>977.1</ele></trkpt><trkpt lat="47.410353" lon="10.295804"><ele>974.6</ele></trkpt><trkpt lat="47.410341" lon="10.29567"><ele>971.3</ele></trkpt><trkpt lat="47.410004" lon="10.295417"><ele>961.5</ele></trkpt><trkpt lat="47.409559" lon="10.295371"><ele>954.4</ele></trkpt><trkpt lat="47.408787" lon="10.295312"><ele>945.4</ele></trkpt><trkpt lat="47.408596" lon="10.295259"><ele>942.8</ele></trkpt><trkpt lat="47.40831" lon="10.294888"><ele>939.7</ele></trkpt><trkpt lat="47.408171" lon="10.294748"><ele>939</ele></trkpt><trkpt lat="47.407894" lon="10.294526"><ele>936.1</ele></trkpt><trkpt lat="47.407902" lon="10.294448"><ele>935</ele></trkpt><trkpt lat="47.407979" lon="10.294303"><ele>932.9</ele></trkpt><trkpt lat="47.408173" lon="10.294092"><ele>928.4</ele></trkpt><trkpt lat="47.408273" lon="10.294051"><ele>926.2</ele></trkpt><trkpt lat="47.408324" lon="10.293966"><ele>924.1</ele></trkpt><trkpt lat="47.40834" lon="10.293516"><ele>917.9</ele></trkpt><trkpt lat="47.40827" lon="10.293313"><ele>915.9</ele></trkpt><trkpt lat="47.408323" lon="10.293149"><ele>913.1</ele></trkpt><trkpt lat="47.408373" lon="10.29293"><ele>910.3</ele></trkpt><trkpt lat="47.408532" lon="10.292516"><ele>902.2</ele></trkpt><trkpt lat="47.408561" lon="10.292426"><ele>899</ele></trkpt><trkpt lat="47.408629" lon="10.292309"><ele>896</ele></trkpt><trkpt lat="47.409073" lon="10.2916"><ele>878.4</ele></trkpt><trkpt lat="47.409178" lon="10.291441"><ele>876.5</ele></trkpt><trkpt lat="47.409169" lon="10.291328"><ele>874.5</ele></trkpt><trkpt lat="47.40912" lon="10.291216"><ele>872.5</ele></trkpt><trkpt lat="47.408615" lon="10.290711"><ele>863</ele></trkpt><trkpt lat="47.408565" lon="10.29061"><ele>861.8</ele></trkpt><trkpt lat="47.408512" lon="10.290162"><ele>858.4</ele></trkpt><trkpt lat="47.408453" lon="10.289934"><ele>857.3</ele></trkpt><trkpt lat="47.408335" lon="10.28986"><ele>856.1</ele></trkpt><trkpt lat="47.408039" lon="10.289829"><ele>852.6</ele></trkpt><trkpt lat="47.407859" lon="10.289803"><ele>850.5</ele></trkpt><trkpt lat="47.407721" lon="10.289745"><ele>849.5</ele></trkpt><trkpt lat="47.407594" lon="10.289636"><ele>848.7</ele></trkpt><trkpt lat="47.407567" lon="10.289485"><ele>847.7</ele></trkpt><trkpt lat="47.407461" lon="10.289126"><ele>845.9</ele></trkpt><trkpt lat="47.407451" lon="10.288899"><ele>844.9</ele></trkpt><trkpt lat="47.407469" lon="10.288681"><ele>843.9</ele></trkpt><trkpt lat="47.407555" lon="10.288178"><ele>841.2</ele></trkpt><trkpt lat="47.407553" lon="10.287929"><ele>840.5</ele></trkpt><trkpt lat="47.407536" lon="10.287813"><ele>839.9</ele></trkpt><trkpt lat="47.40743" lon="10.287455"><ele>839.1</ele></trkpt><trkpt lat="47.407399" lon="10.287399"><ele>838.9</ele></trkpt><trkpt lat="47.4073" lon="10.287302"><ele>838.7</ele></trkpt><trkpt lat="47.407179" lon="10.287093"><ele>838.2</ele></trkpt><trkpt lat="47.40714" lon="10.287027"><ele>838</ele></trkpt><trkpt lat="47.407113" lon="10.287039"><ele>837.5</ele></trkpt><trkpt lat="47.406933" lon="10.286956"><ele>836.6</ele></trkpt><trkpt lat="47.406902" lon="10.286912"><ele>836.2</ele></trkpt><trkpt lat="47.406845" lon="10.286727"><ele>835.9</ele></trkpt><trkpt lat="47.406767" lon="10.28665"><ele>835.6</ele></trkpt><trkpt lat="47.406722" lon="10.286566"><ele>835.2</ele></trkpt><trkpt lat="47.406689" lon="10.28639"><ele>834.9</ele></trkpt><trkpt lat="47.406708" lon="10.286311"><ele>834.5</ele></trkpt><trkpt lat="47.406764" lon="10.286271"><ele>834.1</ele></trkpt><trkpt lat="47.406927" lon="10.286058"><ele>832.7</ele></trkpt><trkpt lat="47.406964" lon="10.286091"><ele>831.9</ele></trkpt><trkpt lat="47.406988" lon="10.286032"><ele>831.2</ele></trkpt><trkpt lat="47.406945" lon="10.285993"><ele>830.4</ele></trkpt><trkpt lat="47.406847" lon="10.285856"><ele>829.6</ele></trkpt><trkpt lat="47.406797" lon="10.285737"><ele>828.9</ele></trkpt><trkpt lat="47.406752" lon="10.285457"><ele>827.6</ele></trkpt><trkpt lat="47.406749" lon="10.2854"><ele>827</ele></trkpt><trkpt lat="47.406748" lon="10.285368"><ele>826.6</ele></trkpt><trkpt lat="47.406743" lon="10.285197"><ele>826.2</ele></trkpt><trkpt lat="47.406765" lon="10.285084"><ele>825.8</ele></trkpt><trkpt lat="47.406805" lon="10.285006"><ele>825.4</ele></trkpt><trkpt lat="47.406751" lon="10.284919"><ele>825</ele></trkpt><trkpt lat="47.406705" lon="10.284797"><ele>824.6</ele></trkpt><trkpt lat="47.406681" lon="10.284749"><ele>824.2</ele></trkpt><trkpt lat="47.406697" lon="10.284223"><ele>823.2</ele></trkpt><trkpt lat="47.406724" lon="10.283945"><ele>823</ele></trkpt><trkpt lat="47.406781" lon="10.283674"><ele>823</ele></trkpt><trkpt lat="47.406785" lon="10.283461"><ele>823</ele></trkpt><trkpt lat="47.406794" lon="10.2834"><ele>823</ele></trkpt><trkpt lat="47.406876" lon="10.283068"><ele>822.9</ele></trkpt><trkpt lat="47.407084" lon="10.282572"><ele>822.7</ele></trkpt><trkpt lat="47.407288" lon="10.282059"><ele>822.3</ele></trkpt><trkpt lat="47.407356" lon="10.281923"><ele>822.2</ele></trkpt><trkpt lat="47.408198" lon="10.280832"><ele>819.9</ele></trkpt><trkpt lat="47.408431" lon="10.280532"><ele>819.1</ele></trkpt><trkpt lat="47.408658" lon="10.280201"><ele>818.3</ele></trkpt><trkpt lat="47.408961" lon="10.279491"><ele>817.1</ele></trkpt><trkpt lat="47.409199" lon="10.278889"><ele>816.3</ele></trkpt><trkpt lat="47.409223" lon="10.278828"><ele>816.1</ele></trkpt><trkpt lat="47.40959" lon="10.277924"><ele>815.3</ele></trkpt><trkpt lat="47.409721" lon="10.277486"><ele>814.8</ele></trkpt><trkpt lat="47.41029" lon="10.277443"><ele>813.2</ele></trkpt><trkpt lat="47.410381" lon="10.277432"><ele>813</ele></trkpt><trkpt lat="47.410409" lon="10.277425"><ele>812.7</ele></trkpt><trkpt lat="47.410418" lon="10.277422"><ele>812.5</ele></trkpt></trkseg></trk></gpx>