<gpx xmlns="http://www.topografix.com/GPX/1/1" xmlns:xsi="http://www.w3.org/2001/XMLSchema-instance" xsi:schemaLocation="http://www.topografix.com/GPX/1/1 http://www.topografix.com/GPX/1/1/gpx.xsd" version="1.1" creator="togpx"><metadata/><wpt lat="43.44466837420644" lon="16.686100065708164"><name></name><desc>label=Bimita, Dugi Rat,SD,Croatia</desc></wpt><wpt lat="43.44361872308293" lon="16.699508428573612"><name></name><desc>label=Omiš - Fortica, SD,Croatia</desc></wpt><wpt lat="43.44483779670667" lon="16.699578166008"><name></name><desc>label=Planovo - Fortica, SD,Croatia</desc></wpt><wpt lat="43.44365767150191" lon="16.700184345245365"><name></name><desc>label=Omiš - Fortica, SD,Croatia</desc></wpt><wpt lat="43.443299345101316" lon="16.69708907604218"><name></name><desc>label=Omiš - Fortica, SD,Croatia</desc></wpt><wpt lat="43.44326818618358" lon="16.69330179691315"><name></name><desc>label=43.44326818618358, 16.69330179691315</desc></wpt><wpt lat="43.443852413220725" lon="16.690018773078922"><name></name><desc>label=Obala gusara, Dugi Rat,SD,Croatia</desc></wpt><wpt lat="43.43710619482765" lon="16.68659090995789"><name></name><desc>label=Šetnica, SD,Croatia</desc></wpt><trk><name></name><desc>ascent=352.8
descent=353.8
opacity=0.9</desc><trkseg><trkpt lat="43.44467" lon="16.686104"><ele>1</ele></trkpt><trkpt lat="43.444673" lon="16.686101"><ele>1</ele></trkpt><trkpt lat="43.444971" lon="16.686643"><ele>1</ele></trkpt><trkpt lat="43.445036" lon="16.686762"><ele>3</ele></trkpt><trkpt lat="43.445259" lon="16.687168"><ele>3</ele></trkpt><trkpt lat="43.445511" lon="16.687651"><ele>3</ele></trkpt><trkpt lat="43.445469" lon="16.687695"><ele>3</ele></trkpt><trkpt lat="43.44543" lon="16.687734"><ele>3</ele></trkpt><trkpt lat="43.44551" lon="16.687898"><ele>3</ele></trkpt><trkpt lat="43.445772" lon="16.688348"><ele>2.6</ele></trkpt><trkpt lat="43.445852" lon="16.688558"><ele>2.8</ele></trkpt><trkpt lat="43.445919" lon="16.688902"><ele>2.6</ele></trkpt><trkpt lat="43.445934" lon="16.689263"><ele>2.6</ele></trkpt><trkpt lat="43.445897" lon="16.689598"><ele>2.5</ele></trkpt><trkpt lat="43.445847" lon="16.689818"><ele>2.4</ele></trkpt><trkpt lat="43.445746" lon="16.690025"><ele>2.3</ele></trkpt><trkpt lat="43.445518" lon="16.690375"><ele>1</ele></trkpt><trkpt lat="43.445544" lon="16.690408"><ele>1</ele></trkpt><trkpt lat="43.445572" lon="16.690452"><ele>1</ele></trkpt><trkpt lat="43.445553" lon="16.690479"><ele>1</ele></trkpt><trkpt lat="43.444896" lon="16.691318"><ele>2</ele></trkpt><trkpt lat="43.44489" lon="16.691409"><ele>2</ele></trkpt><trkpt lat="43.444866" lon="16.69144"><ele>2</ele></trkpt><trkpt lat="43.444841" lon="16.69148"><ele>2</ele></trkpt><trkpt lat="43.444701" lon="16.69163"><ele>2</ele></trkpt><trkpt lat="43.44456" lon="16.691789"><ele>4</ele></trkpt><trkpt lat="43.444417" lon="16.691939"><ele>4</ele></trkpt><trkpt lat="43.444055" lon="16.692266"><ele>4</ele></trkpt><trkpt lat="43.443874" lon="16.692473"><ele>4</ele></trkpt><trkpt lat="43.443718" lon="16.692649"><ele>5</ele></trkpt><trkpt lat="43.443504" lon="16.692937"><ele>5</ele></trkpt><trkpt lat="43.443383" lon="16.693111"><ele>5</ele></trkpt><trkpt lat="43.443251" lon="16.693287"><ele>3</ele></trkpt><trkpt lat="43.443323" lon="16.693394"><ele>3.8</ele></trkpt><trkpt lat="43.443429" lon="16.693471"><ele>3.8</ele></trkpt><trkpt lat="43.443697" lon="16.693814"><ele>4</ele></trkpt><trkpt lat="43.44358" lon="16.693989"><ele>4</ele></trkpt><trkpt lat="43.443411" lon="16.694171"><ele>4.9</ele></trkpt><trkpt lat="43.443195" lon="16.694363"><ele>2</ele></trkpt><trkpt lat="43.443334" lon="16.694632"><ele>9</ele></trkpt><trkpt lat="43.443453" lon="16.694532"><ele>9.4</ele></trkpt><trkpt lat="43.443502" lon="16.69454"><ele>9.4</ele></trkpt><trkpt lat="43.443516" lon="16.694587"><ele>9.5</ele></trkpt><trkpt lat="43.443504" lon="16.694631"><ele>9.5</ele></trkpt><trkpt lat="43.443367" lon="16.694827"><ele>9.6</ele></trkpt><trkpt lat="43.443321" lon="16.694948"><ele>9.6</ele></trkpt><trkpt lat="43.443235" lon="16.695463"><ele>10</ele></trkpt><trkpt lat="43.4432" lon="16.695569"><ele>9.9</ele></trkpt><trkpt lat="43.443098" lon="16.695728"><ele>12</ele></trkpt><trkpt lat="43.44316" lon="16.695726"><ele>30.8</ele></trkpt><trkpt lat="43.443318" lon="16.695892"><ele>33.9</ele></trkpt><trkpt lat="43.443348" lon="16.695967"><ele>35.4</ele></trkpt><trkpt lat="43.443342" lon="16.696085"><ele>36.4</ele></trkpt><trkpt lat="43.443272" lon="16.696209"><ele>37.3</ele></trkpt><trkpt lat="43.443292" lon="16.696354"><ele>39</ele></trkpt><trkpt lat="43.443257" lon="16.69642"><ele>40.1</ele></trkpt><trkpt lat="43.443246" lon="16.696549"><ele>41.8</ele></trkpt><trkpt lat="43.443208" lon="16.696635"><ele>42.5</ele></trkpt><trkpt lat="43.443297" lon="16.696842"><ele>45.3</ele></trkpt><trkpt lat="43.443286" lon="16.697169"><ele>46.7</ele></trkpt><trkpt lat="43.443217" lon="16.697381"><ele>50.2</ele></trkpt><trkpt lat="43.443196" lon="16.697673"><ele>61</ele></trkpt><trkpt lat="43.443231" lon="16.697803"><ele>65.7</ele></trkpt><trkpt lat="43.443246" lon="16.698045"><ele>75</ele></trkpt><trkpt lat="43.443233" lon="16.698085"><ele>76.8</ele></trkpt><trkpt lat="43.443276" lon="16.698357"><ele>82</ele></trkpt><trkpt lat="43.443272" lon="16.698657"><ele>86.8</ele></trkpt><trkpt lat="43.443285" lon="16.698833"><ele>88.7</ele></trkpt><trkpt lat="43.443362" lon="16.699348"><ele>94.1</ele></trkpt><trkpt lat="43.443333" lon="16.699456"><ele>93.5</ele></trkpt><trkpt lat="43.443353" lon="16.699485"><ele>93.5</ele></trkpt><trkpt lat="43.443323" lon="16.699525"><ele>92.5</ele></trkpt><trkpt lat="43.443392" lon="16.699568"><ele>92.4</ele></trkpt><trkpt lat="43.443377" lon="16.699663"><ele>91</ele></trkpt><trkpt lat="43.443203" lon="16.699947"><ele>95</ele></trkpt><trkpt lat="43.443185" lon="16.700059"><ele>115</ele></trkpt><trkpt lat="43.443172" lon="16.700156"><ele>115</ele></trkpt><trkpt lat="43.443244" lon="16.700198"><ele>152</ele></trkpt><trkpt lat="43.443287" lon="16.700161"><ele>154.4</ele></trkpt><trkpt lat="43.443327" lon="16.700172"><ele>157.1</ele></trkpt><trkpt lat="43.443348" lon="16.700208"><ele>159.9</ele></trkpt><trkpt lat="43.443413" lon="16.700197"><ele>158.9</ele></trkpt><trkpt lat="43.44348" lon="16.700237"><ele>157.8</ele></trkpt><trkpt lat="43.443497" lon="16.700189"><ele>156.5</ele></trkpt><trkpt lat="43.443538" lon="16.700167"><ele>155.8</ele></trkpt><trkpt lat="43.443556" lon="16.700084"><ele>167</ele></trkpt><trkpt lat="43.44357" lon="16.700005"><ele>151.4</ele></trkpt><trkpt lat="43.443568" lon="16.699812"><ele>150.7</ele></trkpt><trkpt lat="43.443628" lon="16.69954"><ele>147</ele></trkpt><trkpt lat="43.443568" lon="16.699812"><ele>150.7</ele></trkpt><trkpt lat="43.44357" lon="16.700005"><ele>151.4</ele></trkpt><trkpt lat="43.443556" lon="16.700084"><ele>167</ele></trkpt><trkpt lat="43.443586" lon="16.700063"><ele>170</ele></trkpt><trkpt lat="43.443621" lon="16.700116"><ele>169.9</ele></trkpt><trkpt lat="43.443644" lon="16.700196"><ele>169.7</ele></trkpt><trkpt lat="43.443623" lon="16.700428"><ele>169.6</ele></trkpt><trkpt lat="43.443635" lon="16.700649"><ele>169.5</ele></trkpt><trkpt lat="43.443615" lon="16.70071"><ele>169.3</ele></trkpt><trkpt lat="43.443613" lon="16.700945"><ele>169.6</ele></trkpt><trkpt lat="43.443565" lon="16.700985"><ele>169.8</ele></trkpt><trkpt lat="43.443546" lon="16.701047"><ele>170</ele></trkpt><trkpt lat="43.443545" lon="16.701241"><ele>170.4</ele></trkpt><trkpt lat="43.443568" lon="16.701363"><ele>170.6</ele></trkpt><trkpt lat="43.443535" lon="16.701417"><ele>170.8</ele></trkpt><trkpt lat="43.443527" lon="16.701474"><ele>171</ele></trkpt><trkpt lat="43.443486" lon="16.701533"><ele>171.1</ele></trkpt><trkpt lat="43.443467" lon="16.701653"><ele>174</ele></trkpt><trkpt lat="43.443472" lon="16.701786"><ele>197.8</ele></trkpt><trkpt lat="43.443452" lon="16.701968"><ele>198.8</ele></trkpt><trkpt lat="43.443471" lon="16.701994"><ele>199.3</ele></trkpt><trkpt lat="43.44343" lon="16.702196"><ele>199.9</ele></trkpt><trkpt lat="43.443435" lon="16.70251"><ele>201.1</ele></trkpt><trkpt lat="43.443403" lon="16.702745"><ele>200.9</ele></trkpt><trkpt lat="43.44342" lon="16.702813"><ele>200.9</ele></trkpt><trkpt lat="43.443367" lon="16.703005"><ele>200.9</ele></trkpt><trkpt lat="43.443352" lon="16.703162"><ele>200.8</ele></trkpt><trkpt lat="43.443378" lon="16.703209"><ele>200.7</ele></trkpt><trkpt lat="43.443498" lon="16.703133"><ele>200.6</ele></trkpt><trkpt lat="43.443529" lon="16.703152"><ele>200.5</ele></trkpt><trkpt lat="43.443528" lon="16.703311"><ele>200.4</ele></trkpt><trkpt lat="43.443587" lon="16.703291"><ele>200.3</ele></trkpt><trkpt lat="43.443595" lon="16.703364"><ele>225</ele></trkpt><trkpt lat="43.443722" lon="16.703216"><ele>226.4</ele></trkpt><trkpt lat="43.443815" lon="16.703211"><ele>227.6</ele></trkpt><trkpt lat="43.443821" lon="16.703307"><ele>228.2</ele></trkpt><trkpt lat="43.443861" lon="16.703327"><ele>228.8</ele></trkpt><trkpt lat="43.443919" lon="16.703309"><ele>229.4</ele></trkpt><trkpt lat="43.443954" lon="16.703274"><ele>230.1</ele></trkpt><trkpt lat="43.443967" lon="16.703043"><ele>231.5</ele></trkpt><trkpt lat="43.444003" lon="16.702987"><ele>232.9</ele></trkpt><trkpt lat="43.444027" lon="16.702997"><ele>233.6</ele></trkpt><trkpt lat="43.444021" lon="16.70303"><ele>234.4</ele></trkpt><trkpt lat="43.444032" lon="16.70304"><ele>235.1</ele></trkpt><trkpt lat="43.444042" lon="16.703002"><ele>235.9</ele></trkpt><trkpt lat="43.444069" lon="16.703011"><ele>237.6</ele></trkpt><trkpt lat="43.44408" lon="16.703078"><ele>239.3</ele></trkpt><trkpt lat="43.444092" lon="16.70303"><ele>240.2</ele></trkpt><trkpt lat="43.444109" lon="16.703028"><ele>241.1</ele></trkpt><trkpt lat="43.444118" lon="16.703104"><ele>242.9</ele></trkpt><trkpt lat="43.444134" lon="16.703119"><ele>243.9</ele></trkpt><trkpt lat="43.444154" lon="16.703105"><ele>244.9</ele></trkpt><trkpt lat="43.444179" lon="16.703011"><ele>245.3</ele></trkpt><trkpt lat="43.444205" lon="16.702984"><ele>244.6</ele></trkpt><trkpt lat="43.444246" lon="16.70287"><ele>243.2</ele></trkpt><trkpt lat="43.444236" lon="16.702747"><ele>242.4</ele></trkpt><trkpt lat="43.444263" lon="16.702692"><ele>241.7</ele></trkpt><trkpt lat="43.444267" lon="16.702622"><ele>240.9</ele></trkpt><trkpt lat="43.444308" lon="16.702541"><ele>240.1</ele></trkpt><trkpt lat="43.444357" lon="16.702342"><ele>238.9</ele></trkpt><trkpt lat="43.444373" lon="16.702175"><ele>238</ele></trkpt><trkpt lat="43.444443" lon="16.702078"><ele>257</ele></trkpt><trkpt lat="43.444497" lon="16.702007"><ele>257</ele></trkpt><trkpt lat="43.444517" lon="16.701923"><ele>257</ele></trkpt><trkpt lat="43.444517" lon="16.701558"><ele>240.5</ele></trkpt><trkpt lat="43.444489" lon="16.701328"><ele>240.1</ele></trkpt><trkpt lat="43.444471" lon="16.701293"><ele>239.8</ele></trkpt><trkpt lat="43.444486" lon="16.701162"><ele>239.3</ele></trkpt><trkpt lat="43.444473" lon="16.701086"><ele>238.8</ele></trkpt><trkpt lat="43.444505" lon="16.700993"><ele>237.6</ele></trkpt><trkpt lat="43.444557" lon="16.700933"><ele>236.9</ele></trkpt><trkpt lat="43.444547" lon="16.700782"><ele>236.2</ele></trkpt><trkpt lat="43.444521" lon="16.700752"><ele>236.4</ele></trkpt><trkpt lat="43.444599" lon="16.700498"><ele>237</ele></trkpt><trkpt lat="43.444651" lon="16.700445"><ele>237.4</ele></trkpt><trkpt lat="43.444637" lon="16.700275"><ele>237.9</ele></trkpt><trkpt lat="43.444656" lon="16.70016"><ele>238.1</ele></trkpt><trkpt lat="43.444696" lon="16.700111"><ele>238.3</ele></trkpt><trkpt lat="43.444727" lon="16.700005"><ele>231</ele></trkpt><trkpt lat="43.444827" lon="16.699745"><ele>232.5</ele></trkpt><trkpt lat="43.444811" lon="16.699667"><ele>233</ele></trkpt><trkpt lat="43.444845" lon="16.699585"><ele>233</ele></trkpt><trkpt lat="43.444838" lon="16.699579"><ele>233</ele></trkpt><trkpt lat="43.444845" lon="16.699585"><ele>233</ele></trkpt><trkpt lat="43.444811" lon="16.699667"><ele>233</ele></trkpt><trkpt lat="43.444827" lon="16.699745"><ele>232.5</ele></trkpt><trkpt lat="43.444727" lon="16.700005"><ele>231</ele></trkpt><trkpt lat="43.444696" lon="16.700111"><ele>238.3</ele></trkpt><trkpt lat="43.444656" lon="16.70016"><ele>238.1</ele></trkpt><trkpt lat="43.444637" lon="16.700275"><ele>237.9</ele></trkpt><trkpt lat="43.444651" lon="16.700445"><ele>237.4</ele></trkpt><trkpt lat="43.444599" lon="16.700498"><ele>237</ele></trkpt><trkpt lat="43.444521" lon="16.700752"><ele>236.4</ele></trkpt><trkpt lat="43.444547" lon="16.700782"><ele>236.2</ele></trkpt><trkpt lat="43.444557" lon="16.700933"><ele>236.9</ele></trkpt><trkpt lat="43.444505" lon="16.700993"><ele>237.6</ele></trkpt><trkpt lat="43.444473" lon="16.701086"><ele>238.8</ele></trkpt><trkpt lat="43.444486" lon="16.701162"><ele>239.3</ele></trkpt><trkpt lat="43.444471" lon="16.701293"><ele>239.8</ele></trkpt><trkpt lat="43.444489" lon="16.701328"><ele>240.1</ele></trkpt><trkpt lat="43.444517" lon="16.701558"><ele>240.5</ele></trkpt><trkpt lat="43.444517" lon="16.701923"><ele>257</ele></trkpt><trkpt lat="43.444497" lon="16.702007"><ele>257</ele></trkpt><trkpt lat="43.444443" lon="16.702078"><ele>257</ele></trkpt><trkpt lat="43.444373" lon="16.702175"><ele>238</ele></trkpt><trkpt lat="43.444357" lon="16.702342"><ele>238.9</ele></trkpt><trkpt lat="43.444308" lon="16.702541"><ele>240.1</ele></trkpt><trkpt lat="43.444267" lon="16.702622"><ele>240.9</ele></trkpt><trkpt lat="43.444263" lon="16.702692"><ele>241.7</ele></trkpt><trkpt lat="43.444236" lon="16.702747"><ele>242.4</ele></trkpt><trkpt lat="43.444246" lon="16.70287"><ele>243.2</ele></trkpt><trkpt lat="43.444205" lon="16.702984"><ele>244.6</ele></trkpt><trkpt lat="43.444179" lon="16.703011"><ele>245.3</ele></trkpt><trkpt lat="43.444154" lon="16.703105"><ele>244.9</ele></trkpt><trkpt lat="43.444134" lon="16.703119"><ele>243.9</ele></trkpt><trkpt lat="43.444118" lon="16.703104"><ele>242.9</ele></trkpt><trkpt lat="43.444109" lon="16.703028"><ele>241.1</ele></trkpt><trkpt lat="43.444092" lon="16.70303"><ele>240.2</ele></trkpt><trkpt lat="43.44408" lon="16.703078"><ele>239.3</ele></trkpt><trkpt lat="43.444069" lon="16.703011"><ele>237.6</ele></trkpt><trkpt lat="43.444042" lon="16.703002"><ele>235.9</ele></trkpt><trkpt lat="43.444032" lon="16.70304"><ele>235.1</ele></trkpt><trkpt lat="43.444021" lon="16.70303"><ele>234.4</ele></trkpt><trkpt lat="43.444027" lon="16.702997"><ele>233.6</ele></trkpt><trkpt lat="43.444003" lon="16.702987"><ele>232.9</ele></trkpt><trkpt lat="43.443967" lon="16.703043"><ele>231.5</ele></trkpt><trkpt lat="43.443954" lon="16.703274"><ele>230.1</ele></trkpt><trkpt lat="43.443919" lon="16.703309"><ele>229.4</ele></trkpt><trkpt lat="43.443861" lon="16.703327"><ele>228.8</ele></trkpt><trkpt lat="43.443821" lon="16.703307"><ele>228.2</ele></trkpt><trkpt lat="43.443815" lon="16.703211"><ele>227.6</ele></trkpt><trkpt lat="43.443722" lon="16.703216"><ele>226.4</ele></trkpt><trkpt lat="43.443595" lon="16.703364"><ele>225</ele></trkpt><trkpt lat="43.443587" lon="16.703291"><ele>200.3</ele></trkpt><trkpt lat="43.443528" lon="16.703311"><ele>200.4</ele></trkpt><trkpt lat="43.443529" lon="16.703152"><ele>200.5</ele></trkpt><trkpt lat="43.443498" lon="16.703133"><ele>200.6</ele></trkpt><trkpt lat="43.443378" lon="16.703209"><ele>200.7</ele></trkpt><trkpt lat="43.443352" lon="16.703162"><ele>200.8</ele></trkpt><trkpt lat="43.443367" lon="16.703005"><ele>200.9</ele></trkpt><trkpt lat="43.44342" lon="16.702813"><ele>200.9</ele></trkpt><trkpt lat="43.443403" lon="16.702745"><ele>200.9</ele></trkpt><trkpt lat="43.443435" lon="16.70251"><ele>201.1</ele></trkpt><trkpt lat="43.44343" lon="16.702196"><ele>199.9</ele></trkpt><trkpt lat="43.443471" lon="16.701994"><ele>199.3</ele></trkpt><trkpt lat="43.443452" lon="16.701968"><ele>198.8</ele></trkpt><trkpt lat="43.443472" lon="16.701786"><ele>197.8</ele></trkpt><trkpt lat="43.443467" lon="16.701653"><ele>174</ele></trkpt><trkpt lat="43.443486" lon="16.701533"><ele>171.1</ele></trkpt><trkpt lat="43.443527" lon="16.701474"><ele>171</ele></trkpt><trkpt lat="43.443535" lon="16.701417"><ele>170.8</ele></trkpt><trkpt lat="43.443568" lon="16.701363"><ele>170.6</ele></trkpt><trkpt lat="43.443545" lon="16.701241"><ele>170.4</ele></trkpt><trkpt lat="43.443546" lon="16.701047"><ele>170</ele></trkpt><trkpt lat="43.443565" lon="16.700985"><ele>169.8</ele></trkpt><trkpt lat="43.443613" lon="16.700945"><ele>169.6</ele></trkpt><trkpt lat="43.443615" lon="16.70071"><ele>169.3</ele></trkpt><trkpt lat="43.443635" lon="16.700649"><ele>169.5</ele></trkpt><trkpt lat="43.443623" lon="16.700428"><ele>169.6</ele></trkpt><trkpt lat="43.443644" lon="16.700196"><ele>169.7</ele></trkpt><trkpt lat="43.443643" lon="16.700192"><ele>169.8</ele></trkpt><trkpt lat="43.443621" lon="16.700116"><ele>169.9</ele></trkpt><trkpt lat="43.443586" lon="16.700063"><ele>170</ele></trkpt><trkpt lat="43.443556" lon="16.700084"><ele>167</ele></trkpt><trkpt lat="43.443538" lon="16.700167"><ele>155.8</ele></trkpt><trkpt lat="43.443497" lon="16.700189"><ele>156.5</ele></trkpt><trkpt lat="43.44348" lon="16.700237"><ele>157.8</ele></trkpt><trkpt lat="43.443413" lon="16.700197"><ele>158.9</ele></trkpt><trkpt lat="43.443348" lon="16.700208"><ele>159.9</ele></trkpt><trkpt lat="43.443327" lon="16.700172"><ele>157.1</ele></trkpt><trkpt lat="43.443287" lon="16.700161"><ele>154.4</ele></trkpt><trkpt lat="43.443244" lon="16.700198"><ele>152</ele></trkpt><trkpt lat="43.443172" lon="16.700156"><ele>115</ele></trkpt><trkpt lat="43.443185" lon="16.700059"><ele>115</ele></trkpt><trkpt lat="43.443203" lon="16.699947"><ele>95</ele></trkpt><trkpt lat="43.443377" lon="16.699663"><ele>91</ele></trkpt><trkpt lat="43.443392" lon="16.699568"><ele>92.4</ele></trkpt><trkpt lat="43.443323" lon="16.699525"><ele>92.5</ele></trkpt><trkpt lat="43.443353" lon="16.699485"><ele>93.5</ele></trkpt><trkpt lat="43.443333" lon="16.699456"><ele>93.5</ele></trkpt><trkpt lat="43.443362" lon="16.699348"><ele>94.1</ele></trkpt><trkpt lat="43.443285" lon="16.698833"><ele>88.7</ele></trkpt><trkpt lat="43.443272" lon="16.698657"><ele>86.8</ele></trkpt><trkpt lat="43.443276" lon="16.698357"><ele>82</ele></trkpt><trkpt lat="43.443233" lon="16.698085"><ele>76.8</ele></trkpt><trkpt lat="43.443246" lon="16.698045"><ele>75</ele></trkpt><trkpt lat="43.443231" lon="16.697803"><ele>65.7</ele></trkpt><trkpt lat="43.443196" lon="16.697673"><ele>61</ele></trkpt><trkpt lat="43.443217" lon="16.697381"><ele>50.2</ele></trkpt><trkpt lat="43.443286" lon="16.697169"><ele>46.7</ele></trkpt><trkpt lat="43.443289" lon="16.697088"><ele>46</ele></trkpt><trkpt lat="43.443297" lon="16.696842"><ele>45.3</ele></trkpt><trkpt lat="43.443208" lon="16.696635"><ele>42.5</ele></trkpt><trkpt lat="43.443246" lon="16.696549"><ele>41.8</ele></trkpt><trkpt lat="43.443257" lon="16.69642"><ele>40.1</ele></trkpt><trkpt lat="43.443292" lon="16.696354"><ele>39</ele></trkpt><trkpt lat="43.443272" lon="16.696209"><ele>37.3</ele></trkpt><trkpt lat="43.443342" lon="16.696085"><ele>36.4</ele></trkpt><trkpt lat="43.443348" lon="16.695967"><ele>35.4</ele></trkpt><trkpt lat="43.443318" lon="16.695892"><ele>33.9</ele></trkpt><trkpt lat="43.44316" lon="16.695726"><ele>30.8</ele></trkpt><trkpt lat="43.443098" lon="16.695728"><ele>12</ele></trkpt><trkpt lat="43.4432" lon="16.695569"><ele>9.9</ele></trkpt><trkpt lat="43.443235" lon="16.695463"><ele>10</ele></trkpt><trkpt lat="43.443321" lon="16.694948"><ele>9.6</ele></trkpt><trkpt lat="43.443367" lon="16.694827"><ele>9.6</ele></trkpt><trkpt lat="43.443504" lon="16.694631"><ele>9.5</ele></trkpt><trkpt lat="43.443516" lon="16.694587"><ele>9.5</ele></trkpt><trkpt lat="43.443502" lon="16.69454"><ele>9.4</ele></trkpt><trkpt lat="43.443453" lon="16.694532"><ele>9.4</ele></trkpt><trkpt lat="43.443334" lon="16.694632"><ele>9</ele></trkpt><trkpt lat="43.443195" lon="16.694363"><ele>2</ele></trkpt><trkpt lat="43.443411" lon="16.694171"><ele>4.9</ele></trkpt><trkpt lat="43.44358" lon="16.693989"><ele>4</ele></trkpt><trkpt lat="43.443697" lon="16.693814"><ele>4</ele></trkpt><trkpt lat="43.443429" lon="16.693471"><ele>3.8</ele></trkpt><trkpt lat="43.443323" lon="16.693394"><ele>3.8</ele></trkpt><trkpt lat="43.443264" lon="16.693307"><ele>3.4</ele></trkpt><trkpt lat="43.443251" lon="16.693287"><ele>3</ele></trkpt><trkpt lat="43.443383" lon="16.693111"><ele>5</ele></trkpt><trkpt lat="43.443504" lon="16.692937"><ele>5</ele></trkpt><trkpt lat="43.443718" lon="16.692649"><ele>5</ele></trkpt><trkpt lat="43.443874" lon="16.692473"><ele>4</ele></trkpt><trkpt lat="43.444055" lon="16.692266"><ele>4</ele></trkpt><trkpt lat="43.444417" lon="16.691939"><ele>4</ele></trkpt><trkpt lat="43.44456" lon="16.691789"><ele>4</ele></trkpt><trkpt lat="43.444701" lon="16.69163"><ele>2</ele></trkpt><trkpt lat="43.444841" lon="16.69148"><ele>2</ele></trkpt><trkpt lat="43.444866" lon="16.69144"><ele>2</ele></trkpt><trkpt lat="43.444805" lon="16.69137"><ele>2</ele></trkpt><trkpt lat="43.44475" lon="16.691305"><ele>2</ele></trkpt><trkpt lat="43.44478" lon="16.69127"><ele>2</ele></trkpt><trkpt lat="43.443839" lon="16.690039"><ele>1</ele></trkpt><trkpt lat="43.442655" lon="16.68849"><ele>-0.1</ele></trkpt><trkpt lat="43.442327" lon="16.688086"><ele>-0.2</ele></trkpt><trkpt lat="43.442093" lon="16.687861"><ele>-0.1</ele></trkpt><trkpt lat="43.441818" lon="16.687673"><ele>-0.1</ele></trkpt><trkpt lat="43.441604" lon="16.687568"><ele>0</ele></trkpt><trkpt lat="43.441263" lon="16.687461"><ele>0</ele></trkpt><trkpt lat="43.441298" lon="16.687631"><ele>0.5</ele></trkpt><trkpt lat="43.441249" lon="16.687656"><ele>0.4</ele></trkpt><trkpt lat="43.441194" lon="16.687455"><ele>0</ele></trkpt><trkpt lat="43.43994" lon="16.687395"><ele>0</ele></trkpt><trkpt lat="43.439708" lon="16.687385"><ele>0</ele></trkpt><trkpt lat="43.438716" lon="16.687357"><ele>0</ele></trkpt><trkpt lat="43.437945" lon="16.68733"><ele>0</ele></trkpt><trkpt lat="43.43781" lon="16.687284"><ele>0</ele></trkpt><trkpt lat="43.437618" lon="16.687196"><ele>0</ele></trkpt><trkpt lat="43.437466" lon="16.687072"><ele>0</ele></trkpt><trkpt lat="43.437265" lon="16.686843"><ele>0</ele></trkpt><trkpt lat="43.437131" lon="16.686639"><ele>0</ele></trkpt><trkpt lat="43.437139" lon="16.686628"><ele>0</ele></trkpt><trkpt lat="43.437119" lon="16.686597"><ele>0</ele></trkpt><trkpt lat="43.437109" lon="16.686602"><ele>0</ele></trkpt></trkseg></trk></gpx>