<gpx xmlns="http://www.topografix.com/GPX/1/1" xmlns:xsi="http://www.w3.org/2001/XMLSchema-instance" xsi:schemaLocation="http://www.topografix.com/GPX/1/1 http://www.topografix.com/GPX/1/1/gpx.xsd" version="1.1" creator="togpx"><metadata/><wpt lat="32.73371360800717" lon="-16.92887216806412"><name></name><desc>label=Estrada Regional 202, São Roque do Faial,Portugal</desc></wpt><wpt lat="32.734979357952106" lon="-16.92862540483475"><name></name><desc>label=Estrada Regional 202, São Roque do Faial,Portugal</desc></wpt><wpt lat="32.736538394229854" lon="-16.92605316638947"><name></name><desc>label=Estrada Regional 202, São Roque do Faial,Portugal</desc></wpt><wpt lat="32.73640979169049" lon="-16.924730837345127"><name></name><desc>label=Estrada Regional 202, São Roque do Faial,Portugal</desc></wpt><wpt lat="32.735417064088935" lon="-16.928705871105198"><name></name><desc>label=Estrada Regional 202, São Roque do Faial,Portugal</desc></wpt><wpt lat="32.739638336131854" lon="-16.93827867507935"><name></name><desc>label=Tunel do Pico do Gato, Curral das Freiras,Portugal</desc></wpt><wpt lat="32.73362787028425" lon="-16.928952634334568"><name></name><desc>label=Estrada Regional 202, São Roque do Faial,Portugal</desc></wpt><trk><name></name><desc>ascent=607.7
descent=590.3
opacity=0.9</desc><trkseg><trkpt lat="32.733714" lon="-16.928873"><ele>1660</ele></trkpt><trkpt lat="32.733643" lon="-16.928933"><ele>1660</ele></trkpt><trkpt lat="32.734821" lon="-16.928695"><ele>1660</ele></trkpt><trkpt lat="32.734869" lon="-16.928645"><ele>1660</ele></trkpt><trkpt lat="32.734982" lon="-16.928621"><ele>1660</ele></trkpt><trkpt lat="32.734981" lon="-16.928626"><ele>1660</ele></trkpt><trkpt lat="32.734982" lon="-16.928621"><ele>1660</ele></trkpt><trkpt lat="32.735016" lon="-16.928624"><ele>1660</ele></trkpt><trkpt lat="32.73505" lon="-16.928626"><ele>1660</ele></trkpt><trkpt lat="32.735182" lon="-16.928637"><ele>1660</ele></trkpt><trkpt lat="32.735247" lon="-16.928392"><ele>1660</ele></trkpt><trkpt lat="32.735287" lon="-16.928394"><ele>1559</ele></trkpt><trkpt lat="32.735327" lon="-16.928397"><ele>1559</ele></trkpt><trkpt lat="32.735693" lon="-16.928055"><ele>1559</ele></trkpt><trkpt lat="32.735734" lon="-16.927981"><ele>1559</ele></trkpt><trkpt lat="32.735738" lon="-16.927854"><ele>1559</ele></trkpt><trkpt lat="32.735739" lon="-16.927817"><ele>1559</ele></trkpt><trkpt lat="32.735707" lon="-16.927796"><ele>1559</ele></trkpt><trkpt lat="32.735769" lon="-16.927769"><ele>1559</ele></trkpt><trkpt lat="32.735791" lon="-16.927722"><ele>1559</ele></trkpt><trkpt lat="32.735789" lon="-16.927667"><ele>1559</ele></trkpt><trkpt lat="32.735759" lon="-16.92762"><ele>1559</ele></trkpt><trkpt lat="32.735833" lon="-16.927521"><ele>1508.2</ele></trkpt><trkpt lat="32.735837" lon="-16.927436"><ele>1504.6</ele></trkpt><trkpt lat="32.735934" lon="-16.927277"><ele>1496.5</ele></trkpt><trkpt lat="32.735954" lon="-16.927188"><ele>1492.1</ele></trkpt><trkpt lat="32.735891" lon="-16.927122"><ele>1492.9</ele></trkpt><trkpt lat="32.73582" lon="-16.926928"><ele>1494.8</ele></trkpt><trkpt lat="32.735822" lon="-16.926817"><ele>1495.9</ele></trkpt><trkpt lat="32.735862" lon="-16.926642"><ele>1498.3</ele></trkpt><trkpt lat="32.735856" lon="-16.926545"><ele>1499.6</ele></trkpt><trkpt lat="32.735908" lon="-16.926489"><ele>1480</ele></trkpt><trkpt lat="32.736051" lon="-16.926498"><ele>1480</ele></trkpt><trkpt lat="32.736159" lon="-16.926459"><ele>1480</ele></trkpt><trkpt lat="32.736248" lon="-16.926352"><ele>1480</ele></trkpt><trkpt lat="32.736417" lon="-16.926239"><ele>1480</ele></trkpt><trkpt lat="32.736538" lon="-16.926053"><ele>1480</ele></trkpt><trkpt lat="32.736539" lon="-16.926052"><ele>1480</ele></trkpt><trkpt lat="32.73667" lon="-16.926026"><ele>1480</ele></trkpt><trkpt lat="32.736685" lon="-16.925888"><ele>1480</ele></trkpt><trkpt lat="32.736644" lon="-16.925805"><ele>1480</ele></trkpt><trkpt lat="32.736599" lon="-16.92576"><ele>1480</ele></trkpt><trkpt lat="32.736353" lon="-16.925708"><ele>1480</ele></trkpt><trkpt lat="32.736106" lon="-16.925696"><ele>1480</ele></trkpt><trkpt lat="32.736113" lon="-16.925619"><ele>1480</ele></trkpt><trkpt lat="32.736369" lon="-16.925351"><ele>1480</ele></trkpt><trkpt lat="32.736364" lon="-16.92532"><ele>1475.9</ele></trkpt><trkpt lat="32.73608" lon="-16.925097"><ele>1475.6</ele></trkpt><trkpt lat="32.736079" lon="-16.925006"><ele>1474.9</ele></trkpt><trkpt lat="32.736216" lon="-16.924915"><ele>1474.3</ele></trkpt><trkpt lat="32.736306" lon="-16.924821"><ele>1470</ele></trkpt><trkpt lat="32.736336" lon="-16.92475"><ele>1470</ele></trkpt><trkpt lat="32.736406" lon="-16.924724"><ele>1470</ele></trkpt><trkpt lat="32.736336" lon="-16.92475"><ele>1470</ele></trkpt><trkpt lat="32.736306" lon="-16.924821"><ele>1470</ele></trkpt><trkpt lat="32.736216" lon="-16.924915"><ele>1474.3</ele></trkpt><trkpt lat="32.736079" lon="-16.925006"><ele>1474.9</ele></trkpt><trkpt lat="32.73608" lon="-16.925097"><ele>1475.6</ele></trkpt><trkpt lat="32.736364" lon="-16.92532"><ele>1475.9</ele></trkpt><trkpt lat="32.736369" lon="-16.925351"><ele>1480</ele></trkpt><trkpt lat="32.736113" lon="-16.925619"><ele>1480</ele></trkpt><trkpt lat="32.736106" lon="-16.925696"><ele>1480</ele></trkpt><trkpt lat="32.736098" lon="-16.925888"><ele>1480</ele></trkpt><trkpt lat="32.736116" lon="-16.926039"><ele>1480</ele></trkpt><trkpt lat="32.736097" lon="-16.926225"><ele>1480</ele></trkpt><trkpt lat="32.735908" lon="-16.926489"><ele>1480</ele></trkpt><trkpt lat="32.735856" lon="-16.926545"><ele>1499.6</ele></trkpt><trkpt lat="32.735862" lon="-16.926642"><ele>1498.3</ele></trkpt><trkpt lat="32.735822" lon="-16.926817"><ele>1495.9</ele></trkpt><trkpt lat="32.73582" lon="-16.926928"><ele>1494.8</ele></trkpt><trkpt lat="32.735891" lon="-16.927122"><ele>1492.9</ele></trkpt><trkpt lat="32.735954" lon="-16.927188"><ele>1492.1</ele></trkpt><trkpt lat="32.735934" lon="-16.927277"><ele>1496.5</ele></trkpt><trkpt lat="32.735837" lon="-16.927436"><ele>1504.6</ele></trkpt><trkpt lat="32.735833" lon="-16.927521"><ele>1508.2</ele></trkpt><trkpt lat="32.735759" lon="-16.92762"><ele>1559</ele></trkpt><trkpt lat="32.735789" lon="-16.927667"><ele>1559</ele></trkpt><trkpt lat="32.735791" lon="-16.927722"><ele>1559</ele></trkpt><trkpt lat="32.735769" lon="-16.927769"><ele>1559</ele></trkpt><trkpt lat="32.735707" lon="-16.927796"><ele>1559</ele></trkpt><trkpt lat="32.735739" lon="-16.927817"><ele>1559</ele></trkpt><trkpt lat="32.735738" lon="-16.927854"><ele>1559</ele></trkpt><trkpt lat="32.735734" lon="-16.927981"><ele>1559</ele></trkpt><trkpt lat="32.735693" lon="-16.928055"><ele>1559</ele></trkpt><trkpt lat="32.735327" lon="-16.928397"><ele>1559</ele></trkpt><trkpt lat="32.735287" lon="-16.928394"><ele>1559</ele></trkpt><trkpt lat="32.735278" lon="-16.928656"><ele>1559</ele></trkpt><trkpt lat="32.735277" lon="-16.928699"><ele>1660</ele></trkpt><trkpt lat="32.735364" lon="-16.928696"><ele>1559</ele></trkpt><trkpt lat="32.735413" lon="-16.928702"><ele>1559</ele></trkpt><trkpt lat="32.735418" lon="-16.928704"><ele>1559</ele></trkpt><trkpt lat="32.735451" lon="-16.928715"><ele>1559</ele></trkpt><trkpt lat="32.735683" lon="-16.928971"><ele>1576.1</ele></trkpt><trkpt lat="32.73585" lon="-16.929234"><ele>1578</ele></trkpt><trkpt lat="32.736008" lon="-16.929533"><ele>1580.1</ele></trkpt><trkpt lat="32.736054" lon="-16.929901"><ele>1578.5</ele></trkpt><trkpt lat="32.736244" lon="-16.930136"><ele>1587</ele></trkpt><trkpt lat="32.736268" lon="-16.930211"><ele>1587</ele></trkpt><trkpt lat="32.736293" lon="-16.930367"><ele>1587</ele></trkpt><trkpt lat="32.736369" lon="-16.930541"><ele>1587</ele></trkpt><trkpt lat="32.736464" lon="-16.930708"><ele>1587</ele></trkpt><trkpt lat="32.736494" lon="-16.930871"><ele>1576.3</ele></trkpt><trkpt lat="32.736483" lon="-16.931151"><ele>1573.6</ele></trkpt><trkpt lat="32.736549" lon="-16.931464"><ele>1544</ele></trkpt><trkpt lat="32.736759" lon="-16.931879"><ele>1544</ele></trkpt><trkpt lat="32.736834" lon="-16.931954"><ele>1544</ele></trkpt><trkpt lat="32.736941" lon="-16.932001"><ele>1544</ele></trkpt><trkpt lat="32.737084" lon="-16.932078"><ele>1544</ele></trkpt><trkpt lat="32.737172" lon="-16.932175"><ele>1504.6</ele></trkpt><trkpt lat="32.73729" lon="-16.93222"><ele>1500.2</ele></trkpt><trkpt lat="32.737357" lon="-16.932309"><ele>1495.3</ele></trkpt><trkpt lat="32.737434" lon="-16.932357"><ele>1491.8</ele></trkpt><trkpt lat="32.737454" lon="-16.932421"><ele>1493.9</ele></trkpt><trkpt lat="32.737616" lon="-16.932572"><ele>1473</ele></trkpt><trkpt lat="32.737892" lon="-16.932799"><ele>1473</ele></trkpt><trkpt lat="32.738009" lon="-16.933041"><ele>1473</ele></trkpt><trkpt lat="32.738047" lon="-16.93313"><ele>1473</ele></trkpt><trkpt lat="32.73815" lon="-16.933321"><ele>1473</ele></trkpt><trkpt lat="32.738188" lon="-16.933454"><ele>1473</ele></trkpt><trkpt lat="32.738244" lon="-16.933563"><ele>1439</ele></trkpt><trkpt lat="32.738359" lon="-16.933628"><ele>1422</ele></trkpt><trkpt lat="32.738425" lon="-16.933652"><ele>1422</ele></trkpt><trkpt lat="32.738537" lon="-16.933679"><ele>1422</ele></trkpt><trkpt lat="32.738681" lon="-16.933727"><ele>1422</ele></trkpt><trkpt lat="32.738758" lon="-16.933754"><ele>1422</ele></trkpt><trkpt lat="32.738835" lon="-16.93377"><ele>1422</ele></trkpt><trkpt lat="32.738948" lon="-16.933773"><ele>1422</ele></trkpt><trkpt lat="32.738966" lon="-16.933779"><ele>1422</ele></trkpt><trkpt lat="32.738897" lon="-16.933876"><ele>1422</ele></trkpt><trkpt lat="32.738819" lon="-16.933927"><ele>1422</ele></trkpt><trkpt lat="32.738759" lon="-16.933946"><ele>1422</ele></trkpt><trkpt lat="32.738691" lon="-16.933925"><ele>1422</ele></trkpt><trkpt lat="32.738583" lon="-16.93384"><ele>1422</ele></trkpt><trkpt lat="32.738454" lon="-16.933791"><ele>1422</ele></trkpt><trkpt lat="32.738421" lon="-16.933808"><ele>1422</ele></trkpt><trkpt lat="32.738411" lon="-16.933882"><ele>1422</ele></trkpt><trkpt lat="32.738461" lon="-16.933979"><ele>1422</ele></trkpt><trkpt lat="32.738485" lon="-16.934103"><ele>1422</ele></trkpt><trkpt lat="32.738466" lon="-16.934333"><ele>1414.2</ele></trkpt><trkpt lat="32.738519" lon="-16.934494"><ele>1413.6</ele></trkpt><trkpt lat="32.738514" lon="-16.934623"><ele>1412.9</ele></trkpt><trkpt lat="32.738547" lon="-16.934726"><ele>1412.2</ele></trkpt><trkpt lat="32.738679" lon="-16.934872"><ele>1411.4</ele></trkpt><trkpt lat="32.738845" lon="-16.935293"><ele>1410.6</ele></trkpt><trkpt lat="32.738845" lon="-16.935416"><ele>1408.7</ele></trkpt><trkpt lat="32.738899" lon="-16.935544"><ele>1406.3</ele></trkpt><trkpt lat="32.73891" lon="-16.935674"><ele>1403.2</ele></trkpt><trkpt lat="32.738955" lon="-16.935724"><ele>1371</ele></trkpt><trkpt lat="32.738957" lon="-16.935874"><ele>1371</ele></trkpt><trkpt lat="32.739011" lon="-16.936033"><ele>1371</ele></trkpt><trkpt lat="32.739025" lon="-16.936138"><ele>1371</ele></trkpt><trkpt lat="32.739098" lon="-16.936455"><ele>1358.3</ele></trkpt><trkpt lat="32.739196" lon="-16.937202"><ele>1351.7</ele></trkpt><trkpt lat="32.739268" lon="-16.93735"><ele>1349.8</ele></trkpt><trkpt lat="32.739308" lon="-16.937797"><ele>1345</ele></trkpt><trkpt lat="32.739347" lon="-16.937976"><ele>1347.8</ele></trkpt><trkpt lat="32.739446" lon="-16.938135"><ele>1350</ele></trkpt><trkpt lat="32.739641" lon="-16.938272"><ele>1348</ele></trkpt><trkpt lat="32.739446" lon="-16.938135"><ele>1350</ele></trkpt><trkpt lat="32.739347" lon="-16.937976"><ele>1347.8</ele></trkpt><trkpt lat="32.739308" lon="-16.937797"><ele>1345</ele></trkpt><trkpt lat="32.739268" lon="-16.93735"><ele>1349.8</ele></trkpt><trkpt lat="32.739196" lon="-16.937202"><ele>1351.7</ele></trkpt><trkpt lat="32.739098" lon="-16.936455"><ele>1358.3</ele></trkpt><trkpt lat="32.739025" lon="-16.936138"><ele>1371</ele></trkpt><trkpt lat="32.739011" lon="-16.936033"><ele>1371</ele></trkpt><trkpt lat="32.738957" lon="-16.935874"><ele>1371</ele></trkpt><trkpt lat="32.738955" lon="-16.935724"><ele>1371</ele></trkpt><trkpt lat="32.73891" lon="-16.935674"><ele>1403.2</ele></trkpt><trkpt lat="32.738899" lon="-16.935544"><ele>1406.3</ele></trkpt><trkpt lat="32.738845" lon="-16.935416"><ele>1408.7</ele></trkpt><trkpt lat="32.738845" lon="-16.935293"><ele>1410.6</ele></trkpt><trkpt lat="32.738679" lon="-16.934872"><ele>1411.4</ele></trkpt><trkpt lat="32.738547" lon="-16.934726"><ele>1412.2</ele></trkpt><trkpt lat="32.738514" lon="-16.934623"><ele>1412.9</ele></trkpt><trkpt lat="32.738519" lon="-16.934494"><ele>1413.6</ele></trkpt><trkpt lat="32.738466" lon="-16.934333"><ele>1414.2</ele></trkpt><trkpt lat="32.738485" lon="-16.934103"><ele>1422</ele></trkpt><trkpt lat="32.738461" lon="-16.933979"><ele>1422</ele></trkpt><trkpt lat="32.738411" lon="-16.933882"><ele>1422</ele></trkpt><trkpt lat="32.738421" lon="-16.933808"><ele>1422</ele></trkpt><trkpt lat="32.738454" lon="-16.933791"><ele>1422</ele></trkpt><trkpt lat="32.738583" lon="-16.93384"><ele>1422</ele></trkpt><trkpt lat="32.738691" lon="-16.933925"><ele>1422</ele></trkpt><trkpt lat="32.738759" lon="-16.933946"><ele>1422</ele></trkpt><trkpt lat="32.738819" lon="-16.933927"><ele>1422</ele></trkpt><trkpt lat="32.738897" lon="-16.933876"><ele>1422</ele></trkpt><trkpt lat="32.738966" lon="-16.933779"><ele>1422</ele></trkpt><trkpt lat="32.738948" lon="-16.933773"><ele>1422</ele></trkpt><trkpt lat="32.738835" lon="-16.93377"><ele>1422</ele></trkpt><trkpt lat="32.738758" lon="-16.933754"><ele>1422</ele></trkpt><trkpt lat="32.738681" lon="-16.933727"><ele>1422</ele></trkpt><trkpt lat="32.738537" lon="-16.933679"><ele>1422</ele></trkpt><trkpt lat="32.738425" lon="-16.933652"><ele>1422</ele></trkpt><trkpt lat="32.738359" lon="-16.933628"><ele>1422</ele></trkpt><trkpt lat="32.738244" lon="-16.933563"><ele>1439</ele></trkpt><trkpt lat="32.738188" lon="-16.933454"><ele>1473</ele></trkpt><trkpt lat="32.73815" lon="-16.933321"><ele>1473</ele></trkpt><trkpt lat="32.738047" lon="-16.93313"><ele>1473</ele></trkpt><trkpt lat="32.738009" lon="-16.933041"><ele>1473</ele></trkpt><trkpt lat="32.737892" lon="-16.932799"><ele>1473</ele></trkpt><trkpt lat="32.737616" lon="-16.932572"><ele>1473</ele></trkpt><trkpt lat="32.737454" lon="-16.932421"><ele>1493.9</ele></trkpt><trkpt lat="32.737434" lon="-16.932357"><ele>1491.8</ele></trkpt><trkpt lat="32.737357" lon="-16.932309"><ele>1495.3</ele></trkpt><trkpt lat="32.73729" lon="-16.93222"><ele>1500.2</ele></trkpt><trkpt lat="32.737172" lon="-16.932175"><ele>1504.6</ele></trkpt><trkpt lat="32.737084" lon="-16.932078"><ele>1544</ele></trkpt><trkpt lat="32.736941" lon="-16.932001"><ele>1544</ele></trkpt><trkpt lat="32.736834" lon="-16.931954"><ele>1544</ele></trkpt><trkpt lat="32.736759" lon="-16.931879"><ele>1544</ele></trkpt><trkpt lat="32.736549" lon="-16.931464"><ele>1544</ele></trkpt><trkpt lat="32.736483" lon="-16.931151"><ele>1573.6</ele></trkpt><trkpt lat="32.736494" lon="-16.930871"><ele>1576.3</ele></trkpt><trkpt lat="32.736464" lon="-16.930708"><ele>1587</ele></trkpt><trkpt lat="32.736369" lon="-16.930541"><ele>1587</ele></trkpt><trkpt lat="32.736293" lon="-16.930367"><ele>1587</ele></trkpt><trkpt lat="32.736268" lon="-16.930211"><ele>1587</ele></trkpt><trkpt lat="32.736244" lon="-16.930136"><ele>1587</ele></trkpt><trkpt lat="32.736054" lon="-16.929901"><ele>1578.5</ele></trkpt><trkpt lat="32.736008" lon="-16.929533"><ele>1580.1</ele></trkpt><trkpt lat="32.73585" lon="-16.929234"><ele>1578</ele></trkpt><trkpt lat="32.735683" lon="-16.928971"><ele>1576.1</ele></trkpt><trkpt lat="32.735451" lon="-16.928715"><ele>1559</ele></trkpt><trkpt lat="32.735413" lon="-16.928702"><ele>1559</ele></trkpt><trkpt lat="32.735364" lon="-16.928696"><ele>1559</ele></trkpt><trkpt lat="32.735277" lon="-16.928699"><ele>1660</ele></trkpt><trkpt lat="32.735182" lon="-16.928637"><ele>1660</ele></trkpt><trkpt lat="32.73505" lon="-16.928626"><ele>1660</ele></trkpt><trkpt lat="32.735016" lon="-16.928624"><ele>1660</ele></trkpt><trkpt lat="32.734982" lon="-16.928621"><ele>1660</ele></trkpt><trkpt lat="32.734869" lon="-16.928645"><ele>1660</ele></trkpt><trkpt lat="32.734821" lon="-16.928695"><ele>1660</ele></trkpt><trkpt lat="32.733643" lon="-16.928933"><ele>1660</ele></trkpt><trkpt lat="32.733626" lon="-16.92895"><ele>1677.4</ele></trkpt></trkseg></trk></gpx>