<gpx xmlns="http://www.topografix.com/GPX/1/1" xmlns:xsi="http://www.w3.org/2001/XMLSchema-instance" xsi:schemaLocation="http://www.topografix.com/GPX/1/1 http://www.topografix.com/GPX/1/1/gpx.xsd" version="1.1" creator="togpx"><metadata/><wpt lat="47.58394385648158" lon="12.165706157684328"><name></name><desc>label=Südtiroler Platz, Kufsstein,TR,Austria</desc></wpt><wpt lat="47.59337966233656" lon="12.191905975341799"><name></name><desc>label=Rueppenparkplatz, Ebbs,TR,Austria</desc></wpt><wpt lat="47.60374333950048" lon="12.23078191280365"><name></name><desc>label=Jägersteig, Ebbs,TR,Austria</desc></wpt><wpt lat="47.60389163551399" lon="12.236677408218386"><name></name><desc>label=Johann Embacher, Ebbs,TR,Austria</desc></wpt><wpt lat="47.605548181916326" lon="12.239627838134767"><name></name><desc>label=Jägersteig, Ebbs,TR,Austria</desc></wpt><wpt lat="47.608980465903635" lon="12.246446013450623"><name></name><desc>label=Petersköpfl, Ebbs,TR,Austria</desc></wpt><wpt lat="47.61212682973591" lon="12.262812852859499"><name></name><desc>label=Einserkogel, Ebbs,TR,Austria</desc></wpt><wpt lat="47.61057898704582" lon="12.26504445075989"><name></name><desc>label=Zwölferkogel, Ebbs,TR,Austria</desc></wpt><wpt lat="47.6118375168264" lon="12.270481288433075"><name></name><desc>label=Klettersteig Pyramidenspitze, Walchsee,TR,Austria</desc></wpt><wpt lat="47.6100437410635" lon="12.276733517646791"><name></name><desc>label=Klettersteig Pyramidenspitze, Walchsee,TR,Austria</desc></wpt><wpt lat="47.600149745385885" lon="12.27138251066208"><name></name><desc>label=Kaiserquelle, Ebbs,TR,Austria</desc></wpt><wpt lat="47.60553009763181" lon="12.239391803741457"><name></name><desc>label=Jägersteig, Ebbs,TR,Austria</desc></wpt><wpt lat="47.603826529998855" lon="12.236108779907227"><name></name><desc>label=Kaisertal 14b, Ebbs,TR,Austria</desc></wpt><wpt lat="47.5843274001608" lon="12.165867090225222"><name></name><desc>label=Kufstein, Kufsstein,TR,Austria</desc></wpt><trk><name></name><desc>ascent=2003.7
descent=2002.8
opacity=0.9</desc><trkseg><trkpt lat="47.583956" lon="12.165705"><ele>483.2</ele></trkpt><trkpt lat="47.583958" lon="12.165752"><ele>483.3</ele></trkpt><trkpt lat="47.584049" lon="12.165897"><ele>484</ele></trkpt><trkpt lat="47.584021" lon="12.16603"><ele>484</ele></trkpt><trkpt lat="47.58395" lon="12.165923"><ele>484</ele></trkpt><trkpt lat="47.583922" lon="12.16588"><ele>484</ele></trkpt><trkpt lat="47.58379" lon="12.165895"><ele>484</ele></trkpt><trkpt lat="47.583632" lon="12.165911"><ele>484</ele></trkpt><trkpt lat="47.583439" lon="12.165932"><ele>484</ele></trkpt><trkpt lat="47.583343" lon="12.165941"><ele>484.5</ele></trkpt><trkpt lat="47.583284" lon="12.166034"><ele>485</ele></trkpt><trkpt lat="47.583241" lon="12.166098"><ele>485</ele></trkpt><trkpt lat="47.583174" lon="12.166157"><ele>485</ele></trkpt><trkpt lat="47.583115" lon="12.166183"><ele>485</ele></trkpt><trkpt lat="47.582969" lon="12.166254"><ele>485</ele></trkpt><trkpt lat="47.582978" lon="12.166455"><ele>485</ele></trkpt><trkpt lat="47.582913" lon="12.166622"><ele>485</ele></trkpt><trkpt lat="47.582903" lon="12.166735"><ele>484</ele></trkpt><trkpt lat="47.582896" lon="12.166857"><ele>484</ele></trkpt><trkpt lat="47.582817" lon="12.168199"><ele>484</ele></trkpt><trkpt lat="47.582816" lon="12.168241"><ele>484</ele></trkpt><trkpt lat="47.582802" lon="12.168526"><ele>492</ele></trkpt><trkpt lat="47.582836" lon="12.168618"><ele>492</ele></trkpt><trkpt lat="47.582889" lon="12.168649"><ele>492</ele></trkpt><trkpt lat="47.582898" lon="12.168728"><ele>492</ele></trkpt><trkpt lat="47.58295" lon="12.169186"><ele>499.6</ele></trkpt><trkpt lat="47.582972" lon="12.169927"><ele>503</ele></trkpt><trkpt lat="47.582985" lon="12.170574"><ele>501</ele></trkpt><trkpt lat="47.582961" lon="12.17068"><ele>501</ele></trkpt><trkpt lat="47.58291" lon="12.170766"><ele>501</ele></trkpt><trkpt lat="47.583114" lon="12.170826"><ele>501</ele></trkpt><trkpt lat="47.583219" lon="12.17086"><ele>496</ele></trkpt><trkpt lat="47.583699" lon="12.171001"><ele>496</ele></trkpt><trkpt lat="47.583894" lon="12.171065"><ele>496</ele></trkpt><trkpt lat="47.584046" lon="12.171141"><ele>495.4</ele></trkpt><trkpt lat="47.584168" lon="12.171254"><ele>494</ele></trkpt><trkpt lat="47.584231" lon="12.17133"><ele>494</ele></trkpt><trkpt lat="47.584289" lon="12.171313"><ele>494</ele></trkpt><trkpt lat="47.584344" lon="12.171344"><ele>494</ele></trkpt><trkpt lat="47.584385" lon="12.171448"><ele>494</ele></trkpt><trkpt lat="47.584467" lon="12.171536"><ele>494</ele></trkpt><trkpt lat="47.584563" lon="12.171642"><ele>494</ele></trkpt><trkpt lat="47.5846" lon="12.171678"><ele>493</ele></trkpt><trkpt lat="47.58498" lon="12.172012"><ele>493</ele></trkpt><trkpt lat="47.585072" lon="12.172072"><ele>493</ele></trkpt><trkpt lat="47.585247" lon="12.172156"><ele>493</ele></trkpt><trkpt lat="47.585376" lon="12.17219"><ele>493</ele></trkpt><trkpt lat="47.58562" lon="12.17222"><ele>493</ele></trkpt><trkpt lat="47.585667" lon="12.172226"><ele>493</ele></trkpt><trkpt lat="47.585758" lon="12.172232"><ele>493</ele></trkpt><trkpt lat="47.585856" lon="12.172242"><ele>492</ele></trkpt><trkpt lat="47.586016" lon="12.172256"><ele>492</ele></trkpt><trkpt lat="47.586109" lon="12.172261"><ele>492</ele></trkpt><trkpt lat="47.586241" lon="12.172267"><ele>492</ele></trkpt><trkpt lat="47.586387" lon="12.172271"><ele>492</ele></trkpt><trkpt lat="47.586555" lon="12.172279"><ele>492</ele></trkpt><trkpt lat="47.586723" lon="12.172341"><ele>490.7</ele></trkpt><trkpt lat="47.587081" lon="12.172559"><ele>490</ele></trkpt><trkpt lat="47.587219" lon="12.172643"><ele>490</ele></trkpt><trkpt lat="47.58728" lon="12.17268"><ele>490</ele></trkpt><trkpt lat="47.587528" lon="12.17284"><ele>488</ele></trkpt><trkpt lat="47.587596" lon="12.172885"><ele>488</ele></trkpt><trkpt lat="47.587909" lon="12.173085"><ele>488</ele></trkpt><trkpt lat="47.588165" lon="12.17325"><ele>488</ele></trkpt><trkpt lat="47.588373" lon="12.173388"><ele>487</ele></trkpt><trkpt lat="47.58842" lon="12.173422"><ele>487</ele></trkpt><trkpt lat="47.588541" lon="12.17352"><ele>487</ele></trkpt><trkpt lat="47.588917" lon="12.173829"><ele>487</ele></trkpt><trkpt lat="47.589038" lon="12.173945"><ele>487</ele></trkpt><trkpt lat="47.589093" lon="12.173992"><ele>487</ele></trkpt><trkpt lat="47.589419" lon="12.174233"><ele>486</ele></trkpt><trkpt lat="47.589871" lon="12.174552"><ele>486</ele></trkpt><trkpt lat="47.59031" lon="12.174844"><ele>485</ele></trkpt><trkpt lat="47.590361" lon="12.174894"><ele>485</ele></trkpt><trkpt lat="47.59041" lon="12.174937"><ele>485</ele></trkpt><trkpt lat="47.590495" lon="12.174999"><ele>485</ele></trkpt><trkpt lat="47.590568" lon="12.175092"><ele>485.8</ele></trkpt><trkpt lat="47.590634" lon="12.175095"><ele>486</ele></trkpt><trkpt lat="47.590716" lon="12.175182"><ele>486</ele></trkpt><trkpt lat="47.590774" lon="12.175223"><ele>486</ele></trkpt><trkpt lat="47.590846" lon="12.17526"><ele>484</ele></trkpt><trkpt lat="47.590901" lon="12.175316"><ele>484</ele></trkpt><trkpt lat="47.591073" lon="12.175492"><ele>484</ele></trkpt><trkpt lat="47.591194" lon="12.175628"><ele>484</ele></trkpt><trkpt lat="47.591287" lon="12.175768"><ele>484</ele></trkpt><trkpt lat="47.591656" lon="12.17628"><ele>484.9</ele></trkpt><trkpt lat="47.592052" lon="12.176734"><ele>484</ele></trkpt><trkpt lat="47.592389" lon="12.177276"><ele>484</ele></trkpt><trkpt lat="47.592552" lon="12.177541"><ele>485</ele></trkpt><trkpt lat="47.592646" lon="12.177737"><ele>485</ele></trkpt><trkpt lat="47.592721" lon="12.177982"><ele>485</ele></trkpt><trkpt lat="47.592741" lon="12.17816"><ele>486</ele></trkpt><trkpt lat="47.592758" lon="12.178579"><ele>488</ele></trkpt><trkpt lat="47.592805" lon="12.179127"><ele>488</ele></trkpt><trkpt lat="47.59286" lon="12.179563"><ele>490</ele></trkpt><trkpt lat="47.592879" lon="12.179716"><ele>490</ele></trkpt><trkpt lat="47.592908" lon="12.179924"><ele>490</ele></trkpt><trkpt lat="47.592998" lon="12.180637"><ele>492</ele></trkpt><trkpt lat="47.593053" lon="12.180915"><ele>494</ele></trkpt><trkpt lat="47.593062" lon="12.18096"><ele>494</ele></trkpt><trkpt lat="47.593161" lon="12.18129"><ele>494</ele></trkpt><trkpt lat="47.593222" lon="12.181462"><ele>494</ele></trkpt><trkpt lat="47.593334" lon="12.181788"><ele>495</ele></trkpt><trkpt lat="47.593478" lon="12.182455"><ele>495</ele></trkpt><trkpt lat="47.593504" lon="12.182652"><ele>496</ele></trkpt><trkpt lat="47.593527" lon="12.182922"><ele>496</ele></trkpt><trkpt lat="47.593539" lon="12.183265"><ele>496</ele></trkpt><trkpt lat="47.593546" lon="12.183843"><ele>498</ele></trkpt><trkpt lat="47.593513" lon="12.184206"><ele>500.4</ele></trkpt><trkpt lat="47.593484" lon="12.184367"><ele>500.4</ele></trkpt><trkpt lat="47.593284" lon="12.18513"><ele>500.8</ele></trkpt><trkpt lat="47.593243" lon="12.185559"><ele>504</ele></trkpt><trkpt lat="47.59325" lon="12.1858"><ele>504</ele></trkpt><trkpt lat="47.593257" lon="12.186022"><ele>507</ele></trkpt><trkpt lat="47.593264" lon="12.186161"><ele>507</ele></trkpt><trkpt lat="47.59327" lon="12.186384"><ele>507</ele></trkpt><trkpt lat="47.593275" lon="12.186542"><ele>507</ele></trkpt><trkpt lat="47.593266" lon="12.187095"><ele>507</ele></trkpt><trkpt lat="47.593266" lon="12.187673"><ele>508.1</ele></trkpt><trkpt lat="47.593276" lon="12.187819"><ele>508.2</ele></trkpt><trkpt lat="47.593316" lon="12.187989"><ele>509</ele></trkpt><trkpt lat="47.593335" lon="12.188022"><ele>508</ele></trkpt><trkpt lat="47.59336" lon="12.188048"><ele>508</ele></trkpt><trkpt lat="47.593596" lon="12.188196"><ele>508</ele></trkpt><trkpt lat="47.593667" lon="12.188215"><ele>508</ele></trkpt><trkpt lat="47.593747" lon="12.188196"><ele>508</ele></trkpt><trkpt lat="47.593695" lon="12.188438"><ele>509</ele></trkpt><trkpt lat="47.593703" lon="12.188478"><ele>509</ele></trkpt><trkpt lat="47.593757" lon="12.188543"><ele>509</ele></trkpt><trkpt lat="47.593831" lon="12.188658"><ele>509</ele></trkpt><trkpt lat="47.593861" lon="12.188778"><ele>509</ele></trkpt><trkpt lat="47.593958" lon="12.18895"><ele>509</ele></trkpt><trkpt lat="47.593975" lon="12.18901"><ele>509</ele></trkpt><trkpt lat="47.593958" lon="12.18906"><ele>509</ele></trkpt><trkpt lat="47.593911" lon="12.189108"><ele>509</ele></trkpt><trkpt lat="47.593844" lon="12.189043"><ele>512</ele></trkpt><trkpt lat="47.593727" lon="12.188815"><ele>514.6</ele></trkpt><trkpt lat="47.593697" lon="12.188801"><ele>515.1</ele></trkpt><trkpt lat="47.593685" lon="12.188815"><ele>515.3</ele></trkpt><trkpt lat="47.593613" lon="12.188957"><ele>515.9</ele></trkpt><trkpt lat="47.593588" lon="12.189165"><ele>517.3</ele></trkpt><trkpt lat="47.593557" lon="12.189199"><ele>517.5</ele></trkpt><trkpt lat="47.593518" lon="12.189314"><ele>517</ele></trkpt><trkpt lat="47.593452" lon="12.189395"><ele>516.8</ele></trkpt><trkpt lat="47.59338" lon="12.189533"><ele>516.6</ele></trkpt><trkpt lat="47.593357" lon="12.189619"><ele>516.3</ele></trkpt><trkpt lat="47.593359" lon="12.189675"><ele>522</ele></trkpt><trkpt lat="47.593471" lon="12.189581"><ele>529.8</ele></trkpt><trkpt lat="47.59361" lon="12.189549"><ele>530</ele></trkpt><trkpt lat="47.593646" lon="12.189558"><ele>530.2</ele></trkpt><trkpt lat="47.593723" lon="12.189637"><ele>530.4</ele></trkpt><trkpt lat="47.593739" lon="12.189673"><ele>530.9</ele></trkpt><trkpt lat="47.593637" lon="12.189774"><ele>531.8</ele></trkpt><trkpt lat="47.593629" lon="12.189833"><ele>532.3</ele></trkpt><trkpt lat="47.593703" lon="12.189824"><ele>532.5</ele></trkpt><trkpt lat="47.593772" lon="12.189847"><ele>533.1</ele></trkpt><trkpt lat="47.593802" lon="12.189909"><ele>533.9</ele></trkpt><trkpt lat="47.593878" lon="12.189997"><ele>534.5</ele></trkpt><trkpt lat="47.593928" lon="12.190121"><ele>534.8</ele></trkpt><trkpt lat="47.594001" lon="12.190395"><ele>534.6</ele></trkpt><trkpt lat="47.594097" lon="12.190597"><ele>534.3</ele></trkpt><trkpt lat="47.59409" lon="12.190625"><ele>534.1</ele></trkpt><trkpt lat="47.594033" lon="12.190601"><ele>533.8</ele></trkpt><trkpt lat="47.593959" lon="12.190526"><ele>533.6</ele></trkpt><trkpt lat="47.593861" lon="12.190385"><ele>533.4</ele></trkpt><trkpt lat="47.593788" lon="12.190334"><ele>533.1</ele></trkpt><trkpt lat="47.593724" lon="12.190327"><ele>532.8</ele></trkpt><trkpt lat="47.593574" lon="12.19039"><ele>539</ele></trkpt><trkpt lat="47.593539" lon="12.19042"><ele>559.5</ele></trkpt><trkpt lat="47.593452" lon="12.190557"><ele>562.7</ele></trkpt><trkpt lat="47.593355" lon="12.190757"><ele>566.4</ele></trkpt><trkpt lat="47.593364" lon="12.190861"><ele>569.2</ele></trkpt><trkpt lat="47.593483" lon="12.191084"><ele>569.1</ele></trkpt><trkpt lat="47.593496" lon="12.191168"><ele>568.8</ele></trkpt><trkpt lat="47.59342" lon="12.191504"><ele>568.1</ele></trkpt><trkpt lat="47.593407" lon="12.191787"><ele>595</ele></trkpt><trkpt lat="47.593415" lon="12.1919"><ele>595</ele></trkpt><trkpt lat="47.593423" lon="12.19201"><ele>595</ele></trkpt><trkpt lat="47.593471" lon="12.192327"><ele>595</ele></trkpt><trkpt lat="47.593477" lon="12.192488"><ele>595</ele></trkpt><trkpt lat="47.593541" lon="12.193142"><ele>613.8</ele></trkpt><trkpt lat="47.593548" lon="12.193349"><ele>614.1</ele></trkpt><trkpt lat="47.593509" lon="12.193584"><ele>612.5</ele></trkpt><trkpt lat="47.593509" lon="12.193674"><ele>619</ele></trkpt><trkpt lat="47.593501" lon="12.193735"><ele>619</ele></trkpt><trkpt lat="47.593501" lon="12.194202"><ele>627.6</ele></trkpt><trkpt lat="47.593468" lon="12.194442"><ele>627.1</ele></trkpt><trkpt lat="47.593379" lon="12.194777"><ele>629</ele></trkpt><trkpt lat="47.593324" lon="12.194852"><ele>586.5</ele></trkpt><trkpt lat="47.593273" lon="12.19496"><ele>587.9</ele></trkpt><trkpt lat="47.593236" lon="12.195188"><ele>588.2</ele></trkpt><trkpt lat="47.593189" lon="12.195338"><ele>588.9</ele></trkpt><trkpt lat="47.59312" lon="12.195786"><ele>591.1</ele></trkpt><trkpt lat="47.593136" lon="12.195872"><ele>592.1</ele></trkpt><trkpt lat="47.593127" lon="12.195966"><ele>592.5</ele></trkpt><trkpt lat="47.592994" lon="12.196308"><ele>593.1</ele></trkpt><trkpt lat="47.592957" lon="12.196483"><ele>593.6</ele></trkpt><trkpt lat="47.592897" lon="12.19662"><ele>594.1</ele></trkpt><trkpt lat="47.592898" lon="12.196686"><ele>593</ele></trkpt><trkpt lat="47.592941" lon="12.196782"><ele>610</ele></trkpt><trkpt lat="47.592961" lon="12.196826"><ele>610</ele></trkpt><trkpt lat="47.593188" lon="12.197445"><ele>610</ele></trkpt><trkpt lat="47.593281" lon="12.197729"><ele>613</ele></trkpt><trkpt lat="47.593493" lon="12.198613"><ele>660.3</ele></trkpt><trkpt lat="47.593537" lon="12.199258"><ele>656</ele></trkpt><trkpt lat="47.593604" lon="12.199498"><ele>671</ele></trkpt><trkpt lat="47.593626" lon="12.199586"><ele>671</ele></trkpt><trkpt lat="47.59363" lon="12.199829"><ele>673</ele></trkpt><trkpt lat="47.593613" lon="12.200161"><ele>673.5</ele></trkpt><trkpt lat="47.593624" lon="12.200384"><ele>675</ele></trkpt><trkpt lat="47.593759" lon="12.200756"><ele>670.9</ele></trkpt><trkpt lat="47.593807" lon="12.200982"><ele>669</ele></trkpt><trkpt lat="47.593779" lon="12.201166"><ele>668.7</ele></trkpt><trkpt lat="47.593728" lon="12.201315"><ele>668.4</ele></trkpt><trkpt lat="47.593507" lon="12.20159"><ele>668</ele></trkpt><trkpt lat="47.593464" lon="12.201713"><ele>667.6</ele></trkpt><trkpt lat="47.593397" lon="12.201998"><ele>666.3</ele></trkpt><trkpt lat="47.593221" lon="12.20249"><ele>663.6</ele></trkpt><trkpt lat="47.593206" lon="12.202605"><ele>656</ele></trkpt><trkpt lat="47.593328" lon="12.203129"><ele>656</ele></trkpt><trkpt lat="47.593342" lon="12.203531"><ele>706.4</ele></trkpt><trkpt lat="47.593398" lon="12.203897"><ele>719</ele></trkpt><trkpt lat="47.593426" lon="12.204034"><ele>719</ele></trkpt><trkpt lat="47.593473" lon="12.204381"><ele>719.8</ele></trkpt><trkpt lat="47.593381" lon="12.205052"><ele>721.8</ele></trkpt><trkpt lat="47.593491" lon="12.206298"><ele>734</ele></trkpt><trkpt lat="47.593508" lon="12.206602"><ele>734</ele></trkpt><trkpt lat="47.59354" lon="12.21027"><ele>764</ele></trkpt><trkpt lat="47.593552" lon="12.210371"><ele>764</ele></trkpt><trkpt lat="47.593603" lon="12.210411"><ele>770.8</ele></trkpt><trkpt lat="47.593704" lon="12.210758"><ele>771.7</ele></trkpt><trkpt lat="47.594067" lon="12.211602"><ele>777.9</ele></trkpt><trkpt lat="47.594117" lon="12.211748"><ele>777</ele></trkpt><trkpt lat="47.594147" lon="12.211887"><ele>775.2</ele></trkpt><trkpt lat="47.594231" lon="12.212528"><ele>785.6</ele></trkpt><trkpt lat="47.594248" lon="12.21294"><ele>787.6</ele></trkpt><trkpt lat="47.594306" lon="12.213185"><ele>789.9</ele></trkpt><trkpt lat="47.594373" lon="12.213352"><ele>791.5</ele></trkpt><trkpt lat="47.594406" lon="12.213574"><ele>796.4</ele></trkpt><trkpt lat="47.594655" lon="12.214333"><ele>804</ele></trkpt><trkpt lat="47.594717" lon="12.214585"><ele>815.6</ele></trkpt><trkpt lat="47.59499" lon="12.214977"><ele>812.2</ele></trkpt><trkpt lat="47.595104" lon="12.215237"><ele>821.1</ele></trkpt><trkpt lat="47.59534" lon="12.21566"><ele>851</ele></trkpt><trkpt lat="47.595631" lon="12.216067"><ele>855.4</ele></trkpt><trkpt lat="47.595722" lon="12.216395"><ele>851.8</ele></trkpt><trkpt lat="47.595864" lon="12.216804"><ele>860.2</ele></trkpt><trkpt lat="47.596481" lon="12.21825"><ele>912</ele></trkpt><trkpt lat="47.596635" lon="12.218447"><ele>912.9</ele></trkpt><trkpt lat="47.596913" lon="12.218688"><ele>920.5</ele></trkpt><trkpt lat="47.597064" lon="12.218713"><ele>922.7</ele></trkpt><trkpt lat="47.597155" lon="12.218801"><ele>924.5</ele></trkpt><trkpt lat="47.597288" lon="12.219012"><ele>926</ele></trkpt><trkpt lat="47.597494" lon="12.219171"><ele>929.8</ele></trkpt><trkpt lat="47.597564" lon="12.219381"><ele>933.5</ele></trkpt><trkpt lat="47.597738" lon="12.219574"><ele>938.6</ele></trkpt><trkpt lat="47.597788" lon="12.219691"><ele>945.6</ele></trkpt><trkpt lat="47.597788" lon="12.219931"><ele>947.3</ele></trkpt><trkpt lat="47.597892" lon="12.220457"><ele>949</ele></trkpt><trkpt lat="47.597964" lon="12.22057"><ele>949.9</ele></trkpt><trkpt lat="47.598148" lon="12.220676"><ele>950.8</ele></trkpt><trkpt lat="47.598226" lon="12.220767"><ele>950.3</ele></trkpt><trkpt lat="47.598241" lon="12.220922"><ele>952.4</ele></trkpt><trkpt lat="47.598176" lon="12.221044"><ele>951.5</ele></trkpt><trkpt lat="47.598153" lon="12.221222"><ele>950.1</ele></trkpt><trkpt lat="47.59818" lon="12.221412"><ele>949.3</ele></trkpt><trkpt lat="47.598269" lon="12.221481"><ele>947.8</ele></trkpt><trkpt lat="47.598373" lon="12.221457"><ele>999</ele></trkpt><trkpt lat="47.598478" lon="12.221417"><ele>1011.8</ele></trkpt><trkpt lat="47.59862" lon="12.221396"><ele>1010.3</ele></trkpt><trkpt lat="47.598786" lon="12.221444"><ele>1011.9</ele></trkpt><trkpt lat="47.599109" lon="12.221812"><ele>1013.7</ele></trkpt><trkpt lat="47.599403" lon="12.222178"><ele>1018.1</ele></trkpt><trkpt lat="47.599498" lon="12.222388"><ele>1019.9</ele></trkpt><trkpt lat="47.599606" lon="12.222514"><ele>1022</ele></trkpt><trkpt lat="47.599718" lon="12.222585"><ele>1024.1</ele></trkpt><trkpt lat="47.599795" lon="12.222749"><ele>1025.2</ele></trkpt><trkpt lat="47.599845" lon="12.222989"><ele>1025.8</ele></trkpt><trkpt lat="47.599966" lon="12.223222"><ele>1029</ele></trkpt><trkpt lat="47.59996" lon="12.223379"><ele>1029.2</ele></trkpt><trkpt lat="47.600002" lon="12.223539"><ele>1034.1</ele></trkpt><trkpt lat="47.600102" lon="12.223765"><ele>1038.4</ele></trkpt><trkpt lat="47.600236" lon="12.22389"><ele>1042.9</ele></trkpt><trkpt lat="47.600422" lon="12.22396"><ele>1047.4</ele></trkpt><trkpt lat="47.600888" lon="12.224305"><ele>1069.8</ele></trkpt><trkpt lat="47.600986" lon="12.224461"><ele>1074.3</ele></trkpt><trkpt lat="47.601045" lon="12.224625"><ele>1086.1</ele></trkpt><trkpt lat="47.60116" lon="12.224736"><ele>1089.6</ele></trkpt><trkpt lat="47.601314" lon="12.224795"><ele>1091.5</ele></trkpt><trkpt lat="47.601425" lon="12.224901"><ele>1095.1</ele></trkpt><trkpt lat="47.601677" lon="12.22528"><ele>1102.2</ele></trkpt><trkpt lat="47.601775" lon="12.225357"><ele>1106.2</ele></trkpt><trkpt lat="47.601842" lon="12.225506"><ele>1107.5</ele></trkpt><trkpt lat="47.602066" lon="12.225755"><ele>1113.4</ele></trkpt><trkpt lat="47.602252" lon="12.225867"><ele>1114.5</ele></trkpt><trkpt lat="47.60237" lon="12.22604"><ele>1117.2</ele></trkpt><trkpt lat="47.602543" lon="12.226343"><ele>1122.5</ele></trkpt><trkpt lat="47.602621" lon="12.22668"><ele>1129.4</ele></trkpt><trkpt lat="47.602793" lon="12.226937"><ele>1130.4</ele></trkpt><trkpt lat="47.602847" lon="12.227218"><ele>1130.9</ele></trkpt><trkpt lat="47.602956" lon="12.227387"><ele>1131.4</ele></trkpt><trkpt lat="47.603018" lon="12.227941"><ele>1136.6</ele></trkpt><trkpt lat="47.602961" lon="12.228316"><ele>1136.5</ele></trkpt><trkpt lat="47.603002" lon="12.228693"><ele>1134.5</ele></trkpt><trkpt lat="47.603116" lon="12.228958"><ele>1133.6</ele></trkpt><trkpt lat="47.603172" lon="12.22917"><ele>1133</ele></trkpt><trkpt lat="47.603346" lon="12.229486"><ele>1135.7</ele></trkpt><trkpt lat="47.603367" lon="12.229741"><ele>1142.3</ele></trkpt><trkpt lat="47.603405" lon="12.229831"><ele>1144.6</ele></trkpt><trkpt lat="47.603551" lon="12.230049"><ele>1159</ele></trkpt><trkpt lat="47.603716" lon="12.23047"><ele>1159</ele></trkpt><trkpt lat="47.603743" lon="12.230603"><ele>1159</ele></trkpt><trkpt lat="47.603746" lon="12.230731"><ele>1158.3</ele></trkpt><trkpt lat="47.603737" lon="12.230779"><ele>1157.6</ele></trkpt><trkpt lat="47.603665" lon="12.231165"><ele>1157</ele></trkpt><trkpt lat="47.603747" lon="12.231738"><ele>1156.3</ele></trkpt><trkpt lat="47.603884" lon="12.23206"><ele>1156.3</ele></trkpt><trkpt lat="47.603912" lon="12.232097"><ele>1156</ele></trkpt><trkpt lat="47.60395" lon="12.232135"><ele>1159.8</ele></trkpt><trkpt lat="47.603981" lon="12.232216"><ele>1159.4</ele></trkpt><trkpt lat="47.603991" lon="12.232339"><ele>1159.1</ele></trkpt><trkpt lat="47.603939" lon="12.232555"><ele>1159</ele></trkpt><trkpt lat="47.603818" lon="12.232918"><ele>1163.1</ele></trkpt><trkpt lat="47.603816" lon="12.233168"><ele>1162.7</ele></trkpt><trkpt lat="47.603845" lon="12.233648"><ele>1163.5</ele></trkpt><trkpt lat="47.603794" lon="12.234854"><ele>1204</ele></trkpt><trkpt lat="47.603795" lon="12.235901"><ele>1233.2</ele></trkpt><trkpt lat="47.603821" lon="12.236228"><ele>1242</ele></trkpt><trkpt lat="47.603886" lon="12.236561"><ele>1241</ele></trkpt><trkpt lat="47.603885" lon="12.236677"><ele>1240.7</ele></trkpt><trkpt lat="47.603884" lon="12.236788"><ele>1240.5</ele></trkpt><trkpt lat="47.6038" lon="12.237294"><ele>1239.9</ele></trkpt><trkpt lat="47.603836" lon="12.237502"><ele>1240</ele></trkpt><trkpt lat="47.603896" lon="12.237691"><ele>1240.2</ele></trkpt><trkpt lat="47.604029" lon="12.237841"><ele>1240.3</ele></trkpt><trkpt lat="47.604216" lon="12.237946"><ele>1245.3</ele></trkpt><trkpt lat="47.604291" lon="12.237942"><ele>1246.8</ele></trkpt><trkpt lat="47.604343" lon="12.2379"><ele>1248.3</ele></trkpt><trkpt lat="47.604406" lon="12.237776"><ele>1249.8</ele></trkpt><trkpt lat="47.604657" lon="12.237118"><ele>1249.5</ele></trkpt><trkpt lat="47.604678" lon="12.236995"><ele>1250</ele></trkpt><trkpt lat="47.604726" lon="12.236854"><ele>1250.5</ele></trkpt><trkpt lat="47.604838" lon="12.236634"><ele>1250.5</ele></trkpt><trkpt lat="47.604945" lon="12.236466"><ele>1250.4</ele></trkpt><trkpt lat="47.605034" lon="12.236437"><ele>1282</ele></trkpt><trkpt lat="47.605188" lon="12.236553"><ele>1295.4</ele></trkpt><trkpt lat="47.605315" lon="12.236757"><ele>1295.8</ele></trkpt><trkpt lat="47.605321" lon="12.236811"><ele>1296</ele></trkpt><trkpt lat="47.605235" lon="12.237044"><ele>1296.2</ele></trkpt><trkpt lat="47.605177" lon="12.237154"><ele>1296.4</ele></trkpt><trkpt lat="47.605129" lon="12.237362"><ele>1296.5</ele></trkpt><trkpt lat="47.605121" lon="12.237522"><ele>1298.2</ele></trkpt><trkpt lat="47.605132" lon="12.237578"><ele>1315</ele></trkpt><trkpt lat="47.60518" lon="12.237565"><ele>1308.8</ele></trkpt><trkpt lat="47.605237" lon="12.237407"><ele>1307.8</ele></trkpt><trkpt lat="47.605286" lon="12.237346"><ele>1306.9</ele></trkpt><trkpt lat="47.60552" lon="12.237241"><ele>1306.1</ele></trkpt><trkpt lat="47.605557" lon="12.237251"><ele>1305.4</ele></trkpt><trkpt lat="47.605579" lon="12.237368"><ele>1304.7</ele></trkpt><trkpt lat="47.605587" lon="12.237582"><ele>1305.7</ele></trkpt><trkpt lat="47.605644" lon="12.237819"><ele>1306.5</ele></trkpt><trkpt lat="47.605651" lon="12.237927"><ele>1315</ele></trkpt><trkpt lat="47.605506" lon="12.238331"><ele>1320.6</ele></trkpt><trkpt lat="47.60544" lon="12.238569"><ele>1322.5</ele></trkpt><trkpt lat="47.605437" lon="12.23865"><ele>1330</ele></trkpt><trkpt lat="47.605435" lon="12.238756"><ele>1330</ele></trkpt><trkpt lat="47.605548" lon="12.239628"><ele>1337.4</ele></trkpt><trkpt lat="47.605556" lon="12.239689"><ele>1344.7</ele></trkpt><trkpt lat="47.605526" lon="12.23993"><ele>1344.3</ele></trkpt><trkpt lat="47.605532" lon="12.240019"><ele>1364</ele></trkpt><trkpt lat="47.605557" lon="12.240031"><ele>1350.9</ele></trkpt><trkpt lat="47.605582" lon="12.240002"><ele>1349.2</ele></trkpt><trkpt lat="47.605665" lon="12.239758"><ele>1348.6</ele></trkpt><trkpt lat="47.6058" lon="12.239589"><ele>1343</ele></trkpt><trkpt lat="47.605847" lon="12.239567"><ele>1370.2</ele></trkpt><trkpt lat="47.60588" lon="12.239505"><ele>1368.8</ele></trkpt><trkpt lat="47.605912" lon="12.239366"><ele>1377</ele></trkpt><trkpt lat="47.60592" lon="12.239284"><ele>1366.5</ele></trkpt><trkpt lat="47.606031" lon="12.239111"><ele>1356</ele></trkpt><trkpt lat="47.606194" lon="12.239286"><ele>1370</ele></trkpt><trkpt lat="47.606266" lon="12.2393"><ele>1377</ele></trkpt><trkpt lat="47.60638" lon="12.239488"><ele>1377</ele></trkpt><trkpt lat="47.606481" lon="12.239552"><ele>1377</ele></trkpt><trkpt lat="47.606542" lon="12.239643"><ele>1405.4</ele></trkpt><trkpt lat="47.606761" lon="12.239869"><ele>1417.9</ele></trkpt><trkpt lat="47.607017" lon="12.240008"><ele>1432.1</ele></trkpt><trkpt lat="47.607125" lon="12.240012"><ele>1432.8</ele></trkpt><trkpt lat="47.607191" lon="12.240283"><ele>1433.4</ele></trkpt><trkpt lat="47.607273" lon="12.240293"><ele>1434.1</ele></trkpt><trkpt lat="47.607344" lon="12.240366"><ele>1434.8</ele></trkpt><trkpt lat="47.607383" lon="12.240501"><ele>1436.3</ele></trkpt><trkpt lat="47.607377" lon="12.240714"><ele>1437.9</ele></trkpt><trkpt lat="47.607451" lon="12.240723"><ele>1438.7</ele></trkpt><trkpt lat="47.607585" lon="12.240672"><ele>1439.5</ele></trkpt><trkpt lat="47.607701" lon="12.240572"><ele>1441.6</ele></trkpt><trkpt lat="47.607751" lon="12.240572"><ele>1442.9</ele></trkpt><trkpt lat="47.607797" lon="12.240542"><ele>1443.2</ele></trkpt><trkpt lat="47.607768" lon="12.240645"><ele>1443.4</ele></trkpt><trkpt lat="47.607791" lon="12.240667"><ele>1443.7</ele></trkpt><trkpt lat="47.607759" lon="12.240738"><ele>1443.9</ele></trkpt><trkpt lat="47.607963" lon="12.240642"><ele>1444.5</ele></trkpt><trkpt lat="47.607948" lon="12.240772"><ele>1444.8</ele></trkpt><trkpt lat="47.607901" lon="12.240916"><ele>1445.1</ele></trkpt><trkpt lat="47.607913" lon="12.240988"><ele>1445.4</ele></trkpt><trkpt lat="47.607883" lon="12.241037"><ele>1444.7</ele></trkpt><trkpt lat="47.607963" lon="12.241023"><ele>1444.1</ele></trkpt><trkpt lat="47.60794" lon="12.241088"><ele>1443.4</ele></trkpt><trkpt lat="47.608001" lon="12.241086"><ele>1442.7</ele></trkpt><trkpt lat="47.607972" lon="12.241125"><ele>1442</ele></trkpt><trkpt lat="47.608064" lon="12.241168"><ele>1442.1</ele></trkpt><trkpt lat="47.608036" lon="12.241209"><ele>1465</ele></trkpt><trkpt lat="47.607945" lon="12.241339"><ele>1511.7</ele></trkpt><trkpt lat="47.607776" lon="12.241486"><ele>1516.1</ele></trkpt><trkpt lat="47.607726" lon="12.241656"><ele>1519</ele></trkpt><trkpt lat="47.607737" lon="12.241722"><ele>1521.8</ele></trkpt><trkpt lat="47.607784" lon="12.241736"><ele>1523.4</ele></trkpt><trkpt lat="47.607831" lon="12.241683"><ele>1524</ele></trkpt><trkpt lat="47.607894" lon="12.24166"><ele>1526.3</ele></trkpt><trkpt lat="47.607863" lon="12.241803"><ele>1528.7</ele></trkpt><trkpt lat="47.607793" lon="12.241998"><ele>1530.1</ele></trkpt><trkpt lat="47.607864" lon="12.242055"><ele>1530.9</ele></trkpt><trkpt lat="47.608035" lon="12.242055"><ele>1531.7</ele></trkpt><trkpt lat="47.608016" lon="12.242157"><ele>1532.4</ele></trkpt><trkpt lat="47.607966" lon="12.242219"><ele>1533.3</ele></trkpt><trkpt lat="47.60797" lon="12.242286"><ele>1534.1</ele></trkpt><trkpt lat="47.608006" lon="12.242287"><ele>1535</ele></trkpt><trkpt lat="47.608053" lon="12.242387"><ele>1535.9</ele></trkpt><trkpt lat="47.608061" lon="12.242475"><ele>1536.8</ele></trkpt><trkpt lat="47.608104" lon="12.242623"><ele>1537.7</ele></trkpt><trkpt lat="47.608102" lon="12.242779"><ele>1537.6</ele></trkpt><trkpt lat="47.608293" lon="12.243007"><ele>1537.4</ele></trkpt><trkpt lat="47.608336" lon="12.242997"><ele>1537.3</ele></trkpt><trkpt lat="47.608361" lon="12.24302"><ele>1536.7</ele></trkpt><trkpt lat="47.60835" lon="12.24316"><ele>1538.1</ele></trkpt><trkpt lat="47.608392" lon="12.243167"><ele>1537.4</ele></trkpt><trkpt lat="47.608417" lon="12.243227"><ele>1537.5</ele></trkpt><trkpt lat="47.608447" lon="12.24319"><ele>1536.1</ele></trkpt><trkpt lat="47.608578" lon="12.243227"><ele>1536.6</ele></trkpt><trkpt lat="47.608554" lon="12.243326"><ele>1536.3</ele></trkpt><trkpt lat="47.608609" lon="12.243335"><ele>1584</ele></trkpt><trkpt lat="47.608592" lon="12.243421"><ele>1584</ele></trkpt><trkpt lat="47.608592" lon="12.243553"><ele>1584</ele></trkpt><trkpt lat="47.608583" lon="12.243576"><ele>1614.4</ele></trkpt><trkpt lat="47.608603" lon="12.243648"><ele>1615.9</ele></trkpt><trkpt lat="47.608546" lon="12.243726"><ele>1616.5</ele></trkpt><trkpt lat="47.608446" lon="12.243763"><ele>1617.1</ele></trkpt><trkpt lat="47.608389" lon="12.243834"><ele>1617.7</ele></trkpt><trkpt lat="47.608359" lon="12.24393"><ele>1618.4</ele></trkpt><trkpt lat="47.608306" lon="12.243988"><ele>1619</ele></trkpt><trkpt lat="47.608241" lon="12.243987"><ele>1620</ele></trkpt><trkpt lat="47.608125" lon="12.24405"><ele>1621.1</ele></trkpt><trkpt lat="47.607986" lon="12.244056"><ele>1620.7</ele></trkpt><trkpt lat="47.607996" lon="12.2441"><ele>1621.7</ele></trkpt><trkpt lat="47.60823" lon="12.2443"><ele>1627.3</ele></trkpt><trkpt lat="47.608388" lon="12.244583"><ele>1630</ele></trkpt><trkpt lat="47.608431" lon="12.244572"><ele>1630.3</ele></trkpt><trkpt lat="47.608441" lon="12.244597"><ele>1630.6</ele></trkpt><trkpt lat="47.608426" lon="12.24463"><ele>1630.9</ele></trkpt><trkpt lat="47.608444" lon="12.244658"><ele>1632.3</ele></trkpt><trkpt lat="47.608519" lon="12.244652"><ele>1633.6</ele></trkpt><trkpt lat="47.608557" lon="12.244706"><ele>1633.9</ele></trkpt><trkpt lat="47.608601" lon="12.244692"><ele>1634.6</ele></trkpt><trkpt lat="47.608588" lon="12.244766"><ele>1636.1</ele></trkpt><trkpt lat="47.608644" lon="12.244715"><ele>1636.5</ele></trkpt><trkpt lat="47.608661" lon="12.244721"><ele>1636.9</ele></trkpt><trkpt lat="47.60862" lon="12.244846"><ele>1639.4</ele></trkpt><trkpt lat="47.608684" lon="12.244816"><ele>1640.2</ele></trkpt><trkpt lat="47.608755" lon="12.24482"><ele>1641.6</ele></trkpt><trkpt lat="47.608733" lon="12.244898"><ele>1642</ele></trkpt><trkpt lat="47.608745" lon="12.244954"><ele>1642.5</ele></trkpt><trkpt lat="47.608728" lon="12.245016"><ele>1642.9</ele></trkpt><trkpt lat="47.608762" lon="12.245017"><ele>1642.7</ele></trkpt><trkpt lat="47.608775" lon="12.245038"><ele>1642.5</ele></trkpt><trkpt lat="47.608756" lon="12.245091"><ele>1642.3</ele></trkpt><trkpt lat="47.608796" lon="12.245103"><ele>1642.1</ele></trkpt><trkpt lat="47.608801" lon="12.245198"><ele>1641.9</ele></trkpt><trkpt lat="47.608819" lon="12.245223"><ele>1641.7</ele></trkpt><trkpt lat="47.608863" lon="12.245167"><ele>1641.5</ele></trkpt><trkpt lat="47.608926" lon="12.245141"><ele>1641.2</ele></trkpt><trkpt lat="47.608962" lon="12.245161"><ele>1641</ele></trkpt><trkpt lat="47.608953" lon="12.245339"><ele>1640.8</ele></trkpt><trkpt lat="47.609107" lon="12.245385"><ele>1646.6</ele></trkpt><trkpt lat="47.609161" lon="12.245329"><ele>1646.4</ele></trkpt><trkpt lat="47.609207" lon="12.24535"><ele>1646.3</ele></trkpt><trkpt lat="47.609284" lon="12.245478"><ele>1646.3</ele></trkpt><trkpt lat="47.609312" lon="12.245478"><ele>1646</ele></trkpt><trkpt lat="47.609338" lon="12.245369"><ele>1645.6</ele></trkpt><trkpt lat="47.60942" lon="12.245361"><ele>1645.6</ele></trkpt><trkpt lat="47.609489" lon="12.245525"><ele>1645.5</ele></trkpt><trkpt lat="47.609614" lon="12.245597"><ele>1646</ele></trkpt><trkpt lat="47.609583" lon="12.24564"><ele>1644.9</ele></trkpt><trkpt lat="47.609627" lon="12.245685"><ele>1645.4</ele></trkpt><trkpt lat="47.60964" lon="12.245762"><ele>1645</ele></trkpt><trkpt lat="47.609735" lon="12.24578"><ele>1645.6</ele></trkpt><trkpt lat="47.609789" lon="12.245977"><ele>1703</ele></trkpt><trkpt lat="47.609755" lon="12.246319"><ele>1703</ele></trkpt><trkpt lat="47.609752" lon="12.246666"><ele>1703</ele></trkpt><trkpt lat="47.609682" lon="12.24655"><ele>1702.7</ele></trkpt><trkpt lat="47.609516" lon="12.246555"><ele>1703.2</ele></trkpt><trkpt lat="47.609496" lon="12.246584"><ele>1703.5</ele></trkpt><trkpt lat="47.609402" lon="12.246534"><ele>1703.5</ele></trkpt><trkpt lat="47.609327" lon="12.246585"><ele>1703.8</ele></trkpt><trkpt lat="47.60921" lon="12.246558"><ele>1703.8</ele></trkpt><trkpt lat="47.609188" lon="12.24649"><ele>1703.8</ele></trkpt><trkpt lat="47.608987" lon="12.246428"><ele>1705.6</ele></trkpt><trkpt lat="47.608977" lon="12.246436"><ele>1706.2</ele></trkpt><trkpt lat="47.608987" lon="12.246428"><ele>1705.6</ele></trkpt><trkpt lat="47.609188" lon="12.24649"><ele>1703.8</ele></trkpt><trkpt lat="47.60921" lon="12.246558"><ele>1703.8</ele></trkpt><trkpt lat="47.609327" lon="12.246585"><ele>1703.8</ele></trkpt><trkpt lat="47.609402" lon="12.246534"><ele>1703.5</ele></trkpt><trkpt lat="47.609496" lon="12.246584"><ele>1703.5</ele></trkpt><trkpt lat="47.609516" lon="12.246555"><ele>1703.2</ele></trkpt><trkpt lat="47.609682" lon="12.24655"><ele>1702.7</ele></trkpt><trkpt lat="47.609752" lon="12.246666"><ele>1703</ele></trkpt><trkpt lat="47.609727" lon="12.247238"><ele>1731.7</ele></trkpt><trkpt lat="47.609674" lon="12.247376"><ele>1732</ele></trkpt><trkpt lat="47.609732" lon="12.247574"><ele>1732.7</ele></trkpt><trkpt lat="47.609729" lon="12.247651"><ele>1732.7</ele></trkpt><trkpt lat="47.609766" lon="12.24773"><ele>1733.2</ele></trkpt><trkpt lat="47.609872" lon="12.247857"><ele>1733.3</ele></trkpt><trkpt lat="47.60986" lon="12.247947"><ele>1733.3</ele></trkpt><trkpt lat="47.6099" lon="12.24801"><ele>1733.5</ele></trkpt><trkpt lat="47.609974" lon="12.248044"><ele>1733.8</ele></trkpt><trkpt lat="47.609969" lon="12.248144"><ele>1734.5</ele></trkpt><trkpt lat="47.610037" lon="12.24822"><ele>1734.5</ele></trkpt><trkpt lat="47.610061" lon="12.248382"><ele>1735.8</ele></trkpt><trkpt lat="47.610027" lon="12.248402"><ele>1735.8</ele></trkpt><trkpt lat="47.610034" lon="12.248593"><ele>1736.5</ele></trkpt><trkpt lat="47.609991" lon="12.248709"><ele>1737.4</ele></trkpt><trkpt lat="47.61001" lon="12.248837"><ele>1737.8</ele></trkpt><trkpt lat="47.609984" lon="12.248929"><ele>1737.9</ele></trkpt><trkpt lat="47.610063" lon="12.24912"><ele>1738.5</ele></trkpt><trkpt lat="47.610061" lon="12.249201"><ele>1738.8</ele></trkpt><trkpt lat="47.610102" lon="12.249288"><ele>1739.5</ele></trkpt><trkpt lat="47.610119" lon="12.249409"><ele>1740.1</ele></trkpt><trkpt lat="47.610063" lon="12.249678"><ele>1741.2</ele></trkpt><trkpt lat="47.610114" lon="12.249953"><ele>1743.3</ele></trkpt><trkpt lat="47.610209" lon="12.250043"><ele>1744.6</ele></trkpt><trkpt lat="47.610203" lon="12.250212"><ele>1745.2</ele></trkpt><trkpt lat="47.610225" lon="12.250255"><ele>1745.2</ele></trkpt><trkpt lat="47.610315" lon="12.250297"><ele>1746.2</ele></trkpt><trkpt lat="47.610386" lon="12.250436"><ele>1747.5</ele></trkpt><trkpt lat="47.610484" lon="12.2504"><ele>1747.6</ele></trkpt><trkpt lat="47.610556" lon="12.250422"><ele>1748.8</ele></trkpt><trkpt lat="47.610619" lon="12.250492"><ele>1749.7</ele></trkpt><trkpt lat="47.610651" lon="12.250585"><ele>1750.8</ele></trkpt><trkpt lat="47.610638" lon="12.250707"><ele>1756.8</ele></trkpt><trkpt lat="47.610772" lon="12.250776"><ele>1758.4</ele></trkpt><trkpt lat="47.610812" lon="12.250877"><ele>1760.6</ele></trkpt><trkpt lat="47.610888" lon="12.250977"><ele>1762.1</ele></trkpt><trkpt lat="47.611131" lon="12.250918"><ele>1763.7</ele></trkpt><trkpt lat="47.611252" lon="12.250952"><ele>1763.6</ele></trkpt><trkpt lat="47.611307" lon="12.2512"><ele>1767</ele></trkpt><trkpt lat="47.611467" lon="12.251614"><ele>1772</ele></trkpt><trkpt lat="47.611533" lon="12.251728"><ele>1774.1</ele></trkpt><trkpt lat="47.611577" lon="12.251915"><ele>1775.8</ele></trkpt><trkpt lat="47.611563" lon="12.252098"><ele>1776.7</ele></trkpt><trkpt lat="47.611478" lon="12.25221"><ele>1777.1</ele></trkpt><trkpt lat="47.611415" lon="12.252169"><ele>1776.1</ele></trkpt><trkpt lat="47.611273" lon="12.252263"><ele>1776.2</ele></trkpt><trkpt lat="47.611216" lon="12.252448"><ele>1777.2</ele></trkpt><trkpt lat="47.611083" lon="12.252504"><ele>1777.1</ele></trkpt><trkpt lat="47.611036" lon="12.252662"><ele>1777.9</ele></trkpt><trkpt lat="47.611069" lon="12.25281"><ele>1778.6</ele></trkpt><trkpt lat="47.611165" lon="12.252878"><ele>1779</ele></trkpt><trkpt lat="47.611178" lon="12.252963"><ele>1781</ele></trkpt><trkpt lat="47.611292" lon="12.253022"><ele>1781.2</ele></trkpt><trkpt lat="47.611372" lon="12.253022"><ele>1780.8</ele></trkpt><trkpt lat="47.611404" lon="12.253116"><ele>1781</ele></trkpt><trkpt lat="47.611393" lon="12.25322"><ele>1781.3</ele></trkpt><trkpt lat="47.611275" lon="12.253549"><ele>1783.8</ele></trkpt><trkpt lat="47.611271" lon="12.25369"><ele>1784.5</ele></trkpt><trkpt lat="47.611214" lon="12.253825"><ele>1784.8</ele></trkpt><trkpt lat="47.611099" lon="12.253988"><ele>1785.4</ele></trkpt><trkpt lat="47.611" lon="12.253995"><ele>1785.4</ele></trkpt><trkpt lat="47.611013" lon="12.254114"><ele>1786.7</ele></trkpt><trkpt lat="47.611068" lon="12.254324"><ele>1787.8</ele></trkpt><trkpt lat="47.611021" lon="12.254566"><ele>1789.8</ele></trkpt><trkpt lat="47.611047" lon="12.254986"><ele>1794.4</ele></trkpt><trkpt lat="47.611083" lon="12.255169"><ele>1797.4</ele></trkpt><trkpt lat="47.611254" lon="12.255365"><ele>1800.4</ele></trkpt><trkpt lat="47.611288" lon="12.2555"><ele>1801.6</ele></trkpt><trkpt lat="47.611381" lon="12.255474"><ele>1802.1</ele></trkpt><trkpt lat="47.611438" lon="12.255604"><ele>1803.5</ele></trkpt><trkpt lat="47.611493" lon="12.256109"><ele>1809.6</ele></trkpt><trkpt lat="47.611532" lon="12.256249"><ele>1810.5</ele></trkpt><trkpt lat="47.611546" lon="12.25636"><ele>1811</ele></trkpt><trkpt lat="47.611632" lon="12.256416"><ele>1811.9</ele></trkpt><trkpt lat="47.611672" lon="12.256504"><ele>1813</ele></trkpt><trkpt lat="47.611652" lon="12.256618"><ele>1813.6</ele></trkpt><trkpt lat="47.61166" lon="12.256777"><ele>1816.3</ele></trkpt><trkpt lat="47.611732" lon="12.256902"><ele>1817.2</ele></trkpt><trkpt lat="47.611772" lon="12.257071"><ele>1819</ele></trkpt><trkpt lat="47.61177" lon="12.257209"><ele>1820.1</ele></trkpt><trkpt lat="47.611675" lon="12.257241"><ele>1819.9</ele></trkpt><trkpt lat="47.61163" lon="12.257313"><ele>1821.3</ele></trkpt><trkpt lat="47.611641" lon="12.257434"><ele>1823.1</ele></trkpt><trkpt lat="47.611556" lon="12.257555"><ele>1824.9</ele></trkpt><trkpt lat="47.611556" lon="12.257821"><ele>1827.3</ele></trkpt><trkpt lat="47.611633" lon="12.257921"><ele>1828.1</ele></trkpt><trkpt lat="47.611666" lon="12.258088"><ele>1829.3</ele></trkpt><trkpt lat="47.611666" lon="12.258281"><ele>1831.6</ele></trkpt><trkpt lat="47.611579" lon="12.258458"><ele>1834.1</ele></trkpt><trkpt lat="47.611526" lon="12.258624"><ele>1836.1</ele></trkpt><trkpt lat="47.611541" lon="12.25874"><ele>1836.6</ele></trkpt><trkpt lat="47.611533" lon="12.258831"><ele>1837.8</ele></trkpt><trkpt lat="47.611491" lon="12.2589"><ele>1838.5</ele></trkpt><trkpt lat="47.611459" lon="12.259139"><ele>1841.1</ele></trkpt><trkpt lat="47.611499" lon="12.259226"><ele>1842.7</ele></trkpt><trkpt lat="47.61151" lon="12.259484"><ele>1845.6</ele></trkpt><trkpt lat="47.611458" lon="12.259615"><ele>1847</ele></trkpt><trkpt lat="47.611559" lon="12.259927"><ele>1851.5</ele></trkpt><trkpt lat="47.611688" lon="12.260227"><ele>1855</ele></trkpt><trkpt lat="47.611711" lon="12.26034"><ele>1855.8</ele></trkpt><trkpt lat="47.611675" lon="12.260495"><ele>1857.5</ele></trkpt><trkpt lat="47.611694" lon="12.260626"><ele>1858.4</ele></trkpt><trkpt lat="47.611817" lon="12.260729"><ele>1860.7</ele></trkpt><trkpt lat="47.611876" lon="12.260858"><ele>1864</ele></trkpt><trkpt lat="47.611905" lon="12.260964"><ele>1864.8</ele></trkpt><trkpt lat="47.611965" lon="12.261205"><ele>1867.8</ele></trkpt><trkpt lat="47.611961" lon="12.261461"><ele>1872.7</ele></trkpt><trkpt lat="47.612007" lon="12.261723"><ele>1873.8</ele></trkpt><trkpt lat="47.611946" lon="12.26184"><ele>1873.3</ele></trkpt><trkpt lat="47.611916" lon="12.26196"><ele>1873.1</ele></trkpt><trkpt lat="47.6119" lon="12.262203"><ele>1872.7</ele></trkpt><trkpt lat="47.611942" lon="12.262377"><ele>1873</ele></trkpt><trkpt lat="47.611899" lon="12.262756"><ele>1872.2</ele></trkpt><trkpt lat="47.611889" lon="12.26285"><ele>1871.5</ele></trkpt><trkpt lat="47.6119" lon="12.263075"><ele>1870.6</ele></trkpt><trkpt lat="47.611887" lon="12.26322"><ele>1869.3</ele></trkpt><trkpt lat="47.611785" lon="12.263414"><ele>1866.4</ele></trkpt><trkpt lat="47.611726" lon="12.26343"><ele>1865.4</ele></trkpt><trkpt lat="47.611664" lon="12.263487"><ele>1864</ele></trkpt><trkpt lat="47.611631" lon="12.263637"><ele>1862.4</ele></trkpt><trkpt lat="47.611534" lon="12.26381"><ele>1857.6</ele></trkpt><trkpt lat="47.611527" lon="12.263966"><ele>1857.3</ele></trkpt><trkpt lat="47.611473" lon="12.264109"><ele>1856.9</ele></trkpt><trkpt lat="47.611345" lon="12.264264"><ele>1856.4</ele></trkpt><trkpt lat="47.61121" lon="12.264299"><ele>1856.3</ele></trkpt><trkpt lat="47.611066" lon="12.264434"><ele>1854.9</ele></trkpt><trkpt lat="47.610982" lon="12.264409"><ele>1854.1</ele></trkpt><trkpt lat="47.610897" lon="12.264551"><ele>1852.5</ele></trkpt><trkpt lat="47.610764" lon="12.264653"><ele>1851.5</ele></trkpt><trkpt lat="47.61065" lon="12.264829"><ele>1850.8</ele></trkpt><trkpt lat="47.610598" lon="12.264953"><ele>1851.1</ele></trkpt><trkpt lat="47.610584" lon="12.264951"><ele>1851.9</ele></trkpt><trkpt lat="47.610489" lon="12.264939"><ele>1852.8</ele></trkpt><trkpt lat="47.610415" lon="12.265001"><ele>1853.6</ele></trkpt><trkpt lat="47.610443" lon="12.265111"><ele>1853.4</ele></trkpt><trkpt lat="47.610474" lon="12.265146"><ele>1853.2</ele></trkpt><trkpt lat="47.610411" lon="12.265183"><ele>1852.3</ele></trkpt><trkpt lat="47.610235" lon="12.265224"><ele>1851.6</ele></trkpt><trkpt lat="47.610141" lon="12.2653"><ele>1850.8</ele></trkpt><trkpt lat="47.610007" lon="12.26534"><ele>1850.2</ele></trkpt><trkpt lat="47.609924" lon="12.265474"><ele>1849.2</ele></trkpt><trkpt lat="47.609971" lon="12.265939"><ele>1847.8</ele></trkpt><trkpt lat="47.609965" lon="12.266134"><ele>1847.6</ele></trkpt><trkpt lat="47.609921" lon="12.266522"><ele>1847.3</ele></trkpt><trkpt lat="47.609974" lon="12.267016"><ele>1845.5</ele></trkpt><trkpt lat="47.609903" lon="12.267454"><ele>1843.5</ele></trkpt><trkpt lat="47.609833" lon="12.267495"><ele>1843.1</ele></trkpt><trkpt lat="47.609779" lon="12.267735"><ele>1843.4</ele></trkpt><trkpt lat="47.609718" lon="12.267795"><ele>1836</ele></trkpt><trkpt lat="47.60967" lon="12.267894"><ele>1836</ele></trkpt><trkpt lat="47.609711" lon="12.268069"><ele>1836</ele></trkpt><trkpt lat="47.609764" lon="12.268176"><ele>1836</ele></trkpt><trkpt lat="47.609774" lon="12.26833"><ele>1836</ele></trkpt><trkpt lat="47.60982" lon="12.268456"><ele>1854.8</ele></trkpt><trkpt lat="47.609848" lon="12.268665"><ele>1858.6</ele></trkpt><trkpt lat="47.60997" lon="12.268852"><ele>1865.5</ele></trkpt><trkpt lat="47.610035" lon="12.26908"><ele>1870</ele></trkpt><trkpt lat="47.610161" lon="12.269164"><ele>1873.2</ele></trkpt><trkpt lat="47.610241" lon="12.269289"><ele>1873.9</ele></trkpt><trkpt lat="47.610321" lon="12.269366"><ele>1874.3</ele></trkpt><trkpt lat="47.610405" lon="12.269568"><ele>1874.6</ele></trkpt><trkpt lat="47.610592" lon="12.26975"><ele>1875</ele></trkpt><trkpt lat="47.610698" lon="12.269747"><ele>1875.3</ele></trkpt><trkpt lat="47.610806" lon="12.26965"><ele>1877.4</ele></trkpt><trkpt lat="47.610897" lon="12.269628"><ele>1877.9</ele></trkpt><trkpt lat="47.610972" lon="12.269614"><ele>1878.8</ele></trkpt><trkpt lat="47.611096" lon="12.269655"><ele>1879.6</ele></trkpt><trkpt lat="47.611117" lon="12.269778"><ele>1879.4</ele></trkpt><trkpt lat="47.611148" lon="12.269816"><ele>1879.3</ele></trkpt><trkpt lat="47.611202" lon="12.269978"><ele>1879.7</ele></trkpt><trkpt lat="47.611191" lon="12.27007"><ele>1879.6</ele></trkpt><trkpt lat="47.611228" lon="12.270131"><ele>1879.5</ele></trkpt><trkpt lat="47.611292" lon="12.27014"><ele>1878.9</ele></trkpt><trkpt lat="47.611311" lon="12.270168"><ele>1891</ele></trkpt><trkpt lat="47.611402" lon="12.270179"><ele>1896.3</ele></trkpt><trkpt lat="47.61152" lon="12.270308"><ele>1897.6</ele></trkpt><trkpt lat="47.611836" lon="12.270486"><ele>1898.2</ele></trkpt><trkpt lat="47.61152" lon="12.270308"><ele>1897.6</ele></trkpt><trkpt lat="47.611402" lon="12.270179"><ele>1896.3</ele></trkpt><trkpt lat="47.611311" lon="12.270168"><ele>1891</ele></trkpt><trkpt lat="47.611213" lon="12.270356"><ele>1893.5</ele></trkpt><trkpt lat="47.611226" lon="12.270519"><ele>1893.7</ele></trkpt><trkpt lat="47.611196" lon="12.270574"><ele>1893.8</ele></trkpt><trkpt lat="47.611184" lon="12.27084"><ele>1897.2</ele></trkpt><trkpt lat="47.611248" lon="12.27097"><ele>1897.6</ele></trkpt><trkpt lat="47.611336" lon="12.271084"><ele>1897.9</ele></trkpt><trkpt lat="47.611355" lon="12.271148"><ele>1898.3</ele></trkpt><trkpt lat="47.611359" lon="12.271324"><ele>1898.7</ele></trkpt><trkpt lat="47.611379" lon="12.271346"><ele>1898.9</ele></trkpt><trkpt lat="47.611334" lon="12.271539"><ele>1899.8</ele></trkpt><trkpt lat="47.611362" lon="12.271605"><ele>1900</ele></trkpt><trkpt lat="47.61135" lon="12.271783"><ele>1900.3</ele></trkpt><trkpt lat="47.611303" lon="12.271865"><ele>1900.4</ele></trkpt><trkpt lat="47.61131" lon="12.271949"><ele>1900.4</ele></trkpt><trkpt lat="47.611298" lon="12.272015"><ele>1900.5</ele></trkpt><trkpt lat="47.611215" lon="12.272145"><ele>1900.5</ele></trkpt><trkpt lat="47.611217" lon="12.272177"><ele>1900.8</ele></trkpt><trkpt lat="47.611237" lon="12.272184"><ele>1900.9</ele></trkpt><trkpt lat="47.611236" lon="12.272259"><ele>1901.1</ele></trkpt><trkpt lat="47.61121" lon="12.272308"><ele>1901.1</ele></trkpt><trkpt lat="47.61122" lon="12.272594"><ele>1901.9</ele></trkpt><trkpt lat="47.611227" lon="12.272643"><ele>1901.6</ele></trkpt><trkpt lat="47.611259" lon="12.272679"><ele>1901.1</ele></trkpt><trkpt lat="47.611265" lon="12.272729"><ele>1900.8</ele></trkpt><trkpt lat="47.61124" lon="12.27278"><ele>1919</ele></trkpt><trkpt lat="47.611201" lon="12.272866"><ele>1919</ele></trkpt><trkpt lat="47.611195" lon="12.272915"><ele>1919</ele></trkpt><trkpt lat="47.611159" lon="12.272912"><ele>1919</ele></trkpt><trkpt lat="47.611045" lon="12.272965"><ele>1919</ele></trkpt><trkpt lat="47.611014" lon="12.273036"><ele>1919</ele></trkpt><trkpt lat="47.61103" lon="12.273125"><ele>1919</ele></trkpt><trkpt lat="47.611101" lon="12.273199"><ele>1919</ele></trkpt><trkpt lat="47.611088" lon="12.27322"><ele>1931.5</ele></trkpt><trkpt lat="47.611151" lon="12.273442"><ele>1935.4</ele></trkpt><trkpt lat="47.611136" lon="12.273579"><ele>1938.1</ele></trkpt><trkpt lat="47.611152" lon="12.273645"><ele>1938.4</ele></trkpt><trkpt lat="47.611122" lon="12.273774"><ele>1939.9</ele></trkpt><trkpt lat="47.611119" lon="12.27388"><ele>1941.3</ele></trkpt><trkpt lat="47.611071" lon="12.274032"><ele>1943</ele></trkpt><trkpt lat="47.611076" lon="12.274132"><ele>1943.8</ele></trkpt><trkpt lat="47.611009" lon="12.274352"><ele>1946.9</ele></trkpt><trkpt lat="47.610975" lon="12.274414"><ele>1947.6</ele></trkpt><trkpt lat="47.61096" lon="12.27463"><ele>1949.5</ele></trkpt><trkpt lat="47.610881" lon="12.274758"><ele>1950.2</ele></trkpt><trkpt lat="47.610766" lon="12.274874"><ele>1951.8</ele></trkpt><trkpt lat="47.610678" lon="12.27488"><ele>1953.1</ele></trkpt><trkpt lat="47.610551" lon="12.274935"><ele>1954.4</ele></trkpt><trkpt lat="47.610452" lon="12.27506"><ele>1956.1</ele></trkpt><trkpt lat="47.610408" lon="12.275056"><ele>1956</ele></trkpt><trkpt lat="47.610381" lon="12.275087"><ele>1956.7</ele></trkpt><trkpt lat="47.610335" lon="12.275073"><ele>1956.6</ele></trkpt><trkpt lat="47.610209" lon="12.27517"><ele>1957.6</ele></trkpt><trkpt lat="47.610174" lon="12.27517"><ele>1957.6</ele></trkpt><trkpt lat="47.610173" lon="12.275372"><ele>1958.1</ele></trkpt><trkpt lat="47.610143" lon="12.275385"><ele>1958.1</ele></trkpt><trkpt lat="47.610112" lon="12.275487"><ele>1958.7</ele></trkpt><trkpt lat="47.610083" lon="12.275501"><ele>1959</ele></trkpt><trkpt lat="47.610093" lon="12.275586"><ele>1959.2</ele></trkpt><trkpt lat="47.610051" lon="12.275676"><ele>1959.8</ele></trkpt><trkpt lat="47.610098" lon="12.275877"><ele>1960.5</ele></trkpt><trkpt lat="47.610088" lon="12.27599"><ele>1960.6</ele></trkpt><trkpt lat="47.610116" lon="12.276046"><ele>1960.6</ele></trkpt><trkpt lat="47.610111" lon="12.276127"><ele>1960.7</ele></trkpt><trkpt lat="47.610027" lon="12.276299"><ele>1960.7</ele></trkpt><trkpt lat="47.610008" lon="12.276403"><ele>1960.7</ele></trkpt><trkpt lat="47.610031" lon="12.276568"><ele>1960.3</ele></trkpt><trkpt lat="47.609999" lon="12.276643"><ele>1991</ele></trkpt><trkpt lat="47.610036" lon="12.27674"><ele>1994</ele></trkpt><trkpt lat="47.609999" lon="12.276643"><ele>1991</ele></trkpt><trkpt lat="47.60994" lon="12.276589"><ele>1945.6</ele></trkpt><trkpt lat="47.609863" lon="12.276569"><ele>1944.5</ele></trkpt><trkpt lat="47.609681" lon="12.276287"><ele>1943.9</ele></trkpt><trkpt lat="47.609628" lon="12.276296"><ele>1943.3</ele></trkpt><trkpt lat="47.609591" lon="12.276268"><ele>1943.5</ele></trkpt><trkpt lat="47.609554" lon="12.276309"><ele>1943.6</ele></trkpt><trkpt lat="47.609487" lon="12.27629"><ele>1943.7</ele></trkpt><trkpt lat="47.609471" lon="12.276306"><ele>1943.9</ele></trkpt><trkpt lat="47.609408" lon="12.27624"><ele>1944</ele></trkpt><trkpt lat="47.609389" lon="12.276192"><ele>1944.1</ele></trkpt><trkpt lat="47.60928" lon="12.276237"><ele>1944.2</ele></trkpt><trkpt lat="47.609045" lon="12.276221"><ele>1943.5</ele></trkpt><trkpt lat="47.609014" lon="12.276197"><ele>1942.9</ele></trkpt><trkpt lat="47.608926" lon="12.276229"><ele>1941.7</ele></trkpt><trkpt lat="47.608849" lon="12.276124"><ele>1941.1</ele></trkpt><trkpt lat="47.608747" lon="12.276148"><ele>1940.6</ele></trkpt><trkpt lat="47.608635" lon="12.276205"><ele>1938</ele></trkpt><trkpt lat="47.60853" lon="12.276336"><ele>1936.4</ele></trkpt><trkpt lat="47.608443" lon="12.27634"><ele>1935.5</ele></trkpt><trkpt lat="47.608396" lon="12.276303"><ele>1935.1</ele></trkpt><trkpt lat="47.60833" lon="12.276286"><ele>1926</ele></trkpt><trkpt lat="47.608244" lon="12.276178"><ele>1891.3</ele></trkpt><trkpt lat="47.608221" lon="12.276185"><ele>1891.9</ele></trkpt><trkpt lat="47.608081" lon="12.276003"><ele>1893.2</ele></trkpt><trkpt lat="47.607984" lon="12.275919"><ele>1891.2</ele></trkpt><trkpt lat="47.607949" lon="12.275854"><ele>1892.3</ele></trkpt><trkpt lat="47.607885" lon="12.275823"><ele>1892.4</ele></trkpt><trkpt lat="47.607793" lon="12.275719"><ele>1890</ele></trkpt><trkpt lat="47.60779" lon="12.275684"><ele>1889.5</ele></trkpt><trkpt lat="47.607726" lon="12.275608"><ele>1888.6</ele></trkpt><trkpt lat="47.607702" lon="12.275538"><ele>1888.1</ele></trkpt><trkpt lat="47.607531" lon="12.275323"><ele>1883.9</ele></trkpt><trkpt lat="47.607404" lon="12.275085"><ele>1878.6</ele></trkpt><trkpt lat="47.607205" lon="12.275009"><ele>1876.6</ele></trkpt><trkpt lat="47.607163" lon="12.274965"><ele>1874.4</ele></trkpt><trkpt lat="47.606863" lon="12.275052"><ele>1871.6</ele></trkpt><trkpt lat="47.606942" lon="12.274726"><ele>1867.7</ele></trkpt><trkpt lat="47.606975" lon="12.274671"><ele>1866.2</ele></trkpt><trkpt lat="47.606972" lon="12.27462"><ele>1866.1</ele></trkpt><trkpt lat="47.606992" lon="12.274571"><ele>1866</ele></trkpt><trkpt lat="47.606999" lon="12.274326"><ele>1861.2</ele></trkpt><trkpt lat="47.606979" lon="12.274242"><ele>1857.4</ele></trkpt><trkpt lat="47.606993" lon="12.274143"><ele>1856.9</ele></trkpt><trkpt lat="47.606965" lon="12.27412"><ele>1853.8</ele></trkpt><trkpt lat="47.606956" lon="12.27403"><ele>1850.7</ele></trkpt><trkpt lat="47.606935" lon="12.274004"><ele>1849.2</ele></trkpt><trkpt lat="47.606929" lon="12.27394"><ele>1847.6</ele></trkpt><trkpt lat="47.606908" lon="12.273916"><ele>1844.4</ele></trkpt><trkpt lat="47.606913" lon="12.27377"><ele>1841.4</ele></trkpt><trkpt lat="47.606942" lon="12.27367"><ele>1841</ele></trkpt><trkpt lat="47.606898" lon="12.273545"><ele>1835.8</ele></trkpt><trkpt lat="47.606898" lon="12.273506"><ele>1835.7</ele></trkpt><trkpt lat="47.606923" lon="12.273465"><ele>1835.6</ele></trkpt><trkpt lat="47.606912" lon="12.273387"><ele>1833.2</ele></trkpt><trkpt lat="47.606875" lon="12.27336"><ele>1833.2</ele></trkpt><trkpt lat="47.60687" lon="12.273287"><ele>1832.7</ele></trkpt><trkpt lat="47.606796" lon="12.273287"><ele>1828.5</ele></trkpt><trkpt lat="47.606776" lon="12.273238"><ele>1814.7</ele></trkpt><trkpt lat="47.606619" lon="12.273209"><ele>1808.7</ele></trkpt><trkpt lat="47.606639" lon="12.273038"><ele>1802.4</ele></trkpt><trkpt lat="47.60648" lon="12.272827"><ele>1793.3</ele></trkpt><trkpt lat="47.606322" lon="12.272696"><ele>1787</ele></trkpt><trkpt lat="47.606291" lon="12.272622"><ele>1785.4</ele></trkpt><trkpt lat="47.606247" lon="12.272613"><ele>1783.7</ele></trkpt><trkpt lat="47.606208" lon="12.27247"><ele>1774.8</ele></trkpt><trkpt lat="47.606164" lon="12.272456"><ele>1773.3</ele></trkpt><trkpt lat="47.606097" lon="12.272324"><ele>1767.1</ele></trkpt><trkpt lat="47.605888" lon="12.272178"><ele>1727.2</ele></trkpt><trkpt lat="47.605799" lon="12.27206"><ele>1720.1</ele></trkpt><trkpt lat="47.605681" lon="12.272079"><ele>1717.3</ele></trkpt><trkpt lat="47.605627" lon="12.272288"><ele>1718.8</ele></trkpt><trkpt lat="47.605643" lon="12.272495"><ele>1723.9</ele></trkpt><trkpt lat="47.605596" lon="12.272577"><ele>1722.9</ele></trkpt><trkpt lat="47.605558" lon="12.272582"><ele>1723.7</ele></trkpt><trkpt lat="47.605442" lon="12.272516"><ele>1719.5</ele></trkpt><trkpt lat="47.605357" lon="12.272348"><ele>1708.8</ele></trkpt><trkpt lat="47.605314" lon="12.272388"><ele>1709.3</ele></trkpt><trkpt lat="47.605228" lon="12.272275"><ele>1706.1</ele></trkpt><trkpt lat="47.605183" lon="12.272332"><ele>1706.6</ele></trkpt><trkpt lat="47.605069" lon="12.272328"><ele>1704.3</ele></trkpt><trkpt lat="47.604957" lon="12.272243"><ele>1698.7</ele></trkpt><trkpt lat="47.604917" lon="12.272036"><ele>1688.7</ele></trkpt><trkpt lat="47.604779" lon="12.271996"><ele>1683.4</ele></trkpt><trkpt lat="47.604645" lon="12.27184"><ele>1680.2</ele></trkpt><trkpt lat="47.604654" lon="12.271819"><ele>1680.7</ele></trkpt><trkpt lat="47.60471" lon="12.271816"><ele>1682.6</ele></trkpt><trkpt lat="47.604896" lon="12.271526"><ele>1683.2</ele></trkpt><trkpt lat="47.604932" lon="12.271495"><ele>1683</ele></trkpt><trkpt lat="47.604929" lon="12.271402"><ele>1682.6</ele></trkpt><trkpt lat="47.604907" lon="12.271418"><ele>1682.4</ele></trkpt><trkpt lat="47.604861" lon="12.271315"><ele>1677.3</ele></trkpt><trkpt lat="47.604859" lon="12.271151"><ele>1675.1</ele></trkpt><trkpt lat="47.604879" lon="12.271034"><ele>1672.7</ele></trkpt><trkpt lat="47.604842" lon="12.270994"><ele>1671.6</ele></trkpt><trkpt lat="47.604839" lon="12.270966"><ele>1670.6</ele></trkpt><trkpt lat="47.604701" lon="12.270815"><ele>1657.2</ele></trkpt><trkpt lat="47.604674" lon="12.270723"><ele>1654.7</ele></trkpt><trkpt lat="47.604646" lon="12.270736"><ele>1654.7</ele></trkpt><trkpt lat="47.604581" lon="12.270692"><ele>1648.4</ele></trkpt><trkpt lat="47.604567" lon="12.270656"><ele>1647.8</ele></trkpt><trkpt lat="47.604573" lon="12.270589"><ele>1647.2</ele></trkpt><trkpt lat="47.604533" lon="12.27055"><ele>1642.9</ele></trkpt><trkpt lat="47.604504" lon="12.270381"><ele>1640.1</ele></trkpt><trkpt lat="47.604425" lon="12.270385"><ele>1636.2</ele></trkpt><trkpt lat="47.604397" lon="12.270412"><ele>1635.8</ele></trkpt><trkpt lat="47.604386" lon="12.270365"><ele>1635.5</ele></trkpt><trkpt lat="47.604311" lon="12.270371"><ele>1633.3</ele></trkpt><trkpt lat="47.60428" lon="12.270329"><ele>1631.8</ele></trkpt><trkpt lat="47.60425" lon="12.270365"><ele>1629.5</ele></trkpt><trkpt lat="47.604171" lon="12.27036"><ele>1626.6</ele></trkpt><trkpt lat="47.604155" lon="12.270333"><ele>1626.5</ele></trkpt><trkpt lat="47.604084" lon="12.270304"><ele>1625.2</ele></trkpt><trkpt lat="47.604042" lon="12.270212"><ele>1623.6</ele></trkpt><trkpt lat="47.603903" lon="12.270041"><ele>1613.6</ele></trkpt><trkpt lat="47.603845" lon="12.270005"><ele>1611.6</ele></trkpt><trkpt lat="47.603829" lon="12.270049"><ele>1611.6</ele></trkpt><trkpt lat="47.603814" lon="12.270044"><ele>1610.5</ele></trkpt><trkpt lat="47.603811" lon="12.270001"><ele>1610.5</ele></trkpt><trkpt lat="47.60376" lon="12.269904"><ele>1608.3</ele></trkpt><trkpt lat="47.60372" lon="12.269878"><ele>1606.5</ele></trkpt><trkpt lat="47.60372" lon="12.269809"><ele>1605.9</ele></trkpt><trkpt lat="47.603674" lon="12.269705"><ele>1603.8</ele></trkpt><trkpt lat="47.603579" lon="12.269576"><ele>1603.1</ele></trkpt><trkpt lat="47.603544" lon="12.269576"><ele>1601.5</ele></trkpt><trkpt lat="47.603527" lon="12.26949"><ele>1601.1</ele></trkpt><trkpt lat="47.603508" lon="12.269494"><ele>1601.3</ele></trkpt><trkpt lat="47.603488" lon="12.269544"><ele>1600.8</ele></trkpt><trkpt lat="47.603424" lon="12.269568"><ele>1598.6</ele></trkpt><trkpt lat="47.603421" lon="12.269518"><ele>1598.1</ele></trkpt><trkpt lat="47.60339" lon="12.26951"><ele>1598.5</ele></trkpt><trkpt lat="47.603372" lon="12.269451"><ele>1597.3</ele></trkpt><trkpt lat="47.603306" lon="12.269474"><ele>1594.5</ele></trkpt><trkpt lat="47.603263" lon="12.269548"><ele>1592.9</ele></trkpt><trkpt lat="47.603245" lon="12.26955"><ele>1592.7</ele></trkpt><trkpt lat="47.603237" lon="12.26949"><ele>1592.2</ele></trkpt><trkpt lat="47.60322" lon="12.269491"><ele>1591.3</ele></trkpt><trkpt lat="47.603102" lon="12.269652"><ele>1586.3</ele></trkpt><trkpt lat="47.603101" lon="12.269705"><ele>1586.2</ele></trkpt><trkpt lat="47.603036" lon="12.269652"><ele>1583.1</ele></trkpt><trkpt lat="47.603021" lon="12.269658"><ele>1583</ele></trkpt><trkpt lat="47.603012" lon="12.269694"><ele>1582.8</ele></trkpt><trkpt lat="47.602984" lon="12.269703"><ele>1581.9</ele></trkpt><trkpt lat="47.602985" lon="12.269743"><ele>1581.7</ele></trkpt><trkpt lat="47.602953" lon="12.26982"><ele>1579.9</ele></trkpt><trkpt lat="47.602906" lon="12.269824"><ele>1577.3</ele></trkpt><trkpt lat="47.602901" lon="12.269857"><ele>1577.3</ele></trkpt><trkpt lat="47.602835" lon="12.269819"><ele>1575.9</ele></trkpt><trkpt lat="47.60279" lon="12.269756"><ele>1575.9</ele></trkpt><trkpt lat="47.602729" lon="12.26982"><ele>1575.4</ele></trkpt><trkpt lat="47.602706" lon="12.2698"><ele>1574.1</ele></trkpt><trkpt lat="47.602584" lon="12.269788"><ele>1573.9</ele></trkpt><trkpt lat="47.602559" lon="12.269732"><ele>1572.5</ele></trkpt><trkpt lat="47.602541" lon="12.269727"><ele>1572.5</ele></trkpt><trkpt lat="47.602484" lon="12.269743"><ele>1569.6</ele></trkpt><trkpt lat="47.602439" lon="12.26979"><ele>1566.9</ele></trkpt><trkpt lat="47.602377" lon="12.269736"><ele>1563.9</ele></trkpt><trkpt lat="47.602331" lon="12.269769"><ele>1559.6</ele></trkpt><trkpt lat="47.602312" lon="12.269734"><ele>1558.1</ele></trkpt><trkpt lat="47.602146" lon="12.26985"><ele>1546.7</ele></trkpt><trkpt lat="47.602109" lon="12.269938"><ele>1544.2</ele></trkpt><trkpt lat="47.602065" lon="12.269948"><ele>1538.6</ele></trkpt><trkpt lat="47.602021" lon="12.269992"><ele>1535.9</ele></trkpt><trkpt lat="47.601996" lon="12.269923"><ele>1535.3</ele></trkpt><trkpt lat="47.601992" lon="12.269856"><ele>1535.7</ele></trkpt><trkpt lat="47.601945" lon="12.269823"><ele>1533.6</ele></trkpt><trkpt lat="47.601902" lon="12.269823"><ele>1530.7</ele></trkpt><trkpt lat="47.601869" lon="12.269773"><ele>1529.5</ele></trkpt><trkpt lat="47.6018" lon="12.269749"><ele>1527.6</ele></trkpt><trkpt lat="47.601762" lon="12.26979"><ele>1526.4</ele></trkpt><trkpt lat="47.601752" lon="12.26983"><ele>1524.3</ele></trkpt><trkpt lat="47.6017" lon="12.269868"><ele>1521.4</ele></trkpt><trkpt lat="47.60139" lon="12.270206"><ele>1499.9</ele></trkpt><trkpt lat="47.601267" lon="12.270239"><ele>1488.2</ele></trkpt><trkpt lat="47.601107" lon="12.270378"><ele>1479.1</ele></trkpt><trkpt lat="47.60103" lon="12.270475"><ele>1476.6</ele></trkpt><trkpt lat="47.600976" lon="12.270648"><ele>1475.4</ele></trkpt><trkpt lat="47.600909" lon="12.270735"><ele>1473.9</ele></trkpt><trkpt lat="47.600798" lon="12.270792"><ele>1467.7</ele></trkpt><trkpt lat="47.600523" lon="12.271065"><ele>1453.5</ele></trkpt><trkpt lat="47.60039" lon="12.271113"><ele>1450.9</ele></trkpt><trkpt lat="47.600302" lon="12.271193"><ele>1449.9</ele></trkpt><trkpt lat="47.600156" lon="12.271385"><ele>1436</ele></trkpt><trkpt lat="47.600154" lon="12.271389"><ele>1435.4</ele></trkpt><trkpt lat="47.600156" lon="12.271385"><ele>1436</ele></trkpt><trkpt lat="47.60015" lon="12.271277"><ele>1419.5</ele></trkpt><trkpt lat="47.600177" lon="12.271163"><ele>1416.2</ele></trkpt><trkpt lat="47.600211" lon="12.270775"><ele>1413.8</ele></trkpt><trkpt lat="47.60027" lon="12.27048"><ele>1410.6</ele></trkpt><trkpt lat="47.600266" lon="12.270106"><ele>1404.7</ele></trkpt><trkpt lat="47.600184" lon="12.269853"><ele>1401.8</ele></trkpt><trkpt lat="47.600258" lon="12.269447"><ele>1396.4</ele></trkpt><trkpt lat="47.600255" lon="12.269274"><ele>1392.3</ele></trkpt><trkpt lat="47.600159" lon="12.269232"><ele>1389.6</ele></trkpt><trkpt lat="47.600035" lon="12.268887"><ele>1380.2</ele></trkpt><trkpt lat="47.599892" lon="12.268629"><ele>1374.9</ele></trkpt><trkpt lat="47.599599" lon="12.268275"><ele>1369.6</ele></trkpt><trkpt lat="47.599457" lon="12.268154"><ele>1368.6</ele></trkpt><trkpt lat="47.599336" lon="12.268012"><ele>1367.7</ele></trkpt><trkpt lat="47.599289" lon="12.267469"><ele>1360.7</ele></trkpt><trkpt lat="47.599295" lon="12.267273"><ele>1359</ele></trkpt><trkpt lat="47.59937" lon="12.267095"><ele>1357.5</ele></trkpt><trkpt lat="47.599447" lon="12.266656"><ele>1355</ele></trkpt><trkpt lat="47.599399" lon="12.266493"><ele>1353</ele></trkpt><trkpt lat="47.599377" lon="12.266338"><ele>1350.9</ele></trkpt><trkpt lat="47.599378" lon="12.26596"><ele>1345.5</ele></trkpt><trkpt lat="47.599409" lon="12.265812"><ele>1344.1</ele></trkpt><trkpt lat="47.599417" lon="12.265533"><ele>1341.8</ele></trkpt><trkpt lat="47.599447" lon="12.26527"><ele>1337.6</ele></trkpt><trkpt lat="47.599498" lon="12.265035"><ele>1335.2</ele></trkpt><trkpt lat="47.599519" lon="12.264768"><ele>1333.9</ele></trkpt><trkpt lat="47.599639" lon="12.264612"><ele>1332</ele></trkpt><trkpt lat="47.599613" lon="12.264452"><ele>1331.1</ele></trkpt><trkpt lat="47.599613" lon="12.264211"><ele>1328</ele></trkpt><trkpt lat="47.599665" lon="12.264093"><ele>1327</ele></trkpt><trkpt lat="47.599618" lon="12.2638"><ele>1323.9</ele></trkpt><trkpt lat="47.599632" lon="12.263533"><ele>1321.6</ele></trkpt><trkpt lat="47.599543" lon="12.263044"><ele>1320</ele></trkpt><trkpt lat="47.599545" lon="12.262809"><ele>1319.5</ele></trkpt><trkpt lat="47.599462" lon="12.262456"><ele>1317.7</ele></trkpt><trkpt lat="47.599467" lon="12.262345"><ele>1318.1</ele></trkpt><trkpt lat="47.599606" lon="12.262135"><ele>1316.8</ele></trkpt><trkpt lat="47.599797" lon="12.262077"><ele>1315.4</ele></trkpt><trkpt lat="47.599937" lon="12.261716"><ele>1311.7</ele></trkpt><trkpt lat="47.60006" lon="12.261456"><ele>1309.2</ele></trkpt><trkpt lat="47.600086" lon="12.261214"><ele>1306.1</ele></trkpt><trkpt lat="47.600181" lon="12.261113"><ele>1304.6</ele></trkpt><trkpt lat="47.600236" lon="12.260969"><ele>1303.1</ele></trkpt><trkpt lat="47.600288" lon="12.260537"><ele>1300.1</ele></trkpt><trkpt lat="47.600261" lon="12.260301"><ele>1299.5</ele></trkpt><trkpt lat="47.600286" lon="12.260116"><ele>1298.8</ele></trkpt><trkpt lat="47.600404" lon="12.259917"><ele>1298.1</ele></trkpt><trkpt lat="47.600722" lon="12.259622"><ele>1300.5</ele></trkpt><trkpt lat="47.600863" lon="12.25941"><ele>1301.8</ele></trkpt><trkpt lat="47.60103" lon="12.259454"><ele>1301.4</ele></trkpt><trkpt lat="47.601216" lon="12.259035"><ele>1301.5</ele></trkpt><trkpt lat="47.601274" lon="12.258648"><ele>1302.5</ele></trkpt><trkpt lat="47.601268" lon="12.258298"><ele>1304.3</ele></trkpt><trkpt lat="47.601291" lon="12.258114"><ele>1305.4</ele></trkpt><trkpt lat="47.601388" lon="12.257883"><ele>1306.1</ele></trkpt><trkpt lat="47.60144" lon="12.257599"><ele>1309.3</ele></trkpt><trkpt lat="47.601339" lon="12.256931"><ele>1315.3</ele></trkpt><trkpt lat="47.601268" lon="12.256638"><ele>1318.7</ele></trkpt><trkpt lat="47.601241" lon="12.256117"><ele>1321.5</ele></trkpt><trkpt lat="47.601238" lon="12.255798"><ele>1325.4</ele></trkpt><trkpt lat="47.601134" lon="12.255211"><ele>1327.8</ele></trkpt><trkpt lat="47.601518" lon="12.253815"><ele>1336.1</ele></trkpt><trkpt lat="47.601562" lon="12.253501"><ele>1337.9</ele></trkpt><trkpt lat="47.601666" lon="12.253167"><ele>1339.4</ele></trkpt><trkpt lat="47.601903" lon="12.252823"><ele>1340.5</ele></trkpt><trkpt lat="47.602065" lon="12.252078"><ele>1339.5</ele></trkpt><trkpt lat="47.602149" lon="12.251892"><ele>1339.1</ele></trkpt><trkpt lat="47.602167" lon="12.251581"><ele>1337.5</ele></trkpt><trkpt lat="47.602146" lon="12.251275"><ele>1336</ele></trkpt><trkpt lat="47.602183" lon="12.251209"><ele>1335.8</ele></trkpt><trkpt lat="47.60222" lon="12.25092"><ele>1332.4</ele></trkpt><trkpt lat="47.60222" lon="12.250586"><ele>1328.8</ele></trkpt><trkpt lat="47.602128" lon="12.250007"><ele>1331.5</ele></trkpt><trkpt lat="47.60216" lon="12.249779"><ele>1331.2</ele></trkpt><trkpt lat="47.602227" lon="12.249549"><ele>1332.1</ele></trkpt><trkpt lat="47.60227" lon="12.249059"><ele>1332.7</ele></trkpt><trkpt lat="47.602412" lon="12.248805"><ele>1335</ele></trkpt><trkpt lat="47.602596" lon="12.248653"><ele>1337.8</ele></trkpt><trkpt lat="47.602637" lon="12.248541"><ele>1336.1</ele></trkpt><trkpt lat="47.602736" lon="12.248395"><ele>1333.8</ele></trkpt><trkpt lat="47.602781" lon="12.248214"><ele>1331.7</ele></trkpt><trkpt lat="47.602877" lon="12.248006"><ele>1331.3</ele></trkpt><trkpt lat="47.602911" lon="12.247662"><ele>1329.1</ele></trkpt><trkpt lat="47.602999" lon="12.247277"><ele>1325.2</ele></trkpt><trkpt lat="47.602908" lon="12.246924"><ele>1326.6</ele></trkpt><trkpt lat="47.602918" lon="12.246689"><ele>1327.3</ele></trkpt><trkpt lat="47.602908" lon="12.246498"><ele>1326.6</ele></trkpt><trkpt lat="47.602936" lon="12.246242"><ele>1328.2</ele></trkpt><trkpt lat="47.603013" lon="12.245987"><ele>1328.5</ele></trkpt><trkpt lat="47.603201" lon="12.245851"><ele>1330</ele></trkpt><trkpt lat="47.60328" lon="12.245645"><ele>1330.9</ele></trkpt><trkpt lat="47.603313" lon="12.245496"><ele>1333.7</ele></trkpt><trkpt lat="47.603364" lon="12.245079"><ele>1336.9</ele></trkpt><trkpt lat="47.603424" lon="12.244869"><ele>1335</ele></trkpt><trkpt lat="47.603545" lon="12.244565"><ele>1334.3</ele></trkpt><trkpt lat="47.603613" lon="12.244068"><ele>1335.8</ele></trkpt><trkpt lat="47.60373" lon="12.243747"><ele>1339</ele></trkpt><trkpt lat="47.60395" lon="12.242845"><ele>1347.5</ele></trkpt><trkpt lat="47.604037" lon="12.242621"><ele>1350.6</ele></trkpt><trkpt lat="47.604239" lon="12.242376"><ele>1352.9</ele></trkpt><trkpt lat="47.604365" lon="12.242258"><ele>1353.2</ele></trkpt><trkpt lat="47.604443" lon="12.241971"><ele>1353.2</ele></trkpt><trkpt lat="47.604544" lon="12.241704"><ele>1352.9</ele></trkpt><trkpt lat="47.604627" lon="12.241404"><ele>1354</ele></trkpt><trkpt lat="47.604682" lon="12.241329"><ele>1361.8</ele></trkpt><trkpt lat="47.60483" lon="12.241224"><ele>1362.6</ele></trkpt><trkpt lat="47.604963" lon="12.241036"><ele>1363.6</ele></trkpt><trkpt lat="47.60516" lon="12.240861"><ele>1364.7</ele></trkpt><trkpt lat="47.605219" lon="12.240672"><ele>1362.5</ele></trkpt><trkpt lat="47.60549" lon="12.240158"><ele>1362.2</ele></trkpt><trkpt lat="47.605532" lon="12.240019"><ele>1364</ele></trkpt><trkpt lat="47.605526" lon="12.23993"><ele>1344.3</ele></trkpt><trkpt lat="47.605556" lon="12.239689"><ele>1344.7</ele></trkpt><trkpt lat="47.605518" lon="12.239395"><ele>1337.4</ele></trkpt><trkpt lat="47.605435" lon="12.238756"><ele>1330</ele></trkpt><trkpt lat="47.605437" lon="12.23865"><ele>1330</ele></trkpt><trkpt lat="47.60544" lon="12.238569"><ele>1322.5</ele></trkpt><trkpt lat="47.605506" lon="12.238331"><ele>1320.6</ele></trkpt><trkpt lat="47.605651" lon="12.237927"><ele>1315</ele></trkpt><trkpt lat="47.605644" lon="12.237819"><ele>1306.5</ele></trkpt><trkpt lat="47.605587" lon="12.237582"><ele>1305.7</ele></trkpt><trkpt lat="47.605579" lon="12.237368"><ele>1304.7</ele></trkpt><trkpt lat="47.605557" lon="12.237251"><ele>1305.4</ele></trkpt><trkpt lat="47.60552" lon="12.237241"><ele>1306.1</ele></trkpt><trkpt lat="47.605286" lon="12.237346"><ele>1306.9</ele></trkpt><trkpt lat="47.605237" lon="12.237407"><ele>1307.8</ele></trkpt><trkpt lat="47.60518" lon="12.237565"><ele>1308.8</ele></trkpt><trkpt lat="47.605132" lon="12.237578"><ele>1315</ele></trkpt><trkpt lat="47.605121" lon="12.237522"><ele>1298.2</ele></trkpt><trkpt lat="47.605129" lon="12.237362"><ele>1296.5</ele></trkpt><trkpt lat="47.605177" lon="12.237154"><ele>1296.4</ele></trkpt><trkpt lat="47.605235" lon="12.237044"><ele>1296.2</ele></trkpt><trkpt lat="47.605321" lon="12.236811"><ele>1296</ele></trkpt><trkpt lat="47.605315" lon="12.236757"><ele>1295.8</ele></trkpt><trkpt lat="47.605188" lon="12.236553"><ele>1295.4</ele></trkpt><trkpt lat="47.605034" lon="12.236437"><ele>1282</ele></trkpt><trkpt lat="47.604945" lon="12.236466"><ele>1250.4</ele></trkpt><trkpt lat="47.604838" lon="12.236634"><ele>1250.5</ele></trkpt><trkpt lat="47.604726" lon="12.236854"><ele>1250.5</ele></trkpt><trkpt lat="47.604678" lon="12.236995"><ele>1250</ele></trkpt><trkpt lat="47.604657" lon="12.237118"><ele>1249.5</ele></trkpt><trkpt lat="47.604406" lon="12.237776"><ele>1249.8</ele></trkpt><trkpt lat="47.604343" lon="12.2379"><ele>1248.3</ele></trkpt><trkpt lat="47.604291" lon="12.237942"><ele>1246.8</ele></trkpt><trkpt lat="47.604216" lon="12.237946"><ele>1245.3</ele></trkpt><trkpt lat="47.604029" lon="12.237841"><ele>1240.3</ele></trkpt><trkpt lat="47.603896" lon="12.237691"><ele>1240.2</ele></trkpt><trkpt lat="47.603836" lon="12.237502"><ele>1240</ele></trkpt><trkpt lat="47.6038" lon="12.237294"><ele>1239.9</ele></trkpt><trkpt lat="47.603884" lon="12.236788"><ele>1240.5</ele></trkpt><trkpt lat="47.603886" lon="12.236561"><ele>1241</ele></trkpt><trkpt lat="47.603821" lon="12.236228"><ele>1242</ele></trkpt><trkpt lat="47.603812" lon="12.236111"><ele>1237.6</ele></trkpt><trkpt lat="47.603795" lon="12.235901"><ele>1233.2</ele></trkpt><trkpt lat="47.603794" lon="12.234854"><ele>1204</ele></trkpt><trkpt lat="47.603845" lon="12.233648"><ele>1163.5</ele></trkpt><trkpt lat="47.603816" lon="12.233168"><ele>1162.7</ele></trkpt><trkpt lat="47.603818" lon="12.232918"><ele>1163.1</ele></trkpt><trkpt lat="47.603939" lon="12.232555"><ele>1159</ele></trkpt><trkpt lat="47.603991" lon="12.232339"><ele>1159.1</ele></trkpt><trkpt lat="47.603981" lon="12.232216"><ele>1159.4</ele></trkpt><trkpt lat="47.60395" lon="12.232135"><ele>1159.8</ele></trkpt><trkpt lat="47.603912" lon="12.232097"><ele>1156</ele></trkpt><trkpt lat="47.603884" lon="12.23206"><ele>1156.3</ele></trkpt><trkpt lat="47.603747" lon="12.231738"><ele>1156.3</ele></trkpt><trkpt lat="47.603665" lon="12.231165"><ele>1157</ele></trkpt><trkpt lat="47.603746" lon="12.230731"><ele>1158.3</ele></trkpt><trkpt lat="47.603743" lon="12.230603"><ele>1159</ele></trkpt><trkpt lat="47.603716" lon="12.23047"><ele>1159</ele></trkpt><trkpt lat="47.603551" lon="12.230049"><ele>1159</ele></trkpt><trkpt lat="47.603405" lon="12.229831"><ele>1144.6</ele></trkpt><trkpt lat="47.603367" lon="12.229741"><ele>1142.3</ele></trkpt><trkpt lat="47.603346" lon="12.229486"><ele>1135.7</ele></trkpt><trkpt lat="47.603172" lon="12.22917"><ele>1133</ele></trkpt><trkpt lat="47.603116" lon="12.228958"><ele>1133.6</ele></trkpt><trkpt lat="47.603002" lon="12.228693"><ele>1134.5</ele></trkpt><trkpt lat="47.602961" lon="12.228316"><ele>1136.5</ele></trkpt><trkpt lat="47.603018" lon="12.227941"><ele>1136.6</ele></trkpt><trkpt lat="47.602956" lon="12.227387"><ele>1131.4</ele></trkpt><trkpt lat="47.602847" lon="12.227218"><ele>1130.9</ele></trkpt><trkpt lat="47.602793" lon="12.226937"><ele>1130.4</ele></trkpt><trkpt lat="47.602621" lon="12.22668"><ele>1129.4</ele></trkpt><trkpt lat="47.602543" lon="12.226343"><ele>1122.5</ele></trkpt><trkpt lat="47.60237" lon="12.22604"><ele>1117.2</ele></trkpt><trkpt lat="47.602252" lon="12.225867"><ele>1114.5</ele></trkpt><trkpt lat="47.602066" lon="12.225755"><ele>1113.4</ele></trkpt><trkpt lat="47.601842" lon="12.225506"><ele>1107.5</ele></trkpt><trkpt lat="47.601775" lon="12.225357"><ele>1106.2</ele></trkpt><trkpt lat="47.601677" lon="12.22528"><ele>1102.2</ele></trkpt><trkpt lat="47.601425" lon="12.224901"><ele>1095.1</ele></trkpt><trkpt lat="47.601314" lon="12.224795"><ele>1091.5</ele></trkpt><trkpt lat="47.60116" lon="12.224736"><ele>1089.6</ele></trkpt><trkpt lat="47.601045" lon="12.224625"><ele>1086.1</ele></trkpt><trkpt lat="47.600986" lon="12.224461"><ele>1074.3</ele></trkpt><trkpt lat="47.600888" lon="12.224305"><ele>1069.8</ele></trkpt><trkpt lat="47.600422" lon="12.22396"><ele>1047.4</ele></trkpt><trkpt lat="47.600236" lon="12.22389"><ele>1042.9</ele></trkpt><trkpt lat="47.600102" lon="12.223765"><ele>1038.4</ele></trkpt><trkpt lat="47.600002" lon="12.223539"><ele>1034.1</ele></trkpt><trkpt lat="47.59996" lon="12.223379"><ele>1029.2</ele></trkpt><trkpt lat="47.599966" lon="12.223222"><ele>1029</ele></trkpt><trkpt lat="47.599845" lon="12.222989"><ele>1025.8</ele></trkpt><trkpt lat="47.599795" lon="12.222749"><ele>1025.2</ele></trkpt><trkpt lat="47.599718" lon="12.222585"><ele>1024.1</ele></trkpt><trkpt lat="47.599606" lon="12.222514"><ele>1022</ele></trkpt><trkpt lat="47.599498" lon="12.222388"><ele>1019.9</ele></trkpt><trkpt lat="47.599403" lon="12.222178"><ele>1018.1</ele></trkpt><trkpt lat="47.599109" lon="12.221812"><ele>1013.7</ele></trkpt><trkpt lat="47.598786" lon="12.221444"><ele>1011.9</ele></trkpt><trkpt lat="47.59862" lon="12.221396"><ele>1010.3</ele></trkpt><trkpt lat="47.598478" lon="12.221417"><ele>1011.8</ele></trkpt><trkpt lat="47.598373" lon="12.221457"><ele>999</ele></trkpt><trkpt lat="47.598269" lon="12.221481"><ele>947.8</ele></trkpt><trkpt lat="47.59818" lon="12.221412"><ele>949.3</ele></trkpt><trkpt lat="47.598153" lon="12.221222"><ele>950.1</ele></trkpt><trkpt lat="47.598176" lon="12.221044"><ele>951.5</ele></trkpt><trkpt lat="47.598241" lon="12.220922"><ele>952.4</ele></trkpt><trkpt lat="47.598226" lon="12.220767"><ele>950.3</ele></trkpt><trkpt lat="47.598148" lon="12.220676"><ele>950.8</ele></trkpt><trkpt lat="47.597964" lon="12.22057"><ele>949.9</ele></trkpt><trkpt lat="47.597892" lon="12.220457"><ele>949</ele></trkpt><trkpt lat="47.597788" lon="12.219931"><ele>947.3</ele></trkpt><trkpt lat="47.597788" lon="12.219691"><ele>945.6</ele></trkpt><trkpt lat="47.597738" lon="12.219574"><ele>938.6</ele></trkpt><trkpt lat="47.597564" lon="12.219381"><ele>933.5</ele></trkpt><trkpt lat="47.597494" lon="12.219171"><ele>929.8</ele></trkpt><trkpt lat="47.597288" lon="12.219012"><ele>926</ele></trkpt><trkpt lat="47.597155" lon="12.218801"><ele>924.5</ele></trkpt><trkpt lat="47.597064" lon="12.218713"><ele>922.7</ele></trkpt><trkpt lat="47.596913" lon="12.218688"><ele>920.5</ele></trkpt><trkpt lat="47.596635" lon="12.218447"><ele>912.9</ele></trkpt><trkpt lat="47.596481" lon="12.21825"><ele>912</ele></trkpt><trkpt lat="47.595864" lon="12.216804"><ele>860.2</ele></trkpt><trkpt lat="47.595722" lon="12.216395"><ele>851.8</ele></trkpt><trkpt lat="47.595631" lon="12.216067"><ele>855.4</ele></trkpt><trkpt lat="47.59534" lon="12.21566"><ele>851</ele></trkpt><trkpt lat="47.595104" lon="12.215237"><ele>821.1</ele></trkpt><trkpt lat="47.59499" lon="12.214977"><ele>812.2</ele></trkpt><trkpt lat="47.594717" lon="12.214585"><ele>815.6</ele></trkpt><trkpt lat="47.594655" lon="12.214333"><ele>804</ele></trkpt><trkpt lat="47.594406" lon="12.213574"><ele>796.4</ele></trkpt><trkpt lat="47.594373" lon="12.213352"><ele>791.5</ele></trkpt><trkpt lat="47.594306" lon="12.213185"><ele>789.9</ele></trkpt><trkpt lat="47.594248" lon="12.21294"><ele>787.6</ele></trkpt><trkpt lat="47.594231" lon="12.212528"><ele>785.6</ele></trkpt><trkpt lat="47.594147" lon="12.211887"><ele>775.2</ele></trkpt><trkpt lat="47.594117" lon="12.211748"><ele>777</ele></trkpt><trkpt lat="47.594067" lon="12.211602"><ele>777.9</ele></trkpt><trkpt lat="47.593704" lon="12.210758"><ele>771.7</ele></trkpt><trkpt lat="47.593603" lon="12.210411"><ele>770.8</ele></trkpt><trkpt lat="47.593552" lon="12.210371"><ele>764</ele></trkpt><trkpt lat="47.59354" lon="12.21027"><ele>764</ele></trkpt><trkpt lat="47.593508" lon="12.206602"><ele>734</ele></trkpt><trkpt lat="47.593491" lon="12.206298"><ele>734</ele></trkpt><trkpt lat="47.593381" lon="12.205052"><ele>721.8</ele></trkpt><trkpt lat="47.593473" lon="12.204381"><ele>719.8</ele></trkpt><trkpt lat="47.593426" lon="12.204034"><ele>719</ele></trkpt><trkpt lat="47.593398" lon="12.203897"><ele>719</ele></trkpt><trkpt lat="47.593342" lon="12.203531"><ele>706.4</ele></trkpt><trkpt lat="47.593328" lon="12.203129"><ele>656</ele></trkpt><trkpt lat="47.593206" lon="12.202605"><ele>656</ele></trkpt><trkpt lat="47.593221" lon="12.20249"><ele>663.6</ele></trkpt><trkpt lat="47.593397" lon="12.201998"><ele>666.3</ele></trkpt><trkpt lat="47.593464" lon="12.201713"><ele>667.6</ele></trkpt><trkpt lat="47.593507" lon="12.20159"><ele>668</ele></trkpt><trkpt lat="47.593728" lon="12.201315"><ele>668.4</ele></trkpt><trkpt lat="47.593779" lon="12.201166"><ele>668.7</ele></trkpt><trkpt lat="47.593807" lon="12.200982"><ele>669</ele></trkpt><trkpt lat="47.593759" lon="12.200756"><ele>670.9</ele></trkpt><trkpt lat="47.593624" lon="12.200384"><ele>675</ele></trkpt><trkpt lat="47.593613" lon="12.200161"><ele>673.5</ele></trkpt><trkpt lat="47.59363" lon="12.199829"><ele>673</ele></trkpt><trkpt lat="47.593626" lon="12.199586"><ele>671</ele></trkpt><trkpt lat="47.593604" lon="12.199498"><ele>671</ele></trkpt><trkpt lat="47.593537" lon="12.199258"><ele>656</ele></trkpt><trkpt lat="47.593493" lon="12.198613"><ele>660.3</ele></trkpt><trkpt lat="47.593281" lon="12.197729"><ele>613</ele></trkpt><trkpt lat="47.593188" lon="12.197445"><ele>610</ele></trkpt><trkpt lat="47.592961" lon="12.196826"><ele>610</ele></trkpt><trkpt lat="47.592941" lon="12.196782"><ele>610</ele></trkpt><trkpt lat="47.592898" lon="12.196686"><ele>593</ele></trkpt><trkpt lat="47.592897" lon="12.19662"><ele>594.1</ele></trkpt><trkpt lat="47.592957" lon="12.196483"><ele>593.6</ele></trkpt><trkpt lat="47.592994" lon="12.196308"><ele>593.1</ele></trkpt><trkpt lat="47.593127" lon="12.195966"><ele>592.5</ele></trkpt><trkpt lat="47.593136" lon="12.195872"><ele>592.1</ele></trkpt><trkpt lat="47.59312" lon="12.195786"><ele>591.1</ele></trkpt><trkpt lat="47.593189" lon="12.195338"><ele>588.9</ele></trkpt><trkpt lat="47.593236" lon="12.195188"><ele>588.2</ele></trkpt><trkpt lat="47.593273" lon="12.19496"><ele>587.9</ele></trkpt><trkpt lat="47.593324" lon="12.194852"><ele>586.5</ele></trkpt><trkpt lat="47.593379" lon="12.194777"><ele>629</ele></trkpt><trkpt lat="47.593468" lon="12.194442"><ele>627.1</ele></trkpt><trkpt lat="47.593501" lon="12.194202"><ele>627.6</ele></trkpt><trkpt lat="47.593501" lon="12.193735"><ele>619</ele></trkpt><trkpt lat="47.593509" lon="12.193674"><ele>619</ele></trkpt><trkpt lat="47.593509" lon="12.193584"><ele>612.5</ele></trkpt><trkpt lat="47.593548" lon="12.193349"><ele>614.1</ele></trkpt><trkpt lat="47.593541" lon="12.193142"><ele>613.8</ele></trkpt><trkpt lat="47.593477" lon="12.192488"><ele>595</ele></trkpt><trkpt lat="47.593471" lon="12.192327"><ele>595</ele></trkpt><trkpt lat="47.593423" lon="12.19201"><ele>595</ele></trkpt><trkpt lat="47.593407" lon="12.191787"><ele>595</ele></trkpt><trkpt lat="47.59342" lon="12.191504"><ele>568.1</ele></trkpt><trkpt lat="47.593496" lon="12.191168"><ele>568.8</ele></trkpt><trkpt lat="47.593483" lon="12.191084"><ele>569.1</ele></trkpt><trkpt lat="47.593364" lon="12.190861"><ele>569.2</ele></trkpt><trkpt lat="47.593355" lon="12.190757"><ele>566.4</ele></trkpt><trkpt lat="47.593452" lon="12.190557"><ele>562.7</ele></trkpt><trkpt lat="47.593539" lon="12.19042"><ele>559.5</ele></trkpt><trkpt lat="47.593574" lon="12.19039"><ele>539</ele></trkpt><trkpt lat="47.593724" lon="12.190327"><ele>532.8</ele></trkpt><trkpt lat="47.593788" lon="12.190334"><ele>533.1</ele></trkpt><trkpt lat="47.593861" lon="12.190385"><ele>533.4</ele></trkpt><trkpt lat="47.593959" lon="12.190526"><ele>533.6</ele></trkpt><trkpt lat="47.594033" lon="12.190601"><ele>533.8</ele></trkpt><trkpt lat="47.59409" lon="12.190625"><ele>534.1</ele></trkpt><trkpt lat="47.594097" lon="12.190597"><ele>534.3</ele></trkpt><trkpt lat="47.594001" lon="12.190395"><ele>534.6</ele></trkpt><trkpt lat="47.593928" lon="12.190121"><ele>534.8</ele></trkpt><trkpt lat="47.593878" lon="12.189997"><ele>534.5</ele></trkpt><trkpt lat="47.593802" lon="12.189909"><ele>533.9</ele></trkpt><trkpt lat="47.593772" lon="12.189847"><ele>533.1</ele></trkpt><trkpt lat="47.593703" lon="12.189824"><ele>532.5</ele></trkpt><trkpt lat="47.593629" lon="12.189833"><ele>532.3</ele></trkpt><trkpt lat="47.593637" lon="12.189774"><ele>531.8</ele></trkpt><trkpt lat="47.593739" lon="12.189673"><ele>530.9</ele></trkpt><trkpt lat="47.593723" lon="12.189637"><ele>530.4</ele></trkpt><trkpt lat="47.593646" lon="12.189558"><ele>530.2</ele></trkpt><trkpt lat="47.59361" lon="12.189549"><ele>530</ele></trkpt><trkpt lat="47.593471" lon="12.189581"><ele>529.8</ele></trkpt><trkpt lat="47.593359" lon="12.189675"><ele>522</ele></trkpt><trkpt lat="47.593357" lon="12.189619"><ele>516.3</ele></trkpt><trkpt lat="47.59338" lon="12.189533"><ele>516.6</ele></trkpt><trkpt lat="47.593452" lon="12.189395"><ele>516.8</ele></trkpt><trkpt lat="47.593518" lon="12.189314"><ele>517</ele></trkpt><trkpt lat="47.593557" lon="12.189199"><ele>517.5</ele></trkpt><trkpt lat="47.593588" lon="12.189165"><ele>517.3</ele></trkpt><trkpt lat="47.593613" lon="12.188957"><ele>515.9</ele></trkpt><trkpt lat="47.593685" lon="12.188815"><ele>515.3</ele></trkpt><trkpt lat="47.593697" lon="12.188801"><ele>515.1</ele></trkpt><trkpt lat="47.593727" lon="12.188815"><ele>514.6</ele></trkpt><trkpt lat="47.593844" lon="12.189043"><ele>512</ele></trkpt><trkpt lat="47.593911" lon="12.189108"><ele>509</ele></trkpt><trkpt lat="47.593958" lon="12.18906"><ele>509</ele></trkpt><trkpt lat="47.593975" lon="12.18901"><ele>509</ele></trkpt><trkpt lat="47.593958" lon="12.18895"><ele>509</ele></trkpt><trkpt lat="47.593861" lon="12.188778"><ele>509</ele></trkpt><trkpt lat="47.593831" lon="12.188658"><ele>509</ele></trkpt><trkpt lat="47.593757" lon="12.188543"><ele>509</ele></trkpt><trkpt lat="47.593703" lon="12.188478"><ele>509</ele></trkpt><trkpt lat="47.593695" lon="12.188438"><ele>509</ele></trkpt><trkpt lat="47.593747" lon="12.188196"><ele>508</ele></trkpt><trkpt lat="47.593667" lon="12.188215"><ele>508</ele></trkpt><trkpt lat="47.593596" lon="12.188196"><ele>508</ele></trkpt><trkpt lat="47.59336" lon="12.188048"><ele>508</ele></trkpt><trkpt lat="47.593335" lon="12.188022"><ele>508</ele></trkpt><trkpt lat="47.593316" lon="12.187989"><ele>509</ele></trkpt><trkpt lat="47.593276" lon="12.187819"><ele>508.2</ele></trkpt><trkpt lat="47.593266" lon="12.187673"><ele>508.1</ele></trkpt><trkpt lat="47.593266" lon="12.187095"><ele>507</ele></trkpt><trkpt lat="47.593275" lon="12.186542"><ele>507</ele></trkpt><trkpt lat="47.59327" lon="12.186384"><ele>507</ele></trkpt><trkpt lat="47.593264" lon="12.186161"><ele>507</ele></trkpt><trkpt lat="47.593257" lon="12.186022"><ele>507</ele></trkpt><trkpt lat="47.59325" lon="12.1858"><ele>504</ele></trkpt><trkpt lat="47.593243" lon="12.185559"><ele>504</ele></trkpt><trkpt lat="47.593284" lon="12.18513"><ele>500.8</ele></trkpt><trkpt lat="47.593484" lon="12.184367"><ele>500.4</ele></trkpt><trkpt lat="47.593513" lon="12.184206"><ele>500.4</ele></trkpt><trkpt lat="47.593546" lon="12.183843"><ele>498</ele></trkpt><trkpt lat="47.593539" lon="12.183265"><ele>496</ele></trkpt><trkpt lat="47.593527" lon="12.182922"><ele>496</ele></trkpt><trkpt lat="47.593504" lon="12.182652"><ele>496</ele></trkpt><trkpt lat="47.593478" lon="12.182455"><ele>495</ele></trkpt><trkpt lat="47.593334" lon="12.181788"><ele>495</ele></trkpt><trkpt lat="47.593222" lon="12.181462"><ele>494</ele></trkpt><trkpt lat="47.593161" lon="12.18129"><ele>494</ele></trkpt><trkpt lat="47.593062" lon="12.18096"><ele>494</ele></trkpt><trkpt lat="47.593053" lon="12.180915"><ele>494</ele></trkpt><trkpt lat="47.592998" lon="12.180637"><ele>492</ele></trkpt><trkpt lat="47.592908" lon="12.179924"><ele>490</ele></trkpt><trkpt lat="47.592879" lon="12.179716"><ele>490</ele></trkpt><trkpt lat="47.59286" lon="12.179563"><ele>490</ele></trkpt><trkpt lat="47.592805" lon="12.179127"><ele>488</ele></trkpt><trkpt lat="47.592758" lon="12.178579"><ele>488</ele></trkpt><trkpt lat="47.592741" lon="12.17816"><ele>486</ele></trkpt><trkpt lat="47.592721" lon="12.177982"><ele>485</ele></trkpt><trkpt lat="47.592646" lon="12.177737"><ele>485</ele></trkpt><trkpt lat="47.592552" lon="12.177541"><ele>485</ele></trkpt><trkpt lat="47.592389" lon="12.177276"><ele>484</ele></trkpt><trkpt lat="47.592052" lon="12.176734"><ele>484</ele></trkpt><trkpt lat="47.591656" lon="12.17628"><ele>484.9</ele></trkpt><trkpt lat="47.591287" lon="12.175768"><ele>484</ele></trkpt><trkpt lat="47.591194" lon="12.175628"><ele>484</ele></trkpt><trkpt lat="47.591073" lon="12.175492"><ele>484</ele></trkpt><trkpt lat="47.590901" lon="12.175316"><ele>484</ele></trkpt><trkpt lat="47.590846" lon="12.17526"><ele>484</ele></trkpt><trkpt lat="47.590774" lon="12.175223"><ele>486</ele></trkpt><trkpt lat="47.590716" lon="12.175182"><ele>486</ele></trkpt><trkpt lat="47.590634" lon="12.175095"><ele>486</ele></trkpt><trkpt lat="47.590568" lon="12.175092"><ele>485.8</ele></trkpt><trkpt lat="47.590495" lon="12.174999"><ele>485</ele></trkpt><trkpt lat="47.59041" lon="12.174937"><ele>485</ele></trkpt><trkpt lat="47.590361" lon="12.174894"><ele>485</ele></trkpt><trkpt lat="47.59031" lon="12.174844"><ele>485</ele></trkpt><trkpt lat="47.589871" lon="12.174552"><ele>486</ele></trkpt><trkpt lat="47.589419" lon="12.174233"><ele>486</ele></trkpt><trkpt lat="47.589093" lon="12.173992"><ele>487</ele></trkpt><trkpt lat="47.589038" lon="12.173945"><ele>487</ele></trkpt><trkpt lat="47.588917" lon="12.173829"><ele>487</ele></trkpt><trkpt lat="47.588541" lon="12.17352"><ele>487</ele></trkpt><trkpt lat="47.58842" lon="12.173422"><ele>487</ele></trkpt><trkpt lat="47.588373" lon="12.173388"><ele>487</ele></trkpt><trkpt lat="47.588165" lon="12.17325"><ele>488</ele></trkpt><trkpt lat="47.587909" lon="12.173085"><ele>488</ele></trkpt><trkpt lat="47.587596" lon="12.172885"><ele>488</ele></trkpt><trkpt lat="47.587528" lon="12.17284"><ele>488</ele></trkpt><trkpt lat="47.58728" lon="12.17268"><ele>490</ele></trkpt><trkpt lat="47.587219" lon="12.172643"><ele>490</ele></trkpt><trkpt lat="47.587081" lon="12.172559"><ele>490</ele></trkpt><trkpt lat="47.586723" lon="12.172341"><ele>490.7</ele></trkpt><trkpt lat="47.586555" lon="12.172279"><ele>492</ele></trkpt><trkpt lat="47.586387" lon="12.172271"><ele>492</ele></trkpt><trkpt lat="47.586241" lon="12.172267"><ele>492</ele></trkpt><trkpt lat="47.586109" lon="12.172261"><ele>492</ele></trkpt><trkpt lat="47.586016" lon="12.172256"><ele>492</ele></trkpt><trkpt lat="47.585856" lon="12.172242"><ele>492</ele></trkpt><trkpt lat="47.585758" lon="12.172232"><ele>493</ele></trkpt><trkpt lat="47.585667" lon="12.172226"><ele>493</ele></trkpt><trkpt lat="47.58562" lon="12.17222"><ele>493</ele></trkpt><trkpt lat="47.585376" lon="12.17219"><ele>493</ele></trkpt><trkpt lat="47.585247" lon="12.172156"><ele>493</ele></trkpt><trkpt lat="47.585072" lon="12.172072"><ele>493</ele></trkpt><trkpt lat="47.58498" lon="12.172012"><ele>493</ele></trkpt><trkpt lat="47.5846" lon="12.171678"><ele>493</ele></trkpt><trkpt lat="47.584563" lon="12.171642"><ele>494</ele></trkpt><trkpt lat="47.584467" lon="12.171536"><ele>494</ele></trkpt><trkpt lat="47.584385" lon="12.171448"><ele>494</ele></trkpt><trkpt lat="47.584344" lon="12.171344"><ele>494</ele></trkpt><trkpt lat="47.584289" lon="12.171313"><ele>494</ele></trkpt><trkpt lat="47.584231" lon="12.17133"><ele>494</ele></trkpt><trkpt lat="47.584168" lon="12.171254"><ele>494</ele></trkpt><trkpt lat="47.584046" lon="12.171141"><ele>495.4</ele></trkpt><trkpt lat="47.583894" lon="12.171065"><ele>496</ele></trkpt><trkpt lat="47.583699" lon="12.171001"><ele>496</ele></trkpt><trkpt lat="47.583219" lon="12.17086"><ele>496</ele></trkpt><trkpt lat="47.583114" lon="12.170826"><ele>501</ele></trkpt><trkpt lat="47.58291" lon="12.170766"><ele>501</ele></trkpt><trkpt lat="47.582961" lon="12.17068"><ele>501</ele></trkpt><trkpt lat="47.582985" lon="12.170574"><ele>501</ele></trkpt><trkpt lat="47.582972" lon="12.169927"><ele>503</ele></trkpt><trkpt lat="47.58295" lon="12.169186"><ele>499.6</ele></trkpt><trkpt lat="47.582898" lon="12.168728"><ele>492</ele></trkpt><trkpt lat="47.582889" lon="12.168649"><ele>492</ele></trkpt><trkpt lat="47.582836" lon="12.168618"><ele>492</ele></trkpt><trkpt lat="47.582802" lon="12.168526"><ele>492</ele></trkpt><trkpt lat="47.582816" lon="12.168241"><ele>484</ele></trkpt><trkpt lat="47.582817" lon="12.168199"><ele>484</ele></trkpt><trkpt lat="47.582896" lon="12.166857"><ele>484</ele></trkpt><trkpt lat="47.582903" lon="12.166735"><ele>484</ele></trkpt><trkpt lat="47.582913" lon="12.166622"><ele>485</ele></trkpt><trkpt lat="47.582978" lon="12.166455"><ele>485</ele></trkpt><trkpt lat="47.582969" lon="12.166254"><ele>485</ele></trkpt><trkpt lat="47.583115" lon="12.166183"><ele>485</ele></trkpt><trkpt lat="47.583174" lon="12.166157"><ele>485</ele></trkpt><trkpt lat="47.583241" lon="12.166098"><ele>485</ele></trkpt><trkpt lat="47.583284" lon="12.166034"><ele>485</ele></trkpt><trkpt lat="47.583343" lon="12.165941"><ele>484.5</ele></trkpt><trkpt lat="47.583439" lon="12.165932"><ele>484</ele></trkpt><trkpt lat="47.583632" lon="12.165911"><ele>484</ele></trkpt><trkpt lat="47.58379" lon="12.165895"><ele>484</ele></trkpt><trkpt lat="47.583922" lon="12.16588"><ele>484</ele></trkpt><trkpt lat="47.58395" lon="12.165923"><ele>484</ele></trkpt><trkpt lat="47.584021" lon="12.16603"><ele>484</ele></trkpt><trkpt lat="47.584049" lon="12.165897"><ele>484</ele></trkpt><trkpt lat="47.584327" lon="12.165866"><ele>484</ele></trkpt></trkseg></trk></gpx>