<gpx xmlns="http://www.topografix.com/GPX/1/1" xmlns:xsi="http://www.w3.org/2001/XMLSchema-instance" xsi:schemaLocation="http://www.topografix.com/GPX/1/1 http://www.topografix.com/GPX/1/1/gpx.xsd" version="1.1" creator="togpx"><metadata/><wpt lat="47.706142748497335" lon="11.873911321163177"><name></name><desc>label=Wendelsteinstraße, Schliersee,BY,Germany</desc></wpt><wpt lat="47.68716749230531" lon="11.848454475402834"><name></name><desc>label=W 11, Schliersee,BY,Germany</desc></wpt><wpt lat="47.6857302113159" lon="11.842339038848877"><name></name><desc>label=626, B,Schliersee,BY,Germany</desc></wpt><wpt lat="47.67788585944681" lon="11.839131116867067"><name></name><desc>label=627, Schliersee,BY,Germany</desc></wpt><wpt lat="47.67246780079018" lon="11.850922107696533"><name></name><desc>label=Krettenburg, Schliersee,BY,Germany</desc></wpt><wpt lat="47.67062914504617" lon="11.853727698326113"><name></name><desc>label= SB 5, Schliersee,BY,Germany</desc></wpt><wpt lat="47.670188436009944" lon="11.85390204191208"><name></name><desc>label= SB 5, Schliersee,BY,Germany</desc></wpt><wpt lat="47.67255991248791" lon="11.886667907238008"><name></name><desc>label=Reitsteig, Schliersee,BY,Germany</desc></wpt><wpt lat="47.66135721527623" lon="11.886649131774902"><name></name><desc>label=Euronet, Schliersee,BY,Germany</desc></wpt><wpt lat="47.661879290533506" lon="11.888051927089691"><name></name><desc>label=Spitzingstraße, Schliersee,BY,Germany</desc></wpt><trk><name></name><desc>ascent=958.4
descent=675.4
opacity=0.9</desc><trkseg><trkpt lat="47.706142" lon="11.873917"><ele>806</ele></trkpt><trkpt lat="47.706147" lon="11.873919"><ele>806</ele></trkpt><trkpt lat="47.706115" lon="11.874117"><ele>806</ele></trkpt><trkpt lat="47.706051" lon="11.874098"><ele>806</ele></trkpt><trkpt lat="47.706028" lon="11.874229"><ele>810</ele></trkpt><trkpt lat="47.705989" lon="11.874278"><ele>811.7</ele></trkpt><trkpt lat="47.705807" lon="11.874252"><ele>815</ele></trkpt><trkpt lat="47.705855" lon="11.873733"><ele>806</ele></trkpt><trkpt lat="47.705945" lon="11.872769"><ele>806</ele></trkpt><trkpt lat="47.706161" lon="11.871095"><ele>805</ele></trkpt><trkpt lat="47.70616" lon="11.8707"><ele>810.4</ele></trkpt><trkpt lat="47.706136" lon="11.870556"><ele>810.7</ele></trkpt><trkpt lat="47.706093" lon="11.870461"><ele>811.1</ele></trkpt><trkpt lat="47.705027" lon="11.869804"><ele>817</ele></trkpt><trkpt lat="47.704757" lon="11.869588"><ele>821</ele></trkpt><trkpt lat="47.704583" lon="11.869437"><ele>821</ele></trkpt><trkpt lat="47.704276" lon="11.869165"><ele>824</ele></trkpt><trkpt lat="47.703423" lon="11.868099"><ele>829</ele></trkpt><trkpt lat="47.703062" lon="11.867843"><ele>836.1</ele></trkpt><trkpt lat="47.702827" lon="11.867577"><ele>836.2</ele></trkpt><trkpt lat="47.702711" lon="11.867356"><ele>836.2</ele></trkpt><trkpt lat="47.702622" lon="11.8671"><ele>836</ele></trkpt><trkpt lat="47.702557" lon="11.866846"><ele>835.7</ele></trkpt><trkpt lat="47.702547" lon="11.86671"><ele>838</ele></trkpt><trkpt lat="47.702364" lon="11.866243"><ele>857.6</ele></trkpt><trkpt lat="47.702206" lon="11.866023"><ele>858.8</ele></trkpt><trkpt lat="47.70188" lon="11.865755"><ele>864.8</ele></trkpt><trkpt lat="47.701518" lon="11.865645"><ele>865.4</ele></trkpt><trkpt lat="47.701163" lon="11.865607"><ele>872</ele></trkpt><trkpt lat="47.700563" lon="11.865411"><ele>876.5</ele></trkpt><trkpt lat="47.700333" lon="11.865306"><ele>878.1</ele></trkpt><trkpt lat="47.700202" lon="11.865171"><ele>880.2</ele></trkpt><trkpt lat="47.700059" lon="11.864985"><ele>881</ele></trkpt><trkpt lat="47.69994" lon="11.864892"><ele>878.6</ele></trkpt><trkpt lat="47.699736" lon="11.864829"><ele>883</ele></trkpt><trkpt lat="47.699622" lon="11.864795"><ele>883</ele></trkpt><trkpt lat="47.69923" lon="11.864593"><ele>883</ele></trkpt><trkpt lat="47.699176" lon="11.864516"><ele>892.3</ele></trkpt><trkpt lat="47.699103" lon="11.864453"><ele>911</ele></trkpt><trkpt lat="47.698965" lon="11.864233"><ele>906.5</ele></trkpt><trkpt lat="47.698845" lon="11.86391"><ele>908.5</ele></trkpt><trkpt lat="47.698783" lon="11.863316"><ele>913.5</ele></trkpt><trkpt lat="47.698657" lon="11.862723"><ele>918.4</ele></trkpt><trkpt lat="47.69844" lon="11.862267"><ele>923.5</ele></trkpt><trkpt lat="47.698348" lon="11.862037"><ele>926.5</ele></trkpt><trkpt lat="47.698209" lon="11.861566"><ele>929.5</ele></trkpt><trkpt lat="47.698132" lon="11.861372"><ele>930.4</ele></trkpt><trkpt lat="47.698098" lon="11.861155"><ele>932.2</ele></trkpt><trkpt lat="47.698085" lon="11.860816"><ele>936.2</ele></trkpt><trkpt lat="47.698063" lon="11.86061"><ele>936.3</ele></trkpt><trkpt lat="47.697914" lon="11.859922"><ele>941.4</ele></trkpt><trkpt lat="47.697673" lon="11.859192"><ele>945.7</ele></trkpt><trkpt lat="47.697575" lon="11.858988"><ele>946.5</ele></trkpt><trkpt lat="47.697444" lon="11.858828"><ele>946.3</ele></trkpt><trkpt lat="47.697258" lon="11.858398"><ele>949</ele></trkpt><trkpt lat="47.696981" lon="11.857916"><ele>966</ele></trkpt><trkpt lat="47.696766" lon="11.857199"><ele>987.4</ele></trkpt><trkpt lat="47.69664" lon="11.856891"><ele>987.4</ele></trkpt><trkpt lat="47.696475" lon="11.856561"><ele>989.2</ele></trkpt><trkpt lat="47.696442" lon="11.856451"><ele>989.2</ele></trkpt><trkpt lat="47.696429" lon="11.856206"><ele>989.2</ele></trkpt><trkpt lat="47.696484" lon="11.855617"><ele>1008</ele></trkpt><trkpt lat="47.696491" lon="11.855387"><ele>1016.5</ele></trkpt><trkpt lat="47.696448" lon="11.854995"><ele>1018.7</ele></trkpt><trkpt lat="47.696425" lon="11.854908"><ele>1019</ele></trkpt><trkpt lat="47.696323" lon="11.854846"><ele>1019</ele></trkpt><trkpt lat="47.696245" lon="11.854861"><ele>1019</ele></trkpt><trkpt lat="47.696156" lon="11.854951"><ele>1019</ele></trkpt><trkpt lat="47.696054" lon="11.854976"><ele>1019.1</ele></trkpt><trkpt lat="47.695962" lon="11.854947"><ele>1020.5</ele></trkpt><trkpt lat="47.695875" lon="11.854842"><ele>1020.6</ele></trkpt><trkpt lat="47.695783" lon="11.854635"><ele>1022</ele></trkpt><trkpt lat="47.695717" lon="11.854363"><ele>1022.5</ele></trkpt><trkpt lat="47.695667" lon="11.854037"><ele>1024.8</ele></trkpt><trkpt lat="47.695651" lon="11.853667"><ele>1027.6</ele></trkpt><trkpt lat="47.695624" lon="11.853541"><ele>1028.1</ele></trkpt><trkpt lat="47.695036" lon="11.852995"><ele>1036.8</ele></trkpt><trkpt lat="47.694865" lon="11.852757"><ele>1047.1</ele></trkpt><trkpt lat="47.694758" lon="11.852581"><ele>1065</ele></trkpt><trkpt lat="47.694696" lon="11.852446"><ele>1069.8</ele></trkpt><trkpt lat="47.694484" lon="11.85184"><ele>1081.1</ele></trkpt><trkpt lat="47.69422" lon="11.851356"><ele>1092</ele></trkpt><trkpt lat="47.694098" lon="11.851188"><ele>1092.5</ele></trkpt><trkpt lat="47.694008" lon="11.851111"><ele>1094.9</ele></trkpt><trkpt lat="47.693962" lon="11.8511"><ele>1095.8</ele></trkpt><trkpt lat="47.6939" lon="11.851133"><ele>1095.8</ele></trkpt><trkpt lat="47.693806" lon="11.851255"><ele>1095.9</ele></trkpt><trkpt lat="47.693719" lon="11.851485"><ele>1095.9</ele></trkpt><trkpt lat="47.693663" lon="11.851592"><ele>1096</ele></trkpt><trkpt lat="47.693609" lon="11.851631"><ele>1096</ele></trkpt><trkpt lat="47.69355" lon="11.85164"><ele>1098.6</ele></trkpt><trkpt lat="47.693446" lon="11.851607"><ele>1100.4</ele></trkpt><trkpt lat="47.693067" lon="11.85133"><ele>1102.4</ele></trkpt><trkpt lat="47.693" lon="11.8513"><ele>1101.9</ele></trkpt><trkpt lat="47.692643" lon="11.851401"><ele>1104.6</ele></trkpt><trkpt lat="47.692253" lon="11.851472"><ele>1108.7</ele></trkpt><trkpt lat="47.692042" lon="11.851471"><ele>1109.9</ele></trkpt><trkpt lat="47.691845" lon="11.851427"><ele>1110.4</ele></trkpt><trkpt lat="47.691631" lon="11.851352"><ele>1112</ele></trkpt><trkpt lat="47.691457" lon="11.851247"><ele>1112.5</ele></trkpt><trkpt lat="47.691218" lon="11.851027"><ele>1118</ele></trkpt><trkpt lat="47.691069" lon="11.850885"><ele>1125.2</ele></trkpt><trkpt lat="47.690855" lon="11.85056"><ele>1126.2</ele></trkpt><trkpt lat="47.690787" lon="11.850492"><ele>1132</ele></trkpt><trkpt lat="47.690712" lon="11.850434"><ele>1142</ele></trkpt><trkpt lat="47.690219" lon="11.850173"><ele>1146.2</ele></trkpt><trkpt lat="47.689925" lon="11.849928"><ele>1151.1</ele></trkpt><trkpt lat="47.689516" lon="11.849786"><ele>1153.8</ele></trkpt><trkpt lat="47.689181" lon="11.849976"><ele>1158.8</ele></trkpt><trkpt lat="47.688859" lon="11.850288"><ele>1160.4</ele></trkpt><trkpt lat="47.68867" lon="11.850349"><ele>1160.6</ele></trkpt><trkpt lat="47.688403" lon="11.850263"><ele>1161.9</ele></trkpt><trkpt lat="47.688145" lon="11.850143"><ele>1163.5</ele></trkpt><trkpt lat="47.687969" lon="11.850028"><ele>1163.6</ele></trkpt><trkpt lat="47.687861" lon="11.849873"><ele>1177</ele></trkpt><trkpt lat="47.687772" lon="11.849765"><ele>1185</ele></trkpt><trkpt lat="47.687583" lon="11.84968"><ele>1186.1</ele></trkpt><trkpt lat="47.687139" lon="11.849425"><ele>1190.6</ele></trkpt><trkpt lat="47.687069" lon="11.849333"><ele>1192.4</ele></trkpt><trkpt lat="47.687085" lon="11.849126"><ele>1194</ele></trkpt><trkpt lat="47.68719" lon="11.848914"><ele>1194</ele></trkpt><trkpt lat="47.687245" lon="11.848697"><ele>1194.1</ele></trkpt><trkpt lat="47.687179" lon="11.848448"><ele>1194.1</ele></trkpt><trkpt lat="47.687171" lon="11.848414"><ele>1194.1</ele></trkpt><trkpt lat="47.687094" lon="11.848276"><ele>1194.2</ele></trkpt><trkpt lat="47.686682" lon="11.847965"><ele>1197</ele></trkpt><trkpt lat="47.68658" lon="11.847837"><ele>1197.9</ele></trkpt><trkpt lat="47.686485" lon="11.847641"><ele>1212</ele></trkpt><trkpt lat="47.686267" lon="11.847568"><ele>1226.7</ele></trkpt><trkpt lat="47.685953" lon="11.847398"><ele>1227.5</ele></trkpt><trkpt lat="47.685869" lon="11.847418"><ele>1226.9</ele></trkpt><trkpt lat="47.685708" lon="11.847579"><ele>1226.5</ele></trkpt><trkpt lat="47.685418" lon="11.847648"><ele>1229.2</ele></trkpt><trkpt lat="47.684928" lon="11.847571"><ele>1231.8</ele></trkpt><trkpt lat="47.68474" lon="11.847649"><ele>1233.7</ele></trkpt><trkpt lat="47.684619" lon="11.847637"><ele>1235.1</ele></trkpt><trkpt lat="47.684493" lon="11.847571"><ele>1238.3</ele></trkpt><trkpt lat="47.684129" lon="11.847301"><ele>1244.5</ele></trkpt><trkpt lat="47.683773" lon="11.84679"><ele>1249.8</ele></trkpt><trkpt lat="47.6837" lon="11.846584"><ele>1251</ele></trkpt><trkpt lat="47.683611" lon="11.845897"><ele>1254</ele></trkpt><trkpt lat="47.683538" lon="11.845623"><ele>1254.5</ele></trkpt><trkpt lat="47.683477" lon="11.845529"><ele>1254.9</ele></trkpt><trkpt lat="47.683396" lon="11.845475"><ele>1254.4</ele></trkpt><trkpt lat="47.683259" lon="11.845453"><ele>1262</ele></trkpt><trkpt lat="47.68316" lon="11.845348"><ele>1262</ele></trkpt><trkpt lat="47.6831" lon="11.845151"><ele>1262</ele></trkpt><trkpt lat="47.683091" lon="11.844854"><ele>1271</ele></trkpt><trkpt lat="47.683177" lon="11.844792"><ele>1288</ele></trkpt><trkpt lat="47.683422" lon="11.844326"><ele>1299.6</ele></trkpt><trkpt lat="47.683389" lon="11.843625"><ele>1304.6</ele></trkpt><trkpt lat="47.683447" lon="11.843236"><ele>1306.4</ele></trkpt><trkpt lat="47.68338" lon="11.843039"><ele>1305.6</ele></trkpt><trkpt lat="47.683332" lon="11.842265"><ele>1312.8</ele></trkpt><trkpt lat="47.683317" lon="11.841641"><ele>1319.4</ele></trkpt><trkpt lat="47.683279" lon="11.841367"><ele>1320.7</ele></trkpt><trkpt lat="47.68325" lon="11.840488"><ele>1345.4</ele></trkpt><trkpt lat="47.683259" lon="11.840119"><ele>1351.5</ele></trkpt><trkpt lat="47.683288" lon="11.83973"><ele>1356.1</ele></trkpt><trkpt lat="47.683355" lon="11.839171"><ele>1363.5</ele></trkpt><trkpt lat="47.683381" lon="11.83919"><ele>1362</ele></trkpt><trkpt lat="47.683379" lon="11.839152"><ele>1360.4</ele></trkpt><trkpt lat="47.68343" lon="11.839193"><ele>1358.3</ele></trkpt><trkpt lat="47.68342" lon="11.838996"><ele>1381</ele></trkpt><trkpt lat="47.683403" lon="11.838778"><ele>1381</ele></trkpt><trkpt lat="47.683439" lon="11.838665"><ele>1381</ele></trkpt><trkpt lat="47.683555" lon="11.838849"><ele>1381</ele></trkpt><trkpt lat="47.683654" lon="11.838979"><ele>1384.7</ele></trkpt><trkpt lat="47.683808" lon="11.839281"><ele>1386.7</ele></trkpt><trkpt lat="47.684086" lon="11.839707"><ele>1388.1</ele></trkpt><trkpt lat="47.684259" lon="11.840041"><ele>1389.2</ele></trkpt><trkpt lat="47.684389" lon="11.840392"><ele>1391.4</ele></trkpt><trkpt lat="47.684736" lon="11.84091"><ele>1406.6</ele></trkpt><trkpt lat="47.684766" lon="11.841106"><ele>1410.4</ele></trkpt><trkpt lat="47.684927" lon="11.841348"><ele>1413.5</ele></trkpt><trkpt lat="47.685366" lon="11.841878"><ele>1419.2</ele></trkpt><trkpt lat="47.685722" lon="11.842357"><ele>1418.6</ele></trkpt><trkpt lat="47.68573" lon="11.842357"><ele>1422.3</ele></trkpt><trkpt lat="47.685722" lon="11.842357"><ele>1418.6</ele></trkpt><trkpt lat="47.685366" lon="11.841878"><ele>1419.2</ele></trkpt><trkpt lat="47.684927" lon="11.841348"><ele>1413.5</ele></trkpt><trkpt lat="47.684766" lon="11.841106"><ele>1410.4</ele></trkpt><trkpt lat="47.684736" lon="11.84091"><ele>1406.6</ele></trkpt><trkpt lat="47.684389" lon="11.840392"><ele>1391.4</ele></trkpt><trkpt lat="47.684259" lon="11.840041"><ele>1389.2</ele></trkpt><trkpt lat="47.684086" lon="11.839707"><ele>1388.1</ele></trkpt><trkpt lat="47.683808" lon="11.839281"><ele>1386.7</ele></trkpt><trkpt lat="47.683654" lon="11.838979"><ele>1384.7</ele></trkpt><trkpt lat="47.683555" lon="11.838849"><ele>1381</ele></trkpt><trkpt lat="47.683439" lon="11.838665"><ele>1381</ele></trkpt><trkpt lat="47.683403" lon="11.838778"><ele>1381</ele></trkpt><trkpt lat="47.68342" lon="11.838996"><ele>1381</ele></trkpt><trkpt lat="47.68343" lon="11.839193"><ele>1358.3</ele></trkpt><trkpt lat="47.683379" lon="11.839152"><ele>1360.4</ele></trkpt><trkpt lat="47.683381" lon="11.83919"><ele>1362</ele></trkpt><trkpt lat="47.683355" lon="11.839171"><ele>1363.5</ele></trkpt><trkpt lat="47.683288" lon="11.83973"><ele>1356.1</ele></trkpt><trkpt lat="47.683259" lon="11.840119"><ele>1351.5</ele></trkpt><trkpt lat="47.68325" lon="11.840488"><ele>1345.4</ele></trkpt><trkpt lat="47.683279" lon="11.841367"><ele>1320.7</ele></trkpt><trkpt lat="47.683317" lon="11.841641"><ele>1319.4</ele></trkpt><trkpt lat="47.683332" lon="11.842265"><ele>1312.8</ele></trkpt><trkpt lat="47.68338" lon="11.843039"><ele>1305.6</ele></trkpt><trkpt lat="47.683447" lon="11.843236"><ele>1306.4</ele></trkpt><trkpt lat="47.683389" lon="11.843625"><ele>1304.6</ele></trkpt><trkpt lat="47.683422" lon="11.844326"><ele>1299.6</ele></trkpt><trkpt lat="47.683177" lon="11.844792"><ele>1288</ele></trkpt><trkpt lat="47.683091" lon="11.844854"><ele>1271</ele></trkpt><trkpt lat="47.683087" lon="11.844742"><ele>1275.2</ele></trkpt><trkpt lat="47.683054" lon="11.844638"><ele>1275.6</ele></trkpt><trkpt lat="47.682893" lon="11.844295"><ele>1276.3</ele></trkpt><trkpt lat="47.682736" lon="11.844046"><ele>1277.3</ele></trkpt><trkpt lat="47.682608" lon="11.843943"><ele>1278</ele></trkpt><trkpt lat="47.682576" lon="11.843895"><ele>1278</ele></trkpt><trkpt lat="47.682477" lon="11.84358"><ele>1278.7</ele></trkpt><trkpt lat="47.682313" lon="11.843326"><ele>1281.1</ele></trkpt><trkpt lat="47.681519" lon="11.842831"><ele>1295.1</ele></trkpt><trkpt lat="47.681386" lon="11.842702"><ele>1297.2</ele></trkpt><trkpt lat="47.681246" lon="11.842478"><ele>1302.7</ele></trkpt><trkpt lat="47.681172" lon="11.842322"><ele>1303.6</ele></trkpt><trkpt lat="47.681166" lon="11.842216"><ele>1306.5</ele></trkpt><trkpt lat="47.681237" lon="11.841976"><ele>1306.7</ele></trkpt><trkpt lat="47.681237" lon="11.841901"><ele>1307.8</ele></trkpt><trkpt lat="47.681219" lon="11.8418"><ele>1308.1</ele></trkpt><trkpt lat="47.681173" lon="11.841703"><ele>1311.1</ele></trkpt><trkpt lat="47.680511" lon="11.841111"><ele>1328.4</ele></trkpt><trkpt lat="47.680411" lon="11.84098"><ele>1329.4</ele></trkpt><trkpt lat="47.680241" lon="11.840817"><ele>1332.5</ele></trkpt><trkpt lat="47.680108" lon="11.840597"><ele>1342.3</ele></trkpt><trkpt lat="47.679954" lon="11.840397"><ele>1345.5</ele></trkpt><trkpt lat="47.679851" lon="11.840339"><ele>1344</ele></trkpt><trkpt lat="47.67943" lon="11.840269"><ele>1342.8</ele></trkpt><trkpt lat="47.679273" lon="11.840141"><ele>1343</ele></trkpt><trkpt lat="47.679161" lon="11.840093"><ele>1350</ele></trkpt><trkpt lat="47.678725" lon="11.839593"><ele>1351.5</ele></trkpt><trkpt lat="47.678655" lon="11.839481"><ele>1351.8</ele></trkpt><trkpt lat="47.678547" lon="11.83936"><ele>1352.1</ele></trkpt><trkpt lat="47.678197" lon="11.839156"><ele>1352.7</ele></trkpt><trkpt lat="47.677984" lon="11.839174"><ele>1352.2</ele></trkpt><trkpt lat="47.677884" lon="11.839149"><ele>1352.5</ele></trkpt><trkpt lat="47.677825" lon="11.839134"><ele>1352.8</ele></trkpt><trkpt lat="47.677743" lon="11.838836"><ele>1356</ele></trkpt><trkpt lat="47.677541" lon="11.838524"><ele>1356</ele></trkpt><trkpt lat="47.677494" lon="11.838409"><ele>1351</ele></trkpt><trkpt lat="47.677377" lon="11.838186"><ele>1367.7</ele></trkpt><trkpt lat="47.677338" lon="11.838163"><ele>1367.9</ele></trkpt><trkpt lat="47.67726" lon="11.838158"><ele>1368.4</ele></trkpt><trkpt lat="47.677047" lon="11.838197"><ele>1371.8</ele></trkpt><trkpt lat="47.676878" lon="11.838088"><ele>1375</ele></trkpt><trkpt lat="47.676652" lon="11.838066"><ele>1378.6</ele></trkpt><trkpt lat="47.676577" lon="11.83814"><ele>1381.3</ele></trkpt><trkpt lat="47.676485" lon="11.838154"><ele>1381.6</ele></trkpt><trkpt lat="47.676361" lon="11.838019"><ele>1382.1</ele></trkpt><trkpt lat="47.676325" lon="11.838007"><ele>1382.2</ele></trkpt><trkpt lat="47.676064" lon="11.838084"><ele>1384</ele></trkpt><trkpt lat="47.675987" lon="11.838267"><ele>1385.2</ele></trkpt><trkpt lat="47.675871" lon="11.838852"><ele>1386.6</ele></trkpt><trkpt lat="47.67575" lon="11.839217"><ele>1388.2</ele></trkpt><trkpt lat="47.675701" lon="11.839286"><ele>1387.7</ele></trkpt><trkpt lat="47.67555" lon="11.839366"><ele>1416</ele></trkpt><trkpt lat="47.67527" lon="11.839829"><ele>1413.9</ele></trkpt><trkpt lat="47.675039" lon="11.840277"><ele>1411.5</ele></trkpt><trkpt lat="47.675014" lon="11.840392"><ele>1410</ele></trkpt><trkpt lat="47.675002" lon="11.8406"><ele>1409.9</ele></trkpt><trkpt lat="47.674946" lon="11.840926"><ele>1415.6</ele></trkpt><trkpt lat="47.674906" lon="11.841064"><ele>1415.7</ele></trkpt><trkpt lat="47.674818" lon="11.841215"><ele>1415.7</ele></trkpt><trkpt lat="47.674678" lon="11.841277"><ele>1416.4</ele></trkpt><trkpt lat="47.674458" lon="11.841525"><ele>1417.2</ele></trkpt><trkpt lat="47.674301" lon="11.84184"><ele>1421.5</ele></trkpt><trkpt lat="47.674195" lon="11.842165"><ele>1427.2</ele></trkpt><trkpt lat="47.674176" lon="11.842369"><ele>1429.9</ele></trkpt><trkpt lat="47.674114" lon="11.84219"><ele>1427.9</ele></trkpt><trkpt lat="47.673972" lon="11.842175"><ele>1428.7</ele></trkpt><trkpt lat="47.673885" lon="11.842079"><ele>1428.1</ele></trkpt><trkpt lat="47.67383" lon="11.841958"><ele>1426</ele></trkpt><trkpt lat="47.673755" lon="11.841865"><ele>1425.5</ele></trkpt><trkpt lat="47.673525" lon="11.841938"><ele>1427.7</ele></trkpt><trkpt lat="47.673342" lon="11.842246"><ele>1430.8</ele></trkpt><trkpt lat="47.673235" lon="11.842458"><ele>1435.6</ele></trkpt><trkpt lat="47.673178" lon="11.842622"><ele>1439.1</ele></trkpt><trkpt lat="47.673208" lon="11.842915"><ele>1442.7</ele></trkpt><trkpt lat="47.673146" lon="11.84324"><ele>1447.2</ele></trkpt><trkpt lat="47.67316" lon="11.843371"><ele>1447.9</ele></trkpt><trkpt lat="47.673198" lon="11.843503"><ele>1449.6</ele></trkpt><trkpt lat="47.673259" lon="11.843616"><ele>1452</ele></trkpt><trkpt lat="47.673273" lon="11.843787"><ele>1463.6</ele></trkpt><trkpt lat="47.673154" lon="11.844125"><ele>1467</ele></trkpt><trkpt lat="47.673123" lon="11.844461"><ele>1472.1</ele></trkpt><trkpt lat="47.673143" lon="11.844606"><ele>1472.6</ele></trkpt><trkpt lat="47.673122" lon="11.844721"><ele>1473.8</ele></trkpt><trkpt lat="47.673078" lon="11.844876"><ele>1474.8</ele></trkpt><trkpt lat="47.67297" lon="11.845005"><ele>1475.5</ele></trkpt><trkpt lat="47.672966" lon="11.845193"><ele>1476.2</ele></trkpt><trkpt lat="47.672984" lon="11.845402"><ele>1476.9</ele></trkpt><trkpt lat="47.673035" lon="11.845595"><ele>1477.2</ele></trkpt><trkpt lat="47.673028" lon="11.845864"><ele>1476.6</ele></trkpt><trkpt lat="47.672992" lon="11.846057"><ele>1476.1</ele></trkpt><trkpt lat="47.672876" lon="11.846175"><ele>1475.6</ele></trkpt><trkpt lat="47.672735" lon="11.846223"><ele>1474.5</ele></trkpt><trkpt lat="47.672427" lon="11.846389"><ele>1472.6</ele></trkpt><trkpt lat="47.672384" lon="11.8465"><ele>1472.6</ele></trkpt><trkpt lat="47.672405" lon="11.846642"><ele>1472.6</ele></trkpt><trkpt lat="47.672374" lon="11.846761"><ele>1472.6</ele></trkpt><trkpt lat="47.672287" lon="11.846914"><ele>1472.2</ele></trkpt><trkpt lat="47.672247" lon="11.847034"><ele>1471.7</ele></trkpt><trkpt lat="47.672341" lon="11.847093"><ele>1471.7</ele></trkpt><trkpt lat="47.672341" lon="11.847221"><ele>1471.2</ele></trkpt><trkpt lat="47.672244" lon="11.847407"><ele>1472</ele></trkpt><trkpt lat="47.672336" lon="11.847654"><ele>1451.3</ele></trkpt><trkpt lat="47.672437" lon="11.847824"><ele>1451.9</ele></trkpt><trkpt lat="47.672556" lon="11.847897"><ele>1451.2</ele></trkpt><trkpt lat="47.672654" lon="11.848052"><ele>1450.9</ele></trkpt><trkpt lat="47.672688" lon="11.848208"><ele>1450.4</ele></trkpt><trkpt lat="47.672583" lon="11.848501"><ele>1449.1</ele></trkpt><trkpt lat="47.672526" lon="11.848519"><ele>1448.8</ele></trkpt><trkpt lat="47.672496" lon="11.848596"><ele>1448.9</ele></trkpt><trkpt lat="47.672457" lon="11.848595"><ele>1449.1</ele></trkpt><trkpt lat="47.672406" lon="11.848708"><ele>1449</ele></trkpt><trkpt lat="47.672401" lon="11.848819"><ele>1448.8</ele></trkpt><trkpt lat="47.672349" lon="11.848932"><ele>1448.9</ele></trkpt><trkpt lat="47.672328" lon="11.849479"><ele>1447.1</ele></trkpt><trkpt lat="47.672206" lon="11.849804"><ele>1446</ele></trkpt><trkpt lat="47.672175" lon="11.849928"><ele>1445.8</ele></trkpt><trkpt lat="47.672187" lon="11.850085"><ele>1444.8</ele></trkpt><trkpt lat="47.672206" lon="11.850217"><ele>1444.3</ele></trkpt><trkpt lat="47.672285" lon="11.850429"><ele>1443.9</ele></trkpt><trkpt lat="47.672282" lon="11.850611"><ele>1443.6</ele></trkpt><trkpt lat="47.672354" lon="11.850764"><ele>1441.8</ele></trkpt><trkpt lat="47.672419" lon="11.850958"><ele>1440.6</ele></trkpt><trkpt lat="47.672434" lon="11.851003"><ele>1439.3</ele></trkpt><trkpt lat="47.672602" lon="11.851236"><ele>1437.3</ele></trkpt><trkpt lat="47.672627" lon="11.851403"><ele>1436.1</ele></trkpt><trkpt lat="47.672697" lon="11.851551"><ele>1433.1</ele></trkpt><trkpt lat="47.672755" lon="11.851786"><ele>1429.5</ele></trkpt><trkpt lat="47.67273" lon="11.8519"><ele>1428.6</ele></trkpt><trkpt lat="47.672616" lon="11.852122"><ele>1426.3</ele></trkpt><trkpt lat="47.672446" lon="11.85229"><ele>1424.8</ele></trkpt><trkpt lat="47.672311" lon="11.852623"><ele>1421.4</ele></trkpt><trkpt lat="47.672303" lon="11.852836"><ele>1420.3</ele></trkpt><trkpt lat="47.672204" lon="11.853143"><ele>1416.6</ele></trkpt><trkpt lat="47.672195" lon="11.85339"><ele>1415.9</ele></trkpt><trkpt lat="47.672103" lon="11.853622"><ele>1414.7</ele></trkpt><trkpt lat="47.671906" lon="11.853763"><ele>1414</ele></trkpt><trkpt lat="47.671804" lon="11.853901"><ele>1413.5</ele></trkpt><trkpt lat="47.671735" lon="11.853933"><ele>1413.3</ele></trkpt><trkpt lat="47.671608" lon="11.854048"><ele>1411.1</ele></trkpt><trkpt lat="47.671441" lon="11.854144"><ele>1409.5</ele></trkpt><trkpt lat="47.671259" lon="11.85418"><ele>1402.7</ele></trkpt><trkpt lat="47.671231" lon="11.854218"><ele>1378</ele></trkpt><trkpt lat="47.671142" lon="11.854108"><ele>1374.7</ele></trkpt><trkpt lat="47.67088" lon="11.85369"><ele>1371.1</ele></trkpt><trkpt lat="47.670772" lon="11.853647"><ele>1369</ele></trkpt><trkpt lat="47.670628" lon="11.853721"><ele>1369.3</ele></trkpt><trkpt lat="47.670497" lon="11.853787"><ele>1369.5</ele></trkpt><trkpt lat="47.670328" lon="11.853819"><ele>1370.2</ele></trkpt><trkpt lat="47.670263" lon="11.853867"><ele>1370.6</ele></trkpt><trkpt lat="47.670213" lon="11.853984"><ele>1366</ele></trkpt><trkpt lat="47.670194" lon="11.853899"><ele>1366</ele></trkpt><trkpt lat="47.670213" lon="11.853984"><ele>1366</ele></trkpt><trkpt lat="47.670261" lon="11.854154"><ele>1366</ele></trkpt><trkpt lat="47.670454" lon="11.854366"><ele>1364</ele></trkpt><trkpt lat="47.67056" lon="11.854673"><ele>1364.3</ele></trkpt><trkpt lat="47.670556" lon="11.85507"><ele>1364.5</ele></trkpt><trkpt lat="47.670746" lon="11.855513"><ele>1365.5</ele></trkpt><trkpt lat="47.670876" lon="11.85567"><ele>1366</ele></trkpt><trkpt lat="47.670961" lon="11.855849"><ele>1365.3</ele></trkpt><trkpt lat="47.671059" lon="11.856158"><ele>1365.3</ele></trkpt><trkpt lat="47.671307" lon="11.856661"><ele>1366</ele></trkpt><trkpt lat="47.671362" lon="11.856821"><ele>1358</ele></trkpt><trkpt lat="47.671394" lon="11.856964"><ele>1358</ele></trkpt><trkpt lat="47.671389" lon="11.857166"><ele>1356</ele></trkpt><trkpt lat="47.671186" lon="11.859081"><ele>1356.6</ele></trkpt><trkpt lat="47.671145" lon="11.859975"><ele>1359.8</ele></trkpt><trkpt lat="47.671084" lon="11.860763"><ele>1360.5</ele></trkpt><trkpt lat="47.671047" lon="11.861065"><ele>1359.9</ele></trkpt><trkpt lat="47.671053" lon="11.861225"><ele>1359.9</ele></trkpt><trkpt lat="47.671161" lon="11.861772"><ele>1357</ele></trkpt><trkpt lat="47.671224" lon="11.862252"><ele>1354.6</ele></trkpt><trkpt lat="47.671427" lon="11.862861"><ele>1349.9</ele></trkpt><trkpt lat="47.671513" lon="11.863208"><ele>1346.2</ele></trkpt><trkpt lat="47.671554" lon="11.863492"><ele>1340.3</ele></trkpt><trkpt lat="47.671623" lon="11.864788"><ele>1325.7</ele></trkpt><trkpt lat="47.671599" lon="11.865267"><ele>1317.6</ele></trkpt><trkpt lat="47.671502" lon="11.865916"><ele>1310.5</ele></trkpt><trkpt lat="47.671498" lon="11.866214"><ele>1309.7</ele></trkpt><trkpt lat="47.671523" lon="11.866554"><ele>1308.7</ele></trkpt><trkpt lat="47.671528" lon="11.867154"><ele>1305.8</ele></trkpt><trkpt lat="47.671515" lon="11.867554"><ele>1304.6</ele></trkpt><trkpt lat="47.671424" lon="11.86806"><ele>1302.7</ele></trkpt><trkpt lat="47.671371" lon="11.86846"><ele>1301</ele></trkpt><trkpt lat="47.671416" lon="11.869003"><ele>1299.5</ele></trkpt><trkpt lat="47.671263" lon="11.869732"><ele>1297.7</ele></trkpt><trkpt lat="47.671054" lon="11.870127"><ele>1297.6</ele></trkpt><trkpt lat="47.670884" lon="11.870558"><ele>1295</ele></trkpt><trkpt lat="47.670794" lon="11.871326"><ele>1267.2</ele></trkpt><trkpt lat="47.670701" lon="11.871797"><ele>1264.5</ele></trkpt><trkpt lat="47.670597" lon="11.872931"><ele>1252.5</ele></trkpt><trkpt lat="47.670613" lon="11.873483"><ele>1248.8</ele></trkpt><trkpt lat="47.670584" lon="11.873984"><ele>1248.8</ele></trkpt><trkpt lat="47.670629" lon="11.874575"><ele>1247.8</ele></trkpt><trkpt lat="47.670606" lon="11.874898"><ele>1249.2</ele></trkpt><trkpt lat="47.670701" lon="11.875442"><ele>1249.9</ele></trkpt><trkpt lat="47.670909" lon="11.875788"><ele>1250.2</ele></trkpt><trkpt lat="47.671117" lon="11.876226"><ele>1245.4</ele></trkpt><trkpt lat="47.671226" lon="11.876662"><ele>1240.8</ele></trkpt><trkpt lat="47.671423" lon="11.877186"><ele>1235.9</ele></trkpt><trkpt lat="47.671743" lon="11.878444"><ele>1224.1</ele></trkpt><trkpt lat="47.671764" lon="11.879177"><ele>1213.4</ele></trkpt><trkpt lat="47.67174" lon="11.879967"><ele>1207.1</ele></trkpt><trkpt lat="47.671814" lon="11.88128"><ele>1194</ele></trkpt><trkpt lat="47.67183" lon="11.881608"><ele>1175.8</ele></trkpt><trkpt lat="47.6719" lon="11.882204"><ele>1167.5</ele></trkpt><trkpt lat="47.672051" lon="11.883134"><ele>1162.4</ele></trkpt><trkpt lat="47.672093" lon="11.883708"><ele>1154.5</ele></trkpt><trkpt lat="47.67212" lon="11.884579"><ele>1141.5</ele></trkpt><trkpt lat="47.672308" lon="11.886157"><ele>1131.1</ele></trkpt><trkpt lat="47.672403" lon="11.886418"><ele>1131.8</ele></trkpt><trkpt lat="47.672493" lon="11.886524"><ele>1129</ele></trkpt><trkpt lat="47.672524" lon="11.886557"><ele>1148</ele></trkpt><trkpt lat="47.672564" lon="11.886665"><ele>1141.5</ele></trkpt><trkpt lat="47.672574" lon="11.886693"><ele>1135</ele></trkpt><trkpt lat="47.672425" lon="11.886596"><ele>1131.2</ele></trkpt><trkpt lat="47.672323" lon="11.886448"><ele>1129</ele></trkpt><trkpt lat="47.672171" lon="11.886114"><ele>1129</ele></trkpt><trkpt lat="47.672072" lon="11.885798"><ele>1130.4</ele></trkpt><trkpt lat="47.671917" lon="11.88551"><ele>1130.5</ele></trkpt><trkpt lat="47.671702" lon="11.885353"><ele>1131</ele></trkpt><trkpt lat="47.671389" lon="11.885097"><ele>1123</ele></trkpt><trkpt lat="47.671052" lon="11.884716"><ele>1113.1</ele></trkpt><trkpt lat="47.670503" lon="11.884261"><ele>1111.4</ele></trkpt><trkpt lat="47.670354" lon="11.8842"><ele>1111.5</ele></trkpt><trkpt lat="47.670159" lon="11.884186"><ele>1110.5</ele></trkpt><trkpt lat="47.669998" lon="11.8842"><ele>1108.9</ele></trkpt><trkpt lat="47.669729" lon="11.884288"><ele>1107.1</ele></trkpt><trkpt lat="47.66942" lon="11.884449"><ele>1099</ele></trkpt><trkpt lat="47.669345" lon="11.884528"><ele>1099</ele></trkpt><trkpt lat="47.669291" lon="11.884632"><ele>1099</ele></trkpt><trkpt lat="47.669252" lon="11.884903"><ele>1095</ele></trkpt><trkpt lat="47.668478" lon="11.886385"><ele>1089.2</ele></trkpt><trkpt lat="47.668351" lon="11.886553"><ele>1088.8</ele></trkpt><trkpt lat="47.668294" lon="11.886599"><ele>1088.7</ele></trkpt><trkpt lat="47.667951" lon="11.8867"><ele>1088.6</ele></trkpt><trkpt lat="47.667821" lon="11.886808"><ele>1088.5</ele></trkpt><trkpt lat="47.667762" lon="11.886915"><ele>1088.4</ele></trkpt><trkpt lat="47.667638" lon="11.887258"><ele>1088.3</ele></trkpt><trkpt lat="47.667607" lon="11.88739"><ele>1088.2</ele></trkpt><trkpt lat="47.667566" lon="11.887601"><ele>1088.4</ele></trkpt><trkpt lat="47.667532" lon="11.888039"><ele>1089.3</ele></trkpt><trkpt lat="47.667477" lon="11.888191"><ele>1089.3</ele></trkpt><trkpt lat="47.667443" lon="11.888219"><ele>1089.4</ele></trkpt><trkpt lat="47.667297" lon="11.888228"><ele>1089.4</ele></trkpt><trkpt lat="47.667232" lon="11.888263"><ele>1089.5</ele></trkpt><trkpt lat="47.667113" lon="11.88825"><ele>1089.5</ele></trkpt><trkpt lat="47.666794" lon="11.888151"><ele>1089.7</ele></trkpt><trkpt lat="47.666359" lon="11.888147"><ele>1089.9</ele></trkpt><trkpt lat="47.666145" lon="11.888106"><ele>1085</ele></trkpt><trkpt lat="47.666022" lon="11.888063"><ele>1095.8</ele></trkpt><trkpt lat="47.665431" lon="11.887614"><ele>1098.2</ele></trkpt><trkpt lat="47.665379" lon="11.887601"><ele>1099.1</ele></trkpt><trkpt lat="47.665311" lon="11.887633"><ele>1100</ele></trkpt><trkpt lat="47.665241" lon="11.887631"><ele>1106</ele></trkpt><trkpt lat="47.665241" lon="11.887406"><ele>1093.4</ele></trkpt><trkpt lat="47.665188" lon="11.88704"><ele>1093.4</ele></trkpt><trkpt lat="47.665067" lon="11.886711"><ele>1093.3</ele></trkpt><trkpt lat="47.664953" lon="11.886579"><ele>1092.4</ele></trkpt><trkpt lat="47.664712" lon="11.886604"><ele>1091.6</ele></trkpt><trkpt lat="47.664571" lon="11.886677"><ele>1091.6</ele></trkpt><trkpt lat="47.664482" lon="11.886825"><ele>1091.6</ele></trkpt><trkpt lat="47.664351" lon="11.887126"><ele>1091.6</ele></trkpt><trkpt lat="47.664252" lon="11.887459"><ele>1092</ele></trkpt><trkpt lat="47.664147" lon="11.887787"><ele>1092.1</ele></trkpt><trkpt lat="47.663957" lon="11.887891"><ele>1089</ele></trkpt><trkpt lat="47.663773" lon="11.887853"><ele>1089</ele></trkpt><trkpt lat="47.663596" lon="11.887764"><ele>1089</ele></trkpt><trkpt lat="47.663407" lon="11.887654"><ele>1089</ele></trkpt><trkpt lat="47.663048" lon="11.887453"><ele>1086</ele></trkpt><trkpt lat="47.661723" lon="11.886691"><ele>1086</ele></trkpt><trkpt lat="47.661461" lon="11.886567"><ele>1087</ele></trkpt><trkpt lat="47.661395" lon="11.886593"><ele>1088</ele></trkpt><trkpt lat="47.661403" lon="11.886616"><ele>1091.1</ele></trkpt><trkpt lat="47.661473" lon="11.886826"><ele>1094.2</ele></trkpt><trkpt lat="47.661516" lon="11.887335"><ele>1096</ele></trkpt><trkpt lat="47.661549" lon="11.88755"><ele>1111</ele></trkpt><trkpt lat="47.661536" lon="11.887634"><ele>1107.3</ele></trkpt><trkpt lat="47.661539" lon="11.88786"><ele>1106</ele></trkpt><trkpt lat="47.661568" lon="11.887887"><ele>1105.2</ele></trkpt><trkpt lat="47.661883" lon="11.887976"><ele>1089</ele></trkpt></trkseg></trk></gpx>