<gpx xmlns="http://www.topografix.com/GPX/1/1" xmlns:xsi="http://www.w3.org/2001/XMLSchema-instance" xsi:schemaLocation="http://www.topografix.com/GPX/1/1 http://www.topografix.com/GPX/1/1/gpx.xsd" version="1.1" creator="togpx"><metadata/><wpt lat="47.74097381060531" lon="12.10697650909424"><name></name><desc>label=Bahnhof Brannenburg, Brannenburg,BY,Germany</desc></wpt><wpt lat="47.73676912039502" lon="12.10467517375946"><name></name><desc>label=Kirchenstraße 2, Brannenburg,BY,Germany</desc></wpt><wpt lat="47.73376015037094" lon="12.096360325813295"><name></name><desc>label=Mühlenstraße 27, Brannenburg,BY,Germany</desc></wpt><wpt lat="47.73466213805136" lon="12.085400819778444"><name></name><desc>label=Kirchbach, Brannenburg,BY,Germany</desc></wpt><wpt lat="47.739034752848795" lon="12.077429294586183"><name></name><desc>label=Dorfgraben, Brannenburg,BY,Germany</desc></wpt><wpt lat="47.736949508756744" lon="12.06653952598572"><name></name><desc>label=Hörndlbruck, Brannenburg,BY,Germany</desc></wpt><wpt lat="47.73777928717129" lon="12.055478096008303"><name></name><desc>label=Kirchbach, Brannenburg,BY,Germany</desc></wpt><wpt lat="47.735369285466554" lon="12.047967910766602"><name></name><desc>label=Zwieselbach, Brannenburg,BY,Germany</desc></wpt><wpt lat="47.729787610706225" lon="12.043676376342775"><name></name><desc>label=Zwieselbach, Brannenburg,BY,Germany</desc></wpt><wpt lat="47.727647870230314" lon="12.040597200393677"><name></name><desc>label=Rampoldalpe, Brannenburg,BY,Germany</desc></wpt><wpt lat="47.723922058354596" lon="12.04354763031006"><name></name><desc>label=Rampoldplatte, Brannenburg,BY,Germany</desc></wpt><wpt lat="47.727010982775056" lon="12.043459117412569"><name></name><desc>label=Rampoldalm, Brannenburg,BY,Germany</desc></wpt><wpt lat="47.72093399922945" lon="12.044786810874939"><name></name><desc>label=Lechneralm, Brannenburg,BY,Germany</desc></wpt><wpt lat="47.72131112483764" lon="12.049984931945803"><name></name><desc>label=Kirchbach, Brannenburg,BY,Germany</desc></wpt><wpt lat="47.72076257759598" lon="12.049469947814943"><name></name><desc>label=Kirchbach, Brannenburg,BY,Germany</desc></wpt><wpt lat="47.7227690775868" lon="12.066593170166016"><name></name><desc>label=Hubert-Stürzl-Steig, Brannenburg,BY,Germany</desc></wpt><wpt lat="47.72256337880489" lon="12.068095207214357"><name></name><desc>label=Hubert-Stürzl-Steig, Brannenburg,BY,Germany</desc></wpt><wpt lat="47.72799427600125" lon="12.072558403015138"><name></name><desc>label=Thannbach, Brannenburg,BY,Germany</desc></wpt><wpt lat="47.73273727743662" lon="12.0826917886734"><name></name><desc>label=Kirchbach, Brannenburg,BY,Germany</desc></wpt><wpt lat="47.729646888485156" lon="12.087053060531616"><name></name><desc>label=Höf, Brannenburg,BY,Germany</desc></wpt><wpt lat="47.73217261410579" lon="12.094584703445436"><name></name><desc>label=Thann 14, Brannenburg,BY,Germany</desc></wpt><wpt lat="47.73412816323143" lon="12.098811864852907"><name></name><desc>label=Brandl, Brannenburg,BY,Germany</desc></wpt><wpt lat="47.73798853355323" lon="12.10649371147156"><name></name><desc>label=Psychotherapie Barbara Sachse, Brannenburg,BY,Germany</desc></wpt><wpt lat="47.741004474194405" lon="12.107126712799074"><name></name><desc>label=Bahnhof Brannenburg, Brannenburg,BY,Germany</desc></wpt><trk><name></name><desc>ascent=1166.9
descent=1166.9
opacity=0.9</desc><trkseg><trkpt lat="47.740974" lon="12.106976"><ele>473</ele></trkpt><trkpt lat="47.740951" lon="12.106939"><ele>473</ele></trkpt><trkpt lat="47.740933" lon="12.106913"><ele>473</ele></trkpt><trkpt lat="47.740818" lon="12.106743"><ele>475</ele></trkpt><trkpt lat="47.740776" lon="12.106682"><ele>475</ele></trkpt><trkpt lat="47.740667" lon="12.106845"><ele>475</ele></trkpt><trkpt lat="47.740545" lon="12.107028"><ele>475</ele></trkpt><trkpt lat="47.740426" lon="12.106853"><ele>475</ele></trkpt><trkpt lat="47.740328" lon="12.107019"><ele>475</ele></trkpt><trkpt lat="47.740202" lon="12.107178"><ele>475</ele></trkpt><trkpt lat="47.739884" lon="12.107022"><ele>476</ele></trkpt><trkpt lat="47.73972" lon="12.106874"><ele>477</ele></trkpt><trkpt lat="47.739578" lon="12.10677"><ele>476.4</ele></trkpt><trkpt lat="47.739218" lon="12.106618"><ele>475</ele></trkpt><trkpt lat="47.738917" lon="12.106534"><ele>477</ele></trkpt><trkpt lat="47.738488" lon="12.106443"><ele>477</ele></trkpt><trkpt lat="47.738236" lon="12.106387"><ele>478</ele></trkpt><trkpt lat="47.737887" lon="12.106255"><ele>478</ele></trkpt><trkpt lat="47.737632" lon="12.106053"><ele>478</ele></trkpt><trkpt lat="47.737537" lon="12.105945"><ele>478</ele></trkpt><trkpt lat="47.737145" lon="12.105452"><ele>481</ele></trkpt><trkpt lat="47.736937" lon="12.105155"><ele>481</ele></trkpt><trkpt lat="47.736829" lon="12.104836"><ele>485</ele></trkpt><trkpt lat="47.736763" lon="12.104681"><ele>488</ele></trkpt><trkpt lat="47.736509" lon="12.104087"><ele>491</ele></trkpt><trkpt lat="47.73634" lon="12.103648"><ele>494</ele></trkpt><trkpt lat="47.735224" lon="12.101031"><ele>496</ele></trkpt><trkpt lat="47.734679" lon="12.099715"><ele>501</ele></trkpt><trkpt lat="47.734376" lon="12.098928"><ele>507</ele></trkpt><trkpt lat="47.734355" lon="12.098866"><ele>507</ele></trkpt><trkpt lat="47.734104" lon="12.098122"><ele>510</ele></trkpt><trkpt lat="47.733979" lon="12.097779"><ele>507.6</ele></trkpt><trkpt lat="47.733871" lon="12.097261"><ele>507.1</ele></trkpt><trkpt lat="47.733793" lon="12.097042"><ele>507.3</ele></trkpt><trkpt lat="47.733766" lon="12.09684"><ele>506</ele></trkpt><trkpt lat="47.733753" lon="12.096503"><ele>509.6</ele></trkpt><trkpt lat="47.733766" lon="12.096361"><ele>510.6</ele></trkpt><trkpt lat="47.733783" lon="12.096165"><ele>511.6</ele></trkpt><trkpt lat="47.733861" lon="12.095765"><ele>513.3</ele></trkpt><trkpt lat="47.734017" lon="12.09528"><ele>514.6</ele></trkpt><trkpt lat="47.734307" lon="12.094273"><ele>517.6</ele></trkpt><trkpt lat="47.734359" lon="12.093901"><ele>522</ele></trkpt><trkpt lat="47.73439" lon="12.093648"><ele>522</ele></trkpt><trkpt lat="47.734392" lon="12.092855"><ele>528.2</ele></trkpt><trkpt lat="47.734232" lon="12.092118"><ele>530</ele></trkpt><trkpt lat="47.734085" lon="12.091582"><ele>531.7</ele></trkpt><trkpt lat="47.733958" lon="12.091192"><ele>531.7</ele></trkpt><trkpt lat="47.73384" lon="12.090969"><ele>532.3</ele></trkpt><trkpt lat="47.733732" lon="12.090568"><ele>532.5</ele></trkpt><trkpt lat="47.733683" lon="12.090338"><ele>532.3</ele></trkpt><trkpt lat="47.733669" lon="12.090069"><ele>534</ele></trkpt><trkpt lat="47.733593" lon="12.089295"><ele>556.3</ele></trkpt><trkpt lat="47.733667" lon="12.089045"><ele>559.7</ele></trkpt><trkpt lat="47.733788" lon="12.08885"><ele>562.8</ele></trkpt><trkpt lat="47.733827" lon="12.088685"><ele>565.5</ele></trkpt><trkpt lat="47.73382" lon="12.088433"><ele>568</ele></trkpt><trkpt lat="47.73372" lon="12.08811"><ele>569.8</ele></trkpt><trkpt lat="47.733729" lon="12.088045"><ele>571.2</ele></trkpt><trkpt lat="47.733807" lon="12.087879"><ele>571.2</ele></trkpt><trkpt lat="47.734048" lon="12.087659"><ele>572.1</ele></trkpt><trkpt lat="47.734131" lon="12.087519"><ele>573</ele></trkpt><trkpt lat="47.734161" lon="12.08735"><ele>573.8</ele></trkpt><trkpt lat="47.734161" lon="12.087175"><ele>574.7</ele></trkpt><trkpt lat="47.73412" lon="12.086899"><ele>574</ele></trkpt><trkpt lat="47.734117" lon="12.086727"><ele>573.2</ele></trkpt><trkpt lat="47.734237" lon="12.086346"><ele>574</ele></trkpt><trkpt lat="47.734362" lon="12.086457"><ele>574</ele></trkpt><trkpt lat="47.73451" lon="12.086534"><ele>574</ele></trkpt><trkpt lat="47.734664" lon="12.085401"><ele>580.5</ele></trkpt><trkpt lat="47.73468" lon="12.085282"><ele>587</ele></trkpt><trkpt lat="47.73483" lon="12.084888"><ele>598</ele></trkpt><trkpt lat="47.735387" lon="12.083995"><ele>596.1</ele></trkpt><trkpt lat="47.735665" lon="12.083469"><ele>595.5</ele></trkpt><trkpt lat="47.735849" lon="12.083255"><ele>595.6</ele></trkpt><trkpt lat="47.736004" lon="12.083164"><ele>596.2</ele></trkpt><trkpt lat="47.736458" lon="12.083039"><ele>599</ele></trkpt><trkpt lat="47.736595" lon="12.082983"><ele>599</ele></trkpt><trkpt lat="47.736986" lon="12.082638"><ele>606.3</ele></trkpt><trkpt lat="47.737376" lon="12.082107"><ele>606</ele></trkpt><trkpt lat="47.737735" lon="12.081376"><ele>620</ele></trkpt><trkpt lat="47.737855" lon="12.081126"><ele>620.7</ele></trkpt><trkpt lat="47.738001" lon="12.080512"><ele>622</ele></trkpt><trkpt lat="47.738106" lon="12.079931"><ele>632.2</ele></trkpt><trkpt lat="47.738206" lon="12.079482"><ele>631.6</ele></trkpt><trkpt lat="47.738319" lon="12.079188"><ele>631.2</ele></trkpt><trkpt lat="47.738437" lon="12.078968"><ele>647</ele></trkpt><trkpt lat="47.738984" lon="12.078073"><ele>656.5</ele></trkpt><trkpt lat="47.739056" lon="12.077942"><ele>656.4</ele></trkpt><trkpt lat="47.739086" lon="12.077842"><ele>656.3</ele></trkpt><trkpt lat="47.739091" lon="12.077725"><ele>657.8</ele></trkpt><trkpt lat="47.739057" lon="12.077424"><ele>658.5</ele></trkpt><trkpt lat="47.73901" lon="12.076995"><ele>659.3</ele></trkpt><trkpt lat="47.738996" lon="12.076301"><ele>659.8</ele></trkpt><trkpt lat="47.739013" lon="12.075829"><ele>674</ele></trkpt><trkpt lat="47.739079" lon="12.075529"><ele>674</ele></trkpt><trkpt lat="47.739248" lon="12.07483"><ele>691</ele></trkpt><trkpt lat="47.739196" lon="12.073625"><ele>707</ele></trkpt><trkpt lat="47.739156" lon="12.07333"><ele>704.2</ele></trkpt><trkpt lat="47.739104" lon="12.073119"><ele>704</ele></trkpt><trkpt lat="47.738973" lon="12.072756"><ele>703</ele></trkpt><trkpt lat="47.738907" lon="12.072666"><ele>703</ele></trkpt><trkpt lat="47.738836" lon="12.072585"><ele>703</ele></trkpt><trkpt lat="47.738655" lon="12.072354"><ele>707</ele></trkpt><trkpt lat="47.738598" lon="12.07228"><ele>707</ele></trkpt><trkpt lat="47.738492" lon="12.072157"><ele>711.5</ele></trkpt><trkpt lat="47.738226" lon="12.071769"><ele>722</ele></trkpt><trkpt lat="47.738113" lon="12.071456"><ele>736.8</ele></trkpt><trkpt lat="47.73796" lon="12.070925"><ele>736.6</ele></trkpt><trkpt lat="47.737889" lon="12.070463"><ele>737.5</ele></trkpt><trkpt lat="47.737799" lon="12.07"><ele>740</ele></trkpt><trkpt lat="47.737767" lon="12.069675"><ele>744.2</ele></trkpt><trkpt lat="47.737712" lon="12.069403"><ele>746.3</ele></trkpt><trkpt lat="47.737669" lon="12.069307"><ele>748.5</ele></trkpt><trkpt lat="47.737337" lon="12.068858"><ele>752</ele></trkpt><trkpt lat="47.737186" lon="12.068379"><ele>755.9</ele></trkpt><trkpt lat="47.737072" lon="12.06815"><ele>759.2</ele></trkpt><trkpt lat="47.736997" lon="12.067841"><ele>763.7</ele></trkpt><trkpt lat="47.736976" lon="12.067678"><ele>771</ele></trkpt><trkpt lat="47.7369" lon="12.067136"><ele>788.4</ele></trkpt><trkpt lat="47.736903" lon="12.066824"><ele>788</ele></trkpt><trkpt lat="47.736953" lon="12.066541"><ele>788.9</ele></trkpt><trkpt lat="47.736962" lon="12.066492"><ele>789.8</ele></trkpt><trkpt lat="47.737018" lon="12.066411"><ele>790.6</ele></trkpt><trkpt lat="47.737131" lon="12.066319"><ele>791.3</ele></trkpt><trkpt lat="47.737257" lon="12.066345"><ele>792</ele></trkpt><trkpt lat="47.737382" lon="12.06647"><ele>792.7</ele></trkpt><trkpt lat="47.737485" lon="12.066714"><ele>792.5</ele></trkpt><trkpt lat="47.737577" lon="12.066756"><ele>793</ele></trkpt><trkpt lat="47.737868" lon="12.066459"><ele>797.4</ele></trkpt><trkpt lat="47.737986" lon="12.066313"><ele>797.9</ele></trkpt><trkpt lat="47.738035" lon="12.066134"><ele>798.3</ele></trkpt><trkpt lat="47.738005" lon="12.065915"><ele>801</ele></trkpt><trkpt lat="47.73795" lon="12.065493"><ele>810</ele></trkpt><trkpt lat="47.737916" lon="12.065081"><ele>819</ele></trkpt><trkpt lat="47.737774" lon="12.063861"><ele>841</ele></trkpt><trkpt lat="47.737798" lon="12.063686"><ele>841</ele></trkpt><trkpt lat="47.737849" lon="12.063513"><ele>841</ele></trkpt><trkpt lat="47.737899" lon="12.063485"><ele>841</ele></trkpt><trkpt lat="47.738037" lon="12.063426"><ele>841</ele></trkpt><trkpt lat="47.738069" lon="12.063353"><ele>850.4</ele></trkpt><trkpt lat="47.738098" lon="12.063218"><ele>850.9</ele></trkpt><trkpt lat="47.738128" lon="12.062659"><ele>851.9</ele></trkpt><trkpt lat="47.738176" lon="12.062376"><ele>852.5</ele></trkpt><trkpt lat="47.738156" lon="12.062082"><ele>853.1</ele></trkpt><trkpt lat="47.738174" lon="12.061914"><ele>858</ele></trkpt><trkpt lat="47.738314" lon="12.06135"><ele>860.7</ele></trkpt><trkpt lat="47.738292" lon="12.060834"><ele>862</ele></trkpt><trkpt lat="47.738299" lon="12.060566"><ele>857.7</ele></trkpt><trkpt lat="47.738436" lon="12.060254"><ele>856.7</ele></trkpt><trkpt lat="47.738472" lon="12.060071"><ele>855.3</ele></trkpt><trkpt lat="47.73847" lon="12.059961"><ele>854.9</ele></trkpt><trkpt lat="47.738448" lon="12.059877"><ele>854.5</ele></trkpt><trkpt lat="47.7384" lon="12.059799"><ele>850</ele></trkpt><trkpt lat="47.738377" lon="12.059519"><ele>857.2</ele></trkpt><trkpt lat="47.738225" lon="12.058573"><ele>859.9</ele></trkpt><trkpt lat="47.738154" lon="12.057853"><ele>862</ele></trkpt><trkpt lat="47.738073" lon="12.057337"><ele>874</ele></trkpt><trkpt lat="47.738037" lon="12.056769"><ele>879.6</ele></trkpt><trkpt lat="47.737942" lon="12.056056"><ele>880.1</ele></trkpt><trkpt lat="47.737761" lon="12.055624"><ele>881.1</ele></trkpt><trkpt lat="47.737744" lon="12.055488"><ele>882.5</ele></trkpt><trkpt lat="47.737683" lon="12.055018"><ele>884</ele></trkpt><trkpt lat="47.737612" lon="12.054872"><ele>884.3</ele></trkpt><trkpt lat="47.73748" lon="12.054485"><ele>887.2</ele></trkpt><trkpt lat="47.737332" lon="12.054242"><ele>890.2</ele></trkpt><trkpt lat="47.737133" lon="12.053832"><ele>902</ele></trkpt><trkpt lat="47.737049" lon="12.053426"><ele>910</ele></trkpt><trkpt lat="47.737013" lon="12.053104"><ele>912.4</ele></trkpt><trkpt lat="47.737071" lon="12.052961"><ele>913.3</ele></trkpt><trkpt lat="47.737107" lon="12.052795"><ele>919</ele></trkpt><trkpt lat="47.73695" lon="12.052525"><ele>931.6</ele></trkpt><trkpt lat="47.736672" lon="12.052152"><ele>934.1</ele></trkpt><trkpt lat="47.735988" lon="12.051522"><ele>935.4</ele></trkpt><trkpt lat="47.73588" lon="12.051332"><ele>936</ele></trkpt><trkpt lat="47.73579" lon="12.050926"><ele>937.6</ele></trkpt><trkpt lat="47.735744" lon="12.050481"><ele>939.8</ele></trkpt><trkpt lat="47.735762" lon="12.050287"><ele>943.5</ele></trkpt><trkpt lat="47.735783" lon="12.050203"><ele>956</ele></trkpt><trkpt lat="47.735891" lon="12.049496"><ele>969.7</ele></trkpt><trkpt lat="47.735763" lon="12.049089"><ele>973.2</ele></trkpt><trkpt lat="47.735634" lon="12.048567"><ele>977</ele></trkpt><trkpt lat="47.73542" lon="12.048109"><ele>985.6</ele></trkpt><trkpt lat="47.735351" lon="12.047992"><ele>989.6</ele></trkpt><trkpt lat="47.73518" lon="12.047702"><ele>993.5</ele></trkpt><trkpt lat="47.734847" lon="12.047396"><ele>1006.9</ele></trkpt><trkpt lat="47.734581" lon="12.047294"><ele>1013.6</ele></trkpt><trkpt lat="47.734256" lon="12.046913"><ele>1018.4</ele></trkpt><trkpt lat="47.733965" lon="12.04662"><ele>1053</ele></trkpt><trkpt lat="47.733546" lon="12.046085"><ele>1065.4</ele></trkpt><trkpt lat="47.733195" lon="12.045856"><ele>1071.1</ele></trkpt><trkpt lat="47.732441" lon="12.045882"><ele>1094.9</ele></trkpt><trkpt lat="47.731984" lon="12.046126"><ele>1101.7</ele></trkpt><trkpt lat="47.731686" lon="12.04631"><ele>1106.5</ele></trkpt><trkpt lat="47.731609" lon="12.046328"><ele>1109.9</ele></trkpt><trkpt lat="47.731458" lon="12.046231"><ele>1111.9</ele></trkpt><trkpt lat="47.731368" lon="12.046218"><ele>1112.9</ele></trkpt><trkpt lat="47.731305" lon="12.046185"><ele>1113.5</ele></trkpt><trkpt lat="47.73121" lon="12.046102"><ele>1114</ele></trkpt><trkpt lat="47.731192" lon="12.04605"><ele>1114.6</ele></trkpt><trkpt lat="47.731215" lon="12.045956"><ele>1115.3</ele></trkpt><trkpt lat="47.731172" lon="12.045668"><ele>1115.9</ele></trkpt><trkpt lat="47.731185" lon="12.045502"><ele>1116</ele></trkpt><trkpt lat="47.731146" lon="12.045456"><ele>1116</ele></trkpt><trkpt lat="47.731073" lon="12.045457"><ele>1116.9</ele></trkpt><trkpt lat="47.731037" lon="12.045428"><ele>1117</ele></trkpt><trkpt lat="47.730957" lon="12.045145"><ele>1117.2</ele></trkpt><trkpt lat="47.730709" lon="12.044759"><ele>1136</ele></trkpt><trkpt lat="47.730686" lon="12.044697"><ele>1145.6</ele></trkpt><trkpt lat="47.730683" lon="12.044624"><ele>1146.2</ele></trkpt><trkpt lat="47.730605" lon="12.044509"><ele>1147.5</ele></trkpt><trkpt lat="47.730659" lon="12.044387"><ele>1148.3</ele></trkpt><trkpt lat="47.730692" lon="12.044362"><ele>1149</ele></trkpt><trkpt lat="47.730706" lon="12.044292"><ele>1149.8</ele></trkpt><trkpt lat="47.730636" lon="12.044057"><ele>1151.2</ele></trkpt><trkpt lat="47.730661" lon="12.043863"><ele>1150.4</ele></trkpt><trkpt lat="47.730638" lon="12.043787"><ele>1149.9</ele></trkpt><trkpt lat="47.730576" lon="12.043687"><ele>1158</ele></trkpt><trkpt lat="47.730232" lon="12.043702"><ele>1160.3</ele></trkpt><trkpt lat="47.730065" lon="12.043775"><ele>1160.5</ele></trkpt><trkpt lat="47.729916" lon="12.04387"><ele>1170</ele></trkpt><trkpt lat="47.729897" lon="12.043882"><ele>1170</ele></trkpt><trkpt lat="47.729877" lon="12.043761"><ele>1177.3</ele></trkpt><trkpt lat="47.729777" lon="12.043702"><ele>1176.6</ele></trkpt><trkpt lat="47.729775" lon="12.043679"><ele>1176.4</ele></trkpt><trkpt lat="47.729769" lon="12.04361"><ele>1176.1</ele></trkpt><trkpt lat="47.72972" lon="12.04351"><ele>1175.6</ele></trkpt><trkpt lat="47.729735" lon="12.043432"><ele>1175.1</ele></trkpt><trkpt lat="47.729763" lon="12.043381"><ele>1174.7</ele></trkpt><trkpt lat="47.729761" lon="12.043329"><ele>1176.6</ele></trkpt><trkpt lat="47.729721" lon="12.043255"><ele>1178.3</ele></trkpt><trkpt lat="47.729785" lon="12.043084"><ele>1179.8</ele></trkpt><trkpt lat="47.729855" lon="12.043002"><ele>1197</ele></trkpt><trkpt lat="47.72984" lon="12.042943"><ele>1211.8</ele></trkpt><trkpt lat="47.729852" lon="12.042826"><ele>1210.4</ele></trkpt><trkpt lat="47.729838" lon="12.042778"><ele>1210.2</ele></trkpt><trkpt lat="47.729729" lon="12.042667"><ele>1208.3</ele></trkpt><trkpt lat="47.729647" lon="12.04264"><ele>1208.5</ele></trkpt><trkpt lat="47.72955" lon="12.042762"><ele>1209.7</ele></trkpt><trkpt lat="47.729423" lon="12.042835"><ele>1210.8</ele></trkpt><trkpt lat="47.729188" lon="12.042853"><ele>1211.4</ele></trkpt><trkpt lat="47.729161" lon="12.042822"><ele>1212.8</ele></trkpt><trkpt lat="47.729119" lon="12.042849"><ele>1214</ele></trkpt><trkpt lat="47.729003" lon="12.042865"><ele>1216.8</ele></trkpt><trkpt lat="47.728747" lon="12.042876"><ele>1224.1</ele></trkpt><trkpt lat="47.728643" lon="12.04293"><ele>1227.2</ele></trkpt><trkpt lat="47.728501" lon="12.042956"><ele>1230.1</ele></trkpt><trkpt lat="47.728326" lon="12.043031"><ele>1236</ele></trkpt><trkpt lat="47.728238" lon="12.042997"><ele>1238.4</ele></trkpt><trkpt lat="47.728069" lon="12.04301"><ele>1242.2</ele></trkpt><trkpt lat="47.72792" lon="12.042912"><ele>1243.5</ele></trkpt><trkpt lat="47.727834" lon="12.042891"><ele>1246.2</ele></trkpt><trkpt lat="47.727749" lon="12.042944"><ele>1247.8</ele></trkpt><trkpt lat="47.727643" lon="12.043072"><ele>1248.7</ele></trkpt><trkpt lat="47.727476" lon="12.043135"><ele>1250.3</ele></trkpt><trkpt lat="47.72745" lon="12.043078"><ele>1253.4</ele></trkpt><trkpt lat="47.72739" lon="12.043095"><ele>1255.9</ele></trkpt><trkpt lat="47.727378" lon="12.043081"><ele>1256.5</ele></trkpt><trkpt lat="47.727386" lon="12.04303"><ele>1257.8</ele></trkpt><trkpt lat="47.727226" lon="12.043086"><ele>1260.2</ele></trkpt><trkpt lat="47.727134" lon="12.043055"><ele>1277</ele></trkpt><trkpt lat="47.727044" lon="12.043024"><ele>1277</ele></trkpt><trkpt lat="47.727053" lon="12.042958"><ele>1280.8</ele></trkpt><trkpt lat="47.72709" lon="12.042872"><ele>1280.5</ele></trkpt><trkpt lat="47.727235" lon="12.042654"><ele>1279.9</ele></trkpt><trkpt lat="47.727353" lon="12.042339"><ele>1281.2</ele></trkpt><trkpt lat="47.727393" lon="12.042128"><ele>1282.9</ele></trkpt><trkpt lat="47.727557" lon="12.04162"><ele>1281.9</ele></trkpt><trkpt lat="47.727622" lon="12.04126"><ele>1282.1</ele></trkpt><trkpt lat="47.72778" lon="12.040695"><ele>1287</ele></trkpt><trkpt lat="47.727651" lon="12.040588"><ele>1299.3</ele></trkpt><trkpt lat="47.727647" lon="12.040585"><ele>1311.6</ele></trkpt><trkpt lat="47.727499" lon="12.040522"><ele>1311.8</ele></trkpt><trkpt lat="47.727363" lon="12.040564"><ele>1313.4</ele></trkpt><trkpt lat="47.727321" lon="12.040541"><ele>1314.1</ele></trkpt><trkpt lat="47.727169" lon="12.040527"><ele>1315.3</ele></trkpt><trkpt lat="47.727112" lon="12.04054"><ele>1316.3</ele></trkpt><trkpt lat="47.726941" lon="12.040719"><ele>1318.3</ele></trkpt><trkpt lat="47.726791" lon="12.04092"><ele>1319.6</ele></trkpt><trkpt lat="47.726591" lon="12.041103"><ele>1319.8</ele></trkpt><trkpt lat="47.726408" lon="12.041234"><ele>1321.4</ele></trkpt><trkpt lat="47.726282" lon="12.041284"><ele>1324.9</ele></trkpt><trkpt lat="47.726206" lon="12.041346"><ele>1324.9</ele></trkpt><trkpt lat="47.726073" lon="12.041492"><ele>1325.1</ele></trkpt><trkpt lat="47.725971" lon="12.041569"><ele>1325.1</ele></trkpt><trkpt lat="47.725919" lon="12.041658"><ele>1325.2</ele></trkpt><trkpt lat="47.725883" lon="12.041684"><ele>1325.6</ele></trkpt><trkpt lat="47.725862" lon="12.04175"><ele>1326</ele></trkpt><trkpt lat="47.725793" lon="12.041787"><ele>1327.1</ele></trkpt><trkpt lat="47.725766" lon="12.041838"><ele>1327.9</ele></trkpt><trkpt lat="47.72575" lon="12.041793"><ele>1339</ele></trkpt><trkpt lat="47.725707" lon="12.041849"><ele>1342.5</ele></trkpt><trkpt lat="47.725679" lon="12.041808"><ele>1342.3</ele></trkpt><trkpt lat="47.725656" lon="12.041809"><ele>1342.2</ele></trkpt><trkpt lat="47.725602" lon="12.041953"><ele>1342</ele></trkpt><trkpt lat="47.725539" lon="12.041905"><ele>1341.9</ele></trkpt><trkpt lat="47.725526" lon="12.041996"><ele>1341.7</ele></trkpt><trkpt lat="47.725458" lon="12.041928"><ele>1341.6</ele></trkpt><trkpt lat="47.725365" lon="12.041913"><ele>1341.4</ele></trkpt><trkpt lat="47.725097" lon="12.042012"><ele>1341</ele></trkpt><trkpt lat="47.724969" lon="12.042095"><ele>1340.8</ele></trkpt><trkpt lat="47.72489" lon="12.042183"><ele>1340.7</ele></trkpt><trkpt lat="47.724678" lon="12.042291"><ele>1340.4</ele></trkpt><trkpt lat="47.724647" lon="12.042327"><ele>1340.3</ele></trkpt><trkpt lat="47.724558" lon="12.042518"><ele>1369</ele></trkpt><trkpt lat="47.724476" lon="12.042839"><ele>1382.4</ele></trkpt><trkpt lat="47.724372" lon="12.043109"><ele>1383.2</ele></trkpt><trkpt lat="47.724381" lon="12.043148"><ele>1384.1</ele></trkpt><trkpt lat="47.724339" lon="12.043199"><ele>1385</ele></trkpt><trkpt lat="47.724333" lon="12.043287"><ele>1386</ele></trkpt><trkpt lat="47.724227" lon="12.043393"><ele>1387</ele></trkpt><trkpt lat="47.724183" lon="12.043361"><ele>1386.9</ele></trkpt><trkpt lat="47.724081" lon="12.043413"><ele>1386.5</ele></trkpt><trkpt lat="47.724024" lon="12.043473"><ele>1385.9</ele></trkpt><trkpt lat="47.724025" lon="12.043507"><ele>1385.6</ele></trkpt><trkpt lat="47.723987" lon="12.043516"><ele>1385.2</ele></trkpt><trkpt lat="47.723987" lon="12.04356"><ele>1391</ele></trkpt><trkpt lat="47.723958" lon="12.043562"><ele>1391</ele></trkpt><trkpt lat="47.723936" lon="12.043593"><ele>1391</ele></trkpt><trkpt lat="47.72392" lon="12.04355"><ele>1391</ele></trkpt><trkpt lat="47.723936" lon="12.043593"><ele>1391</ele></trkpt><trkpt lat="47.723958" lon="12.043562"><ele>1391</ele></trkpt><trkpt lat="47.723987" lon="12.04356"><ele>1391</ele></trkpt><trkpt lat="47.723987" lon="12.043516"><ele>1385.2</ele></trkpt><trkpt lat="47.724025" lon="12.043507"><ele>1385.6</ele></trkpt><trkpt lat="47.724024" lon="12.043473"><ele>1385.9</ele></trkpt><trkpt lat="47.724081" lon="12.043413"><ele>1386.5</ele></trkpt><trkpt lat="47.724183" lon="12.043361"><ele>1386.9</ele></trkpt><trkpt lat="47.724227" lon="12.043393"><ele>1387</ele></trkpt><trkpt lat="47.724333" lon="12.043287"><ele>1386</ele></trkpt><trkpt lat="47.724339" lon="12.043199"><ele>1385</ele></trkpt><trkpt lat="47.724381" lon="12.043148"><ele>1384.1</ele></trkpt><trkpt lat="47.724372" lon="12.043109"><ele>1383.2</ele></trkpt><trkpt lat="47.724476" lon="12.042839"><ele>1382.4</ele></trkpt><trkpt lat="47.724558" lon="12.042518"><ele>1369</ele></trkpt><trkpt lat="47.724647" lon="12.042327"><ele>1340.3</ele></trkpt><trkpt lat="47.724678" lon="12.042291"><ele>1340.4</ele></trkpt><trkpt lat="47.72489" lon="12.042183"><ele>1340.7</ele></trkpt><trkpt lat="47.724969" lon="12.042095"><ele>1340.8</ele></trkpt><trkpt lat="47.725097" lon="12.042012"><ele>1341</ele></trkpt><trkpt lat="47.725365" lon="12.041913"><ele>1341.4</ele></trkpt><trkpt lat="47.725458" lon="12.041928"><ele>1341.6</ele></trkpt><trkpt lat="47.725526" lon="12.041996"><ele>1341.7</ele></trkpt><trkpt lat="47.725539" lon="12.041905"><ele>1341.9</ele></trkpt><trkpt lat="47.725602" lon="12.041953"><ele>1342</ele></trkpt><trkpt lat="47.725656" lon="12.041809"><ele>1342.2</ele></trkpt><trkpt lat="47.725679" lon="12.041808"><ele>1342.3</ele></trkpt><trkpt lat="47.725707" lon="12.041849"><ele>1342.5</ele></trkpt><trkpt lat="47.72575" lon="12.041793"><ele>1339</ele></trkpt><trkpt lat="47.725766" lon="12.041838"><ele>1327.9</ele></trkpt><trkpt lat="47.725793" lon="12.041787"><ele>1327.1</ele></trkpt><trkpt lat="47.725862" lon="12.04175"><ele>1326</ele></trkpt><trkpt lat="47.725883" lon="12.041684"><ele>1325.6</ele></trkpt><trkpt lat="47.725919" lon="12.041658"><ele>1325.2</ele></trkpt><trkpt lat="47.725971" lon="12.041569"><ele>1325.1</ele></trkpt><trkpt lat="47.726073" lon="12.041492"><ele>1325.1</ele></trkpt><trkpt lat="47.726206" lon="12.041346"><ele>1324.9</ele></trkpt><trkpt lat="47.726282" lon="12.041284"><ele>1324.9</ele></trkpt><trkpt lat="47.726408" lon="12.041234"><ele>1321.4</ele></trkpt><trkpt lat="47.726591" lon="12.041103"><ele>1319.8</ele></trkpt><trkpt lat="47.726791" lon="12.04092"><ele>1319.6</ele></trkpt><trkpt lat="47.726941" lon="12.040719"><ele>1318.3</ele></trkpt><trkpt lat="47.727112" lon="12.04054"><ele>1316.3</ele></trkpt><trkpt lat="47.727169" lon="12.040527"><ele>1315.3</ele></trkpt><trkpt lat="47.727321" lon="12.040541"><ele>1314.1</ele></trkpt><trkpt lat="47.727363" lon="12.040564"><ele>1313.4</ele></trkpt><trkpt lat="47.727499" lon="12.040522"><ele>1311.8</ele></trkpt><trkpt lat="47.727647" lon="12.040585"><ele>1311.6</ele></trkpt><trkpt lat="47.72778" lon="12.040695"><ele>1287</ele></trkpt><trkpt lat="47.727622" lon="12.04126"><ele>1282.1</ele></trkpt><trkpt lat="47.727557" lon="12.04162"><ele>1281.9</ele></trkpt><trkpt lat="47.727393" lon="12.042128"><ele>1282.9</ele></trkpt><trkpt lat="47.727353" lon="12.042339"><ele>1281.2</ele></trkpt><trkpt lat="47.727235" lon="12.042654"><ele>1279.9</ele></trkpt><trkpt lat="47.72709" lon="12.042872"><ele>1280.5</ele></trkpt><trkpt lat="47.727053" lon="12.042958"><ele>1280.8</ele></trkpt><trkpt lat="47.727044" lon="12.043024"><ele>1277</ele></trkpt><trkpt lat="47.72708" lon="12.043367"><ele>1263</ele></trkpt><trkpt lat="47.727054" lon="12.04346"><ele>1263</ele></trkpt><trkpt lat="47.727011" lon="12.043462"><ele>1275.7</ele></trkpt><trkpt lat="47.727054" lon="12.04346"><ele>1263</ele></trkpt><trkpt lat="47.726903" lon="12.043469"><ele>1288.4</ele></trkpt><trkpt lat="47.726831" lon="12.0435"><ele>1287</ele></trkpt><trkpt lat="47.726711" lon="12.043619"><ele>1287.2</ele></trkpt><trkpt lat="47.726659" lon="12.043701"><ele>1288.9</ele></trkpt><trkpt lat="47.726627" lon="12.043798"><ele>1291</ele></trkpt><trkpt lat="47.726633" lon="12.044019"><ele>1293.1</ele></trkpt><trkpt lat="47.726614" lon="12.044122"><ele>1293.8</ele></trkpt><trkpt lat="47.726477" lon="12.044578"><ele>1296</ele></trkpt><trkpt lat="47.726315" lon="12.044997"><ele>1297.7</ele></trkpt><trkpt lat="47.726266" lon="12.045096"><ele>1298.5</ele></trkpt><trkpt lat="47.726205" lon="12.045172"><ele>1299.1</ele></trkpt><trkpt lat="47.725903" lon="12.04524"><ele>1301.9</ele></trkpt><trkpt lat="47.725825" lon="12.04532"><ele>1302.1</ele></trkpt><trkpt lat="47.725666" lon="12.045381"><ele>1302.6</ele></trkpt><trkpt lat="47.725573" lon="12.04548"><ele>1302.9</ele></trkpt><trkpt lat="47.725439" lon="12.045545"><ele>1304.4</ele></trkpt><trkpt lat="47.72541" lon="12.045601"><ele>1304.8</ele></trkpt><trkpt lat="47.725244" lon="12.045741"><ele>1305.7</ele></trkpt><trkpt lat="47.725146" lon="12.045799"><ele>1306</ele></trkpt><trkpt lat="47.725105" lon="12.04586"><ele>1305.3</ele></trkpt><trkpt lat="47.725031" lon="12.045871"><ele>1304.9</ele></trkpt><trkpt lat="47.724941" lon="12.046037"><ele>1305.4</ele></trkpt><trkpt lat="47.724887" lon="12.046087"><ele>1306.2</ele></trkpt><trkpt lat="47.724832" lon="12.046204"><ele>1307.1</ele></trkpt><trkpt lat="47.724645" lon="12.046398"><ele>1308.2</ele></trkpt><trkpt lat="47.724523" lon="12.046453"><ele>1307.8</ele></trkpt><trkpt lat="47.724395" lon="12.04648"><ele>1307.9</ele></trkpt><trkpt lat="47.724362" lon="12.046517"><ele>1308.1</ele></trkpt><trkpt lat="47.724337" lon="12.046633"><ele>1307.7</ele></trkpt><trkpt lat="47.724283" lon="12.046718"><ele>1306.3</ele></trkpt><trkpt lat="47.724259" lon="12.046718"><ele>1305.7</ele></trkpt><trkpt lat="47.724121" lon="12.04689"><ele>1302.7</ele></trkpt><trkpt lat="47.72403" lon="12.046952"><ele>1300.6</ele></trkpt><trkpt lat="47.723861" lon="12.046991"><ele>1272</ele></trkpt><trkpt lat="47.723835" lon="12.047039"><ele>1279.1</ele></trkpt><trkpt lat="47.723813" lon="12.046996"><ele>1278.6</ele></trkpt><trkpt lat="47.723791" lon="12.046811"><ele>1278.4</ele></trkpt><trkpt lat="47.723677" lon="12.046535"><ele>1279.9</ele></trkpt><trkpt lat="47.723641" lon="12.046398"><ele>1281</ele></trkpt><trkpt lat="47.723589" lon="12.046298"><ele>1281.5</ele></trkpt><trkpt lat="47.723379" lon="12.046055"><ele>1282</ele></trkpt><trkpt lat="47.723236" lon="12.046007"><ele>1280.6</ele></trkpt><trkpt lat="47.72316" lon="12.045928"><ele>1279.7</ele></trkpt><trkpt lat="47.722896" lon="12.045733"><ele>1279.6</ele></trkpt><trkpt lat="47.722786" lon="12.045686"><ele>1281</ele></trkpt><trkpt lat="47.722554" lon="12.045472"><ele>1281</ele></trkpt><trkpt lat="47.722455" lon="12.04547"><ele>1279.5</ele></trkpt><trkpt lat="47.722286" lon="12.045333"><ele>1277.2</ele></trkpt><trkpt lat="47.722241" lon="12.045334"><ele>1276.5</ele></trkpt><trkpt lat="47.72222" lon="12.045301"><ele>1276.3</ele></trkpt><trkpt lat="47.72189" lon="12.045126"><ele>1274.9</ele></trkpt><trkpt lat="47.72186" lon="12.045078"><ele>1274.7</ele></trkpt><trkpt lat="47.721656" lon="12.04492"><ele>1274.2</ele></trkpt><trkpt lat="47.721492" lon="12.044899"><ele>1272.4</ele></trkpt><trkpt lat="47.721418" lon="12.044864"><ele>1271.7</ele></trkpt><trkpt lat="47.721291" lon="12.0449"><ele>1270.5</ele></trkpt><trkpt lat="47.721014" lon="12.044688"><ele>1269.7</ele></trkpt><trkpt lat="47.720973" lon="12.044666"><ele>1270.1</ele></trkpt><trkpt lat="47.720929" lon="12.044671"><ele>1272</ele></trkpt><trkpt lat="47.720909" lon="12.044673"><ele>1272</ele></trkpt><trkpt lat="47.72093" lon="12.044775"><ele>1272</ele></trkpt><trkpt lat="47.720935" lon="12.044785"><ele>1272</ele></trkpt><trkpt lat="47.720974" lon="12.044867"><ele>1272</ele></trkpt><trkpt lat="47.721061" lon="12.045173"><ele>1254</ele></trkpt><trkpt lat="47.721155" lon="12.045724"><ele>1244.1</ele></trkpt><trkpt lat="47.72118" lon="12.045788"><ele>1245</ele></trkpt><trkpt lat="47.721283" lon="12.045894"><ele>1244.2</ele></trkpt><trkpt lat="47.72157" lon="12.04638"><ele>1242.8</ele></trkpt><trkpt lat="47.721788" lon="12.046639"><ele>1243</ele></trkpt><trkpt lat="47.72204" lon="12.047019"><ele>1220</ele></trkpt><trkpt lat="47.72223" lon="12.047263"><ele>1200.2</ele></trkpt><trkpt lat="47.722322" lon="12.047533"><ele>1195.8</ele></trkpt><trkpt lat="47.722439" lon="12.048422"><ele>1194.9</ele></trkpt><trkpt lat="47.722436" lon="12.048688"><ele>1193.8</ele></trkpt><trkpt lat="47.722399" lon="12.048885"><ele>1192.8</ele></trkpt><trkpt lat="47.722269" lon="12.049194"><ele>1187.9</ele></trkpt><trkpt lat="47.722176" lon="12.049311"><ele>1182.5</ele></trkpt><trkpt lat="47.721859" lon="12.049388"><ele>1171</ele></trkpt><trkpt lat="47.721589" lon="12.049679"><ele>1169.7</ele></trkpt><trkpt lat="47.721413" lon="12.049946"><ele>1169</ele></trkpt><trkpt lat="47.721379" lon="12.049994"><ele>1165.3</ele></trkpt><trkpt lat="47.721331" lon="12.050123"><ele>1158</ele></trkpt><trkpt lat="47.721319" lon="12.050037"><ele>1167</ele></trkpt><trkpt lat="47.721325" lon="12.049988"><ele>1167.2</ele></trkpt><trkpt lat="47.721373" lon="12.049553"><ele>1167.4</ele></trkpt><trkpt lat="47.721361" lon="12.04915"><ele>1168</ele></trkpt><trkpt lat="47.72135" lon="12.04899"><ele>1168.5</ele></trkpt><trkpt lat="47.721281" lon="12.04872"><ele>1169.3</ele></trkpt><trkpt lat="47.721262" lon="12.048587"><ele>1169.7</ele></trkpt><trkpt lat="47.721263" lon="12.048454"><ele>1174</ele></trkpt><trkpt lat="47.72126" lon="12.048401"><ele>1182</ele></trkpt><trkpt lat="47.72123" lon="12.048327"><ele>1183.3</ele></trkpt><trkpt lat="47.721199" lon="12.048308"><ele>1184.4</ele></trkpt><trkpt lat="47.721061" lon="12.048301"><ele>1191</ele></trkpt><trkpt lat="47.720916" lon="12.048369"><ele>1182.5</ele></trkpt><trkpt lat="47.720906" lon="12.048424"><ele>1181.8</ele></trkpt><trkpt lat="47.720918" lon="12.048651"><ele>1180.5</ele></trkpt><trkpt lat="47.72089" lon="12.048908"><ele>1179.5</ele></trkpt><trkpt lat="47.720863" lon="12.049017"><ele>1179</ele></trkpt><trkpt lat="47.720801" lon="12.049127"><ele>1181.4</ele></trkpt><trkpt lat="47.720773" lon="12.049245"><ele>1205</ele></trkpt><trkpt lat="47.720761" lon="12.04947"><ele>1200.5</ele></trkpt><trkpt lat="47.720723" lon="12.050167"><ele>1196</ele></trkpt><trkpt lat="47.720611" lon="12.050555"><ele>1187</ele></trkpt><trkpt lat="47.720294" lon="12.051897"><ele>1157</ele></trkpt><trkpt lat="47.720235" lon="12.05216"><ele>1157</ele></trkpt><trkpt lat="47.720133" lon="12.052424"><ele>1155.5</ele></trkpt><trkpt lat="47.719906" lon="12.052718"><ele>1155</ele></trkpt><trkpt lat="47.719805" lon="12.052896"><ele>1153</ele></trkpt><trkpt lat="47.71973" lon="12.053024"><ele>1149</ele></trkpt><trkpt lat="47.719674" lon="12.053168"><ele>1149.6</ele></trkpt><trkpt lat="47.719624" lon="12.053577"><ele>1141</ele></trkpt><trkpt lat="47.719549" lon="12.053709"><ele>1136.2</ele></trkpt><trkpt lat="47.719435" lon="12.053828"><ele>1136.7</ele></trkpt><trkpt lat="47.719358" lon="12.054083"><ele>1136.3</ele></trkpt><trkpt lat="47.719192" lon="12.054484"><ele>1134</ele></trkpt><trkpt lat="47.719152" lon="12.054952"><ele>1134.3</ele></trkpt><trkpt lat="47.719113" lon="12.055128"><ele>1133.4</ele></trkpt><trkpt lat="47.718991" lon="12.055252"><ele>1132.7</ele></trkpt><trkpt lat="47.718692" lon="12.055684"><ele>1128.6</ele></trkpt><trkpt lat="47.718645" lon="12.055901"><ele>1117</ele></trkpt><trkpt lat="47.71864" lon="12.056831"><ele>1111</ele></trkpt><trkpt lat="47.718629" lon="12.057637"><ele>1107.2</ele></trkpt><trkpt lat="47.718669" lon="12.057925"><ele>1106.2</ele></trkpt><trkpt lat="47.718758" lon="12.058284"><ele>1106.3</ele></trkpt><trkpt lat="47.718824" lon="12.058995"><ele>1105.5</ele></trkpt><trkpt lat="47.718921" lon="12.059357"><ele>1103.7</ele></trkpt><trkpt lat="47.718974" lon="12.059721"><ele>1098</ele></trkpt><trkpt lat="47.719008" lon="12.059922"><ele>1096.2</ele></trkpt><trkpt lat="47.719072" lon="12.060069"><ele>1096</ele></trkpt><trkpt lat="47.719172" lon="12.060142"><ele>1095.8</ele></trkpt><trkpt lat="47.719433" lon="12.0602"><ele>1095.5</ele></trkpt><trkpt lat="47.719684" lon="12.060317"><ele>1094</ele></trkpt><trkpt lat="47.720013" lon="12.060473"><ele>1079</ele></trkpt><trkpt lat="47.720056" lon="12.06049"><ele>1079.1</ele></trkpt><trkpt lat="47.72036" lon="12.060784"><ele>1079</ele></trkpt><trkpt lat="47.721064" lon="12.061205"><ele>1080</ele></trkpt><trkpt lat="47.721141" lon="12.061304"><ele>1078.4</ele></trkpt><trkpt lat="47.721218" lon="12.06146"><ele>1078.1</ele></trkpt><trkpt lat="47.721325" lon="12.061945"><ele>1078.9</ele></trkpt><trkpt lat="47.721387" lon="12.062165"><ele>1079.9</ele></trkpt><trkpt lat="47.721626" lon="12.062855"><ele>1078.9</ele></trkpt><trkpt lat="47.721673" lon="12.063042"><ele>1063</ele></trkpt><trkpt lat="47.721634" lon="12.06347"><ele>1069</ele></trkpt><trkpt lat="47.721604" lon="12.06364"><ele>1069.3</ele></trkpt><trkpt lat="47.721522" lon="12.063902"><ele>1069.6</ele></trkpt><trkpt lat="47.721497" lon="12.064031"><ele>1069.9</ele></trkpt><trkpt lat="47.721512" lon="12.064328"><ele>1052</ele></trkpt><trkpt lat="47.721576" lon="12.064501"><ele>1038.8</ele></trkpt><trkpt lat="47.721724" lon="12.064755"><ele>1039.1</ele></trkpt><trkpt lat="47.721817" lon="12.06483"><ele>1038.5</ele></trkpt><trkpt lat="47.721894" lon="12.06486"><ele>1037.8</ele></trkpt><trkpt lat="47.721959" lon="12.064918"><ele>1037.3</ele></trkpt><trkpt lat="47.722012" lon="12.064996"><ele>1036.7</ele></trkpt><trkpt lat="47.72219" lon="12.065385"><ele>1023</ele></trkpt><trkpt lat="47.722266" lon="12.065471"><ele>1023</ele></trkpt><trkpt lat="47.722478" lon="12.06542"><ele>1022.3</ele></trkpt><trkpt lat="47.72254" lon="12.065471"><ele>1023.6</ele></trkpt><trkpt lat="47.722601" lon="12.065639"><ele>1024.7</ele></trkpt><trkpt lat="47.722668" lon="12.065939"><ele>1022.4</ele></trkpt><trkpt lat="47.722763" lon="12.066595"><ele>1008.2</ele></trkpt><trkpt lat="47.723013" lon="12.068307"><ele>994</ele></trkpt><trkpt lat="47.722937" lon="12.068242"><ele>994</ele></trkpt><trkpt lat="47.722885" lon="12.068087"><ele>994</ele></trkpt><trkpt lat="47.722776" lon="12.067871"><ele>994</ele></trkpt><trkpt lat="47.722718" lon="12.067791"><ele>994</ele></trkpt><trkpt lat="47.722552" lon="12.067702"><ele>994</ele></trkpt><trkpt lat="47.722549" lon="12.068001"><ele>994</ele></trkpt><trkpt lat="47.72257" lon="12.068092"><ele>994</ele></trkpt><trkpt lat="47.722549" lon="12.068001"><ele>994</ele></trkpt><trkpt lat="47.722552" lon="12.067702"><ele>994</ele></trkpt><trkpt lat="47.722718" lon="12.067791"><ele>994</ele></trkpt><trkpt lat="47.722776" lon="12.067871"><ele>994</ele></trkpt><trkpt lat="47.722885" lon="12.068087"><ele>994</ele></trkpt><trkpt lat="47.722937" lon="12.068242"><ele>994</ele></trkpt><trkpt lat="47.723013" lon="12.068307"><ele>994</ele></trkpt><trkpt lat="47.723082" lon="12.068475"><ele>981</ele></trkpt><trkpt lat="47.72331" lon="12.069277"><ele>975.4</ele></trkpt><trkpt lat="47.723547" lon="12.069986"><ele>978.5</ele></trkpt><trkpt lat="47.723787" lon="12.070206"><ele>973.5</ele></trkpt><trkpt lat="47.724229" lon="12.070355"><ele>974.5</ele></trkpt><trkpt lat="47.724505" lon="12.070348"><ele>978.1</ele></trkpt><trkpt lat="47.725233" lon="12.070233"><ele>976.4</ele></trkpt><trkpt lat="47.725413" lon="12.070142"><ele>975.5</ele></trkpt><trkpt lat="47.725732" lon="12.069856"><ele>982.1</ele></trkpt><trkpt lat="47.726061" lon="12.069716"><ele>980.9</ele></trkpt><trkpt lat="47.726495" lon="12.069624"><ele>968</ele></trkpt><trkpt lat="47.726941" lon="12.069288"><ele>928.2</ele></trkpt><trkpt lat="47.72703" lon="12.069289"><ele>928.7</ele></trkpt><trkpt lat="47.727236" lon="12.069322"><ele>924.4</ele></trkpt><trkpt lat="47.727578" lon="12.069504"><ele>912.9</ele></trkpt><trkpt lat="47.727896" lon="12.069757"><ele>904.3</ele></trkpt><trkpt lat="47.728037" lon="12.069798"><ele>904.6</ele></trkpt><trkpt lat="47.728218" lon="12.069744"><ele>903.2</ele></trkpt><trkpt lat="47.728352" lon="12.069739"><ele>899</ele></trkpt><trkpt lat="47.728513" lon="12.069853"><ele>897</ele></trkpt><trkpt lat="47.72857" lon="12.070041"><ele>888.3</ele></trkpt><trkpt lat="47.728584" lon="12.070215"><ele>887.6</ele></trkpt><trkpt lat="47.72857" lon="12.070563"><ele>884.2</ele></trkpt><trkpt lat="47.728601" lon="12.070806"><ele>883.8</ele></trkpt><trkpt lat="47.728642" lon="12.071707"><ele>861.4</ele></trkpt><trkpt lat="47.728615" lon="12.071862"><ele>856.4</ele></trkpt><trkpt lat="47.728542" lon="12.071989"><ele>855.2</ele></trkpt><trkpt lat="47.728331" lon="12.072252"><ele>849.5</ele></trkpt><trkpt lat="47.727998" lon="12.072566"><ele>842.3</ele></trkpt><trkpt lat="47.727935" lon="12.072626"><ele>835</ele></trkpt><trkpt lat="47.727763" lon="12.072829"><ele>816</ele></trkpt><trkpt lat="47.72738" lon="12.07326"><ele>818.3</ele></trkpt><trkpt lat="47.727364" lon="12.073318"><ele>819.8</ele></trkpt><trkpt lat="47.727407" lon="12.07341"><ele>800</ele></trkpt><trkpt lat="47.72749" lon="12.073424"><ele>789.8</ele></trkpt><trkpt lat="47.727641" lon="12.073379"><ele>789.7</ele></trkpt><trkpt lat="47.727775" lon="12.073476"><ele>789.5</ele></trkpt><trkpt lat="47.728088" lon="12.073771"><ele>789.2</ele></trkpt><trkpt lat="47.728106" lon="12.073899"><ele>788.2</ele></trkpt><trkpt lat="47.728075" lon="12.073986"><ele>788.7</ele></trkpt><trkpt lat="47.727929" lon="12.074184"><ele>789.7</ele></trkpt><trkpt lat="47.727804" lon="12.074404"><ele>789.3</ele></trkpt><trkpt lat="47.727771" lon="12.074597"><ele>788.9</ele></trkpt><trkpt lat="47.727847" lon="12.074683"><ele>787.2</ele></trkpt><trkpt lat="47.728157" lon="12.074699"><ele>785.2</ele></trkpt><trkpt lat="47.728254" lon="12.074752"><ele>785</ele></trkpt><trkpt lat="47.728425" lon="12.074925"><ele>781.1</ele></trkpt><trkpt lat="47.728598" lon="12.074957"><ele>778.1</ele></trkpt><trkpt lat="47.72877" lon="12.074956"><ele>776.8</ele></trkpt><trkpt lat="47.729131" lon="12.075165"><ele>763</ele></trkpt><trkpt lat="47.729352" lon="12.075418"><ele>757</ele></trkpt><trkpt lat="47.729643" lon="12.075696"><ele>752.4</ele></trkpt><trkpt lat="47.729903" lon="12.076045"><ele>741.4</ele></trkpt><trkpt lat="47.73003" lon="12.076089"><ele>740</ele></trkpt><trkpt lat="47.730296" lon="12.076109"><ele>738.6</ele></trkpt><trkpt lat="47.730363" lon="12.07618"><ele>728</ele></trkpt><trkpt lat="47.730433" lon="12.076254"><ele>716.7</ele></trkpt><trkpt lat="47.730524" lon="12.076517"><ele>714.1</ele></trkpt><trkpt lat="47.730563" lon="12.076785"><ele>712.2</ele></trkpt><trkpt lat="47.730712" lon="12.077183"><ele>709.2</ele></trkpt><trkpt lat="47.730892" lon="12.077569"><ele>708.5</ele></trkpt><trkpt lat="47.73117" lon="12.077944"><ele>699.1</ele></trkpt><trkpt lat="47.731292" lon="12.078159"><ele>699.3</ele></trkpt><trkpt lat="47.731349" lon="12.078284"><ele>697</ele></trkpt><trkpt lat="47.731412" lon="12.078509"><ele>693.7</ele></trkpt><trkpt lat="47.731505" lon="12.078749"><ele>693.9</ele></trkpt><trkpt lat="47.731779" lon="12.079162"><ele>686.1</ele></trkpt><trkpt lat="47.731907" lon="12.079285"><ele>683.4</ele></trkpt><trkpt lat="47.732026" lon="12.079447"><ele>680.2</ele></trkpt><trkpt lat="47.732553" lon="12.080273"><ele>667</ele></trkpt><trkpt lat="47.732681" lon="12.080551"><ele>665.8</ele></trkpt><trkpt lat="47.732773" lon="12.080837"><ele>648</ele></trkpt><trkpt lat="47.73267" lon="12.081169"><ele>648</ele></trkpt><trkpt lat="47.732587" lon="12.081538"><ele>648</ele></trkpt><trkpt lat="47.732609" lon="12.081839"><ele>635.3</ele></trkpt><trkpt lat="47.732743" lon="12.08269"><ele>633.8</ele></trkpt><trkpt lat="47.732768" lon="12.082848"><ele>632.3</ele></trkpt><trkpt lat="47.732616" lon="12.083974"><ele>623</ele></trkpt><trkpt lat="47.732493" lon="12.084083"><ele>617</ele></trkpt><trkpt lat="47.73177" lon="12.084438"><ele>613.9</ele></trkpt><trkpt lat="47.73094" lon="12.08507"><ele>611.3</ele></trkpt><trkpt lat="47.730744" lon="12.085106"><ele>611.6</ele></trkpt><trkpt lat="47.73067" lon="12.085082"><ele>610</ele></trkpt><trkpt lat="47.730372" lon="12.08517"><ele>617.3</ele></trkpt><trkpt lat="47.730319" lon="12.085134"><ele>618</ele></trkpt><trkpt lat="47.730182" lon="12.084947"><ele>618.7</ele></trkpt><trkpt lat="47.730124" lon="12.084922"><ele>618.8</ele></trkpt><trkpt lat="47.729932" lon="12.084904"><ele>618.8</ele></trkpt><trkpt lat="47.729773" lon="12.084751"><ele>618.6</ele></trkpt><trkpt lat="47.729712" lon="12.084721"><ele>618.5</ele></trkpt><trkpt lat="47.729649" lon="12.084729"><ele>618.4</ele></trkpt><trkpt lat="47.729589" lon="12.08478"><ele>618.2</ele></trkpt><trkpt lat="47.729467" lon="12.084997"><ele>620</ele></trkpt><trkpt lat="47.72969" lon="12.085737"><ele>612.5</ele></trkpt><trkpt lat="47.729724" lon="12.085937"><ele>611.8</ele></trkpt><trkpt lat="47.729726" lon="12.08635"><ele>609.9</ele></trkpt><trkpt lat="47.729653" lon="12.087055"><ele>608.7</ele></trkpt><trkpt lat="47.729619" lon="12.087386"><ele>607.6</ele></trkpt><trkpt lat="47.729623" lon="12.087705"><ele>606.5</ele></trkpt><trkpt lat="47.729656" lon="12.088114"><ele>595</ele></trkpt><trkpt lat="47.729675" lon="12.08832"><ele>595</ele></trkpt><trkpt lat="47.729697" lon="12.089193"><ele>565</ele></trkpt><trkpt lat="47.729582" lon="12.089398"><ele>565</ele></trkpt><trkpt lat="47.729585" lon="12.089925"><ele>565</ele></trkpt><trkpt lat="47.729762" lon="12.090321"><ele>557.7</ele></trkpt><trkpt lat="47.729943" lon="12.09052"><ele>554</ele></trkpt><trkpt lat="47.729982" lon="12.090645"><ele>549.7</ele></trkpt><trkpt lat="47.730038" lon="12.091012"><ele>549.3</ele></trkpt><trkpt lat="47.730047" lon="12.091347"><ele>548</ele></trkpt><trkpt lat="47.73004" lon="12.091411"><ele>539.8</ele></trkpt><trkpt lat="47.730008" lon="12.091461"><ele>537.3</ele></trkpt><trkpt lat="47.729975" lon="12.091672"><ele>535.9</ele></trkpt><trkpt lat="47.729953" lon="12.091914"><ele>536.1</ele></trkpt><trkpt lat="47.72995" lon="12.092177"><ele>536.7</ele></trkpt><trkpt lat="47.730271" lon="12.093352"><ele>518</ele></trkpt><trkpt lat="47.730463" lon="12.093212"><ele>525</ele></trkpt><trkpt lat="47.730585" lon="12.093356"><ele>517.5</ele></trkpt><trkpt lat="47.731067" lon="12.094164"><ele>517</ele></trkpt><trkpt lat="47.731177" lon="12.094423"><ele>510</ele></trkpt><trkpt lat="47.731285" lon="12.094497"><ele>510</ele></trkpt><trkpt lat="47.731501" lon="12.094521"><ele>510</ele></trkpt><trkpt lat="47.731732" lon="12.094554"><ele>511</ele></trkpt><trkpt lat="47.731882" lon="12.094579"><ele>511</ele></trkpt><trkpt lat="47.7321" lon="12.094584"><ele>509.4</ele></trkpt><trkpt lat="47.732172" lon="12.094593"><ele>509.6</ele></trkpt><trkpt lat="47.732439" lon="12.094627"><ele>509.8</ele></trkpt><trkpt lat="47.732649" lon="12.094681"><ele>509.4</ele></trkpt><trkpt lat="47.732872" lon="12.094799"><ele>509.1</ele></trkpt><trkpt lat="47.73306" lon="12.095039"><ele>508.7</ele></trkpt><trkpt lat="47.733158" lon="12.095201"><ele>508.3</ele></trkpt><trkpt lat="47.733248" lon="12.095432"><ele>507.6</ele></trkpt><trkpt lat="47.733341" lon="12.095758"><ele>512</ele></trkpt><trkpt lat="47.733355" lon="12.095815"><ele>512</ele></trkpt><trkpt lat="47.73348" lon="12.096463"><ele>509</ele></trkpt><trkpt lat="47.733578" lon="12.096972"><ele>506</ele></trkpt><trkpt lat="47.73375" lon="12.097654"><ele>510</ele></trkpt><trkpt lat="47.733774" lon="12.097761"><ele>510</ele></trkpt><trkpt lat="47.733913" lon="12.098294"><ele>509</ele></trkpt><trkpt lat="47.734119" lon="12.09882"><ele>508</ele></trkpt><trkpt lat="47.73421" lon="12.099052"><ele>507</ele></trkpt><trkpt lat="47.734228" lon="12.099189"><ele>500</ele></trkpt><trkpt lat="47.734298" lon="12.099301"><ele>500</ele></trkpt><trkpt lat="47.734428" lon="12.099648"><ele>500</ele></trkpt><trkpt lat="47.734993" lon="12.101046"><ele>496.5</ele></trkpt><trkpt lat="47.735028" lon="12.101103"><ele>496</ele></trkpt><trkpt lat="47.735069" lon="12.101176"><ele>496</ele></trkpt><trkpt lat="47.735135" lon="12.101443"><ele>496</ele></trkpt><trkpt lat="47.73549" lon="12.102172"><ele>496.5</ele></trkpt><trkpt lat="47.735981" lon="12.103274"><ele>494</ele></trkpt><trkpt lat="47.736681" lon="12.104845"><ele>487.3</ele></trkpt><trkpt lat="47.736841" lon="12.105281"><ele>481</ele></trkpt><trkpt lat="47.736918" lon="12.105424"><ele>480.4</ele></trkpt><trkpt lat="47.737408" lon="12.106074"><ele>479.9</ele></trkpt><trkpt lat="47.737735" lon="12.106386"><ele>479.6</ele></trkpt><trkpt lat="47.737988" lon="12.106496"><ele>478.8</ele></trkpt><trkpt lat="47.738174" lon="12.106577"><ele>478</ele></trkpt><trkpt lat="47.7382" lon="12.10652"><ele>478</ele></trkpt><trkpt lat="47.738236" lon="12.106387"><ele>478</ele></trkpt><trkpt lat="47.738488" lon="12.106443"><ele>477</ele></trkpt><trkpt lat="47.738917" lon="12.106534"><ele>477</ele></trkpt><trkpt lat="47.739218" lon="12.106618"><ele>475</ele></trkpt><trkpt lat="47.739578" lon="12.10677"><ele>476.4</ele></trkpt><trkpt lat="47.73972" lon="12.106874"><ele>477</ele></trkpt><trkpt lat="47.739884" lon="12.107022"><ele>476</ele></trkpt><trkpt lat="47.740202" lon="12.107178"><ele>475</ele></trkpt><trkpt lat="47.740328" lon="12.107019"><ele>475</ele></trkpt><trkpt lat="47.740426" lon="12.106853"><ele>475</ele></trkpt><trkpt lat="47.740545" lon="12.107028"><ele>475</ele></trkpt><trkpt lat="47.740667" lon="12.106845"><ele>475</ele></trkpt><trkpt lat="47.740777" lon="12.107007"><ele>475</ele></trkpt><trkpt lat="47.740818" lon="12.107068"><ele>475</ele></trkpt><trkpt lat="47.740838" lon="12.1071"><ele>474.3</ele></trkpt><trkpt lat="47.740939" lon="12.107251"><ele>473</ele></trkpt><trkpt lat="47.74095" lon="12.107234"><ele>473</ele></trkpt><trkpt lat="47.741011" lon="12.107142"><ele>473</ele></trkpt><trkpt lat="47.741003" lon="12.107129"><ele>473</ele></trkpt></trkseg></trk></gpx>