<gpx xmlns="http://www.topografix.com/GPX/1/1" xmlns:xsi="http://www.w3.org/2001/XMLSchema-instance" xsi:schemaLocation="http://www.topografix.com/GPX/1/1 http://www.topografix.com/GPX/1/1/gpx.xsd" version="1.1" creator="togpx"><metadata/><wpt lat="47.66190096828598" lon="11.887815892696382"><name></name><desc>label=Spitzingstraße, Schliersee,BY,Germany</desc></wpt><wpt lat="47.65599706112081" lon="11.888049244880676"><name></name><desc>label=K23, Schliersee,BY,Germany</desc></wpt><wpt lat="47.64721945607399" lon="11.873570680618286"><name></name><desc>label=SB 6, Schliersee,BY,Germany</desc></wpt><wpt lat="47.64252107865042" lon="11.872454881668093"><name></name><desc>label=SB 6, Schliersee,BY,Germany</desc></wpt><wpt lat="47.64322224795414" lon="11.867305040359499"><name></name><desc>label=Stolzeneck, Rottach-Egern,BY,Germany</desc></wpt><wpt lat="47.64853492602363" lon="11.866178512573244"><name></name><desc>label=Rotkopf, Schliersee,BY,Germany</desc></wpt><wpt lat="47.65564294999643" lon="11.861849427223207"><name></name><desc>label=SB 5, Schliersee,BY,Germany</desc></wpt><wpt lat="47.65991741666601" lon="11.857209205627441"><name></name><desc>label=Stümpflingbahn Berg, Schliersee,BY,Germany</desc></wpt><trk><name></name><desc>ascent=719.4
descent=336.3
opacity=0.9</desc><trkseg><trkpt lat="47.661892" lon="11.887844"><ele>1096.9</ele></trkpt><trkpt lat="47.661636" lon="11.887658"><ele>1104.8</ele></trkpt><trkpt lat="47.661549" lon="11.88755"><ele>1111</ele></trkpt><trkpt lat="47.661521" lon="11.887385"><ele>1096</ele></trkpt><trkpt lat="47.661461" lon="11.887397"><ele>1096</ele></trkpt><trkpt lat="47.661476" lon="11.887347"><ele>1096</ele></trkpt><trkpt lat="47.661462" lon="11.886998"><ele>1096</ele></trkpt><trkpt lat="47.661422" lon="11.886772"><ele>1092.7</ele></trkpt><trkpt lat="47.661382" lon="11.886682"><ele>1091.9</ele></trkpt><trkpt lat="47.661322" lon="11.886603"><ele>1088</ele></trkpt><trkpt lat="47.661358" lon="11.886544"><ele>1088</ele></trkpt><trkpt lat="47.661284" lon="11.886464"><ele>1088</ele></trkpt><trkpt lat="47.661002" lon="11.886282"><ele>1088</ele></trkpt><trkpt lat="47.66093" lon="11.886168"><ele>1088</ele></trkpt><trkpt lat="47.660787" lon="11.886176"><ele>1094</ele></trkpt><trkpt lat="47.660432" lon="11.886144"><ele>1094</ele></trkpt><trkpt lat="47.660348" lon="11.886115"><ele>1094</ele></trkpt><trkpt lat="47.660151" lon="11.885874"><ele>1094</ele></trkpt><trkpt lat="47.659939" lon="11.885695"><ele>1097.1</ele></trkpt><trkpt lat="47.659745" lon="11.885666"><ele>1098</ele></trkpt><trkpt lat="47.659523" lon="11.885733"><ele>1086</ele></trkpt><trkpt lat="47.65933" lon="11.885713"><ele>1081.7</ele></trkpt><trkpt lat="47.658914" lon="11.885568"><ele>1077.8</ele></trkpt><trkpt lat="47.658809" lon="11.885567"><ele>1075.6</ele></trkpt><trkpt lat="47.65855" lon="11.88577"><ele>1071.6</ele></trkpt><trkpt lat="47.658461" lon="11.885809"><ele>1069.1</ele></trkpt><trkpt lat="47.658186" lon="11.885802"><ele>1064.6</ele></trkpt><trkpt lat="47.658074" lon="11.885857"><ele>1063.1</ele></trkpt><trkpt lat="47.657815" lon="11.886178"><ele>1060.3</ele></trkpt><trkpt lat="47.657623" lon="11.886292"><ele>1058.7</ele></trkpt><trkpt lat="47.657537" lon="11.88641"><ele>1057.2</ele></trkpt><trkpt lat="47.657452" lon="11.886713"><ele>1055.2</ele></trkpt><trkpt lat="47.657371" lon="11.8869"><ele>1051.9</ele></trkpt><trkpt lat="47.657268" lon="11.887215"><ele>1050.7</ele></trkpt><trkpt lat="47.657148" lon="11.887425"><ele>1049.3</ele></trkpt><trkpt lat="47.657063" lon="11.887618"><ele>1049.4</ele></trkpt><trkpt lat="47.65692" lon="11.887809"><ele>1048.4</ele></trkpt><trkpt lat="47.656754" lon="11.887972"><ele>1047.3</ele></trkpt><trkpt lat="47.656611" lon="11.88806"><ele>1046.2</ele></trkpt><trkpt lat="47.656522" lon="11.88807"><ele>1046.4</ele></trkpt><trkpt lat="47.656327" lon="11.887996"><ele>1046.8</ele></trkpt><trkpt lat="47.656118" lon="11.888053"><ele>1042</ele></trkpt><trkpt lat="47.655998" lon="11.888038"><ele>1042</ele></trkpt><trkpt lat="47.655957" lon="11.888033"><ele>1042</ele></trkpt><trkpt lat="47.655934" lon="11.887961"><ele>1042.6</ele></trkpt><trkpt lat="47.655749" lon="11.887726"><ele>1042.7</ele></trkpt><trkpt lat="47.655524" lon="11.887543"><ele>1043</ele></trkpt><trkpt lat="47.655413" lon="11.887484"><ele>1052</ele></trkpt><trkpt lat="47.655268" lon="11.8874"><ele>1052</ele></trkpt><trkpt lat="47.655186" lon="11.887383"><ele>1052</ele></trkpt><trkpt lat="47.655039" lon="11.887347"><ele>1049</ele></trkpt><trkpt lat="47.654851" lon="11.887337"><ele>1048.4</ele></trkpt><trkpt lat="47.65472" lon="11.887249"><ele>1048.7</ele></trkpt><trkpt lat="47.654621" lon="11.887123"><ele>1047</ele></trkpt><trkpt lat="47.654601" lon="11.887011"><ele>1047</ele></trkpt><trkpt lat="47.654588" lon="11.886935"><ele>1047</ele></trkpt><trkpt lat="47.654574" lon="11.886823"><ele>1047</ele></trkpt><trkpt lat="47.654525" lon="11.886016"><ele>1048</ele></trkpt><trkpt lat="47.654338" lon="11.884987"><ele>1049</ele></trkpt><trkpt lat="47.65428" lon="11.884732"><ele>1051</ele></trkpt><trkpt lat="47.654152" lon="11.884471"><ele>1051.5</ele></trkpt><trkpt lat="47.654087" lon="11.884388"><ele>1053</ele></trkpt><trkpt lat="47.654001" lon="11.884278"><ele>1061.7</ele></trkpt><trkpt lat="47.653715" lon="11.883985"><ele>1063</ele></trkpt><trkpt lat="47.653568" lon="11.883624"><ele>1064.2</ele></trkpt><trkpt lat="47.653399" lon="11.883358"><ele>1064.9</ele></trkpt><trkpt lat="47.653215" lon="11.883158"><ele>1090</ele></trkpt><trkpt lat="47.653013" lon="11.882775"><ele>1090</ele></trkpt><trkpt lat="47.652863" lon="11.882553"><ele>1090</ele></trkpt><trkpt lat="47.652684" lon="11.881978"><ele>1105.5</ele></trkpt><trkpt lat="47.652016" lon="11.881025"><ele>1119</ele></trkpt><trkpt lat="47.651813" lon="11.881024"><ele>1148.9</ele></trkpt><trkpt lat="47.651375" lon="11.880607"><ele>1151.2</ele></trkpt><trkpt lat="47.651367" lon="11.880311"><ele>1154.7</ele></trkpt><trkpt lat="47.651266" lon="11.880125"><ele>1156.1</ele></trkpt><trkpt lat="47.651094" lon="11.880047"><ele>1157.3</ele></trkpt><trkpt lat="47.65097" lon="11.879713"><ele>1162</ele></trkpt><trkpt lat="47.651024" lon="11.879477"><ele>1167.3</ele></trkpt><trkpt lat="47.650941" lon="11.878903"><ele>1181.8</ele></trkpt><trkpt lat="47.65087" lon="11.878735"><ele>1183.3</ele></trkpt><trkpt lat="47.650923" lon="11.878479"><ele>1184.8</ele></trkpt><trkpt lat="47.650977" lon="11.878334"><ele>1186.4</ele></trkpt><trkpt lat="47.650976" lon="11.878131"><ele>1188.8</ele></trkpt><trkpt lat="47.650929" lon="11.877901"><ele>1191.3</ele></trkpt><trkpt lat="47.650751" lon="11.877626"><ele>1194.9</ele></trkpt><trkpt lat="47.650419" lon="11.877698"><ele>1197.4</ele></trkpt><trkpt lat="47.650229" lon="11.877774"><ele>1201.3</ele></trkpt><trkpt lat="47.650084" lon="11.877879"><ele>1202.3</ele></trkpt><trkpt lat="47.649965" lon="11.877923"><ele>1205.5</ele></trkpt><trkpt lat="47.649853" lon="11.877884"><ele>1208.6</ele></trkpt><trkpt lat="47.649988" lon="11.877704"><ele>1254</ele></trkpt><trkpt lat="47.649995" lon="11.877693"><ele>1254</ele></trkpt><trkpt lat="47.65005" lon="11.877592"><ele>1245.9</ele></trkpt><trkpt lat="47.650137" lon="11.877256"><ele>1245.7</ele></trkpt><trkpt lat="47.650212" lon="11.877212"><ele>1243.7</ele></trkpt><trkpt lat="47.650231" lon="11.877032"><ele>1243.7</ele></trkpt><trkpt lat="47.650137" lon="11.876751"><ele>1242.8</ele></trkpt><trkpt lat="47.650033" lon="11.876647"><ele>1243.2</ele></trkpt><trkpt lat="47.649846" lon="11.876577"><ele>1245.7</ele></trkpt><trkpt lat="47.649762" lon="11.876596"><ele>1246.3</ele></trkpt><trkpt lat="47.649542" lon="11.876765"><ele>1247.8</ele></trkpt><trkpt lat="47.64949" lon="11.876762"><ele>1248.5</ele></trkpt><trkpt lat="47.649474" lon="11.8767"><ele>1250.9</ele></trkpt><trkpt lat="47.649496" lon="11.876503"><ele>1251.3</ele></trkpt><trkpt lat="47.649481" lon="11.876368"><ele>1253.2</ele></trkpt><trkpt lat="47.649339" lon="11.876113"><ele>1253.5</ele></trkpt><trkpt lat="47.649182" lon="11.875884"><ele>1260.6</ele></trkpt><trkpt lat="47.648835" lon="11.875259"><ele>1276.1</ele></trkpt><trkpt lat="47.64835" lon="11.874542"><ele>1293.8</ele></trkpt><trkpt lat="47.648087" lon="11.874359"><ele>1299.3</ele></trkpt><trkpt lat="47.647919" lon="11.874405"><ele>1300.6</ele></trkpt><trkpt lat="47.647837" lon="11.874388"><ele>1301.1</ele></trkpt><trkpt lat="47.647615" lon="11.874212"><ele>1302.5</ele></trkpt><trkpt lat="47.647371" lon="11.873799"><ele>1307.4</ele></trkpt><trkpt lat="47.647273" lon="11.873574"><ele>1308.4</ele></trkpt><trkpt lat="47.64722" lon="11.873563"><ele>1308.9</ele></trkpt><trkpt lat="47.647205" lon="11.87356"><ele>1309.4</ele></trkpt><trkpt lat="47.647112" lon="11.873584"><ele>1319</ele></trkpt><trkpt lat="47.647053" lon="11.873722"><ele>1319.8</ele></trkpt><trkpt lat="47.647097" lon="11.874083"><ele>1319.7</ele></trkpt><trkpt lat="47.647162" lon="11.874261"><ele>1320</ele></trkpt><trkpt lat="47.647259" lon="11.874408"><ele>1320.3</ele></trkpt><trkpt lat="47.647268" lon="11.874517"><ele>1320.6</ele></trkpt><trkpt lat="47.647299" lon="11.874623"><ele>1320.8</ele></trkpt><trkpt lat="47.647532" lon="11.874984"><ele>1319.6</ele></trkpt><trkpt lat="47.647666" lon="11.875308"><ele>1319</ele></trkpt><trkpt lat="47.647582" lon="11.875485"><ele>1346.2</ele></trkpt><trkpt lat="47.647489" lon="11.875743"><ele>1348.3</ele></trkpt><trkpt lat="47.647424" lon="11.875818"><ele>1347.5</ele></trkpt><trkpt lat="47.64733" lon="11.875818"><ele>1349.9</ele></trkpt><trkpt lat="47.647137" lon="11.875656"><ele>1349.1</ele></trkpt><trkpt lat="47.646926" lon="11.8757"><ele>1352.3</ele></trkpt><trkpt lat="47.646625" lon="11.87589"><ele>1364.7</ele></trkpt><trkpt lat="47.646348" lon="11.875629"><ele>1366.3</ele></trkpt><trkpt lat="47.646205" lon="11.875663"><ele>1374.8</ele></trkpt><trkpt lat="47.645829" lon="11.876386"><ele>1399.8</ele></trkpt><trkpt lat="47.645569" lon="11.876832"><ele>1407.7</ele></trkpt><trkpt lat="47.645625" lon="11.877038"><ele>1408.7</ele></trkpt><trkpt lat="47.645569" lon="11.877112"><ele>1410</ele></trkpt><trkpt lat="47.645476" lon="11.877486"><ele>1416.3</ele></trkpt><trkpt lat="47.645319" lon="11.877979"><ele>1417.9</ele></trkpt><trkpt lat="47.645387" lon="11.878215"><ele>1417.1</ele></trkpt><trkpt lat="47.645333" lon="11.878388"><ele>1414.5</ele></trkpt><trkpt lat="47.645096" lon="11.878501"><ele>1413.1</ele></trkpt><trkpt lat="47.645158" lon="11.878955"><ele>1414.9</ele></trkpt><trkpt lat="47.64509" lon="11.879004"><ele>1415.8</ele></trkpt><trkpt lat="47.645046" lon="11.87926"><ele>1413.1</ele></trkpt><trkpt lat="47.644984" lon="11.879365"><ele>1412.8</ele></trkpt><trkpt lat="47.645034" lon="11.879944"><ele>1409.9</ele></trkpt><trkpt lat="47.644878" lon="11.880193"><ele>1409.2</ele></trkpt><trkpt lat="47.644604" lon="11.880293"><ele>1408.6</ele></trkpt><trkpt lat="47.644457" lon="11.880477"><ele>1408.5</ele></trkpt><trkpt lat="47.644361" lon="11.88046"><ele>1408</ele></trkpt><trkpt lat="47.644312" lon="11.880187"><ele>1407.5</ele></trkpt><trkpt lat="47.644226" lon="11.879918"><ele>1413.8</ele></trkpt><trkpt lat="47.644233" lon="11.879748"><ele>1413.8</ele></trkpt><trkpt lat="47.644113" lon="11.879724"><ele>1415.9</ele></trkpt><trkpt lat="47.644118" lon="11.879443"><ele>1418</ele></trkpt><trkpt lat="47.644203" lon="11.879195"><ele>1417.2</ele></trkpt><trkpt lat="47.644193" lon="11.879086"><ele>1419.8</ele></trkpt><trkpt lat="47.644121" lon="11.879033"><ele>1420.6</ele></trkpt><trkpt lat="47.644098" lon="11.878765"><ele>1422.8</ele></trkpt><trkpt lat="47.644001" lon="11.878795"><ele>1424.6</ele></trkpt><trkpt lat="47.643984" lon="11.878058"><ele>1461.9</ele></trkpt><trkpt lat="47.64392" lon="11.878021"><ele>1463.6</ele></trkpt><trkpt lat="47.643717" lon="11.878164"><ele>1461.2</ele></trkpt><trkpt lat="47.643507" lon="11.877972"><ele>1467.1</ele></trkpt><trkpt lat="47.64344" lon="11.877804"><ele>1472.5</ele></trkpt><trkpt lat="47.643285" lon="11.877617"><ele>1480</ele></trkpt><trkpt lat="47.643247" lon="11.877308"><ele>1488.6</ele></trkpt><trkpt lat="47.643309" lon="11.876974"><ele>1493.6</ele></trkpt><trkpt lat="47.643366" lon="11.876808"><ele>1494.9</ele></trkpt><trkpt lat="47.64351" lon="11.876727"><ele>1494.4</ele></trkpt><trkpt lat="47.643506" lon="11.876635"><ele>1495.1</ele></trkpt><trkpt lat="47.64362" lon="11.87663"><ele>1495.8</ele></trkpt><trkpt lat="47.643694" lon="11.876554"><ele>1496.4</ele></trkpt><trkpt lat="47.643748" lon="11.876392"><ele>1500.5</ele></trkpt><trkpt lat="47.643727" lon="11.876254"><ele>1502.7</ele></trkpt><trkpt lat="47.643564" lon="11.876138"><ele>1513.5</ele></trkpt><trkpt lat="47.643582" lon="11.875929"><ele>1515.6</ele></trkpt><trkpt lat="47.643529" lon="11.875871"><ele>1517.2</ele></trkpt><trkpt lat="47.643106" lon="11.875618"><ele>1529</ele></trkpt><trkpt lat="47.643266" lon="11.875513"><ele>1529.7</ele></trkpt><trkpt lat="47.643418" lon="11.875329"><ele>1530.2</ele></trkpt><trkpt lat="47.643427" lon="11.875193"><ele>1532.9</ele></trkpt><trkpt lat="47.643534" lon="11.874934"><ele>1536.4</ele></trkpt><trkpt lat="47.643441" lon="11.874517"><ele>1545.8</ele></trkpt><trkpt lat="47.643117" lon="11.874489"><ele>1551</ele></trkpt><trkpt lat="47.642887" lon="11.874598"><ele>1556</ele></trkpt><trkpt lat="47.642765" lon="11.874529"><ele>1557.4</ele></trkpt><trkpt lat="47.642661" lon="11.874426"><ele>1564</ele></trkpt><trkpt lat="47.642632" lon="11.874231"><ele>1568.2</ele></trkpt><trkpt lat="47.642501" lon="11.873947"><ele>1593</ele></trkpt><trkpt lat="47.642557" lon="11.873522"><ele>1589.1</ele></trkpt><trkpt lat="47.642467" lon="11.872811"><ele>1586.9</ele></trkpt><trkpt lat="47.642502" lon="11.872637"><ele>1587.1</ele></trkpt><trkpt lat="47.642557" lon="11.872538"><ele>1587.2</ele></trkpt><trkpt lat="47.642565" lon="11.872466"><ele>1587.5</ele></trkpt><trkpt lat="47.642599" lon="11.872168"><ele>1587.7</ele></trkpt><trkpt lat="47.642504" lon="11.871392"><ele>1587.6</ele></trkpt><trkpt lat="47.642542" lon="11.871246"><ele>1587.1</ele></trkpt><trkpt lat="47.642539" lon="11.871109"><ele>1587.4</ele></trkpt><trkpt lat="47.642592" lon="11.870999"><ele>1586.8</ele></trkpt><trkpt lat="47.642598" lon="11.870805"><ele>1587.5</ele></trkpt><trkpt lat="47.642677" lon="11.870436"><ele>1584.4</ele></trkpt><trkpt lat="47.642747" lon="11.87036"><ele>1583.8</ele></trkpt><trkpt lat="47.642754" lon="11.870242"><ele>1583</ele></trkpt><trkpt lat="47.643013" lon="11.869879"><ele>1579.2</ele></trkpt><trkpt lat="47.643076" lon="11.869731"><ele>1577</ele></trkpt><trkpt lat="47.643087" lon="11.869504"><ele>1573.6</ele></trkpt><trkpt lat="47.643069" lon="11.869031"><ele>1569.7</ele></trkpt><trkpt lat="47.643108" lon="11.868737"><ele>1567.9</ele></trkpt><trkpt lat="47.64312" lon="11.868367"><ele>1563.7</ele></trkpt><trkpt lat="47.64319" lon="11.868206"><ele>1560.5</ele></trkpt><trkpt lat="47.643219" lon="11.867741"><ele>1556.8</ele></trkpt><trkpt lat="47.643237" lon="11.867643"><ele>1541</ele></trkpt><trkpt lat="47.643275" lon="11.867419"><ele>1546.3</ele></trkpt><trkpt lat="47.643226" lon="11.867301"><ele>1545.1</ele></trkpt><trkpt lat="47.643111" lon="11.867021"><ele>1543.9</ele></trkpt><trkpt lat="47.643612" lon="11.866934"><ele>1546</ele></trkpt><trkpt lat="47.643715" lon="11.866977"><ele>1547.6</ele></trkpt><trkpt lat="47.643868" lon="11.866939"><ele>1549.5</ele></trkpt><trkpt lat="47.643983" lon="11.866996"><ele>1550.3</ele></trkpt><trkpt lat="47.644124" lon="11.867236"><ele>1550.7</ele></trkpt><trkpt lat="47.644232" lon="11.867173"><ele>1550.2</ele></trkpt><trkpt lat="47.644242" lon="11.867083"><ele>1549.8</ele></trkpt><trkpt lat="47.644299" lon="11.867068"><ele>1549.3</ele></trkpt><trkpt lat="47.644372" lon="11.867166"><ele>1548.9</ele></trkpt><trkpt lat="47.644457" lon="11.867232"><ele>1551.9</ele></trkpt><trkpt lat="47.644557" lon="11.867218"><ele>1551.3</ele></trkpt><trkpt lat="47.644759" lon="11.867161"><ele>1548</ele></trkpt><trkpt lat="47.64485" lon="11.866936"><ele>1546.6</ele></trkpt><trkpt lat="47.645007" lon="11.866841"><ele>1541.8</ele></trkpt><trkpt lat="47.645112" lon="11.866859"><ele>1534.2</ele></trkpt><trkpt lat="47.645375" lon="11.866772"><ele>1522.8</ele></trkpt><trkpt lat="47.646021" lon="11.866508"><ele>1505.1</ele></trkpt><trkpt lat="47.646214" lon="11.866342"><ele>1498.5</ele></trkpt><trkpt lat="47.646451" lon="11.866274"><ele>1497</ele></trkpt><trkpt lat="47.646544" lon="11.866147"><ele>1496.9</ele></trkpt><trkpt lat="47.64663" lon="11.866078"><ele>1496</ele></trkpt><trkpt lat="47.646918" lon="11.865997"><ele>1521.8</ele></trkpt><trkpt lat="47.647231" lon="11.866016"><ele>1522.4</ele></trkpt><trkpt lat="47.647279" lon="11.865981"><ele>1522.8</ele></trkpt><trkpt lat="47.647331" lon="11.865852"><ele>1522.6</ele></trkpt><trkpt lat="47.647937" lon="11.865513"><ele>1527.1</ele></trkpt><trkpt lat="47.648044" lon="11.865391"><ele>1527.5</ele></trkpt><trkpt lat="47.648123" lon="11.865358"><ele>1527.9</ele></trkpt><trkpt lat="47.648243" lon="11.865085"><ele>1528.8</ele></trkpt><trkpt lat="47.648366" lon="11.864854"><ele>1530.9</ele></trkpt><trkpt lat="47.648508" lon="11.864654"><ele>1532.7</ele></trkpt><trkpt lat="47.648802" lon="11.864086"><ele>1533.8</ele></trkpt><trkpt lat="47.648931" lon="11.864003"><ele>1533.4</ele></trkpt><trkpt lat="47.648993" lon="11.863884"><ele>1533.3</ele></trkpt><trkpt lat="47.649006" lon="11.863738"><ele>1533.3</ele></trkpt><trkpt lat="47.649075" lon="11.863645"><ele>1533.2</ele></trkpt><trkpt lat="47.649194" lon="11.863548"><ele>1535.6</ele></trkpt><trkpt lat="47.649237" lon="11.863361"><ele>1537.3</ele></trkpt><trkpt lat="47.649272" lon="11.8631"><ele>1537.7</ele></trkpt><trkpt lat="47.649327" lon="11.863008"><ele>1538.2</ele></trkpt><trkpt lat="47.649428" lon="11.862949"><ele>1538.7</ele></trkpt><trkpt lat="47.649636" lon="11.862645"><ele>1538.9</ele></trkpt><trkpt lat="47.64976" lon="11.862363"><ele>1540.1</ele></trkpt><trkpt lat="47.649833" lon="11.862299"><ele>1540.3</ele></trkpt><trkpt lat="47.65011" lon="11.862195"><ele>1541.7</ele></trkpt><trkpt lat="47.650277" lon="11.862244"><ele>1540.5</ele></trkpt><trkpt lat="47.650549" lon="11.862386"><ele>1538.8</ele></trkpt><trkpt lat="47.650753" lon="11.862362"><ele>1538</ele></trkpt><trkpt lat="47.650882" lon="11.862324"><ele>1538.2</ele></trkpt><trkpt lat="47.651013" lon="11.862253"><ele>1537.5</ele></trkpt><trkpt lat="47.651142" lon="11.862118"><ele>1538.1</ele></trkpt><trkpt lat="47.65138" lon="11.861928"><ele>1539.2</ele></trkpt><trkpt lat="47.651636" lon="11.861808"><ele>1538.3</ele></trkpt><trkpt lat="47.651936" lon="11.861793"><ele>1537.8</ele></trkpt><trkpt lat="47.652232" lon="11.861851"><ele>1536.6</ele></trkpt><trkpt lat="47.652498" lon="11.861931"><ele>1536.5</ele></trkpt><trkpt lat="47.652795" lon="11.862088"><ele>1535.4</ele></trkpt><trkpt lat="47.653105" lon="11.86217"><ele>1534.8</ele></trkpt><trkpt lat="47.653536" lon="11.862332"><ele>1534.4</ele></trkpt><trkpt lat="47.653703" lon="11.862344"><ele>1533.9</ele></trkpt><trkpt lat="47.653876" lon="11.862441"><ele>1533.3</ele></trkpt><trkpt lat="47.654072" lon="11.862497"><ele>1533.2</ele></trkpt><trkpt lat="47.654241" lon="11.862479"><ele>1534.9</ele></trkpt><trkpt lat="47.654359" lon="11.862388"><ele>1535.6</ele></trkpt><trkpt lat="47.654571" lon="11.862373"><ele>1543</ele></trkpt><trkpt lat="47.654861" lon="11.862326"><ele>1547.2</ele></trkpt><trkpt lat="47.655364" lon="11.862186"><ele>1556</ele></trkpt><trkpt lat="47.655519" lon="11.862161"><ele>1556</ele></trkpt><trkpt lat="47.655528" lon="11.86208"><ele>1556</ele></trkpt><trkpt lat="47.655583" lon="11.861979"><ele>1556</ele></trkpt><trkpt lat="47.655647" lon="11.861854"><ele>1550.6</ele></trkpt><trkpt lat="47.655696" lon="11.861757"><ele>1545.3</ele></trkpt><trkpt lat="47.655757" lon="11.861558"><ele>1542.1</ele></trkpt><trkpt lat="47.655866" lon="11.861043"><ele>1541.4</ele></trkpt><trkpt lat="47.656102" lon="11.859442"><ele>1533.5</ele></trkpt><trkpt lat="47.656171" lon="11.85907"><ele>1515</ele></trkpt><trkpt lat="47.656325" lon="11.858352"><ele>1510.9</ele></trkpt><trkpt lat="47.656413" lon="11.858283"><ele>1510.2</ele></trkpt><trkpt lat="47.656462" lon="11.858202"><ele>1506</ele></trkpt><trkpt lat="47.656514" lon="11.858217"><ele>1506</ele></trkpt><trkpt lat="47.656728" lon="11.857948"><ele>1524.6</ele></trkpt><trkpt lat="47.656779" lon="11.857945"><ele>1524.6</ele></trkpt><trkpt lat="47.656797" lon="11.857979"><ele>1524.5</ele></trkpt><trkpt lat="47.656795" lon="11.858035"><ele>1524.5</ele></trkpt><trkpt lat="47.656751" lon="11.858123"><ele>1524.4</ele></trkpt><trkpt lat="47.65675" lon="11.858205"><ele>1524.4</ele></trkpt><trkpt lat="47.656777" lon="11.858328"><ele>1524.3</ele></trkpt><trkpt lat="47.656758" lon="11.858519"><ele>1524.2</ele></trkpt><trkpt lat="47.656778" lon="11.85857"><ele>1524.3</ele></trkpt><trkpt lat="47.656816" lon="11.85858"><ele>1524.3</ele></trkpt><trkpt lat="47.656853" lon="11.858553"><ele>1524.3</ele></trkpt><trkpt lat="47.656964" lon="11.858332"><ele>1524.4</ele></trkpt><trkpt lat="47.657025" lon="11.858292"><ele>1524.4</ele></trkpt><trkpt lat="47.657166" lon="11.858285"><ele>1524.3</ele></trkpt><trkpt lat="47.65736" lon="11.858369"><ele>1523.5</ele></trkpt><trkpt lat="47.657492" lon="11.85836"><ele>1522.7</ele></trkpt><trkpt lat="47.657675" lon="11.858222"><ele>1521.3</ele></trkpt><trkpt lat="47.657911" lon="11.858161"><ele>1520.2</ele></trkpt><trkpt lat="47.657997" lon="11.858102"><ele>1519.4</ele></trkpt><trkpt lat="47.658267" lon="11.857734"><ele>1511.5</ele></trkpt><trkpt lat="47.65853" lon="11.857509"><ele>1508</ele></trkpt><trkpt lat="47.658652" lon="11.857445"><ele>1507.5</ele></trkpt><trkpt lat="47.658845" lon="11.857431"><ele>1506.5</ele></trkpt><trkpt lat="47.659004" lon="11.857299"><ele>1505.4</ele></trkpt><trkpt lat="47.659328" lon="11.85721"><ele>1480</ele></trkpt><trkpt lat="47.659542" lon="11.857244"><ele>1480</ele></trkpt><trkpt lat="47.659905" lon="11.857208"><ele>1480</ele></trkpt><trkpt lat="47.659917" lon="11.857208"><ele>1480</ele></trkpt></trkseg></trk></gpx>