<gpx xmlns="http://www.topografix.com/GPX/1/1" xmlns:xsi="http://www.w3.org/2001/XMLSchema-instance" xsi:schemaLocation="http://www.topografix.com/GPX/1/1 http://www.topografix.com/GPX/1/1/gpx.xsd" version="1.1" creator="togpx"><metadata/><wpt lat="47.666138795991884" lon="11.888102889060976"><name></name><desc>label=47.64647497213607,11.94340467453003</desc></wpt><wpt lat="47.665853394700754" lon="11.890613436698915"><name></name><desc>label=Seeweg, Schliersee,BY,Germany</desc></wpt><wpt lat="47.662594651611855" lon="11.906041502952577"><name></name><desc>label=Lochgraben, Schliersee,BY,Germany</desc></wpt><wpt lat="47.66320884269618" lon="11.911888718605043"><name></name><desc>label=Lochgraben, Schliersee,BY,Germany</desc></wpt><wpt lat="47.662627167791605" lon="11.91531926393509"><name></name><desc>label=SB3, Bayrischzell,BY,Germany</desc></wpt><wpt lat="47.66067254811578" lon="11.920203566551208"><name></name><desc>label=Lochgrabensattel, Schliersee,BY,Germany</desc></wpt><wpt lat="47.65855526198089" lon="11.92181020975113"><name></name><desc>label=Taubensteinsattel, Schliersee,BY,Germany</desc></wpt><wpt lat="47.656578809897454" lon="11.922783851623537"><name></name><desc>label=Taubensteinsattel, Schliersee,BY,Germany</desc></wpt><wpt lat="47.648285567506676" lon="11.926587224006655"><name></name><desc>label=Kirchstein, Bayrischzell,BY,Germany</desc></wpt><wpt lat="47.64832532039349" lon="11.933051347732546"><name></name><desc>label=Willi Ringel, Bayrischzell,BY,Germany</desc></wpt><wpt lat="47.64911314409065" lon="11.932911872863771"><name></name><desc>label=Kriegersteig, Bayrischzell,BY,Germany</desc></wpt><wpt lat="47.65020089948037" lon="11.9344300031662"><name></name><desc>label=Kriegersteig, Bayrischzell,BY,Germany</desc></wpt><wpt lat="47.64605212944639" lon="11.935229301452638"><name></name><desc>label=Rotwandhaus, Bayrischzell,BY,Germany</desc></wpt><wpt lat="47.64750495923521" lon="11.930733919143679"><name></name><desc>label=Peter Völker, Bayrischzell,BY,Germany</desc></wpt><wpt lat="47.645593142481516" lon="11.925793290138246"><name></name><desc>label=Obere Wildfeldalm, Bayrischzell,BY,Germany</desc></wpt><wpt lat="47.64384750954965" lon="11.918122172355654"><name></name><desc>label=Hermann-Kleber-Weg, Schliersee,BY,Germany</desc></wpt><wpt lat="47.64272709328817" lon="11.920117735862734"><name></name><desc>label=Hermann-Kleber-Weg, Schliersee,BY,Germany</desc></wpt><wpt lat="47.64412941695414" lon="11.917054653167725"><name></name><desc>label=Hermann-Kleber-Weg, Schliersee,BY,Germany</desc></wpt><wpt lat="47.65620302260897" lon="11.88802242279053"><name></name><desc>label=K23, Schliersee,BY,Germany</desc></wpt><wpt lat="47.66188832293146" lon="11.887974143028261"><name></name><desc>label=Spitzingstraße, Schliersee,BY,Germany</desc></wpt><trk><name></name><desc>ascent=1061.7
descent=1063
opacity=0.9</desc><trkseg><trkpt lat="47.666139" lon="11.888104"><ele>1090.4</ele></trkpt><trkpt lat="47.666145" lon="11.888106"><ele>1085</ele></trkpt><trkpt lat="47.666138" lon="11.888156"><ele>1086</ele></trkpt><trkpt lat="47.666266" lon="11.888361"><ele>1086.3</ele></trkpt><trkpt lat="47.666475" lon="11.888554"><ele>1087</ele></trkpt><trkpt lat="47.666469" lon="11.888636"><ele>1087</ele></trkpt><trkpt lat="47.666125" lon="11.888906"><ele>1087</ele></trkpt><trkpt lat="47.666299" lon="11.889094"><ele>1087</ele></trkpt><trkpt lat="47.666502" lon="11.88929"><ele>1095</ele></trkpt><trkpt lat="47.666361" lon="11.88947"><ele>1095</ele></trkpt><trkpt lat="47.665996" lon="11.890476"><ele>1112.6</ele></trkpt><trkpt lat="47.665847" lon="11.890596"><ele>1112.8</ele></trkpt><trkpt lat="47.665631" lon="11.89077"><ele>1113.1</ele></trkpt><trkpt lat="47.665453" lon="11.891031"><ele>1136</ele></trkpt><trkpt lat="47.665331" lon="11.891391"><ele>1147.8</ele></trkpt><trkpt lat="47.665173" lon="11.891663"><ele>1150.2</ele></trkpt><trkpt lat="47.665134" lon="11.891683"><ele>1151.7</ele></trkpt><trkpt lat="47.665087" lon="11.891834"><ele>1151.9</ele></trkpt><trkpt lat="47.665044" lon="11.892071"><ele>1152.2</ele></trkpt><trkpt lat="47.664927" lon="11.892386"><ele>1170</ele></trkpt><trkpt lat="47.664899" lon="11.892473"><ele>1187.2</ele></trkpt><trkpt lat="47.664815" lon="11.892536"><ele>1190.5</ele></trkpt><trkpt lat="47.664724" lon="11.89253"><ele>1190.9</ele></trkpt><trkpt lat="47.664692" lon="11.892636"><ele>1192.4</ele></trkpt><trkpt lat="47.664613" lon="11.892753"><ele>1193.9</ele></trkpt><trkpt lat="47.66461" lon="11.892857"><ele>1195.3</ele></trkpt><trkpt lat="47.664523" lon="11.893029"><ele>1198</ele></trkpt><trkpt lat="47.664499" lon="11.893122"><ele>1200</ele></trkpt><trkpt lat="47.664442" lon="11.893201"><ele>1200.7</ele></trkpt><trkpt lat="47.66445" lon="11.893285"><ele>1202.6</ele></trkpt><trkpt lat="47.664389" lon="11.893385"><ele>1203.3</ele></trkpt><trkpt lat="47.664408" lon="11.893451"><ele>1203.6</ele></trkpt><trkpt lat="47.664365" lon="11.893508"><ele>1203.9</ele></trkpt><trkpt lat="47.664351" lon="11.893697"><ele>1205.4</ele></trkpt><trkpt lat="47.664286" lon="11.893753"><ele>1205.7</ele></trkpt><trkpt lat="47.664319" lon="11.893838"><ele>1207.1</ele></trkpt><trkpt lat="47.664264" lon="11.894181"><ele>1209.5</ele></trkpt><trkpt lat="47.664223" lon="11.894228"><ele>1210.1</ele></trkpt><trkpt lat="47.664243" lon="11.894324"><ele>1209.9</ele></trkpt><trkpt lat="47.664208" lon="11.894425"><ele>1211.1</ele></trkpt><trkpt lat="47.664061" lon="11.894483"><ele>1211.6</ele></trkpt><trkpt lat="47.664053" lon="11.894593"><ele>1212.2</ele></trkpt><trkpt lat="47.664146" lon="11.894777"><ele>1212.7</ele></trkpt><trkpt lat="47.664144" lon="11.894839"><ele>1212.6</ele></trkpt><trkpt lat="47.664496" lon="11.895098"><ele>1212.9</ele></trkpt><trkpt lat="47.664719" lon="11.895206"><ele>1212.8</ele></trkpt><trkpt lat="47.664932" lon="11.895514"><ele>1240</ele></trkpt><trkpt lat="47.664973" lon="11.895544"><ele>1265.5</ele></trkpt><trkpt lat="47.664972" lon="11.895631"><ele>1266.2</ele></trkpt><trkpt lat="47.665" lon="11.895638"><ele>1266.9</ele></trkpt><trkpt lat="47.665009" lon="11.895769"><ele>1268.5</ele></trkpt><trkpt lat="47.665061" lon="11.895831"><ele>1270.1</ele></trkpt><trkpt lat="47.665071" lon="11.895964"><ele>1271.1</ele></trkpt><trkpt lat="47.665026" lon="11.896117"><ele>1271.3</ele></trkpt><trkpt lat="47.665036" lon="11.896168"><ele>1271.5</ele></trkpt><trkpt lat="47.66501" lon="11.896212"><ele>1271.6</ele></trkpt><trkpt lat="47.665016" lon="11.896305"><ele>1271.9</ele></trkpt><trkpt lat="47.664989" lon="11.896451"><ele>1272.2</ele></trkpt><trkpt lat="47.664946" lon="11.896578"><ele>1272.8</ele></trkpt><trkpt lat="47.664939" lon="11.896734"><ele>1273.2</ele></trkpt><trkpt lat="47.664911" lon="11.896842"><ele>1272.2</ele></trkpt><trkpt lat="47.664909" lon="11.897009"><ele>1271.6</ele></trkpt><trkpt lat="47.664895" lon="11.897072"><ele>1270.9</ele></trkpt><trkpt lat="47.66484" lon="11.897169"><ele>1284</ele></trkpt><trkpt lat="47.664791" lon="11.897239"><ele>1292.6</ele></trkpt><trkpt lat="47.664713" lon="11.897297"><ele>1293.8</ele></trkpt><trkpt lat="47.664522" lon="11.897394"><ele>1295.2</ele></trkpt><trkpt lat="47.664401" lon="11.897564"><ele>1296</ele></trkpt><trkpt lat="47.664239" lon="11.897846"><ele>1295.6</ele></trkpt><trkpt lat="47.664061" lon="11.898411"><ele>1296.2</ele></trkpt><trkpt lat="47.663954" lon="11.898622"><ele>1295.6</ele></trkpt><trkpt lat="47.663942" lon="11.898679"><ele>1296.2</ele></trkpt><trkpt lat="47.66409" lon="11.899065"><ele>1300</ele></trkpt><trkpt lat="47.663717" lon="11.899685"><ele>1312.7</ele></trkpt><trkpt lat="47.663504" lon="11.900189"><ele>1325</ele></trkpt><trkpt lat="47.663418" lon="11.900481"><ele>1320.5</ele></trkpt><trkpt lat="47.663325" lon="11.901063"><ele>1318.7</ele></trkpt><trkpt lat="47.663212" lon="11.902144"><ele>1318.7</ele></trkpt><trkpt lat="47.662897" lon="11.903866"><ele>1322</ele></trkpt><trkpt lat="47.66275" lon="11.904203"><ele>1326</ele></trkpt><trkpt lat="47.66262" lon="11.905096"><ele>1329.2</ele></trkpt><trkpt lat="47.662584" lon="11.906041"><ele>1331.6</ele></trkpt><trkpt lat="47.662569" lon="11.906444"><ele>1334</ele></trkpt><trkpt lat="47.662523" lon="11.906479"><ele>1337</ele></trkpt><trkpt lat="47.662473" lon="11.906482"><ele>1338</ele></trkpt><trkpt lat="47.662211" lon="11.906447"><ele>1342</ele></trkpt><trkpt lat="47.662165" lon="11.90644"><ele>1342</ele></trkpt><trkpt lat="47.662005" lon="11.906428"><ele>1339.3</ele></trkpt><trkpt lat="47.661941" lon="11.90648"><ele>1339.5</ele></trkpt><trkpt lat="47.661908" lon="11.906584"><ele>1339.7</ele></trkpt><trkpt lat="47.661831" lon="11.907063"><ele>1339.5</ele></trkpt><trkpt lat="47.661736" lon="11.907305"><ele>1339.4</ele></trkpt><trkpt lat="47.661593" lon="11.907502"><ele>1338.9</ele></trkpt><trkpt lat="47.661492" lon="11.907588"><ele>1338.4</ele></trkpt><trkpt lat="47.661413" lon="11.90764"><ele>1338</ele></trkpt><trkpt lat="47.661337" lon="11.907635"><ele>1333</ele></trkpt><trkpt lat="47.661313" lon="11.907842"><ele>1335.6</ele></trkpt><trkpt lat="47.661321" lon="11.908125"><ele>1336.1</ele></trkpt><trkpt lat="47.6614" lon="11.908366"><ele>1346</ele></trkpt><trkpt lat="47.66147" lon="11.908612"><ele>1346</ele></trkpt><trkpt lat="47.661536" lon="11.909144"><ele>1348.8</ele></trkpt><trkpt lat="47.661677" lon="11.909501"><ele>1355</ele></trkpt><trkpt lat="47.661912" lon="11.909802"><ele>1361.4</ele></trkpt><trkpt lat="47.662058" lon="11.91008"><ele>1363.5</ele></trkpt><trkpt lat="47.662193" lon="11.910413"><ele>1372</ele></trkpt><trkpt lat="47.662457" lon="11.910859"><ele>1366.9</ele></trkpt><trkpt lat="47.662606" lon="11.911169"><ele>1364.8</ele></trkpt><trkpt lat="47.662697" lon="11.911256"><ele>1364</ele></trkpt><trkpt lat="47.66282" lon="11.911304"><ele>1363.2</ele></trkpt><trkpt lat="47.662951" lon="11.911292"><ele>1362.5</ele></trkpt><trkpt lat="47.663256" lon="11.911154"><ele>1357</ele></trkpt><trkpt lat="47.663264" lon="11.911256"><ele>1363.1</ele></trkpt><trkpt lat="47.663246" lon="11.911333"><ele>1363.5</ele></trkpt><trkpt lat="47.663248" lon="11.911454"><ele>1364.4</ele></trkpt><trkpt lat="47.663281" lon="11.911594"><ele>1366.6</ele></trkpt><trkpt lat="47.663257" lon="11.911694"><ele>1367.9</ele></trkpt><trkpt lat="47.663301" lon="11.911753"><ele>1380</ele></trkpt><trkpt lat="47.663249" lon="11.911817"><ele>1388.2</ele></trkpt><trkpt lat="47.663229" lon="11.911879"><ele>1388.9</ele></trkpt><trkpt lat="47.663208" lon="11.911882"><ele>1389.1</ele></trkpt><trkpt lat="47.66316" lon="11.91189"><ele>1389.3</ele></trkpt><trkpt lat="47.663166" lon="11.911929"><ele>1389.6</ele></trkpt><trkpt lat="47.663132" lon="11.911949"><ele>1390</ele></trkpt><trkpt lat="47.663043" lon="11.91196"><ele>1390.4</ele></trkpt><trkpt lat="47.663005" lon="11.912133"><ele>1390.8</ele></trkpt><trkpt lat="47.662952" lon="11.912225"><ele>1391.3</ele></trkpt><trkpt lat="47.663077" lon="11.912325"><ele>1391.7</ele></trkpt><trkpt lat="47.662821" lon="11.91259"><ele>1393</ele></trkpt><trkpt lat="47.662715" lon="11.912879"><ele>1392.8</ele></trkpt><trkpt lat="47.662573" lon="11.913096"><ele>1392.6</ele></trkpt><trkpt lat="47.662528" lon="11.913301"><ele>1392.1</ele></trkpt><trkpt lat="47.662595" lon="11.913329"><ele>1391.9</ele></trkpt><trkpt lat="47.662666" lon="11.913286"><ele>1391.7</ele></trkpt><trkpt lat="47.662774" lon="11.913271"><ele>1391.2</ele></trkpt><trkpt lat="47.662825" lon="11.913322"><ele>1398</ele></trkpt><trkpt lat="47.663293" lon="11.913311"><ele>1434.7</ele></trkpt><trkpt lat="47.662993" lon="11.913802"><ele>1447.2</ele></trkpt><trkpt lat="47.662709" lon="11.91437"><ele>1451</ele></trkpt><trkpt lat="47.662645" lon="11.914547"><ele>1450.8</ele></trkpt><trkpt lat="47.662582" lon="11.914665"><ele>1450.5</ele></trkpt><trkpt lat="47.662653" lon="11.914783"><ele>1450.2</ele></trkpt><trkpt lat="47.662419" lon="11.915005"><ele>1454.9</ele></trkpt><trkpt lat="47.662475" lon="11.915156"><ele>1454.5</ele></trkpt><trkpt lat="47.662556" lon="11.915132"><ele>1493</ele></trkpt><trkpt lat="47.662705" lon="11.915209"><ele>1491.4</ele></trkpt><trkpt lat="47.662623" lon="11.915312"><ele>1492.1</ele></trkpt><trkpt lat="47.662479" lon="11.915491"><ele>1492.8</ele></trkpt><trkpt lat="47.662403" lon="11.915692"><ele>1495.8</ele></trkpt><trkpt lat="47.662425" lon="11.915756"><ele>1497.7</ele></trkpt><trkpt lat="47.662527" lon="11.915725"><ele>1499.6</ele></trkpt><trkpt lat="47.662597" lon="11.915813"><ele>1500</ele></trkpt><trkpt lat="47.662535" lon="11.915952"><ele>1502.6</ele></trkpt><trkpt lat="47.662462" lon="11.916069"><ele>1503.4</ele></trkpt><trkpt lat="47.662362" lon="11.91634"><ele>1506</ele></trkpt><trkpt lat="47.66228" lon="11.916399"><ele>1506.8</ele></trkpt><trkpt lat="47.662226" lon="11.916404"><ele>1509</ele></trkpt><trkpt lat="47.662167" lon="11.916515"><ele>1509.9</ele></trkpt><trkpt lat="47.662114" lon="11.916674"><ele>1512.8</ele></trkpt><trkpt lat="47.662091" lon="11.916848"><ele>1514.4</ele></trkpt><trkpt lat="47.661879" lon="11.917379"><ele>1523.7</ele></trkpt><trkpt lat="47.661861" lon="11.917661"><ele>1531</ele></trkpt><trkpt lat="47.661805" lon="11.917765"><ele>1533.6</ele></trkpt><trkpt lat="47.661688" lon="11.917876"><ele>1534.8</ele></trkpt><trkpt lat="47.661593" lon="11.918131"><ele>1537.6</ele></trkpt><trkpt lat="47.661531" lon="11.918407"><ele>1541.3</ele></trkpt><trkpt lat="47.661453" lon="11.91852"><ele>1542.4</ele></trkpt><trkpt lat="47.661354" lon="11.918814"><ele>1543</ele></trkpt><trkpt lat="47.661334" lon="11.918972"><ele>1542.3</ele></trkpt><trkpt lat="47.661209" lon="11.919211"><ele>1543.9</ele></trkpt><trkpt lat="47.66117" lon="11.919381"><ele>1567</ele></trkpt><trkpt lat="47.661094" lon="11.919582"><ele>1573.3</ele></trkpt><trkpt lat="47.660841" lon="11.919761"><ele>1574.8</ele></trkpt><trkpt lat="47.660738" lon="11.919807"><ele>1592</ele></trkpt><trkpt lat="47.660694" lon="11.919857"><ele>1596</ele></trkpt><trkpt lat="47.660676" lon="11.919933"><ele>1596.8</ele></trkpt><trkpt lat="47.660713" lon="11.920207"><ele>1602</ele></trkpt><trkpt lat="47.660673" lon="11.920211"><ele>1602</ele></trkpt><trkpt lat="47.660473" lon="11.920233"><ele>1602</ele></trkpt><trkpt lat="47.660393" lon="11.920193"><ele>1603.1</ele></trkpt><trkpt lat="47.660123" lon="11.920224"><ele>1603</ele></trkpt><trkpt lat="47.65995" lon="11.920155"><ele>1603.3</ele></trkpt><trkpt lat="47.659847" lon="11.920285"><ele>1603.5</ele></trkpt><trkpt lat="47.659728" lon="11.920329"><ele>1605</ele></trkpt><trkpt lat="47.659713" lon="11.920343"><ele>1605</ele></trkpt><trkpt lat="47.659681" lon="11.920329"><ele>1605</ele></trkpt><trkpt lat="47.659606" lon="11.920278"><ele>1605</ele></trkpt><trkpt lat="47.659541" lon="11.920265"><ele>1628.4</ele></trkpt><trkpt lat="47.659322" lon="11.920291"><ele>1630.1</ele></trkpt><trkpt lat="47.659205" lon="11.920333"><ele>1630.9</ele></trkpt><trkpt lat="47.65915" lon="11.920455"><ele>1631.9</ele></trkpt><trkpt lat="47.659132" lon="11.920571"><ele>1633.4</ele></trkpt><trkpt lat="47.659334" lon="11.920667"><ele>1636.1</ele></trkpt><trkpt lat="47.659374" lon="11.920746"><ele>1637.2</ele></trkpt><trkpt lat="47.659374" lon="11.920818"><ele>1638.3</ele></trkpt><trkpt lat="47.659315" lon="11.920867"><ele>1639.5</ele></trkpt><trkpt lat="47.659208" lon="11.920868"><ele>1640.2</ele></trkpt><trkpt lat="47.659183" lon="11.920898"><ele>1640.6</ele></trkpt><trkpt lat="47.659204" lon="11.921026"><ele>1640.9</ele></trkpt><trkpt lat="47.659177" lon="11.921111"><ele>1641.3</ele></trkpt><trkpt lat="47.659106" lon="11.921129"><ele>1641.7</ele></trkpt><trkpt lat="47.659094" lon="11.921241"><ele>1641.4</ele></trkpt><trkpt lat="47.659108" lon="11.921335"><ele>1641.1</ele></trkpt><trkpt lat="47.659066" lon="11.921338"><ele>1640.7</ele></trkpt><trkpt lat="47.659054" lon="11.921431"><ele>1640.3</ele></trkpt><trkpt lat="47.65903" lon="11.921437"><ele>1640</ele></trkpt><trkpt lat="47.658966" lon="11.921375"><ele>1639.6</ele></trkpt><trkpt lat="47.658954" lon="11.921455"><ele>1639.2</ele></trkpt><trkpt lat="47.658859" lon="11.9217"><ele>1638.7</ele></trkpt><trkpt lat="47.658778" lon="11.921753"><ele>1637.9</ele></trkpt><trkpt lat="47.658662" lon="11.921761"><ele>1661</ele></trkpt><trkpt lat="47.658616" lon="11.9218"><ele>1661</ele></trkpt><trkpt lat="47.658555" lon="11.92181"><ele>1661</ele></trkpt><trkpt lat="47.658532" lon="11.921813"><ele>1661</ele></trkpt><trkpt lat="47.658182" lon="11.921825"><ele>1657.9</ele></trkpt><trkpt lat="47.658111" lon="11.921872"><ele>1657</ele></trkpt><trkpt lat="47.65803" lon="11.922024"><ele>1658.4</ele></trkpt><trkpt lat="47.657997" lon="11.92215"><ele>1658.5</ele></trkpt><trkpt lat="47.657866" lon="11.922338"><ele>1659</ele></trkpt><trkpt lat="47.657758" lon="11.922437"><ele>1659.5</ele></trkpt><trkpt lat="47.657697" lon="11.922468"><ele>1659.7</ele></trkpt><trkpt lat="47.657606" lon="11.922465"><ele>1659.9</ele></trkpt><trkpt lat="47.657541" lon="11.922537"><ele>1674</ele></trkpt><trkpt lat="47.657468" lon="11.922376"><ele>1669</ele></trkpt><trkpt lat="47.657277" lon="11.922311"><ele>1669</ele></trkpt><trkpt lat="47.657112" lon="11.922202"><ele>1669</ele></trkpt><trkpt lat="47.656878" lon="11.922133"><ele>1669</ele></trkpt><trkpt lat="47.656736" lon="11.92215"><ele>1665.5</ele></trkpt><trkpt lat="47.656666" lon="11.92222"><ele>1664.6</ele></trkpt><trkpt lat="47.656636" lon="11.922367"><ele>1662</ele></trkpt><trkpt lat="47.656653" lon="11.922599"><ele>1679.1</ele></trkpt><trkpt lat="47.65658" lon="11.922785"><ele>1687.1</ele></trkpt><trkpt lat="47.656461" lon="11.92309"><ele>1695</ele></trkpt><trkpt lat="47.656294" lon="11.923457"><ele>1699.3</ele></trkpt><trkpt lat="47.656124" lon="11.923639"><ele>1702.6</ele></trkpt><trkpt lat="47.655842" lon="11.923857"><ele>1707.6</ele></trkpt><trkpt lat="47.655687" lon="11.924028"><ele>1713.7</ele></trkpt><trkpt lat="47.65546" lon="11.924169"><ele>1719.3</ele></trkpt><trkpt lat="47.655397" lon="11.924183"><ele>1719</ele></trkpt><trkpt lat="47.65521" lon="11.924125"><ele>1721.8</ele></trkpt><trkpt lat="47.654742" lon="11.924157"><ele>1727.1</ele></trkpt><trkpt lat="47.654279" lon="11.923918"><ele>1728.3</ele></trkpt><trkpt lat="47.654162" lon="11.923835"><ele>1727.6</ele></trkpt><trkpt lat="47.65387" lon="11.923833"><ele>1731.4</ele></trkpt><trkpt lat="47.653512" lon="11.923757"><ele>1729.4</ele></trkpt><trkpt lat="47.65325" lon="11.923725"><ele>1729.5</ele></trkpt><trkpt lat="47.652964" lon="11.923744"><ele>1730.5</ele></trkpt><trkpt lat="47.652793" lon="11.923725"><ele>1725.8</ele></trkpt><trkpt lat="47.652632" lon="11.923782"><ele>1719.3</ele></trkpt><trkpt lat="47.652291" lon="11.923976"><ele>1717.1</ele></trkpt><trkpt lat="47.652011" lon="11.924207"><ele>1717.8</ele></trkpt><trkpt lat="47.651657" lon="11.924689"><ele>1714.5</ele></trkpt><trkpt lat="47.65164" lon="11.924844"><ele>1715.9</ele></trkpt><trkpt lat="47.651622" lon="11.924879"><ele>1716.7</ele></trkpt><trkpt lat="47.651467" lon="11.92497"><ele>1717.8</ele></trkpt><trkpt lat="47.651445" lon="11.925025"><ele>1718.6</ele></trkpt><trkpt lat="47.651268" lon="11.925262"><ele>1718.6</ele></trkpt><trkpt lat="47.651163" lon="11.925469"><ele>1718.8</ele></trkpt><trkpt lat="47.651091" lon="11.92564"><ele>1718.8</ele></trkpt><trkpt lat="47.651053" lon="11.925815"><ele>1721</ele></trkpt><trkpt lat="47.650766" lon="11.926432"><ele>1722.3</ele></trkpt><trkpt lat="47.650648" lon="11.926998"><ele>1725.8</ele></trkpt><trkpt lat="47.650603" lon="11.927101"><ele>1726.5</ele></trkpt><trkpt lat="47.650567" lon="11.92731"><ele>1728</ele></trkpt><trkpt lat="47.650538" lon="11.927382"><ele>1728.3</ele></trkpt><trkpt lat="47.650409" lon="11.927555"><ele>1750</ele></trkpt><trkpt lat="47.650348" lon="11.92762"><ele>1748.5</ele></trkpt><trkpt lat="47.650248" lon="11.927612"><ele>1748.3</ele></trkpt><trkpt lat="47.649893" lon="11.927497"><ele>1747.9</ele></trkpt><trkpt lat="47.64979" lon="11.927412"><ele>1748</ele></trkpt><trkpt lat="47.649606" lon="11.927205"><ele>1748.1</ele></trkpt><trkpt lat="47.649553" lon="11.927119"><ele>1747</ele></trkpt><trkpt lat="47.649298" lon="11.927007"><ele>1755.1</ele></trkpt><trkpt lat="47.649166" lon="11.926975"><ele>1755.5</ele></trkpt><trkpt lat="47.648963" lon="11.926963"><ele>1754.6</ele></trkpt><trkpt lat="47.648879" lon="11.926837"><ele>1753.6</ele></trkpt><trkpt lat="47.648535" lon="11.926463"><ele>1751.5</ele></trkpt><trkpt lat="47.648268" lon="11.926208"><ele>1750.7</ele></trkpt><trkpt lat="47.648247" lon="11.926227"><ele>1750.6</ele></trkpt><trkpt lat="47.64825" lon="11.926433"><ele>1751.4</ele></trkpt><trkpt lat="47.648275" lon="11.926591"><ele>1751.5</ele></trkpt><trkpt lat="47.648322" lon="11.926883"><ele>1751.6</ele></trkpt><trkpt lat="47.648319" lon="11.926992"><ele>1747</ele></trkpt><trkpt lat="47.648252" lon="11.927154"><ele>1740</ele></trkpt><trkpt lat="47.648232" lon="11.927381"><ele>1739.8</ele></trkpt><trkpt lat="47.648277" lon="11.928019"><ele>1737.8</ele></trkpt><trkpt lat="47.64831" lon="11.928223"><ele>1737.1</ele></trkpt><trkpt lat="47.648308" lon="11.928945"><ele>1734.1</ele></trkpt><trkpt lat="47.648249" lon="11.929165"><ele>1731.3</ele></trkpt><trkpt lat="47.648268" lon="11.929519"><ele>1730.6</ele></trkpt><trkpt lat="47.648329" lon="11.929843"><ele>1729.9</ele></trkpt><trkpt lat="47.648321" lon="11.93012"><ele>1730.3</ele></trkpt><trkpt lat="47.648471" lon="11.930575"><ele>1737.7</ele></trkpt><trkpt lat="47.648504" lon="11.930745"><ele>1739.8</ele></trkpt><trkpt lat="47.648517" lon="11.930933"><ele>1743.2</ele></trkpt><trkpt lat="47.648585" lon="11.931121"><ele>1744.9</ele></trkpt><trkpt lat="47.648655" lon="11.931593"><ele>1746.2</ele></trkpt><trkpt lat="47.648629" lon="11.932132"><ele>1747.9</ele></trkpt><trkpt lat="47.648601" lon="11.932265"><ele>1747.9</ele></trkpt><trkpt lat="47.648612" lon="11.93242"><ele>1746.2</ele></trkpt><trkpt lat="47.648592" lon="11.932604"><ele>1745.5</ele></trkpt><trkpt lat="47.648578" lon="11.932664"><ele>1745.7</ele></trkpt><trkpt lat="47.648521" lon="11.932757"><ele>1744.8</ele></trkpt><trkpt lat="47.64833" lon="11.933012"><ele>1741.9</ele></trkpt><trkpt lat="47.648322" lon="11.93305"><ele>1740.2</ele></trkpt><trkpt lat="47.648311" lon="11.933108"><ele>1738.5</ele></trkpt><trkpt lat="47.648183" lon="11.933405"><ele>1734</ele></trkpt><trkpt lat="47.648021" lon="11.933698"><ele>1730.6</ele></trkpt><trkpt lat="47.64779" lon="11.934001"><ele>1726.5</ele></trkpt><trkpt lat="47.647643" lon="11.934345"><ele>1718.8</ele></trkpt><trkpt lat="47.647367" lon="11.934522"><ele>1714.6</ele></trkpt><trkpt lat="47.647014" lon="11.934794"><ele>1718.1</ele></trkpt><trkpt lat="47.646638" lon="11.935218"><ele>1718</ele></trkpt><trkpt lat="47.646839" lon="11.935224"><ele>1732.2</ele></trkpt><trkpt lat="47.647056" lon="11.935129"><ele>1732.5</ele></trkpt><trkpt lat="47.647111" lon="11.935078"><ele>1732.5</ele></trkpt><trkpt lat="47.647575" lon="11.934904"><ele>1733.9</ele></trkpt><trkpt lat="47.647798" lon="11.934773"><ele>1734.5</ele></trkpt><trkpt lat="47.648501" lon="11.934084"><ele>1738.7</ele></trkpt><trkpt lat="47.648656" lon="11.933964"><ele>1742</ele></trkpt><trkpt lat="47.648769" lon="11.933798"><ele>1744</ele></trkpt><trkpt lat="47.648888" lon="11.933534"><ele>1746.8</ele></trkpt><trkpt lat="47.648918" lon="11.933384"><ele>1748.3</ele></trkpt><trkpt lat="47.649026" lon="11.933264"><ele>1749</ele></trkpt><trkpt lat="47.649048" lon="11.933134"><ele>1761.4</ele></trkpt><trkpt lat="47.649092" lon="11.933024"><ele>1760.2</ele></trkpt><trkpt lat="47.649136" lon="11.932966"><ele>1759.1</ele></trkpt><trkpt lat="47.649138" lon="11.932914"><ele>1758.6</ele></trkpt><trkpt lat="47.649138" lon="11.932896"><ele>1758.1</ele></trkpt><trkpt lat="47.64911" lon="11.9328"><ele>1757.1</ele></trkpt><trkpt lat="47.649109" lon="11.932693"><ele>1756.3</ele></trkpt><trkpt lat="47.649177" lon="11.932737"><ele>1761</ele></trkpt><trkpt lat="47.649259" lon="11.932853"><ele>1803</ele></trkpt><trkpt lat="47.649341" lon="11.933056"><ele>1805.7</ele></trkpt><trkpt lat="47.649401" lon="11.933273"><ele>1807.4</ele></trkpt><trkpt lat="47.64946" lon="11.933549"><ele>1806.9</ele></trkpt><trkpt lat="47.64949" lon="11.933835"><ele>1806.5</ele></trkpt><trkpt lat="47.64951" lon="11.934071"><ele>1806.1</ele></trkpt><trkpt lat="47.649515" lon="11.934633"><ele>1806.7</ele></trkpt><trkpt lat="47.649465" lon="11.93513"><ele>1823</ele></trkpt><trkpt lat="47.649489" lon="11.935179"><ele>1823</ele></trkpt><trkpt lat="47.64977" lon="11.934883"><ele>1827.5</ele></trkpt><trkpt lat="47.65001" lon="11.934595"><ele>1828.1</ele></trkpt><trkpt lat="47.650037" lon="11.934673"><ele>1830.3</ele></trkpt><trkpt lat="47.650068" lon="11.934604"><ele>1832.3</ele></trkpt><trkpt lat="47.6501" lon="11.934646"><ele>1848</ele></trkpt><trkpt lat="47.650124" lon="11.934644"><ele>1848</ele></trkpt><trkpt lat="47.650158" lon="11.934558"><ele>1848</ele></trkpt><trkpt lat="47.650177" lon="11.934453"><ele>1848</ele></trkpt><trkpt lat="47.650202" lon="11.934434"><ele>1848</ele></trkpt><trkpt lat="47.650177" lon="11.934453"><ele>1848</ele></trkpt><trkpt lat="47.650158" lon="11.934558"><ele>1848</ele></trkpt><trkpt lat="47.650124" lon="11.934644"><ele>1848</ele></trkpt><trkpt lat="47.6501" lon="11.934646"><ele>1848</ele></trkpt><trkpt lat="47.650068" lon="11.934604"><ele>1832.3</ele></trkpt><trkpt lat="47.650037" lon="11.934673"><ele>1830.3</ele></trkpt><trkpt lat="47.65001" lon="11.934595"><ele>1828.1</ele></trkpt><trkpt lat="47.64977" lon="11.934883"><ele>1827.5</ele></trkpt><trkpt lat="47.649489" lon="11.935179"><ele>1823</ele></trkpt><trkpt lat="47.649465" lon="11.93513"><ele>1823</ele></trkpt><trkpt lat="47.649515" lon="11.934633"><ele>1806.7</ele></trkpt><trkpt lat="47.64951" lon="11.934071"><ele>1806.1</ele></trkpt><trkpt lat="47.64949" lon="11.933835"><ele>1806.5</ele></trkpt><trkpt lat="47.64946" lon="11.933549"><ele>1806.9</ele></trkpt><trkpt lat="47.649401" lon="11.933273"><ele>1807.4</ele></trkpt><trkpt lat="47.649341" lon="11.933056"><ele>1805.7</ele></trkpt><trkpt lat="47.649259" lon="11.932853"><ele>1803</ele></trkpt><trkpt lat="47.649177" lon="11.932737"><ele>1761</ele></trkpt><trkpt lat="47.649109" lon="11.932693"><ele>1756.3</ele></trkpt><trkpt lat="47.64911" lon="11.9328"><ele>1757.1</ele></trkpt><trkpt lat="47.649138" lon="11.932896"><ele>1758.1</ele></trkpt><trkpt lat="47.649136" lon="11.932966"><ele>1759.1</ele></trkpt><trkpt lat="47.649092" lon="11.933024"><ele>1760.2</ele></trkpt><trkpt lat="47.649048" lon="11.933134"><ele>1761.4</ele></trkpt><trkpt lat="47.649026" lon="11.933264"><ele>1749</ele></trkpt><trkpt lat="47.648918" lon="11.933384"><ele>1748.3</ele></trkpt><trkpt lat="47.648888" lon="11.933534"><ele>1746.8</ele></trkpt><trkpt lat="47.648769" lon="11.933798"><ele>1744</ele></trkpt><trkpt lat="47.648656" lon="11.933964"><ele>1742</ele></trkpt><trkpt lat="47.648501" lon="11.934084"><ele>1738.7</ele></trkpt><trkpt lat="47.647798" lon="11.934773"><ele>1734.5</ele></trkpt><trkpt lat="47.647575" lon="11.934904"><ele>1733.9</ele></trkpt><trkpt lat="47.647111" lon="11.935078"><ele>1732.5</ele></trkpt><trkpt lat="47.647056" lon="11.935129"><ele>1732.5</ele></trkpt><trkpt lat="47.646839" lon="11.935224"><ele>1732.2</ele></trkpt><trkpt lat="47.646638" lon="11.935218"><ele>1718</ele></trkpt><trkpt lat="47.646469" lon="11.93518"><ele>1718</ele></trkpt><trkpt lat="47.64633" lon="11.935071"><ele>1718</ele></trkpt><trkpt lat="47.646299" lon="11.935073"><ele>1718</ele></trkpt><trkpt lat="47.646281" lon="11.935084"><ele>1716.3</ele></trkpt><trkpt lat="47.646286" lon="11.935325"><ele>1716.5</ele></trkpt><trkpt lat="47.646233" lon="11.935371"><ele>1716.7</ele></trkpt><trkpt lat="47.646122" lon="11.935357"><ele>1716.9</ele></trkpt><trkpt lat="47.646047" lon="11.935235"><ele>1717</ele></trkpt><trkpt lat="47.646047" lon="11.93523"><ele>1714</ele></trkpt><trkpt lat="47.646047" lon="11.935235"><ele>1717</ele></trkpt><trkpt lat="47.646122" lon="11.935357"><ele>1716.9</ele></trkpt><trkpt lat="47.646233" lon="11.935371"><ele>1716.7</ele></trkpt><trkpt lat="47.646286" lon="11.935325"><ele>1716.5</ele></trkpt><trkpt lat="47.646281" lon="11.935084"><ele>1716.3</ele></trkpt><trkpt lat="47.646299" lon="11.935073"><ele>1718</ele></trkpt><trkpt lat="47.64633" lon="11.935071"><ele>1718</ele></trkpt><trkpt lat="47.646469" lon="11.93518"><ele>1718</ele></trkpt><trkpt lat="47.646638" lon="11.935218"><ele>1718</ele></trkpt><trkpt lat="47.646816" lon="11.9349"><ele>1714.9</ele></trkpt><trkpt lat="47.646882" lon="11.934816"><ele>1714</ele></trkpt><trkpt lat="47.646968" lon="11.93474"><ele>1713.1</ele></trkpt><trkpt lat="47.647236" lon="11.934424"><ele>1712.1</ele></trkpt><trkpt lat="47.647437" lon="11.934238"><ele>1711.7</ele></trkpt><trkpt lat="47.647493" lon="11.934153"><ele>1710.6</ele></trkpt><trkpt lat="47.647575" lon="11.933664"><ele>1709.4</ele></trkpt><trkpt lat="47.647643" lon="11.933472"><ele>1708.6</ele></trkpt><trkpt lat="47.647678" lon="11.933305"><ele>1707.8</ele></trkpt><trkpt lat="47.64774" lon="11.933115"><ele>1707.1</ele></trkpt><trkpt lat="47.64773" lon="11.932674"><ele>1703.5</ele></trkpt><trkpt lat="47.647797" lon="11.932212"><ele>1699.8</ele></trkpt><trkpt lat="47.64776" lon="11.932099"><ele>1696.7</ele></trkpt><trkpt lat="47.647661" lon="11.931917"><ele>1693.3</ele></trkpt><trkpt lat="47.647521" lon="11.931179"><ele>1679.9</ele></trkpt><trkpt lat="47.647491" lon="11.930933"><ele>1675.7</ele></trkpt><trkpt lat="47.647507" lon="11.930734"><ele>1674.8</ele></trkpt><trkpt lat="47.647522" lon="11.930549"><ele>1673.8</ele></trkpt><trkpt lat="47.647491" lon="11.930445"><ele>1672.2</ele></trkpt><trkpt lat="47.647275" lon="11.930064"><ele>1669.4</ele></trkpt><trkpt lat="47.647236" lon="11.929916"><ele>1668.4</ele></trkpt><trkpt lat="47.647228" lon="11.929756"><ele>1668.9</ele></trkpt><trkpt lat="47.647295" lon="11.929352"><ele>1666.8</ele></trkpt><trkpt lat="47.647282" lon="11.929234"><ele>1667.1</ele></trkpt><trkpt lat="47.647048" lon="11.92887"><ele>1664.1</ele></trkpt><trkpt lat="47.647004" lon="11.928714"><ele>1663.1</ele></trkpt><trkpt lat="47.646997" lon="11.928513"><ele>1661.8</ele></trkpt><trkpt lat="47.646965" lon="11.92838"><ele>1660.8</ele></trkpt><trkpt lat="47.646772" lon="11.927933"><ele>1658.1</ele></trkpt><trkpt lat="47.64661" lon="11.927716"><ele>1654.1</ele></trkpt><trkpt lat="47.646302" lon="11.927073"><ele>1650.2</ele></trkpt><trkpt lat="47.64614" lon="11.926911"><ele>1648.3</ele></trkpt><trkpt lat="47.646039" lon="11.926748"><ele>1647.3</ele></trkpt><trkpt lat="47.645851" lon="11.926337"><ele>1646.2</ele></trkpt><trkpt lat="47.645654" lon="11.926103"><ele>1631</ele></trkpt><trkpt lat="47.645577" lon="11.925802"><ele>1619.4</ele></trkpt><trkpt lat="47.645485" lon="11.925442"><ele>1607.8</ele></trkpt><trkpt lat="47.64554" lon="11.925169"><ele>1606.1</ele></trkpt><trkpt lat="47.645535" lon="11.924987"><ele>1605.2</ele></trkpt><trkpt lat="47.645687" lon="11.924705"><ele>1604.9</ele></trkpt><trkpt lat="47.645785" lon="11.924415"><ele>1604.8</ele></trkpt><trkpt lat="47.645825" lon="11.923939"><ele>1603.7</ele></trkpt><trkpt lat="47.645852" lon="11.923824"><ele>1603.9</ele></trkpt><trkpt lat="47.645932" lon="11.923765"><ele>1603.8</ele></trkpt><trkpt lat="47.645969" lon="11.923701"><ele>1603.7</ele></trkpt><trkpt lat="47.645949" lon="11.923645"><ele>1603.1</ele></trkpt><trkpt lat="47.645798" lon="11.923625"><ele>1603.4</ele></trkpt><trkpt lat="47.645743" lon="11.923594"><ele>1590</ele></trkpt><trkpt lat="47.645666" lon="11.923536"><ele>1583.3</ele></trkpt><trkpt lat="47.645537" lon="11.923627"><ele>1581.8</ele></trkpt><trkpt lat="47.645467" lon="11.923245"><ele>1578.7</ele></trkpt><trkpt lat="47.64542" lon="11.923183"><ele>1579.7</ele></trkpt><trkpt lat="47.645335" lon="11.923148"><ele>1570</ele></trkpt><trkpt lat="47.645143" lon="11.923244"><ele>1564.8</ele></trkpt><trkpt lat="47.644995" lon="11.92327"><ele>1561.6</ele></trkpt><trkpt lat="47.644918" lon="11.92332"><ele>1558.8</ele></trkpt><trkpt lat="47.644646" lon="11.923581"><ele>1564</ele></trkpt><trkpt lat="47.64453" lon="11.923619"><ele>1564</ele></trkpt><trkpt lat="47.644404" lon="11.923619"><ele>1564</ele></trkpt><trkpt lat="47.643409" lon="11.923993"><ele>1542.9</ele></trkpt><trkpt lat="47.643183" lon="11.924189"><ele>1541.5</ele></trkpt><trkpt lat="47.643116" lon="11.924192"><ele>1530</ele></trkpt><trkpt lat="47.643124" lon="11.924115"><ele>1512.7</ele></trkpt><trkpt lat="47.643301" lon="11.923873"><ele>1510.6</ele></trkpt><trkpt lat="47.643821" lon="11.923252"><ele>1502</ele></trkpt><trkpt lat="47.644031" lon="11.923082"><ele>1494</ele></trkpt><trkpt lat="47.64409" lon="11.923006"><ele>1494.8</ele></trkpt><trkpt lat="47.644128" lon="11.922897"><ele>1495.4</ele></trkpt><trkpt lat="47.644152" lon="11.922658"><ele>1494.1</ele></trkpt><trkpt lat="47.644098" lon="11.922237"><ele>1493.2</ele></trkpt><trkpt lat="47.644028" lon="11.921973"><ele>1492.3</ele></trkpt><trkpt lat="47.643862" lon="11.921589"><ele>1490.7</ele></trkpt><trkpt lat="47.643825" lon="11.921388"><ele>1489.2</ele></trkpt><trkpt lat="47.643814" lon="11.921207"><ele>1486.6</ele></trkpt><trkpt lat="47.643843" lon="11.920873"><ele>1473</ele></trkpt><trkpt lat="47.643897" lon="11.920597"><ele>1460.1</ele></trkpt><trkpt lat="47.643907" lon="11.920206"><ele>1458.1</ele></trkpt><trkpt lat="47.643887" lon="11.919666"><ele>1457.2</ele></trkpt><trkpt lat="47.643836" lon="11.919383"><ele>1457.1</ele></trkpt><trkpt lat="47.643795" lon="11.919046"><ele>1456.9</ele></trkpt><trkpt lat="47.643779" lon="11.918738"><ele>1455.6</ele></trkpt><trkpt lat="47.643787" lon="11.918452"><ele>1450</ele></trkpt><trkpt lat="47.64385" lon="11.918178"><ele>1442</ele></trkpt><trkpt lat="47.643855" lon="11.918124"><ele>1442.2</ele></trkpt><trkpt lat="47.643859" lon="11.91807"><ele>1442.4</ele></trkpt><trkpt lat="47.643808" lon="11.917987"><ele>1442.9</ele></trkpt><trkpt lat="47.64368" lon="11.917994"><ele>1440</ele></trkpt><trkpt lat="47.643628" lon="11.918077"><ele>1431.3</ele></trkpt><trkpt lat="47.643379" lon="11.918952"><ele>1414.1</ele></trkpt><trkpt lat="47.643282" lon="11.919209"><ele>1413.1</ele></trkpt><trkpt lat="47.643152" lon="11.919664"><ele>1413.4</ele></trkpt><trkpt lat="47.643034" lon="11.91989"><ele>1411.9</ele></trkpt><trkpt lat="47.642874" lon="11.920108"><ele>1412</ele></trkpt><trkpt lat="47.642808" lon="11.92017"><ele>1411.6</ele></trkpt><trkpt lat="47.64274" lon="11.920112"><ele>1411.2</ele></trkpt><trkpt lat="47.642735" lon="11.920022"><ele>1410.7</ele></trkpt><trkpt lat="47.642898" lon="11.91975"><ele>1411.7</ele></trkpt><trkpt lat="47.642944" lon="11.919568"><ele>1412.4</ele></trkpt><trkpt lat="47.642973" lon="11.9193"><ele>1412.5</ele></trkpt><trkpt lat="47.642991" lon="11.918731"><ele>1410.9</ele></trkpt><trkpt lat="47.643113" lon="11.918043"><ele>1403.7</ele></trkpt><trkpt lat="47.643122" lon="11.917688"><ele>1403.6</ele></trkpt><trkpt lat="47.64309" lon="11.917183"><ele>1402.2</ele></trkpt><trkpt lat="47.643105" lon="11.916985"><ele>1402.6</ele></trkpt><trkpt lat="47.643152" lon="11.916813"><ele>1403.1</ele></trkpt><trkpt lat="47.64328" lon="11.916559"><ele>1392</ele></trkpt><trkpt lat="47.643319" lon="11.916508"><ele>1413.4</ele></trkpt><trkpt lat="47.643394" lon="11.916513"><ele>1415.2</ele></trkpt><trkpt lat="47.643752" lon="11.91682"><ele>1414.1</ele></trkpt><trkpt lat="47.644128" lon="11.917059"><ele>1413.3</ele></trkpt><trkpt lat="47.644166" lon="11.917083"><ele>1412.5</ele></trkpt><trkpt lat="47.644376" lon="11.917156"><ele>1411.1</ele></trkpt><trkpt lat="47.644417" lon="11.917118"><ele>1410.5</ele></trkpt><trkpt lat="47.644625" lon="11.916632"><ele>1407.4</ele></trkpt><trkpt lat="47.644984" lon="11.916143"><ele>1401.1</ele></trkpt><trkpt lat="47.645057" lon="11.915997"><ele>1400.4</ele></trkpt><trkpt lat="47.645343" lon="11.915129"><ele>1387.9</ele></trkpt><trkpt lat="47.645407" lon="11.914886"><ele>1384.6</ele></trkpt><trkpt lat="47.645487" lon="11.914661"><ele>1383</ele></trkpt><trkpt lat="47.645584" lon="11.914454"><ele>1383.2</ele></trkpt><trkpt lat="47.64578" lon="11.914167"><ele>1380.1</ele></trkpt><trkpt lat="47.646292" lon="11.913337"><ele>1377.4</ele></trkpt><trkpt lat="47.646302" lon="11.913273"><ele>1377.1</ele></trkpt><trkpt lat="47.64627" lon="11.913218"><ele>1376.9</ele></trkpt><trkpt lat="47.646221" lon="11.913162"><ele>1376.8</ele></trkpt><trkpt lat="47.646102" lon="11.913091"><ele>1376.6</ele></trkpt><trkpt lat="47.646066" lon="11.913031"><ele>1376.5</ele></trkpt><trkpt lat="47.64602" lon="11.91276"><ele>1374.7</ele></trkpt><trkpt lat="47.645988" lon="11.912447"><ele>1372.4</ele></trkpt><trkpt lat="47.645981" lon="11.912275"><ele>1372.5</ele></trkpt><trkpt lat="47.64601" lon="11.91159"><ele>1371.3</ele></trkpt><trkpt lat="47.646095" lon="11.910801"><ele>1357.4</ele></trkpt><trkpt lat="47.646095" lon="11.910645"><ele>1353</ele></trkpt><trkpt lat="47.646074" lon="11.910506"><ele>1352.1</ele></trkpt><trkpt lat="47.645835" lon="11.909784"><ele>1341.6</ele></trkpt><trkpt lat="47.645622" lon="11.909342"><ele>1337.3</ele></trkpt><trkpt lat="47.645592" lon="11.909193"><ele>1336.2</ele></trkpt><trkpt lat="47.645675" lon="11.908749"><ele>1335.2</ele></trkpt><trkpt lat="47.645786" lon="11.908394"><ele>1332.2</ele></trkpt><trkpt lat="47.645859" lon="11.907871"><ele>1322.8</ele></trkpt><trkpt lat="47.645961" lon="11.907537"><ele>1317.8</ele></trkpt><trkpt lat="47.645985" lon="11.907397"><ele>1315</ele></trkpt><trkpt lat="47.646008" lon="11.906189"><ele>1308.6</ele></trkpt><trkpt lat="47.646018" lon="11.906104"><ele>1309.2</ele></trkpt><trkpt lat="47.646051" lon="11.906031"><ele>1308.4</ele></trkpt><trkpt lat="47.646101" lon="11.906007"><ele>1308.9</ele></trkpt><trkpt lat="47.646609" lon="11.906079"><ele>1305.5</ele></trkpt><trkpt lat="47.646693" lon="11.906116"><ele>1305.8</ele></trkpt><trkpt lat="47.646871" lon="11.906261"><ele>1306.7</ele></trkpt><trkpt lat="47.647059" lon="11.906341"><ele>1306.6</ele></trkpt><trkpt lat="47.647147" lon="11.906351"><ele>1306</ele></trkpt><trkpt lat="47.647366" lon="11.906291"><ele>1304.3</ele></trkpt><trkpt lat="47.647535" lon="11.906296"><ele>1303.8</ele></trkpt><trkpt lat="47.64768" lon="11.906352"><ele>1304.2</ele></trkpt><trkpt lat="47.647776" lon="11.906419"><ele>1305.1</ele></trkpt><trkpt lat="47.647829" lon="11.906488"><ele>1305.8</ele></trkpt><trkpt lat="47.647977" lon="11.906843"><ele>1307</ele></trkpt><trkpt lat="47.648123" lon="11.90699"><ele>1306.6</ele></trkpt><trkpt lat="47.648296" lon="11.907095"><ele>1304</ele></trkpt><trkpt lat="47.6484" lon="11.907192"><ele>1299.4</ele></trkpt><trkpt lat="47.648587" lon="11.907523"><ele>1298.4</ele></trkpt><trkpt lat="47.648746" lon="11.907714"><ele>1295.5</ele></trkpt><trkpt lat="47.64885" lon="11.907905"><ele>1293.1</ele></trkpt><trkpt lat="47.64894" lon="11.908001"><ele>1291.9</ele></trkpt><trkpt lat="47.649105" lon="11.908057"><ele>1289.4</ele></trkpt><trkpt lat="47.649353" lon="11.908093"><ele>1284.7</ele></trkpt><trkpt lat="47.649504" lon="11.908079"><ele>1282.6</ele></trkpt><trkpt lat="47.649589" lon="11.908045"><ele>1281.9</ele></trkpt><trkpt lat="47.649845" lon="11.907797"><ele>1278.8</ele></trkpt><trkpt lat="47.649958" lon="11.907771"><ele>1276.9</ele></trkpt><trkpt lat="47.650481" lon="11.907834"><ele>1267</ele></trkpt><trkpt lat="47.650724" lon="11.907895"><ele>1263.8</ele></trkpt><trkpt lat="47.650885" lon="11.907873"><ele>1262.1</ele></trkpt><trkpt lat="47.650987" lon="11.907839"><ele>1259.5</ele></trkpt><trkpt lat="47.651101" lon="11.907765"><ele>1259.3</ele></trkpt><trkpt lat="47.651195" lon="11.907731"><ele>1256.8</ele></trkpt><trkpt lat="47.651363" lon="11.90771"><ele>1255.3</ele></trkpt><trkpt lat="47.651426" lon="11.907668"><ele>1253.8</ele></trkpt><trkpt lat="47.651472" lon="11.907607"><ele>1253.3</ele></trkpt><trkpt lat="47.651549" lon="11.907447"><ele>1251.9</ele></trkpt><trkpt lat="47.651624" lon="11.907358"><ele>1251.4</ele></trkpt><trkpt lat="47.651783" lon="11.907241"><ele>1249.7</ele></trkpt><trkpt lat="47.651832" lon="11.907142"><ele>1248.6</ele></trkpt><trkpt lat="47.651869" lon="11.906923"><ele>1247.6</ele></trkpt><trkpt lat="47.651932" lon="11.906723"><ele>1245.1</ele></trkpt><trkpt lat="47.651988" lon="11.906622"><ele>1244</ele></trkpt><trkpt lat="47.652138" lon="11.906436"><ele>1241.6</ele></trkpt><trkpt lat="47.652331" lon="11.906275"><ele>1239.4</ele></trkpt><trkpt lat="47.652438" lon="11.906119"><ele>1238.2</ele></trkpt><trkpt lat="47.652481" lon="11.905993"><ele>1237.6</ele></trkpt><trkpt lat="47.652544" lon="11.90568"><ele>1236.1</ele></trkpt><trkpt lat="47.652585" lon="11.905598"><ele>1235.7</ele></trkpt><trkpt lat="47.652642" lon="11.905536"><ele>1235.3</ele></trkpt><trkpt lat="47.652782" lon="11.905445"><ele>1234.9</ele></trkpt><trkpt lat="47.652902" lon="11.905414"><ele>1235.2</ele></trkpt><trkpt lat="47.653173" lon="11.905532"><ele>1234.3</ele></trkpt><trkpt lat="47.653285" lon="11.905558"><ele>1234.5</ele></trkpt><trkpt lat="47.653389" lon="11.905527"><ele>1234.4</ele></trkpt><trkpt lat="47.65345" lon="11.905476"><ele>1234.5</ele></trkpt><trkpt lat="47.653499" lon="11.905402"><ele>1234.6</ele></trkpt><trkpt lat="47.653735" lon="11.904807"><ele>1221</ele></trkpt><trkpt lat="47.653799" lon="11.904611"><ele>1221</ele></trkpt><trkpt lat="47.653784" lon="11.904248"><ele>1221</ele></trkpt><trkpt lat="47.653818" lon="11.904108"><ele>1216</ele></trkpt><trkpt lat="47.653829" lon="11.90397"><ele>1216</ele></trkpt><trkpt lat="47.653854" lon="11.903848"><ele>1216</ele></trkpt><trkpt lat="47.653447" lon="11.903288"><ele>1216</ele></trkpt><trkpt lat="47.653327" lon="11.903092"><ele>1208</ele></trkpt><trkpt lat="47.653266" lon="11.90297"><ele>1208</ele></trkpt><trkpt lat="47.653211" lon="11.902808"><ele>1208</ele></trkpt><trkpt lat="47.653163" lon="11.902567"><ele>1208</ele></trkpt><trkpt lat="47.653083" lon="11.902094"><ele>1201.1</ele></trkpt><trkpt lat="47.652907" lon="11.901321"><ele>1193.4</ele></trkpt><trkpt lat="47.652556" lon="11.900042"><ele>1186.1</ele></trkpt><trkpt lat="47.652515" lon="11.89976"><ele>1185</ele></trkpt><trkpt lat="47.652546" lon="11.899416"><ele>1183.3</ele></trkpt><trkpt lat="47.652691" lon="11.899021"><ele>1179.7</ele></trkpt><trkpt lat="47.65263" lon="11.898357"><ele>1180.3</ele></trkpt><trkpt lat="47.652645" lon="11.897961"><ele>1174.7</ele></trkpt><trkpt lat="47.652733" lon="11.897621"><ele>1165.7</ele></trkpt><trkpt lat="47.652874" lon="11.897209"><ele>1162.2</ele></trkpt><trkpt lat="47.65307" lon="11.896386"><ele>1148.4</ele></trkpt><trkpt lat="47.653228" lon="11.896143"><ele>1140.4</ele></trkpt><trkpt lat="47.653278" lon="11.895792"><ele>1135.1</ele></trkpt><trkpt lat="47.653562" lon="11.895011"><ele>1127.2</ele></trkpt><trkpt lat="47.653857" lon="11.894496"><ele>1125.8</ele></trkpt><trkpt lat="47.654143" lon="11.894076"><ele>1123.6</ele></trkpt><trkpt lat="47.654291" lon="11.893911"><ele>1125.4</ele></trkpt><trkpt lat="47.654471" lon="11.893651"><ele>1126.6</ele></trkpt><trkpt lat="47.654542" lon="11.893473"><ele>1124.8</ele></trkpt><trkpt lat="47.654715" lon="11.892903"><ele>1122.6</ele></trkpt><trkpt lat="47.654902" lon="11.892375"><ele>1121.1</ele></trkpt><trkpt lat="47.655095" lon="11.891976"><ele>1120.7</ele></trkpt><trkpt lat="47.655206" lon="11.891786"><ele>1120.3</ele></trkpt><trkpt lat="47.655368" lon="11.891579"><ele>1117.2</ele></trkpt><trkpt lat="47.655578" lon="11.891392"><ele>1116.4</ele></trkpt><trkpt lat="47.655679" lon="11.891384"><ele>1115.8</ele></trkpt><trkpt lat="47.655782" lon="11.89141"><ele>1115</ele></trkpt><trkpt lat="47.655986" lon="11.891532"><ele>1126</ele></trkpt><trkpt lat="47.655974" lon="11.891421"><ele>1112.6</ele></trkpt><trkpt lat="47.655904" lon="11.891342"><ele>1111.6</ele></trkpt><trkpt lat="47.655951" lon="11.891293"><ele>1110.6</ele></trkpt><trkpt lat="47.655912" lon="11.891213"><ele>1109.5</ele></trkpt><trkpt lat="47.655947" lon="11.891112"><ele>1106.3</ele></trkpt><trkpt lat="47.65591" lon="11.890841"><ele>1105</ele></trkpt><trkpt lat="47.655959" lon="11.890837"><ele>1103.6</ele></trkpt><trkpt lat="47.65597" lon="11.890667"><ele>1099.2</ele></trkpt><trkpt lat="47.656054" lon="11.890698"><ele>1099</ele></trkpt><trkpt lat="47.656091" lon="11.890611"><ele>1098.7</ele></trkpt><trkpt lat="47.656136" lon="11.890356"><ele>1095.9</ele></trkpt><trkpt lat="47.656146" lon="11.889962"><ele>1092.5</ele></trkpt><trkpt lat="47.65607" lon="11.889487"><ele>1091.4</ele></trkpt><trkpt lat="47.656101" lon="11.889182"><ele>1086.4</ele></trkpt><trkpt lat="47.656206" lon="11.888834"><ele>1081.7</ele></trkpt><trkpt lat="47.656204" lon="11.888434"><ele>1078</ele></trkpt><trkpt lat="47.656163" lon="11.888045"><ele>1042</ele></trkpt><trkpt lat="47.656204" lon="11.88803"><ele>1045.1</ele></trkpt><trkpt lat="47.656315" lon="11.887991"><ele>1048.3</ele></trkpt><trkpt lat="47.656413" lon="11.888013"><ele>1047.8</ele></trkpt><trkpt lat="47.656522" lon="11.88807"><ele>1047.9</ele></trkpt><trkpt lat="47.656611" lon="11.88806"><ele>1047.4</ele></trkpt><trkpt lat="47.656754" lon="11.887972"><ele>1048.6</ele></trkpt><trkpt lat="47.65692" lon="11.887809"><ele>1049.6</ele></trkpt><trkpt lat="47.657063" lon="11.887618"><ele>1050.6</ele></trkpt><trkpt lat="47.657148" lon="11.887425"><ele>1050.4</ele></trkpt><trkpt lat="47.657268" lon="11.887215"><ele>1051.8</ele></trkpt><trkpt lat="47.657371" lon="11.8869"><ele>1053.1</ele></trkpt><trkpt lat="47.657452" lon="11.886713"><ele>1055.2</ele></trkpt><trkpt lat="47.657537" lon="11.88641"><ele>1057.2</ele></trkpt><trkpt lat="47.657623" lon="11.886292"><ele>1058.7</ele></trkpt><trkpt lat="47.657815" lon="11.886178"><ele>1060.3</ele></trkpt><trkpt lat="47.658074" lon="11.885857"><ele>1063.1</ele></trkpt><trkpt lat="47.658186" lon="11.885802"><ele>1064.6</ele></trkpt><trkpt lat="47.658461" lon="11.885809"><ele>1069.1</ele></trkpt><trkpt lat="47.65855" lon="11.88577"><ele>1071.6</ele></trkpt><trkpt lat="47.658809" lon="11.885567"><ele>1075.6</ele></trkpt><trkpt lat="47.658914" lon="11.885568"><ele>1077.8</ele></trkpt><trkpt lat="47.65933" lon="11.885713"><ele>1081.7</ele></trkpt><trkpt lat="47.659523" lon="11.885733"><ele>1086</ele></trkpt><trkpt lat="47.659745" lon="11.885666"><ele>1098</ele></trkpt><trkpt lat="47.659939" lon="11.885695"><ele>1097.1</ele></trkpt><trkpt lat="47.660151" lon="11.885874"><ele>1094</ele></trkpt><trkpt lat="47.660348" lon="11.886115"><ele>1094</ele></trkpt><trkpt lat="47.660432" lon="11.886144"><ele>1094</ele></trkpt><trkpt lat="47.660787" lon="11.886176"><ele>1094</ele></trkpt><trkpt lat="47.66093" lon="11.886168"><ele>1088</ele></trkpt><trkpt lat="47.661002" lon="11.886282"><ele>1088</ele></trkpt><trkpt lat="47.661338" lon="11.886517"><ele>1088</ele></trkpt><trkpt lat="47.661395" lon="11.886593"><ele>1088</ele></trkpt><trkpt lat="47.661473" lon="11.886826"><ele>1094.2</ele></trkpt><trkpt lat="47.661516" lon="11.887335"><ele>1096</ele></trkpt><trkpt lat="47.661549" lon="11.88755"><ele>1111</ele></trkpt><trkpt lat="47.661536" lon="11.887634"><ele>1107.3</ele></trkpt><trkpt lat="47.661539" lon="11.88786"><ele>1106</ele></trkpt><trkpt lat="47.661568" lon="11.887887"><ele>1105.2</ele></trkpt><trkpt lat="47.661883" lon="11.887976"><ele>1089</ele></trkpt><trkpt lat="47.661888" lon="11.887975"><ele>1089</ele></trkpt></trkseg></trk></gpx>