<gpx xmlns="http://www.topografix.com/GPX/1/1" xmlns:xsi="http://www.w3.org/2001/XMLSchema-instance" xsi:schemaLocation="http://www.topografix.com/GPX/1/1 http://www.topografix.com/GPX/1/1/gpx.xsd" version="1.1" creator="togpx"><metadata/><wpt lat="32.743268334804746" lon="-16.701045334339145"><name></name><desc>label=Rotunda da Ponta de São Lourenço, Caniçal,Portugal</desc></wpt><wpt lat="32.74533481864279" lon="-16.698636710643772"><name></name><desc>label=Ponta de São Lourenco, Caniçal,Portugal</desc></wpt><wpt lat="32.748964585237914" lon="-16.69767647981644"><name></name><desc>label=Ponta de São Lourenco, Caniçal,Portugal</desc></wpt><wpt lat="32.75050533019675" lon="-16.693894565105442"><name></name><desc>label=PR 8, Caniçal,Portugal</desc></wpt><wpt lat="32.74840287217462" lon="-16.693655848503116"><name></name><desc>label=PR 8, Caniçal,Portugal</desc></wpt><wpt lat="32.74606349092376" lon="-16.68860256671906"><name></name><desc>label=PR 8, Caniçal,Portugal</desc></wpt><wpt lat="32.743245774673056" lon="-16.70102655887604"><name></name><desc>label=Rotunda da Ponta de São Lourenço, Caniçal,Portugal</desc></wpt><trk><name></name><desc>ascent=237.2
descent=237.2
opacity=0.9</desc><trkseg><trkpt lat="32.743266" lon="-16.701042"><ele>40</ele></trkpt><trkpt lat="32.743317" lon="-16.70099"><ele>40</ele></trkpt><trkpt lat="32.743366" lon="-16.700979"><ele>40</ele></trkpt><trkpt lat="32.743411" lon="-16.700927"><ele>40</ele></trkpt><trkpt lat="32.74358" lon="-16.700861"><ele>40</ele></trkpt><trkpt lat="32.743736" lon="-16.700777"><ele>82</ele></trkpt><trkpt lat="32.743762" lon="-16.700777"><ele>81.8</ele></trkpt><trkpt lat="32.743803" lon="-16.700803"><ele>81.4</ele></trkpt><trkpt lat="32.743809" lon="-16.70087"><ele>81.2</ele></trkpt><trkpt lat="32.743833" lon="-16.700886"><ele>81</ele></trkpt><trkpt lat="32.743884" lon="-16.700733"><ele>79.5</ele></trkpt><trkpt lat="32.744008" lon="-16.700678"><ele>85</ele></trkpt><trkpt lat="32.744126" lon="-16.700637"><ele>85</ele></trkpt><trkpt lat="32.744446" lon="-16.700661"><ele>85</ele></trkpt><trkpt lat="32.744654" lon="-16.700664"><ele>85</ele></trkpt><trkpt lat="32.744665" lon="-16.700664"><ele>85</ele></trkpt><trkpt lat="32.744842" lon="-16.700648"><ele>85</ele></trkpt><trkpt lat="32.745151" lon="-16.700578"><ele>85</ele></trkpt><trkpt lat="32.745455" lon="-16.70035"><ele>85</ele></trkpt><trkpt lat="32.74565" lon="-16.700209"><ele>61.7</ele></trkpt><trkpt lat="32.745853" lon="-16.699915"><ele>57.8</ele></trkpt><trkpt lat="32.745988" lon="-16.699379"><ele>60.6</ele></trkpt><trkpt lat="32.746044" lon="-16.699243"><ele>50</ele></trkpt><trkpt lat="32.746" lon="-16.69905"><ele>50</ele></trkpt><trkpt lat="32.745917" lon="-16.698873"><ele>50</ele></trkpt><trkpt lat="32.745698" lon="-16.698666"><ele>50</ele></trkpt><trkpt lat="32.745541" lon="-16.698578"><ele>34</ele></trkpt><trkpt lat="32.74535" lon="-16.698637"><ele>26</ele></trkpt><trkpt lat="32.745541" lon="-16.698578"><ele>34</ele></trkpt><trkpt lat="32.745698" lon="-16.698666"><ele>50</ele></trkpt><trkpt lat="32.745917" lon="-16.698873"><ele>50</ele></trkpt><trkpt lat="32.746185" lon="-16.698935"><ele>50</ele></trkpt><trkpt lat="32.74626" lon="-16.698776"><ele>50</ele></trkpt><trkpt lat="32.746391" lon="-16.698632"><ele>50</ele></trkpt><trkpt lat="32.746889" lon="-16.698098"><ele>49.5</ele></trkpt><trkpt lat="32.746953" lon="-16.698042"><ele>49.4</ele></trkpt><trkpt lat="32.746988" lon="-16.698037"><ele>49</ele></trkpt><trkpt lat="32.747018" lon="-16.697991"><ele>49</ele></trkpt><trkpt lat="32.747026" lon="-16.697933"><ele>49</ele></trkpt><trkpt lat="32.74723" lon="-16.697679"><ele>49</ele></trkpt><trkpt lat="32.747328" lon="-16.697571"><ele>49</ele></trkpt><trkpt lat="32.747389" lon="-16.697528"><ele>49</ele></trkpt><trkpt lat="32.747482" lon="-16.697521"><ele>49</ele></trkpt><trkpt lat="32.74753" lon="-16.697559"><ele>49</ele></trkpt><trkpt lat="32.747606" lon="-16.697615"><ele>53.3</ele></trkpt><trkpt lat="32.747917" lon="-16.697715"><ele>60</ele></trkpt><trkpt lat="32.747974" lon="-16.697756"><ele>60</ele></trkpt><trkpt lat="32.748016" lon="-16.69783"><ele>60</ele></trkpt><trkpt lat="32.748048" lon="-16.697853"><ele>60</ele></trkpt><trkpt lat="32.7481" lon="-16.69781"><ele>60</ele></trkpt><trkpt lat="32.748192" lon="-16.697742"><ele>60</ele></trkpt><trkpt lat="32.748408" lon="-16.69763"><ele>60</ele></trkpt><trkpt lat="32.74871" lon="-16.697487"><ele>60</ele></trkpt><trkpt lat="32.748754" lon="-16.697462"><ele>60</ele></trkpt><trkpt lat="32.748802" lon="-16.697488"><ele>60</ele></trkpt><trkpt lat="32.748891" lon="-16.697645"><ele>60</ele></trkpt><trkpt lat="32.748966" lon="-16.69767"><ele>60</ele></trkpt><trkpt lat="32.748891" lon="-16.697645"><ele>60</ele></trkpt><trkpt lat="32.748802" lon="-16.697488"><ele>60</ele></trkpt><trkpt lat="32.748754" lon="-16.697462"><ele>60</ele></trkpt><trkpt lat="32.748733" lon="-16.697406"><ele>60</ele></trkpt><trkpt lat="32.748767" lon="-16.697234"><ele>60</ele></trkpt><trkpt lat="32.748698" lon="-16.697108"><ele>60</ele></trkpt><trkpt lat="32.748708" lon="-16.696967"><ele>60</ele></trkpt><trkpt lat="32.74872" lon="-16.69683"><ele>60</ele></trkpt><trkpt lat="32.74867" lon="-16.696641"><ele>60</ele></trkpt><trkpt lat="32.748584" lon="-16.696453"><ele>60</ele></trkpt><trkpt lat="32.748511" lon="-16.696124"><ele>60</ele></trkpt><trkpt lat="32.748508" lon="-16.6961"><ele>60</ele></trkpt><trkpt lat="32.748596" lon="-16.696145"><ele>60</ele></trkpt><trkpt lat="32.748797" lon="-16.696205"><ele>60</ele></trkpt><trkpt lat="32.749175" lon="-16.696004"><ele>60</ele></trkpt><trkpt lat="32.74929" lon="-16.695901"><ele>15.2</ele></trkpt><trkpt lat="32.749386" lon="-16.695866"><ele>13.1</ele></trkpt><trkpt lat="32.749801" lon="-16.695784"><ele>11.2</ele></trkpt><trkpt lat="32.750282" lon="-16.695662"><ele>11.1</ele></trkpt><trkpt lat="32.750368" lon="-16.695542"><ele>12.1</ele></trkpt><trkpt lat="32.750432" lon="-16.695345"><ele>8.5</ele></trkpt><trkpt lat="32.75044" lon="-16.695153"><ele>9.4</ele></trkpt><trkpt lat="32.750412" lon="-16.69497"><ele>0</ele></trkpt><trkpt lat="32.750339" lon="-16.694777"><ele>0</ele></trkpt><trkpt lat="32.750349" lon="-16.69469"><ele>0</ele></trkpt><trkpt lat="32.750374" lon="-16.694646"><ele>0</ele></trkpt><trkpt lat="32.750411" lon="-16.694635"><ele>0</ele></trkpt><trkpt lat="32.750475" lon="-16.694582"><ele>0</ele></trkpt><trkpt lat="32.75052" lon="-16.694499"><ele>0</ele></trkpt><trkpt lat="32.75051" lon="-16.694452"><ele>0</ele></trkpt><trkpt lat="32.750434" lon="-16.694274"><ele>0</ele></trkpt><trkpt lat="32.750421" lon="-16.694184"><ele>0</ele></trkpt><trkpt lat="32.750429" lon="-16.69405"><ele>0</ele></trkpt><trkpt lat="32.750456" lon="-16.694018"><ele>0</ele></trkpt><trkpt lat="32.750503" lon="-16.693895"><ele>0</ele></trkpt><trkpt lat="32.750456" lon="-16.694018"><ele>0</ele></trkpt><trkpt lat="32.750429" lon="-16.69405"><ele>0</ele></trkpt><trkpt lat="32.750245" lon="-16.693849"><ele>14.2</ele></trkpt><trkpt lat="32.750193" lon="-16.693805"><ele>15</ele></trkpt><trkpt lat="32.750142" lon="-16.693792"><ele>15.9</ele></trkpt><trkpt lat="32.750039" lon="-16.6937"><ele>17.3</ele></trkpt><trkpt lat="32.74982" lon="-16.693682"><ele>18.8</ele></trkpt><trkpt lat="32.749758" lon="-16.693701"><ele>18.6</ele></trkpt><trkpt lat="32.74935" lon="-16.693682"><ele>18.4</ele></trkpt><trkpt lat="32.749243" lon="-16.693642"><ele>18.2</ele></trkpt><trkpt lat="32.749186" lon="-16.693596"><ele>17.9</ele></trkpt><trkpt lat="32.749041" lon="-16.693584"><ele>18.9</ele></trkpt><trkpt lat="32.748925" lon="-16.69355"><ele>18.7</ele></trkpt><trkpt lat="32.748816" lon="-16.69347"><ele>19.3</ele></trkpt><trkpt lat="32.748675" lon="-16.693442"><ele>19.3</ele></trkpt><trkpt lat="32.748621" lon="-16.693363"><ele>22</ele></trkpt><trkpt lat="32.748414" lon="-16.693654"><ele>22</ele></trkpt><trkpt lat="32.748621" lon="-16.693363"><ele>22</ele></trkpt><trkpt lat="32.748694" lon="-16.693126"><ele>20.4</ele></trkpt><trkpt lat="32.748886" lon="-16.692723"><ele>19.1</ele></trkpt><trkpt lat="32.748918" lon="-16.692602"><ele>18.9</ele></trkpt><trkpt lat="32.748904" lon="-16.692531"><ele>18.8</ele></trkpt><trkpt lat="32.748928" lon="-16.692431"><ele>18.6</ele></trkpt><trkpt lat="32.748944" lon="-16.692099"><ele>17.3</ele></trkpt><trkpt lat="32.748909" lon="-16.692053"><ele>16.3</ele></trkpt><trkpt lat="32.748849" lon="-16.692075"><ele>15.4</ele></trkpt><trkpt lat="32.748807" lon="-16.692053"><ele>15.1</ele></trkpt><trkpt lat="32.748756" lon="-16.691996"><ele>14.2</ele></trkpt><trkpt lat="32.748608" lon="-16.691962"><ele>13.1</ele></trkpt><trkpt lat="32.748367" lon="-16.69174"><ele>11.2</ele></trkpt><trkpt lat="32.74824" lon="-16.691702"><ele>10.9</ele></trkpt><trkpt lat="32.748109" lon="-16.691668"><ele>9.9</ele></trkpt><trkpt lat="32.747866" lon="-16.691675"><ele>10</ele></trkpt><trkpt lat="32.747598" lon="-16.691759"><ele>7.1</ele></trkpt><trkpt lat="32.747535" lon="-16.691744"><ele>6.4</ele></trkpt><trkpt lat="32.747453" lon="-16.691675"><ele>5.4</ele></trkpt><trkpt lat="32.747404" lon="-16.691529"><ele>4.5</ele></trkpt><trkpt lat="32.747181" lon="-16.691003"><ele>2.8</ele></trkpt><trkpt lat="32.747004" lon="-16.690821"><ele>2.3</ele></trkpt><trkpt lat="32.746631" lon="-16.690601"><ele>1.1</ele></trkpt><trkpt lat="32.746639" lon="-16.690541"><ele>0.9</ele></trkpt><trkpt lat="32.746572" lon="-16.690271"><ele>0.8</ele></trkpt><trkpt lat="32.746536" lon="-16.690288"><ele>0.7</ele></trkpt><trkpt lat="32.746523" lon="-16.690252"><ele>0.8</ele></trkpt><trkpt lat="32.746491" lon="-16.690269"><ele>0.8</ele></trkpt><trkpt lat="32.746434" lon="-16.690187"><ele>0.8</ele></trkpt><trkpt lat="32.746253" lon="-16.689828"><ele>0.7</ele></trkpt><trkpt lat="32.746154" lon="-16.68957"><ele>0.6</ele></trkpt><trkpt lat="32.74612" lon="-16.689366"><ele>0.6</ele></trkpt><trkpt lat="32.746078" lon="-16.689318"><ele>0.6</ele></trkpt><trkpt lat="32.746057" lon="-16.689134"><ele>0.6</ele></trkpt><trkpt lat="32.745972" lon="-16.688944"><ele>0.5</ele></trkpt><trkpt lat="32.745897" lon="-16.688494"><ele>0</ele></trkpt><trkpt lat="32.746048" lon="-16.688593"><ele>0</ele></trkpt><trkpt lat="32.745897" lon="-16.688494"><ele>0</ele></trkpt><trkpt lat="32.745972" lon="-16.688944"><ele>0.5</ele></trkpt><trkpt lat="32.746057" lon="-16.689134"><ele>0.6</ele></trkpt><trkpt lat="32.746078" lon="-16.689318"><ele>0.6</ele></trkpt><trkpt lat="32.74612" lon="-16.689366"><ele>0.6</ele></trkpt><trkpt lat="32.746154" lon="-16.68957"><ele>0.6</ele></trkpt><trkpt lat="32.746253" lon="-16.689828"><ele>0.7</ele></trkpt><trkpt lat="32.746434" lon="-16.690187"><ele>0.8</ele></trkpt><trkpt lat="32.746491" lon="-16.690269"><ele>0.8</ele></trkpt><trkpt lat="32.746523" lon="-16.690252"><ele>0.8</ele></trkpt><trkpt lat="32.746536" lon="-16.690288"><ele>0.7</ele></trkpt><trkpt lat="32.746572" lon="-16.690271"><ele>0.8</ele></trkpt><trkpt lat="32.746639" lon="-16.690541"><ele>0.9</ele></trkpt><trkpt lat="32.746631" lon="-16.690601"><ele>1.1</ele></trkpt><trkpt lat="32.747004" lon="-16.690821"><ele>2.3</ele></trkpt><trkpt lat="32.747181" lon="-16.691003"><ele>2.8</ele></trkpt><trkpt lat="32.747404" lon="-16.691529"><ele>4.5</ele></trkpt><trkpt lat="32.747453" lon="-16.691675"><ele>5.4</ele></trkpt><trkpt lat="32.747535" lon="-16.691744"><ele>6.4</ele></trkpt><trkpt lat="32.747598" lon="-16.691759"><ele>7.1</ele></trkpt><trkpt lat="32.747866" lon="-16.691675"><ele>10</ele></trkpt><trkpt lat="32.748109" lon="-16.691668"><ele>9.9</ele></trkpt><trkpt lat="32.74824" lon="-16.691702"><ele>10.9</ele></trkpt><trkpt lat="32.748367" lon="-16.69174"><ele>11.2</ele></trkpt><trkpt lat="32.748608" lon="-16.691962"><ele>13.1</ele></trkpt><trkpt lat="32.748756" lon="-16.691996"><ele>14.2</ele></trkpt><trkpt lat="32.748807" lon="-16.692053"><ele>15.1</ele></trkpt><trkpt lat="32.748849" lon="-16.692075"><ele>15.4</ele></trkpt><trkpt lat="32.748909" lon="-16.692053"><ele>16.3</ele></trkpt><trkpt lat="32.748944" lon="-16.692099"><ele>17.3</ele></trkpt><trkpt lat="32.748928" lon="-16.692431"><ele>18.6</ele></trkpt><trkpt lat="32.748904" lon="-16.692531"><ele>18.8</ele></trkpt><trkpt lat="32.748918" lon="-16.692602"><ele>18.9</ele></trkpt><trkpt lat="32.748886" lon="-16.692723"><ele>19.1</ele></trkpt><trkpt lat="32.748694" lon="-16.693126"><ele>20.4</ele></trkpt><trkpt lat="32.748621" lon="-16.693363"><ele>22</ele></trkpt><trkpt lat="32.748675" lon="-16.693442"><ele>19.3</ele></trkpt><trkpt lat="32.748816" lon="-16.69347"><ele>19.3</ele></trkpt><trkpt lat="32.748925" lon="-16.69355"><ele>18.7</ele></trkpt><trkpt lat="32.749041" lon="-16.693584"><ele>18.9</ele></trkpt><trkpt lat="32.749186" lon="-16.693596"><ele>17.9</ele></trkpt><trkpt lat="32.749243" lon="-16.693642"><ele>18.2</ele></trkpt><trkpt lat="32.74935" lon="-16.693682"><ele>18.4</ele></trkpt><trkpt lat="32.749758" lon="-16.693701"><ele>18.6</ele></trkpt><trkpt lat="32.74982" lon="-16.693682"><ele>18.8</ele></trkpt><trkpt lat="32.750039" lon="-16.6937"><ele>17.3</ele></trkpt><trkpt lat="32.750142" lon="-16.693792"><ele>15.9</ele></trkpt><trkpt lat="32.750193" lon="-16.693805"><ele>15</ele></trkpt><trkpt lat="32.750245" lon="-16.693849"><ele>14.2</ele></trkpt><trkpt lat="32.750429" lon="-16.69405"><ele>0</ele></trkpt><trkpt lat="32.750421" lon="-16.694184"><ele>0</ele></trkpt><trkpt lat="32.750434" lon="-16.694274"><ele>0</ele></trkpt><trkpt lat="32.75051" lon="-16.694452"><ele>0</ele></trkpt><trkpt lat="32.75052" lon="-16.694499"><ele>0</ele></trkpt><trkpt lat="32.750475" lon="-16.694582"><ele>0</ele></trkpt><trkpt lat="32.750411" lon="-16.694635"><ele>0</ele></trkpt><trkpt lat="32.750374" lon="-16.694646"><ele>0</ele></trkpt><trkpt lat="32.750349" lon="-16.69469"><ele>0</ele></trkpt><trkpt lat="32.750339" lon="-16.694777"><ele>0</ele></trkpt><trkpt lat="32.750412" lon="-16.69497"><ele>0</ele></trkpt><trkpt lat="32.75044" lon="-16.695153"><ele>9.4</ele></trkpt><trkpt lat="32.750432" lon="-16.695345"><ele>8.5</ele></trkpt><trkpt lat="32.750368" lon="-16.695542"><ele>12.1</ele></trkpt><trkpt lat="32.750282" lon="-16.695662"><ele>11.1</ele></trkpt><trkpt lat="32.749801" lon="-16.695784"><ele>11.2</ele></trkpt><trkpt lat="32.749386" lon="-16.695866"><ele>13.1</ele></trkpt><trkpt lat="32.74929" lon="-16.695901"><ele>15.2</ele></trkpt><trkpt lat="32.749175" lon="-16.696004"><ele>60</ele></trkpt><trkpt lat="32.748797" lon="-16.696205"><ele>60</ele></trkpt><trkpt lat="32.748596" lon="-16.696145"><ele>60</ele></trkpt><trkpt lat="32.748508" lon="-16.6961"><ele>60</ele></trkpt><trkpt lat="32.748511" lon="-16.696124"><ele>60</ele></trkpt><trkpt lat="32.748584" lon="-16.696453"><ele>60</ele></trkpt><trkpt lat="32.74867" lon="-16.696641"><ele>60</ele></trkpt><trkpt lat="32.74872" lon="-16.69683"><ele>60</ele></trkpt><trkpt lat="32.748708" lon="-16.696967"><ele>60</ele></trkpt><trkpt lat="32.748698" lon="-16.697108"><ele>60</ele></trkpt><trkpt lat="32.748767" lon="-16.697234"><ele>60</ele></trkpt><trkpt lat="32.748733" lon="-16.697406"><ele>60</ele></trkpt><trkpt lat="32.748754" lon="-16.697462"><ele>60</ele></trkpt><trkpt lat="32.74871" lon="-16.697487"><ele>60</ele></trkpt><trkpt lat="32.748408" lon="-16.69763"><ele>60</ele></trkpt><trkpt lat="32.748192" lon="-16.697742"><ele>60</ele></trkpt><trkpt lat="32.7481" lon="-16.69781"><ele>60</ele></trkpt><trkpt lat="32.748048" lon="-16.697853"><ele>60</ele></trkpt><trkpt lat="32.748016" lon="-16.69783"><ele>60</ele></trkpt><trkpt lat="32.747974" lon="-16.697756"><ele>60</ele></trkpt><trkpt lat="32.747917" lon="-16.697715"><ele>60</ele></trkpt><trkpt lat="32.747606" lon="-16.697615"><ele>53.3</ele></trkpt><trkpt lat="32.74753" lon="-16.697559"><ele>49</ele></trkpt><trkpt lat="32.747482" lon="-16.697521"><ele>49</ele></trkpt><trkpt lat="32.747389" lon="-16.697528"><ele>49</ele></trkpt><trkpt lat="32.747328" lon="-16.697571"><ele>49</ele></trkpt><trkpt lat="32.74723" lon="-16.697679"><ele>49</ele></trkpt><trkpt lat="32.747026" lon="-16.697933"><ele>49</ele></trkpt><trkpt lat="32.747018" lon="-16.697991"><ele>49</ele></trkpt><trkpt lat="32.746988" lon="-16.698037"><ele>49</ele></trkpt><trkpt lat="32.746953" lon="-16.698042"><ele>49.4</ele></trkpt><trkpt lat="32.746889" lon="-16.698098"><ele>49.5</ele></trkpt><trkpt lat="32.746391" lon="-16.698632"><ele>50</ele></trkpt><trkpt lat="32.74626" lon="-16.698776"><ele>50</ele></trkpt><trkpt lat="32.746185" lon="-16.698935"><ele>50</ele></trkpt><trkpt lat="32.746163" lon="-16.69902"><ele>50</ele></trkpt><trkpt lat="32.746044" lon="-16.699243"><ele>50</ele></trkpt><trkpt lat="32.745988" lon="-16.699379"><ele>60.6</ele></trkpt><trkpt lat="32.745853" lon="-16.699915"><ele>57.8</ele></trkpt><trkpt lat="32.74565" lon="-16.700209"><ele>61.7</ele></trkpt><trkpt lat="32.745455" lon="-16.70035"><ele>85</ele></trkpt><trkpt lat="32.745151" lon="-16.700578"><ele>85</ele></trkpt><trkpt lat="32.744842" lon="-16.700648"><ele>85</ele></trkpt><trkpt lat="32.744665" lon="-16.700664"><ele>85</ele></trkpt><trkpt lat="32.744654" lon="-16.700664"><ele>85</ele></trkpt><trkpt lat="32.744446" lon="-16.700661"><ele>85</ele></trkpt><trkpt lat="32.744126" lon="-16.700637"><ele>85</ele></trkpt><trkpt lat="32.744008" lon="-16.700678"><ele>85</ele></trkpt><trkpt lat="32.743884" lon="-16.700733"><ele>79.5</ele></trkpt><trkpt lat="32.743833" lon="-16.700886"><ele>81</ele></trkpt><trkpt lat="32.743809" lon="-16.70087"><ele>81.2</ele></trkpt><trkpt lat="32.743803" lon="-16.700803"><ele>81.4</ele></trkpt><trkpt lat="32.743762" lon="-16.700777"><ele>81.8</ele></trkpt><trkpt lat="32.743736" lon="-16.700777"><ele>82</ele></trkpt><trkpt lat="32.74358" lon="-16.700861"><ele>40</ele></trkpt><trkpt lat="32.743411" lon="-16.700927"><ele>40</ele></trkpt><trkpt lat="32.743366" lon="-16.700979"><ele>40</ele></trkpt><trkpt lat="32.743317" lon="-16.70099"><ele>40</ele></trkpt><trkpt lat="32.743265" lon="-16.701044"><ele>40</ele></trkpt><trkpt lat="32.743246" lon="-16.701026"><ele>40</ele></trkpt></trkseg></trk></gpx>