<gpx xmlns="http://www.topografix.com/GPX/1/1" xmlns:xsi="http://www.w3.org/2001/XMLSchema-instance" xsi:schemaLocation="http://www.topografix.com/GPX/1/1 http://www.topografix.com/GPX/1/1/gpx.xsd" version="1.1" creator="togpx"><metadata/><wpt lat="47.693880297839236" lon="11.966200768947603"><name></name><desc>label=Geitau, Bayrischzell,BY,Germany</desc></wpt><wpt lat="47.700909942967456" lon="11.978037357330322"><name></name><desc>label=Kloograben, Bayrischzell,BY,Germany</desc></wpt><wpt lat="47.70307605243458" lon="11.983594894409181"><name></name><desc>label=Kloograben, Bayrischzell,BY,Germany</desc></wpt><wpt lat="47.70641168498549" lon="11.985976696014404"><name></name><desc>label=Kuttenraingraben, Fischbachau,BY,Germany</desc></wpt><wpt lat="47.70551823291067" lon="11.99885666370392"><name></name><desc>label=Elbacher Kreuz, Fischbachau,BY,Germany</desc></wpt><wpt lat="47.70531427099703" lon="11.999248266220095"><name></name><desc>label=Türkenköpfl, Fischbachau,BY,Germany</desc></wpt><wpt lat="47.711044755463405" lon="11.987666487693788"><name></name><desc>label=Schweinsberg, Fischbachau,BY,Germany</desc></wpt><wpt lat="47.71168183812454" lon="11.985054016113283"><name></name><desc>label=Kothalm, Fischbachau,BY,Germany</desc></wpt><wpt lat="47.716236842465335" lon="11.970559358596804"><name></name><desc>label=Kapellenweg, Fischbachau,BY,Germany</desc></wpt><wpt lat="47.71542115780128" lon="11.968263387680054"><name></name><desc>label=Kapellenweg, Fischbachau,BY,Germany</desc></wpt><wpt lat="47.71332233524709" lon="11.963751912117006"><name></name><desc>label=Kalvarienweg, Fischbachau,BY,Germany</desc></wpt><trk><name></name><desc>ascent=1103.9
descent=1040.9
opacity=0.9</desc><trkseg><trkpt lat="47.69388" lon="11.966198"><ele>792</ele></trkpt><trkpt lat="47.69386" lon="11.966197"><ele>792</ele></trkpt><trkpt lat="47.693829" lon="11.966196"><ele>792</ele></trkpt><trkpt lat="47.693741" lon="11.96619"><ele>792</ele></trkpt><trkpt lat="47.693727" lon="11.966497"><ele>792</ele></trkpt><trkpt lat="47.69368" lon="11.967499"><ele>785.8</ele></trkpt><trkpt lat="47.693664" lon="11.96762"><ele>785.3</ele></trkpt><trkpt lat="47.693628" lon="11.967721"><ele>783</ele></trkpt><trkpt lat="47.693724" lon="11.96782"><ele>783</ele></trkpt><trkpt lat="47.693847" lon="11.967904"><ele>783</ele></trkpt><trkpt lat="47.694027" lon="11.968008"><ele>783</ele></trkpt><trkpt lat="47.694247" lon="11.968186"><ele>783</ele></trkpt><trkpt lat="47.694311" lon="11.968205"><ele>783</ele></trkpt><trkpt lat="47.694422" lon="11.968169"><ele>783</ele></trkpt><trkpt lat="47.694538" lon="11.968178"><ele>783</ele></trkpt><trkpt lat="47.694822" lon="11.968275"><ele>783</ele></trkpt><trkpt lat="47.695186" lon="11.968234"><ele>783</ele></trkpt><trkpt lat="47.695499" lon="11.968296"><ele>783</ele></trkpt><trkpt lat="47.695698" lon="11.968282"><ele>783</ele></trkpt><trkpt lat="47.695965" lon="11.968235"><ele>783</ele></trkpt><trkpt lat="47.696084" lon="11.968154"><ele>783</ele></trkpt><trkpt lat="47.696207" lon="11.968226"><ele>800.2</ele></trkpt><trkpt lat="47.696511" lon="11.96846"><ele>805.4</ele></trkpt><trkpt lat="47.696878" lon="11.968822"><ele>808.7</ele></trkpt><trkpt lat="47.697013" lon="11.968992"><ele>808.3</ele></trkpt><trkpt lat="47.69725" lon="11.969401"><ele>809.4</ele></trkpt><trkpt lat="47.697423" lon="11.970024"><ele>810.6</ele></trkpt><trkpt lat="47.697491" lon="11.970188"><ele>814</ele></trkpt><trkpt lat="47.698074" lon="11.970508"><ele>811.4</ele></trkpt><trkpt lat="47.698376" lon="11.970714"><ele>813.7</ele></trkpt><trkpt lat="47.698927" lon="11.971256"><ele>816</ele></trkpt><trkpt lat="47.699128" lon="11.971589"><ele>816</ele></trkpt><trkpt lat="47.699221" lon="11.971803"><ele>816</ele></trkpt><trkpt lat="47.69935" lon="11.972198"><ele>819.9</ele></trkpt><trkpt lat="47.700138" lon="11.974115"><ele>866.3</ele></trkpt><trkpt lat="47.700538" lon="11.974784"><ele>878.7</ele></trkpt><trkpt lat="47.700676" lon="11.974926"><ele>881.7</ele></trkpt><trkpt lat="47.70074" lon="11.974947"><ele>883.9</ele></trkpt><trkpt lat="47.700916" lon="11.974958"><ele>884</ele></trkpt><trkpt lat="47.701059" lon="11.974938"><ele>884.1</ele></trkpt><trkpt lat="47.701158" lon="11.974953"><ele>884</ele></trkpt><trkpt lat="47.701243" lon="11.975004"><ele>883.9</ele></trkpt><trkpt lat="47.701291" lon="11.975118"><ele>883.8</ele></trkpt><trkpt lat="47.701342" lon="11.975316"><ele>884.5</ele></trkpt><trkpt lat="47.701387" lon="11.975425"><ele>884.4</ele></trkpt><trkpt lat="47.701447" lon="11.975508"><ele>884.4</ele></trkpt><trkpt lat="47.70174" lon="11.975665"><ele>884.8</ele></trkpt><trkpt lat="47.701782" lon="11.97575"><ele>885</ele></trkpt><trkpt lat="47.701793" lon="11.975877"><ele>884.9</ele></trkpt><trkpt lat="47.701777" lon="11.975975"><ele>884.9</ele></trkpt><trkpt lat="47.701663" lon="11.976282"><ele>884.8</ele></trkpt><trkpt lat="47.70165" lon="11.976368"><ele>884.9</ele></trkpt><trkpt lat="47.701664" lon="11.976456"><ele>884.8</ele></trkpt><trkpt lat="47.701725" lon="11.976606"><ele>884.7</ele></trkpt><trkpt lat="47.701723" lon="11.976667"><ele>886</ele></trkpt><trkpt lat="47.701632" lon="11.977125"><ele>916.6</ele></trkpt><trkpt lat="47.701567" lon="11.977277"><ele>916.6</ele></trkpt><trkpt lat="47.701361" lon="11.977566"><ele>917.1</ele></trkpt><trkpt lat="47.701008" lon="11.977962"><ele>916.7</ele></trkpt><trkpt lat="47.700939" lon="11.978076"><ele>916.5</ele></trkpt><trkpt lat="47.700888" lon="11.978159"><ele>916.4</ele></trkpt><trkpt lat="47.700829" lon="11.978577"><ele>918.4</ele></trkpt><trkpt lat="47.700803" lon="11.978668"><ele>918.2</ele></trkpt><trkpt lat="47.70076" lon="11.978722"><ele>918.2</ele></trkpt><trkpt lat="47.700618" lon="11.978708"><ele>918.2</ele></trkpt><trkpt lat="47.700553" lon="11.978726"><ele>918</ele></trkpt><trkpt lat="47.700514" lon="11.978795"><ele>920</ele></trkpt><trkpt lat="47.700507" lon="11.978891"><ele>952.7</ele></trkpt><trkpt lat="47.700568" lon="11.979247"><ele>955.7</ele></trkpt><trkpt lat="47.700541" lon="11.979448"><ele>954.2</ele></trkpt><trkpt lat="47.700486" lon="11.979584"><ele>953.3</ele></trkpt><trkpt lat="47.700488" lon="11.9797"><ele>962</ele></trkpt><trkpt lat="47.700514" lon="11.979735"><ele>962</ele></trkpt><trkpt lat="47.700595" lon="11.979749"><ele>962</ele></trkpt><trkpt lat="47.700913" lon="11.979431"><ele>959.6</ele></trkpt><trkpt lat="47.700985" lon="11.97941"><ele>959.4</ele></trkpt><trkpt lat="47.701077" lon="11.979424"><ele>959.8</ele></trkpt><trkpt lat="47.701218" lon="11.979489"><ele>959.6</ele></trkpt><trkpt lat="47.70139" lon="11.979467"><ele>960.3</ele></trkpt><trkpt lat="47.701747" lon="11.979163"><ele>961.3</ele></trkpt><trkpt lat="47.70185" lon="11.979028"><ele>961.8</ele></trkpt><trkpt lat="47.701918" lon="11.978976"><ele>984.6</ele></trkpt><trkpt lat="47.702355" lon="11.978868"><ele>998</ele></trkpt><trkpt lat="47.70248" lon="11.978755"><ele>999.9</ele></trkpt><trkpt lat="47.702556" lon="11.97873"><ele>1001.7</ele></trkpt><trkpt lat="47.702728" lon="11.978789"><ele>1004.2</ele></trkpt><trkpt lat="47.702805" lon="11.978791"><ele>1005.1</ele></trkpt><trkpt lat="47.702862" lon="11.978724"><ele>1005.6</ele></trkpt><trkpt lat="47.703021" lon="11.978314"><ele>1007.3</ele></trkpt><trkpt lat="47.703086" lon="11.978266"><ele>1008.4</ele></trkpt><trkpt lat="47.703138" lon="11.978279"><ele>1010.8</ele></trkpt><trkpt lat="47.703169" lon="11.978341"><ele>1012</ele></trkpt><trkpt lat="47.703155" lon="11.978426"><ele>1013.4</ele></trkpt><trkpt lat="47.703062" lon="11.978709"><ele>1013.3</ele></trkpt><trkpt lat="47.702982" lon="11.979166"><ele>1013.4</ele></trkpt><trkpt lat="47.702906" lon="11.979388"><ele>1014.7</ele></trkpt><trkpt lat="47.702792" lon="11.97957"><ele>1016.1</ele></trkpt><trkpt lat="47.702703" lon="11.979638"><ele>1014.6</ele></trkpt><trkpt lat="47.702536" lon="11.979694"><ele>1012</ele></trkpt><trkpt lat="47.702491" lon="11.979743"><ele>1011.7</ele></trkpt><trkpt lat="47.702486" lon="11.979852"><ele>1012.9</ele></trkpt><trkpt lat="47.702549" lon="11.979908"><ele>1013.9</ele></trkpt><trkpt lat="47.702638" lon="11.979901"><ele>1014.9</ele></trkpt><trkpt lat="47.702849" lon="11.979815"><ele>1014.5</ele></trkpt><trkpt lat="47.703019" lon="11.979709"><ele>1014.3</ele></trkpt><trkpt lat="47.703104" lon="11.979579"><ele>1013.8</ele></trkpt><trkpt lat="47.703244" lon="11.979233"><ele>1013.2</ele></trkpt><trkpt lat="47.703308" lon="11.97914"><ele>1013.7</ele></trkpt><trkpt lat="47.703373" lon="11.979102"><ele>1013.5</ele></trkpt><trkpt lat="47.703437" lon="11.979125"><ele>1013.2</ele></trkpt><trkpt lat="47.703457" lon="11.979199"><ele>1012.9</ele></trkpt><trkpt lat="47.703432" lon="11.979273"><ele>1012.7</ele></trkpt><trkpt lat="47.703326" lon="11.979388"><ele>1012.4</ele></trkpt><trkpt lat="47.703251" lon="11.9796"><ele>1013.9</ele></trkpt><trkpt lat="47.703215" lon="11.979855"><ele>1013.6</ele></trkpt><trkpt lat="47.703164" lon="11.980067"><ele>1015.1</ele></trkpt><trkpt lat="47.702972" lon="11.98036"><ele>1021.1</ele></trkpt><trkpt lat="47.702567" lon="11.981136"><ele>1053.5</ele></trkpt><trkpt lat="47.702331" lon="11.981429"><ele>1058.9</ele></trkpt><trkpt lat="47.702183" lon="11.981747"><ele>1061.6</ele></trkpt><trkpt lat="47.702127" lon="11.982043"><ele>1064.4</ele></trkpt><trkpt lat="47.702084" lon="11.98241"><ele>1062.6</ele></trkpt><trkpt lat="47.702095" lon="11.982548"><ele>1079</ele></trkpt><trkpt lat="47.702175" lon="11.982573"><ele>1079</ele></trkpt><trkpt lat="47.702227" lon="11.982553"><ele>1079</ele></trkpt><trkpt lat="47.702248" lon="11.9825"><ele>1079</ele></trkpt><trkpt lat="47.702288" lon="11.982265"><ele>1079</ele></trkpt><trkpt lat="47.702371" lon="11.982081"><ele>1079</ele></trkpt><trkpt lat="47.702475" lon="11.981944"><ele>1079</ele></trkpt><trkpt lat="47.702599" lon="11.981863"><ele>1080.5</ele></trkpt><trkpt lat="47.703097" lon="11.981608"><ele>1080.6</ele></trkpt><trkpt lat="47.703214" lon="11.98152"><ele>1080.6</ele></trkpt><trkpt lat="47.70342" lon="11.981185"><ele>1079.2</ele></trkpt><trkpt lat="47.703488" lon="11.981144"><ele>1079.2</ele></trkpt><trkpt lat="47.703543" lon="11.981149"><ele>1079.2</ele></trkpt><trkpt lat="47.703595" lon="11.981202"><ele>1079.2</ele></trkpt><trkpt lat="47.703709" lon="11.981421"><ele>1079.3</ele></trkpt><trkpt lat="47.703728" lon="11.981507"><ele>1079.3</ele></trkpt><trkpt lat="47.703729" lon="11.981596"><ele>1079.3</ele></trkpt><trkpt lat="47.703609" lon="11.98186"><ele>1081.2</ele></trkpt><trkpt lat="47.703625" lon="11.98201"><ele>1081.2</ele></trkpt><trkpt lat="47.703661" lon="11.982156"><ele>1081.3</ele></trkpt><trkpt lat="47.703824" lon="11.982434"><ele>1081.6</ele></trkpt><trkpt lat="47.703844" lon="11.982487"><ele>1081.7</ele></trkpt><trkpt lat="47.703833" lon="11.982542"><ele>1083.6</ele></trkpt><trkpt lat="47.70373" lon="11.982553"><ele>1083.8</ele></trkpt><trkpt lat="47.703548" lon="11.982503"><ele>1084.8</ele></trkpt><trkpt lat="47.703479" lon="11.982523"><ele>1084.8</ele></trkpt><trkpt lat="47.703395" lon="11.982608"><ele>1084.7</ele></trkpt><trkpt lat="47.703246" lon="11.982944"><ele>1086.2</ele></trkpt><trkpt lat="47.703062" lon="11.983506"><ele>1114.9</ele></trkpt><trkpt lat="47.703047" lon="11.983581"><ele>1118.3</ele></trkpt><trkpt lat="47.702955" lon="11.984015"><ele>1121.8</ele></trkpt><trkpt lat="47.702886" lon="11.984197"><ele>1126.4</ele></trkpt><trkpt lat="47.702744" lon="11.984384"><ele>1130.6</ele></trkpt><trkpt lat="47.702412" lon="11.984891"><ele>1132.9</ele></trkpt><trkpt lat="47.702389" lon="11.985014"><ele>1132.2</ele></trkpt><trkpt lat="47.702409" lon="11.985063"><ele>1132</ele></trkpt><trkpt lat="47.702473" lon="11.985083"><ele>1131.7</ele></trkpt><trkpt lat="47.70265" lon="11.984831"><ele>1132.3</ele></trkpt><trkpt lat="47.702767" lon="11.984711"><ele>1131</ele></trkpt><trkpt lat="47.702916" lon="11.984596"><ele>1129.1</ele></trkpt><trkpt lat="47.703446" lon="11.984008"><ele>1117</ele></trkpt><trkpt lat="47.703546" lon="11.983973"><ele>1134.3</ele></trkpt><trkpt lat="47.703618" lon="11.983978"><ele>1134.4</ele></trkpt><trkpt lat="47.703825" lon="11.984147"><ele>1143.9</ele></trkpt><trkpt lat="47.703912" lon="11.984275"><ele>1148.1</ele></trkpt><trkpt lat="47.703966" lon="11.98444"><ele>1148.8</ele></trkpt><trkpt lat="47.703991" lon="11.984571"><ele>1157</ele></trkpt><trkpt lat="47.703995" lon="11.984901"><ele>1167.6</ele></trkpt><trkpt lat="47.704027" lon="11.984971"><ele>1172.3</ele></trkpt><trkpt lat="47.704292" lon="11.985169"><ele>1177.5</ele></trkpt><trkpt lat="47.704364" lon="11.985267"><ele>1179</ele></trkpt><trkpt lat="47.704619" lon="11.985735"><ele>1189.5</ele></trkpt><trkpt lat="47.704708" lon="11.985832"><ele>1190.5</ele></trkpt><trkpt lat="47.704843" lon="11.986084"><ele>1192.6</ele></trkpt><trkpt lat="47.704905" lon="11.986112"><ele>1191.8</ele></trkpt><trkpt lat="47.70512" lon="11.986034"><ele>1217</ele></trkpt><trkpt lat="47.705315" lon="11.986027"><ele>1226</ele></trkpt><trkpt lat="47.705479" lon="11.986117"><ele>1224.8</ele></trkpt><trkpt lat="47.705559" lon="11.986124"><ele>1224.2</ele></trkpt><trkpt lat="47.705751" lon="11.985994"><ele>1222.8</ele></trkpt><trkpt lat="47.706074" lon="11.985897"><ele>1222</ele></trkpt><trkpt lat="47.706111" lon="11.985854"><ele>1221.6</ele></trkpt><trkpt lat="47.706137" lon="11.985776"><ele>1225</ele></trkpt><trkpt lat="47.706148" lon="11.98564"><ele>1269</ele></trkpt><trkpt lat="47.706323" lon="11.985669"><ele>1257</ele></trkpt><trkpt lat="47.706396" lon="11.985766"><ele>1256.1</ele></trkpt><trkpt lat="47.706413" lon="11.985902"><ele>1255.1</ele></trkpt><trkpt lat="47.706407" lon="11.985976"><ele>1254.5</ele></trkpt><trkpt lat="47.706393" lon="11.986146"><ele>1254</ele></trkpt><trkpt lat="47.706356" lon="11.986296"><ele>1250.3</ele></trkpt><trkpt lat="47.706321" lon="11.986634"><ele>1245.5</ele></trkpt><trkpt lat="47.706292" lon="11.986716"><ele>1243.9</ele></trkpt><trkpt lat="47.706208" lon="11.986811"><ele>1240.7</ele></trkpt><trkpt lat="47.706047" lon="11.986931"><ele>1245.5</ele></trkpt><trkpt lat="47.705768" lon="11.987061"><ele>1253.5</ele></trkpt><trkpt lat="47.705194" lon="11.987142"><ele>1265.7</ele></trkpt><trkpt lat="47.705043" lon="11.987185"><ele>1269.3</ele></trkpt><trkpt lat="47.704884" lon="11.987277"><ele>1279.2</ele></trkpt><trkpt lat="47.704858" lon="11.987325"><ele>1282.5</ele></trkpt><trkpt lat="47.704852" lon="11.987396"><ele>1286</ele></trkpt><trkpt lat="47.704827" lon="11.987436"><ele>1285.2</ele></trkpt><trkpt lat="47.704764" lon="11.98746"><ele>1284.4</ele></trkpt><trkpt lat="47.704654" lon="11.987595"><ele>1284.9</ele></trkpt><trkpt lat="47.7044" lon="11.987738"><ele>1284.1</ele></trkpt><trkpt lat="47.704298" lon="11.987849"><ele>1282.2</ele></trkpt><trkpt lat="47.704268" lon="11.987905"><ele>1300</ele></trkpt><trkpt lat="47.704181" lon="11.988097"><ele>1310.8</ele></trkpt><trkpt lat="47.704121" lon="11.988375"><ele>1311.7</ele></trkpt><trkpt lat="47.704192" lon="11.988435"><ele>1316.4</ele></trkpt><trkpt lat="47.704151" lon="11.988504"><ele>1317.6</ele></trkpt><trkpt lat="47.704217" lon="11.988596"><ele>1319</ele></trkpt><trkpt lat="47.704126" lon="11.988857"><ele>1323.2</ele></trkpt><trkpt lat="47.704104" lon="11.989399"><ele>1330.9</ele></trkpt><trkpt lat="47.704218" lon="11.989962"><ele>1337.2</ele></trkpt><trkpt lat="47.704363" lon="11.990375"><ele>1343.4</ele></trkpt><trkpt lat="47.704543" lon="11.990708"><ele>1350.5</ele></trkpt><trkpt lat="47.704611" lon="11.99105"><ele>1356</ele></trkpt><trkpt lat="47.704678" lon="11.991176"><ele>1357.1</ele></trkpt><trkpt lat="47.704755" lon="11.991659"><ele>1362.3</ele></trkpt><trkpt lat="47.70488" lon="11.991941"><ele>1365.4</ele></trkpt><trkpt lat="47.704849" lon="11.992395"><ele>1369.6</ele></trkpt><trkpt lat="47.704907" lon="11.992794"><ele>1372</ele></trkpt><trkpt lat="47.704954" lon="11.993011"><ele>1373.1</ele></trkpt><trkpt lat="47.70499" lon="11.993319"><ele>1376</ele></trkpt><trkpt lat="47.704996" lon="11.993706"><ele>1377.8</ele></trkpt><trkpt lat="47.705118" lon="11.993997"><ele>1378.3</ele></trkpt><trkpt lat="47.705155" lon="11.994337"><ele>1377.3</ele></trkpt><trkpt lat="47.705153" lon="11.994566"><ele>1386</ele></trkpt><trkpt lat="47.705297" lon="11.99506"><ele>1398.7</ele></trkpt><trkpt lat="47.705273" lon="11.995238"><ele>1399.8</ele></trkpt><trkpt lat="47.705286" lon="11.995678"><ele>1405.9</ele></trkpt><trkpt lat="47.705207" lon="11.995941"><ele>1406.4</ele></trkpt><trkpt lat="47.705093" lon="11.996627"><ele>1408.1</ele></trkpt><trkpt lat="47.705061" lon="11.997037"><ele>1409.8</ele></trkpt><trkpt lat="47.705035" lon="11.997163"><ele>1410.2</ele></trkpt><trkpt lat="47.70504" lon="11.997245"><ele>1412</ele></trkpt><trkpt lat="47.70517" lon="11.99716"><ele>1411.1</ele></trkpt><trkpt lat="47.705228" lon="11.997258"><ele>1412.9</ele></trkpt><trkpt lat="47.705305" lon="11.997169"><ele>1411.7</ele></trkpt><trkpt lat="47.705463" lon="11.996805"><ele>1410.6</ele></trkpt><trkpt lat="47.70567" lon="11.99665"><ele>1410.9</ele></trkpt><trkpt lat="47.705872" lon="11.996425"><ele>1411.5</ele></trkpt><trkpt lat="47.705926" lon="11.996311"><ele>1411.8</ele></trkpt><trkpt lat="47.706013" lon="11.996236"><ele>1417</ele></trkpt><trkpt lat="47.705793" lon="11.996949"><ele>1417</ele></trkpt><trkpt lat="47.705819" lon="11.997098"><ele>1417</ele></trkpt><trkpt lat="47.70582" lon="11.997187"><ele>1444.4</ele></trkpt><trkpt lat="47.705729" lon="11.99754"><ele>1447.3</ele></trkpt><trkpt lat="47.705725" lon="11.997721"><ele>1448.9</ele></trkpt><trkpt lat="47.705627" lon="11.997983"><ele>1450.4</ele></trkpt><trkpt lat="47.705496" lon="11.998169"><ele>1449.9</ele></trkpt><trkpt lat="47.705443" lon="11.99835"><ele>1449.6</ele></trkpt><trkpt lat="47.705436" lon="11.998571"><ele>1449.3</ele></trkpt><trkpt lat="47.70545" lon="11.998707"><ele>1448.7</ele></trkpt><trkpt lat="47.705429" lon="11.998825"><ele>1448</ele></trkpt><trkpt lat="47.705462" lon="11.998838"><ele>1447.7</ele></trkpt><trkpt lat="47.705491" lon="11.998974"><ele>1455</ele></trkpt><trkpt lat="47.705509" lon="11.998863"><ele>1510</ele></trkpt><trkpt lat="47.705491" lon="11.998974"><ele>1455</ele></trkpt><trkpt lat="47.705428" lon="11.998996"><ele>1458.3</ele></trkpt><trkpt lat="47.705377" lon="11.999147"><ele>1458</ele></trkpt><trkpt lat="47.705316" lon="11.999227"><ele>1458.1</ele></trkpt><trkpt lat="47.705311" lon="11.999246"><ele>1458</ele></trkpt><trkpt lat="47.705316" lon="11.999227"><ele>1458.1</ele></trkpt><trkpt lat="47.705377" lon="11.999147"><ele>1458</ele></trkpt><trkpt lat="47.705428" lon="11.998996"><ele>1458.3</ele></trkpt><trkpt lat="47.705491" lon="11.998974"><ele>1455</ele></trkpt><trkpt lat="47.705462" lon="11.998838"><ele>1447.7</ele></trkpt><trkpt lat="47.705429" lon="11.998825"><ele>1448</ele></trkpt><trkpt lat="47.70545" lon="11.998707"><ele>1448.7</ele></trkpt><trkpt lat="47.705436" lon="11.998571"><ele>1449.3</ele></trkpt><trkpt lat="47.705443" lon="11.99835"><ele>1449.6</ele></trkpt><trkpt lat="47.705496" lon="11.998169"><ele>1449.9</ele></trkpt><trkpt lat="47.705627" lon="11.997983"><ele>1450.4</ele></trkpt><trkpt lat="47.705725" lon="11.997721"><ele>1448.9</ele></trkpt><trkpt lat="47.705729" lon="11.99754"><ele>1447.3</ele></trkpt><trkpt lat="47.70582" lon="11.997187"><ele>1444.4</ele></trkpt><trkpt lat="47.705819" lon="11.997098"><ele>1417</ele></trkpt><trkpt lat="47.705793" lon="11.996949"><ele>1417</ele></trkpt><trkpt lat="47.706013" lon="11.996236"><ele>1417</ele></trkpt><trkpt lat="47.706087" lon="11.996307"><ele>1410</ele></trkpt><trkpt lat="47.706398" lon="11.996374"><ele>1396</ele></trkpt><trkpt lat="47.706441" lon="11.996242"><ele>1399.2</ele></trkpt><trkpt lat="47.706515" lon="11.995906"><ele>1399.4</ele></trkpt><trkpt lat="47.706493" lon="11.99563"><ele>1399.6</ele></trkpt><trkpt lat="47.706339" lon="11.995263"><ele>1400.6</ele></trkpt><trkpt lat="47.706352" lon="11.995001"><ele>1400.7</ele></trkpt><trkpt lat="47.706576" lon="11.994722"><ele>1402</ele></trkpt><trkpt lat="47.706754" lon="11.994285"><ele>1404.6</ele></trkpt><trkpt lat="47.707035" lon="11.993738"><ele>1408.5</ele></trkpt><trkpt lat="47.707348" lon="11.993483"><ele>1414.4</ele></trkpt><trkpt lat="47.7077" lon="11.993288"><ele>1417.8</ele></trkpt><trkpt lat="47.708002" lon="11.99296"><ele>1422.4</ele></trkpt><trkpt lat="47.708197" lon="11.992802"><ele>1416.8</ele></trkpt><trkpt lat="47.70843" lon="11.992833"><ele>1415.3</ele></trkpt><trkpt lat="47.708558" lon="11.992727"><ele>1412.3</ele></trkpt><trkpt lat="47.70877" lon="11.992159"><ele>1407.5</ele></trkpt><trkpt lat="47.709131" lon="11.991488"><ele>1401</ele></trkpt><trkpt lat="47.7094" lon="11.990659"><ele>1422.7</ele></trkpt><trkpt lat="47.70961" lon="11.989441"><ele>1431.7</ele></trkpt><trkpt lat="47.709578" lon="11.988949"><ele>1432</ele></trkpt><trkpt lat="47.709582" lon="11.98891"><ele>1432</ele></trkpt><trkpt lat="47.709577" lon="11.988868"><ele>1432</ele></trkpt><trkpt lat="47.709687" lon="11.988839"><ele>1457.1</ele></trkpt><trkpt lat="47.70974" lon="11.988867"><ele>1458.6</ele></trkpt><trkpt lat="47.70983" lon="11.988867"><ele>1460</ele></trkpt><trkpt lat="47.709942" lon="11.988807"><ele>1463.8</ele></trkpt><trkpt lat="47.710002" lon="11.988712"><ele>1464.8</ele></trkpt><trkpt lat="47.710099" lon="11.988647"><ele>1466.8</ele></trkpt><trkpt lat="47.710231" lon="11.988725"><ele>1469</ele></trkpt><trkpt lat="47.710252" lon="11.988772"><ele>1470.1</ele></trkpt><trkpt lat="47.710432" lon="11.988899"><ele>1471.1</ele></trkpt><trkpt lat="47.710513" lon="11.989085"><ele>1470.9</ele></trkpt><trkpt lat="47.710646" lon="11.989245"><ele>1470.6</ele></trkpt><trkpt lat="47.710686" lon="11.989259"><ele>1470.5</ele></trkpt><trkpt lat="47.710743" lon="11.989217"><ele>1470.1</ele></trkpt><trkpt lat="47.710755" lon="11.988661"><ele>1469.4</ele></trkpt><trkpt lat="47.710801" lon="11.988397"><ele>1469.2</ele></trkpt><trkpt lat="47.71083" lon="11.988301"><ele>1469</ele></trkpt><trkpt lat="47.710871" lon="11.988036"><ele>1470.1</ele></trkpt><trkpt lat="47.710941" lon="11.987856"><ele>1470.6</ele></trkpt><trkpt lat="47.711039" lon="11.987672"><ele>1514</ele></trkpt><trkpt lat="47.711045" lon="11.987671"><ele>1493</ele></trkpt><trkpt lat="47.711039" lon="11.987672"><ele>1514</ele></trkpt><trkpt lat="47.710941" lon="11.987856"><ele>1470.6</ele></trkpt><trkpt lat="47.710871" lon="11.988036"><ele>1470.1</ele></trkpt><trkpt lat="47.71083" lon="11.988301"><ele>1469</ele></trkpt><trkpt lat="47.710801" lon="11.988397"><ele>1469.2</ele></trkpt><trkpt lat="47.710755" lon="11.988661"><ele>1469.4</ele></trkpt><trkpt lat="47.710743" lon="11.989217"><ele>1470.1</ele></trkpt><trkpt lat="47.710686" lon="11.989259"><ele>1470.5</ele></trkpt><trkpt lat="47.710646" lon="11.989245"><ele>1470.6</ele></trkpt><trkpt lat="47.710513" lon="11.989085"><ele>1470.9</ele></trkpt><trkpt lat="47.710432" lon="11.988899"><ele>1471.1</ele></trkpt><trkpt lat="47.710252" lon="11.988772"><ele>1470.1</ele></trkpt><trkpt lat="47.710231" lon="11.988725"><ele>1469</ele></trkpt><trkpt lat="47.710099" lon="11.988647"><ele>1466.8</ele></trkpt><trkpt lat="47.710002" lon="11.988712"><ele>1464.8</ele></trkpt><trkpt lat="47.709942" lon="11.988807"><ele>1463.8</ele></trkpt><trkpt lat="47.70983" lon="11.988867"><ele>1460</ele></trkpt><trkpt lat="47.70974" lon="11.988867"><ele>1458.6</ele></trkpt><trkpt lat="47.709687" lon="11.988839"><ele>1457.1</ele></trkpt><trkpt lat="47.709577" lon="11.988868"><ele>1432</ele></trkpt><trkpt lat="47.709585" lon="11.98876"><ele>1423.4</ele></trkpt><trkpt lat="47.709637" lon="11.9886"><ele>1424</ele></trkpt><trkpt lat="47.709702" lon="11.988487"><ele>1424.5</ele></trkpt><trkpt lat="47.709743" lon="11.988358"><ele>1424.9</ele></trkpt><trkpt lat="47.709961" lon="11.988051"><ele>1424.5</ele></trkpt><trkpt lat="47.710023" lon="11.987835"><ele>1424.5</ele></trkpt><trkpt lat="47.710029" lon="11.987619"><ele>1424.2</ele></trkpt><trkpt lat="47.710014" lon="11.987522"><ele>1423.9</ele></trkpt><trkpt lat="47.709961" lon="11.987388"><ele>1424.3</ele></trkpt><trkpt lat="47.709961" lon="11.987311"><ele>1421.2</ele></trkpt><trkpt lat="47.710059" lon="11.987095"><ele>1416.6</ele></trkpt><trkpt lat="47.710072" lon="11.98693"><ele>1412.1</ele></trkpt><trkpt lat="47.71032" lon="11.986508"><ele>1409.9</ele></trkpt><trkpt lat="47.710449" lon="11.986182"><ele>1410.3</ele></trkpt><trkpt lat="47.710551" lon="11.985858"><ele>1409.7</ele></trkpt><trkpt lat="47.710508" lon="11.985541"><ele>1409.6</ele></trkpt><trkpt lat="47.710442" lon="11.985427"><ele>1414</ele></trkpt><trkpt lat="47.710401" lon="11.985198"><ele>1414.9</ele></trkpt><trkpt lat="47.710374" lon="11.985148"><ele>1411.3</ele></trkpt><trkpt lat="47.710298" lon="11.985074"><ele>1364</ele></trkpt><trkpt lat="47.710287" lon="11.985"><ele>1364</ele></trkpt><trkpt lat="47.710317" lon="11.984945"><ele>1364</ele></trkpt><trkpt lat="47.71034" lon="11.984831"><ele>1364</ele></trkpt><trkpt lat="47.710356" lon="11.984826"><ele>1364</ele></trkpt><trkpt lat="47.710431" lon="11.98493"><ele>1364</ele></trkpt><trkpt lat="47.710461" lon="11.984926"><ele>1364</ele></trkpt><trkpt lat="47.710534" lon="11.984829"><ele>1364</ele></trkpt><trkpt lat="47.710622" lon="11.984794"><ele>1364</ele></trkpt><trkpt lat="47.710716" lon="11.984642"><ele>1364</ele></trkpt><trkpt lat="47.71113" lon="11.984635"><ele>1364</ele></trkpt><trkpt lat="47.711183" lon="11.984664"><ele>1364</ele></trkpt><trkpt lat="47.711252" lon="11.984771"><ele>1364</ele></trkpt><trkpt lat="47.711349" lon="11.984859"><ele>1364</ele></trkpt><trkpt lat="47.711414" lon="11.984862"><ele>1364</ele></trkpt><trkpt lat="47.711441" lon="11.984831"><ele>1364</ele></trkpt><trkpt lat="47.711691" lon="11.985028"><ele>1362.6</ele></trkpt><trkpt lat="47.711693" lon="11.985029"><ele>1361.2</ele></trkpt><trkpt lat="47.711887" lon="11.985086"><ele>1361.2</ele></trkpt><trkpt lat="47.712036" lon="11.98505"><ele>1361.1</ele></trkpt><trkpt lat="47.71212" lon="11.984939"><ele>1361</ele></trkpt><trkpt lat="47.712257" lon="11.984677"><ele>1360.5</ele></trkpt><trkpt lat="47.712397" lon="11.984519"><ele>1360.3</ele></trkpt><trkpt lat="47.712476" lon="11.984324"><ele>1360.5</ele></trkpt><trkpt lat="47.712517" lon="11.9843"><ele>1360.7</ele></trkpt><trkpt lat="47.712569" lon="11.984317"><ele>1360.9</ele></trkpt><trkpt lat="47.712594" lon="11.984291"><ele>1361.1</ele></trkpt><trkpt lat="47.71262" lon="11.984095"><ele>1361</ele></trkpt><trkpt lat="47.712672" lon="11.984034"><ele>1360.3</ele></trkpt><trkpt lat="47.713039" lon="11.983769"><ele>1358.2</ele></trkpt><trkpt lat="47.713254" lon="11.983697"><ele>1357.4</ele></trkpt><trkpt lat="47.713355" lon="11.983589"><ele>1354.6</ele></trkpt><trkpt lat="47.713341" lon="11.983249"><ele>1352.1</ele></trkpt><trkpt lat="47.713375" lon="11.98312"><ele>1347.4</ele></trkpt><trkpt lat="47.713533" lon="11.982813"><ele>1338.9</ele></trkpt><trkpt lat="47.713624" lon="11.982727"><ele>1329.9</ele></trkpt><trkpt lat="47.713847" lon="11.982573"><ele>1325</ele></trkpt><trkpt lat="47.714002" lon="11.982373"><ele>1320.3</ele></trkpt><trkpt lat="47.71424" lon="11.982165"><ele>1305.8</ele></trkpt><trkpt lat="47.714291" lon="11.982155"><ele>1305</ele></trkpt><trkpt lat="47.714342" lon="11.982177"><ele>1301</ele></trkpt><trkpt lat="47.714462" lon="11.982275"><ele>1291.7</ele></trkpt><trkpt lat="47.714779" lon="11.982467"><ele>1285.1</ele></trkpt><trkpt lat="47.71493" lon="11.982582"><ele>1284.1</ele></trkpt><trkpt lat="47.715004" lon="11.982572"><ele>1276</ele></trkpt><trkpt lat="47.714969" lon="11.982476"><ele>1279.2</ele></trkpt><trkpt lat="47.714615" lon="11.981847"><ele>1278.2</ele></trkpt><trkpt lat="47.71444" lon="11.981118"><ele>1290</ele></trkpt><trkpt lat="47.714382" lon="11.980834"><ele>1241</ele></trkpt><trkpt lat="47.71426" lon="11.980348"><ele>1241</ele></trkpt><trkpt lat="47.714006" lon="11.980086"><ele>1241</ele></trkpt><trkpt lat="47.713927" lon="11.979918"><ele>1241</ele></trkpt><trkpt lat="47.713886" lon="11.980134"><ele>1241</ele></trkpt><trkpt lat="47.713865" lon="11.980296"><ele>1241</ele></trkpt><trkpt lat="47.71384" lon="11.980464"><ele>1241</ele></trkpt><trkpt lat="47.713813" lon="11.980546"><ele>1241</ele></trkpt><trkpt lat="47.713744" lon="11.980678"><ele>1241</ele></trkpt><trkpt lat="47.713712" lon="11.980671"><ele>1241</ele></trkpt><trkpt lat="47.713694" lon="11.980642"><ele>1241</ele></trkpt><trkpt lat="47.713637" lon="11.98032"><ele>1241</ele></trkpt><trkpt lat="47.713609" lon="11.980164"><ele>1241</ele></trkpt><trkpt lat="47.713594" lon="11.979884"><ele>1241</ele></trkpt><trkpt lat="47.713601" lon="11.979553"><ele>1241</ele></trkpt><trkpt lat="47.713591" lon="11.979445"><ele>1241</ele></trkpt><trkpt lat="47.713534" lon="11.979245"><ele>1241</ele></trkpt><trkpt lat="47.713507" lon="11.979212"><ele>1241</ele></trkpt><trkpt lat="47.713463" lon="11.979235"><ele>1241</ele></trkpt><trkpt lat="47.713406" lon="11.979622"><ele>1241</ele></trkpt><trkpt lat="47.7133" lon="11.979932"><ele>1241</ele></trkpt><trkpt lat="47.713261" lon="11.980051"><ele>1241</ele></trkpt><trkpt lat="47.713227" lon="11.980108"><ele>1241</ele></trkpt><trkpt lat="47.713013" lon="11.980274"><ele>1241</ele></trkpt><trkpt lat="47.712962" lon="11.98029"><ele>1241</ele></trkpt><trkpt lat="47.712912" lon="11.980277"><ele>1241</ele></trkpt><trkpt lat="47.712839" lon="11.980197"><ele>1241</ele></trkpt><trkpt lat="47.712829" lon="11.980146"><ele>1241</ele></trkpt><trkpt lat="47.712852" lon="11.980097"><ele>1241</ele></trkpt><trkpt lat="47.712959" lon="11.980052"><ele>1241</ele></trkpt><trkpt lat="47.712987" lon="11.980005"><ele>1241</ele></trkpt><trkpt lat="47.712981" lon="11.979866"><ele>1241</ele></trkpt><trkpt lat="47.712924" lon="11.979727"><ele>1241</ele></trkpt><trkpt lat="47.712843" lon="11.979718"><ele>1241</ele></trkpt><trkpt lat="47.712602" lon="11.979802"><ele>1243.5</ele></trkpt><trkpt lat="47.712549" lon="11.979794"><ele>1243.1</ele></trkpt><trkpt lat="47.712257" lon="11.979481"><ele>1252</ele></trkpt><trkpt lat="47.712173" lon="11.979365"><ele>1252</ele></trkpt><trkpt lat="47.712181" lon="11.979331"><ele>1252</ele></trkpt><trkpt lat="47.712241" lon="11.979311"><ele>1252</ele></trkpt><trkpt lat="47.712453" lon="11.979305"><ele>1244.4</ele></trkpt><trkpt lat="47.712503" lon="11.979275"><ele>1241</ele></trkpt><trkpt lat="47.71252" lon="11.979195"><ele>1241</ele></trkpt><trkpt lat="47.712498" lon="11.979142"><ele>1241</ele></trkpt><trkpt lat="47.712095" lon="11.978725"><ele>1233</ele></trkpt><trkpt lat="47.712049" lon="11.978687"><ele>1233</ele></trkpt><trkpt lat="47.711989" lon="11.97861"><ele>1233</ele></trkpt><trkpt lat="47.711997" lon="11.978558"><ele>1233</ele></trkpt><trkpt lat="47.712026" lon="11.978532"><ele>1233</ele></trkpt><trkpt lat="47.712106" lon="11.978525"><ele>1233</ele></trkpt><trkpt lat="47.712151" lon="11.978521"><ele>1233</ele></trkpt><trkpt lat="47.712347" lon="11.978497"><ele>1225</ele></trkpt><trkpt lat="47.712416" lon="11.978467"><ele>1209</ele></trkpt><trkpt lat="47.712464" lon="11.978432"><ele>1209</ele></trkpt><trkpt lat="47.712527" lon="11.978355"><ele>1209</ele></trkpt><trkpt lat="47.712676" lon="11.978186"><ele>1209</ele></trkpt><trkpt lat="47.712691" lon="11.978142"><ele>1209</ele></trkpt><trkpt lat="47.712682" lon="11.978094"><ele>1209</ele></trkpt><trkpt lat="47.712647" lon="11.97806"><ele>1209</ele></trkpt><trkpt lat="47.712483" lon="11.977997"><ele>1209</ele></trkpt><trkpt lat="47.712441" lon="11.977981"><ele>1209</ele></trkpt><trkpt lat="47.712384" lon="11.977956"><ele>1209</ele></trkpt><trkpt lat="47.712356" lon="11.97793"><ele>1219.2</ele></trkpt><trkpt lat="47.712348" lon="11.97789"><ele>1221.5</ele></trkpt><trkpt lat="47.712357" lon="11.977855"><ele>1223.4</ele></trkpt><trkpt lat="47.712378" lon="11.977841"><ele>1209</ele></trkpt><trkpt lat="47.712463" lon="11.977777"><ele>1209</ele></trkpt><trkpt lat="47.71247" lon="11.977772"><ele>1209</ele></trkpt><trkpt lat="47.71263" lon="11.977674"><ele>1209</ele></trkpt><trkpt lat="47.712642" lon="11.977623"><ele>1209</ele></trkpt><trkpt lat="47.71248" lon="11.977433"><ele>1209</ele></trkpt><trkpt lat="47.712402" lon="11.977359"><ele>1209</ele></trkpt><trkpt lat="47.712337" lon="11.977295"><ele>1233</ele></trkpt><trkpt lat="47.712299" lon="11.97722"><ele>1233</ele></trkpt><trkpt lat="47.712289" lon="11.977154"><ele>1233</ele></trkpt><trkpt lat="47.712294" lon="11.977081"><ele>1233</ele></trkpt><trkpt lat="47.712344" lon="11.976983"><ele>1233</ele></trkpt><trkpt lat="47.7124" lon="11.976926"><ele>1131</ele></trkpt><trkpt lat="47.712588" lon="11.976762"><ele>1131</ele></trkpt><trkpt lat="47.712721" lon="11.976662"><ele>1118.8</ele></trkpt><trkpt lat="47.712773" lon="11.976584"><ele>1118.4</ele></trkpt><trkpt lat="47.713091" lon="11.975948"><ele>1116.7</ele></trkpt><trkpt lat="47.713393" lon="11.975551"><ele>1114.2</ele></trkpt><trkpt lat="47.713427" lon="11.975433"><ele>1115.1</ele></trkpt><trkpt lat="47.713429" lon="11.975047"><ele>1110.6</ele></trkpt><trkpt lat="47.713456" lon="11.974958"><ele>1110.6</ele></trkpt><trkpt lat="47.713707" lon="11.974834"><ele>1099.4</ele></trkpt><trkpt lat="47.713818" lon="11.974747"><ele>1097.5</ele></trkpt><trkpt lat="47.713942" lon="11.974598"><ele>1092.8</ele></trkpt><trkpt lat="47.714033" lon="11.974446"><ele>1088</ele></trkpt><trkpt lat="47.714447" lon="11.973928"><ele>1078.1</ele></trkpt><trkpt lat="47.714532" lon="11.9739"><ele>1078.1</ele></trkpt><trkpt lat="47.714635" lon="11.973908"><ele>1071.8</ele></trkpt><trkpt lat="47.714731" lon="11.973946"><ele>1068.5</ele></trkpt><trkpt lat="47.715243" lon="11.974352"><ele>1071.8</ele></trkpt><trkpt lat="47.715372" lon="11.974398"><ele>1078</ele></trkpt><trkpt lat="47.715429" lon="11.974367"><ele>1078</ele></trkpt><trkpt lat="47.715466" lon="11.974289"><ele>1078</ele></trkpt><trkpt lat="47.715514" lon="11.974039"><ele>1078</ele></trkpt><trkpt lat="47.715518" lon="11.973996"><ele>1078</ele></trkpt><trkpt lat="47.715537" lon="11.973703"><ele>1078</ele></trkpt><trkpt lat="47.715553" lon="11.973265"><ele>1064.2</ele></trkpt><trkpt lat="47.715516" lon="11.97298"><ele>1066.5</ele></trkpt><trkpt lat="47.715571" lon="11.972517"><ele>1063.1</ele></trkpt><trkpt lat="47.715567" lon="11.972405"><ele>1061.3</ele></trkpt><trkpt lat="47.715533" lon="11.972281"><ele>1059.6</ele></trkpt><trkpt lat="47.715533" lon="11.972186"><ele>1058</ele></trkpt><trkpt lat="47.715565" lon="11.972103"><ele>1056.4</ele></trkpt><trkpt lat="47.715699" lon="11.971989"><ele>1055</ele></trkpt><trkpt lat="47.715801" lon="11.97186"><ele>1032</ele></trkpt><trkpt lat="47.715948" lon="11.971646"><ele>1023.6</ele></trkpt><trkpt lat="47.71599" lon="11.971541"><ele>1024.3</ele></trkpt><trkpt lat="47.716003" lon="11.971415"><ele>1024.9</ele></trkpt><trkpt lat="47.715957" lon="11.971141"><ele>1025.9</ele></trkpt><trkpt lat="47.716059" lon="11.97085"><ele>1026.8</ele></trkpt><trkpt lat="47.716199" lon="11.970657"><ele>1024.6</ele></trkpt><trkpt lat="47.716238" lon="11.970574"><ele>1022.6</ele></trkpt><trkpt lat="47.71624" lon="11.970561"><ele>1021.6</ele></trkpt><trkpt lat="47.716285" lon="11.970312"><ele>1020.7</ele></trkpt><trkpt lat="47.716284" lon="11.97018"><ele>998</ele></trkpt><trkpt lat="47.716241" lon="11.970083"><ele>998</ele></trkpt><trkpt lat="47.716037" lon="11.969824"><ele>998</ele></trkpt><trkpt lat="47.715891" lon="11.969565"><ele>998</ele></trkpt><trkpt lat="47.715837" lon="11.969503"><ele>998</ele></trkpt><trkpt lat="47.715777" lon="11.969484"><ele>998</ele></trkpt><trkpt lat="47.715708" lon="11.969525"><ele>998</ele></trkpt><trkpt lat="47.715612" lon="11.96965"><ele>998</ele></trkpt><trkpt lat="47.715535" lon="11.969715"><ele>998</ele></trkpt><trkpt lat="47.715375" lon="11.969777"><ele>998</ele></trkpt><trkpt lat="47.715198" lon="11.969906"><ele>998</ele></trkpt><trkpt lat="47.71513" lon="11.969908"><ele>998</ele></trkpt><trkpt lat="47.715084" lon="11.969847"><ele>998</ele></trkpt><trkpt lat="47.715061" lon="11.969755"><ele>998</ele></trkpt><trkpt lat="47.715075" lon="11.969584"><ele>998</ele></trkpt><trkpt lat="47.715167" lon="11.96934"><ele>972.2</ele></trkpt><trkpt lat="47.715233" lon="11.969212"><ele>973.1</ele></trkpt><trkpt lat="47.715579" lon="11.96867"><ele>976.3</ele></trkpt><trkpt lat="47.715627" lon="11.968494"><ele>975.5</ele></trkpt><trkpt lat="47.715674" lon="11.96814"><ele>974.6</ele></trkpt><trkpt lat="47.715726" lon="11.968012"><ele>973.7</ele></trkpt><trkpt lat="47.715804" lon="11.967903"><ele>972.9</ele></trkpt><trkpt lat="47.715811" lon="11.967845"><ele>971</ele></trkpt><trkpt lat="47.715777" lon="11.967815"><ele>970.3</ele></trkpt><trkpt lat="47.715732" lon="11.967834"><ele>970.7</ele></trkpt><trkpt lat="47.715453" lon="11.96816"><ele>968.4</ele></trkpt><trkpt lat="47.715415" lon="11.968258"><ele>967.1</ele></trkpt><trkpt lat="47.715343" lon="11.968447"><ele>965.8</ele></trkpt><trkpt lat="47.715243" lon="11.968547"><ele>965.4</ele></trkpt><trkpt lat="47.714884" lon="11.968807"><ele>967.8</ele></trkpt><trkpt lat="47.714521" lon="11.969189"><ele>964.6</ele></trkpt><trkpt lat="47.71426" lon="11.96938"><ele>939</ele></trkpt><trkpt lat="47.714076" lon="11.969605"><ele>939</ele></trkpt><trkpt lat="47.714" lon="11.969677"><ele>939</ele></trkpt><trkpt lat="47.713937" lon="11.969718"><ele>939</ele></trkpt><trkpt lat="47.713879" lon="11.969695"><ele>939</ele></trkpt><trkpt lat="47.713811" lon="11.969501"><ele>939</ele></trkpt><trkpt lat="47.713589" lon="11.969053"><ele>939</ele></trkpt><trkpt lat="47.713566" lon="11.969007"><ele>939</ele></trkpt><trkpt lat="47.713518" lon="11.969013"><ele>939</ele></trkpt><trkpt lat="47.713464" lon="11.969066"><ele>939</ele></trkpt><trkpt lat="47.713359" lon="11.969373"><ele>939</ele></trkpt><trkpt lat="47.71324" lon="11.969414"><ele>939</ele></trkpt><trkpt lat="47.713103" lon="11.96942"><ele>931.7</ele></trkpt><trkpt lat="47.712991" lon="11.969323"><ele>932.4</ele></trkpt><trkpt lat="47.712839" lon="11.969091"><ele>933.1</ele></trkpt><trkpt lat="47.712723" lon="11.968951"><ele>933.7</ele></trkpt><trkpt lat="47.712646" lon="11.968818"><ele>934.3</ele></trkpt><trkpt lat="47.712534" lon="11.968692"><ele>934.7</ele></trkpt><trkpt lat="47.712316" lon="11.968524"><ele>931.4</ele></trkpt><trkpt lat="47.712225" lon="11.96836"><ele>889</ele></trkpt><trkpt lat="47.712174" lon="11.968212"><ele>896.3</ele></trkpt><trkpt lat="47.712166" lon="11.968128"><ele>895.9</ele></trkpt><trkpt lat="47.712172" lon="11.967989"><ele>895.5</ele></trkpt><trkpt lat="47.712203" lon="11.967886"><ele>895.1</ele></trkpt><trkpt lat="47.712278" lon="11.967811"><ele>894.8</ele></trkpt><trkpt lat="47.712533" lon="11.967798"><ele>896.4</ele></trkpt><trkpt lat="47.712561" lon="11.967772"><ele>897.3</ele></trkpt><trkpt lat="47.712593" lon="11.967674"><ele>899</ele></trkpt><trkpt lat="47.712643" lon="11.967256"><ele>899.8</ele></trkpt><trkpt lat="47.712694" lon="11.966969"><ele>912</ele></trkpt><trkpt lat="47.712932" lon="11.966322"><ele>878</ele></trkpt><trkpt lat="47.712972" lon="11.96613"><ele>878</ele></trkpt><trkpt lat="47.71298" lon="11.965942"><ele>878</ele></trkpt><trkpt lat="47.712963" lon="11.965805"><ele>878</ele></trkpt><trkpt lat="47.712814" lon="11.965302"><ele>878</ele></trkpt><trkpt lat="47.712739" lon="11.965043"><ele>878</ele></trkpt><trkpt lat="47.712863" lon="11.964624"><ele>872.3</ele></trkpt><trkpt lat="47.712967" lon="11.964365"><ele>855</ele></trkpt><trkpt lat="47.713085" lon="11.964119"><ele>855</ele></trkpt><trkpt lat="47.713175" lon="11.963962"><ele>855</ele></trkpt><trkpt lat="47.71334" lon="11.963819"><ele>855</ele></trkpt><trkpt lat="47.713344" lon="11.963816"><ele>855</ele></trkpt></trkseg></trk></gpx>