<gpx xmlns="http://www.topografix.com/GPX/1/1" xmlns:xsi="http://www.w3.org/2001/XMLSchema-instance" xsi:schemaLocation="http://www.topografix.com/GPX/1/1 http://www.topografix.com/GPX/1/1/gpx.xsd" version="1.1" creator="togpx"><metadata/><wpt lat="47.68036714247965" lon="11.573798954486847"><name></name><desc>label=Lenggries Bahnhof, Lenggries,BY,Germany</desc></wpt><wpt lat="47.6735514575274" lon="11.586520671844484"><name></name><desc>label=Großherzogin-Maria-Anna-Weg 2, Lenggries,BY,Germany</desc></wpt><wpt lat="47.662208068812106" lon="11.631989479064941"><name></name><desc>label=Sulzersteig, Lenggries,BY,Germany</desc></wpt><wpt lat="47.652154" lon="11.643163"><name></name><desc>label=Seekarkreuz, Lenggries,BY,Germany</desc></wpt><wpt lat="47.68019197571477" lon="11.573815047740938"><name></name><desc>label=Lenggries Bahnhof, Lenggries,BY,Germany</desc></wpt><trk><name></name><desc>ascent=831.3
descent=900.2
transfers=0
fare=0
opacity=0.9</desc><trkseg><trkpt lat="47.680367" lon="11.573807"><ele>681</ele></trkpt><trkpt lat="47.680377" lon="11.573806"><ele>681</ele></trkpt><trkpt lat="47.680415" lon="11.573936"><ele>681</ele></trkpt><trkpt lat="47.680433" lon="11.574042"><ele>681</ele></trkpt><trkpt lat="47.680286" lon="11.57406"><ele>681</ele></trkpt><trkpt lat="47.680272" lon="11.574062"><ele>681</ele></trkpt><trkpt lat="47.680161" lon="11.574076"><ele>681</ele></trkpt><trkpt lat="47.680024" lon="11.574107"><ele>681</ele></trkpt><trkpt lat="47.679967" lon="11.574159"><ele>681.1</ele></trkpt><trkpt lat="47.679944" lon="11.574206"><ele>681.1</ele></trkpt><trkpt lat="47.679941" lon="11.574257"><ele>681.2</ele></trkpt><trkpt lat="47.679993" lon="11.574482"><ele>681.3</ele></trkpt><trkpt lat="47.68008" lon="11.574726"><ele>681.3</ele></trkpt><trkpt lat="47.680292" lon="11.575308"><ele>681.3</ele></trkpt><trkpt lat="47.680418" lon="11.575657"><ele>681.4</ele></trkpt><trkpt lat="47.680581" lon="11.576108"><ele>681.7</ele></trkpt><trkpt lat="47.680676" lon="11.576445"><ele>681.8</ele></trkpt><trkpt lat="47.680714" lon="11.576674"><ele>681.9</ele></trkpt><trkpt lat="47.680701" lon="11.576827"><ele>681.9</ele></trkpt><trkpt lat="47.680661" lon="11.57693"><ele>682</ele></trkpt><trkpt lat="47.680591" lon="11.57703"><ele>682</ele></trkpt><trkpt lat="47.68036" lon="11.577196"><ele>682</ele></trkpt><trkpt lat="47.680011" lon="11.577466"><ele>682.1</ele></trkpt><trkpt lat="47.679895" lon="11.577561"><ele>682.3</ele></trkpt><trkpt lat="47.679749" lon="11.577684"><ele>682.4</ele></trkpt><trkpt lat="47.679627" lon="11.577756"><ele>682.5</ele></trkpt><trkpt lat="47.679482" lon="11.577832"><ele>682.6</ele></trkpt><trkpt lat="47.679312" lon="11.577833"><ele>682.7</ele></trkpt><trkpt lat="47.678888" lon="11.577765"><ele>682.9</ele></trkpt><trkpt lat="47.678918" lon="11.578175"><ele>683.2</ele></trkpt><trkpt lat="47.67886" lon="11.578244"><ele>683.3</ele></trkpt><trkpt lat="47.67878" lon="11.578589"><ele>683.5</ele></trkpt><trkpt lat="47.678731" lon="11.578598"><ele>683.6</ele></trkpt><trkpt lat="47.677946" lon="11.579282"><ele>683.7</ele></trkpt><trkpt lat="47.677812" lon="11.579361"><ele>683.7</ele></trkpt><trkpt lat="47.677461" lon="11.579627"><ele>683.7</ele></trkpt><trkpt lat="47.676803" lon="11.580029"><ele>684.1</ele></trkpt><trkpt lat="47.676069" lon="11.580501"><ele>685.4</ele></trkpt><trkpt lat="47.675861" lon="11.580643"><ele>685.7</ele></trkpt><trkpt lat="47.675602" lon="11.580888"><ele>686</ele></trkpt><trkpt lat="47.675313" lon="11.581204"><ele>686.3</ele></trkpt><trkpt lat="47.674882" lon="11.581738"><ele>686.8</ele></trkpt><trkpt lat="47.674663" lon="11.582014"><ele>687</ele></trkpt><trkpt lat="47.674495" lon="11.582156"><ele>687.1</ele></trkpt><trkpt lat="47.674556" lon="11.582237"><ele>687.2</ele></trkpt><trkpt lat="47.674605" lon="11.582368"><ele>687.3</ele></trkpt><trkpt lat="47.674625" lon="11.582567"><ele>687.6</ele></trkpt><trkpt lat="47.674611" lon="11.582727"><ele>688.1</ele></trkpt><trkpt lat="47.674509" lon="11.582793"><ele>688.8</ele></trkpt><trkpt lat="47.674334" lon="11.582955"><ele>690.1</ele></trkpt><trkpt lat="47.674177" lon="11.583199"><ele>691.3</ele></trkpt><trkpt lat="47.673935" lon="11.584186"><ele>696.1</ele></trkpt><trkpt lat="47.673916" lon="11.584648"><ele>698.3</ele></trkpt><trkpt lat="47.673922" lon="11.58504"><ele>700</ele></trkpt><trkpt lat="47.674046" lon="11.58561"><ele>702.4</ele></trkpt><trkpt lat="47.674063" lon="11.585747"><ele>702.8</ele></trkpt><trkpt lat="47.674053" lon="11.585946"><ele>703.3</ele></trkpt><trkpt lat="47.674" lon="11.586045"><ele>703.8</ele></trkpt><trkpt lat="47.67397" lon="11.586163"><ele>704.4</ele></trkpt><trkpt lat="47.673907" lon="11.586309"><ele>705</ele></trkpt><trkpt lat="47.673587" lon="11.586566"><ele>706.9</ele></trkpt><trkpt lat="47.673568" lon="11.586578"><ele>707.3</ele></trkpt><trkpt lat="47.673225" lon="11.586801"><ele>709.6</ele></trkpt><trkpt lat="47.673117" lon="11.586932"><ele>709.6</ele></trkpt><trkpt lat="47.672899" lon="11.587287"><ele>709.4</ele></trkpt><trkpt lat="47.672753" lon="11.58748"><ele>709.4</ele></trkpt><trkpt lat="47.672605" lon="11.587742"><ele>709.6</ele></trkpt><trkpt lat="47.672429" lon="11.588536"><ele>710.4</ele></trkpt><trkpt lat="47.672375" lon="11.588521"><ele>710.5</ele></trkpt><trkpt lat="47.672186" lon="11.588824"><ele>710.8</ele></trkpt><trkpt lat="47.672132" lon="11.588914"><ele>711</ele></trkpt><trkpt lat="47.672087" lon="11.589127"><ele>711.3</ele></trkpt><trkpt lat="47.672024" lon="11.589659"><ele>712.4</ele></trkpt><trkpt lat="47.671901" lon="11.589954"><ele>713.5</ele></trkpt><trkpt lat="47.671789" lon="11.590372"><ele>714.9</ele></trkpt><trkpt lat="47.67162" lon="11.590779"><ele>715.9</ele></trkpt><trkpt lat="47.671368" lon="11.591101"><ele>717</ele></trkpt><trkpt lat="47.671373" lon="11.591461"><ele>718</ele></trkpt><trkpt lat="47.671358" lon="11.591765"><ele>718.9</ele></trkpt><trkpt lat="47.671367" lon="11.592049"><ele>719.9</ele></trkpt><trkpt lat="47.671341" lon="11.592328"><ele>720.8</ele></trkpt><trkpt lat="47.671414" lon="11.592396"><ele>721.2</ele></trkpt><trkpt lat="47.671419" lon="11.592454"><ele>721.5</ele></trkpt><trkpt lat="47.671202" lon="11.593846"><ele>724.1</ele></trkpt><trkpt lat="47.671301" lon="11.594721"><ele>725</ele></trkpt><trkpt lat="47.671287" lon="11.594874"><ele>725.2</ele></trkpt><trkpt lat="47.671232" lon="11.595389"><ele>726.2</ele></trkpt><trkpt lat="47.671181" lon="11.595986"><ele>728</ele></trkpt><trkpt lat="47.671072" lon="11.597273"><ele>732.3</ele></trkpt><trkpt lat="47.670673" lon="11.600039"><ele>739.3</ele></trkpt><trkpt lat="47.670605" lon="11.600408"><ele>739.9</ele></trkpt><trkpt lat="47.670543" lon="11.60057"><ele>740.2</ele></trkpt><trkpt lat="47.670308" lon="11.600931"><ele>740.9</ele></trkpt><trkpt lat="47.67023" lon="11.6011"><ele>741.1</ele></trkpt><trkpt lat="47.669678" lon="11.602926"><ele>746.6</ele></trkpt><trkpt lat="47.669443" lon="11.603649"><ele>750.5</ele></trkpt><trkpt lat="47.669166" lon="11.604415"><ele>754.5</ele></trkpt><trkpt lat="47.668969" lon="11.6048"><ele>756.4</ele></trkpt><trkpt lat="47.668728" lon="11.605582"><ele>759.8</ele></trkpt><trkpt lat="47.668534" lon="11.606001"><ele>761.1</ele></trkpt><trkpt lat="47.667981" lon="11.607027"><ele>764.7</ele></trkpt><trkpt lat="47.667658" lon="11.607619"><ele>767.3</ele></trkpt><trkpt lat="47.66755" lon="11.607969"><ele>768.4</ele></trkpt><trkpt lat="47.667444" lon="11.608492"><ele>770.6</ele></trkpt><trkpt lat="47.667346" lon="11.608833"><ele>771.8</ele></trkpt><trkpt lat="47.667008" lon="11.609714"><ele>776.5</ele></trkpt><trkpt lat="47.666858" lon="11.61006"><ele>778.5</ele></trkpt><trkpt lat="47.666748" lon="11.61028"><ele>779.8</ele></trkpt><trkpt lat="47.666647" lon="11.610426"><ele>780.5</ele></trkpt><trkpt lat="47.666559" lon="11.610595"><ele>781.3</ele></trkpt><trkpt lat="47.666383" lon="11.611148"><ele>784.4</ele></trkpt><trkpt lat="47.666331" lon="11.611393"><ele>785.2</ele></trkpt><trkpt lat="47.666316" lon="11.61164"><ele>786</ele></trkpt><trkpt lat="47.666335" lon="11.612487"><ele>790</ele></trkpt><trkpt lat="47.666298" lon="11.613058"><ele>792.3</ele></trkpt><trkpt lat="47.666256" lon="11.613277"><ele>793</ele></trkpt><trkpt lat="47.666194" lon="11.613799"><ele>795.1</ele></trkpt><trkpt lat="47.666177" lon="11.614251"><ele>798.8</ele></trkpt><trkpt lat="47.666181" lon="11.614876"><ele>804.4</ele></trkpt><trkpt lat="47.666316" lon="11.615439"><ele>810.2</ele></trkpt><trkpt lat="47.666393" lon="11.615518"><ele>812.4</ele></trkpt><trkpt lat="47.666459" lon="11.615671"><ele>814.5</ele></trkpt><trkpt lat="47.666544" lon="11.615923"><ele>819.3</ele></trkpt><trkpt lat="47.666602" lon="11.616347"><ele>826.3</ele></trkpt><trkpt lat="47.666634" lon="11.616725"><ele>830.8</ele></trkpt><trkpt lat="47.666659" lon="11.617593"><ele>840.7</ele></trkpt><trkpt lat="47.666601" lon="11.618029"><ele>845.8</ele></trkpt><trkpt lat="47.666493" lon="11.61855"><ele>851.8</ele></trkpt><trkpt lat="47.666321" lon="11.619081"><ele>855.5</ele></trkpt><trkpt lat="47.666121" lon="11.619924"><ele>861.4</ele></trkpt><trkpt lat="47.666036" lon="11.620134"><ele>862.2</ele></trkpt><trkpt lat="47.665695" lon="11.620639"><ele>866.6</ele></trkpt><trkpt lat="47.665514" lon="11.62084"><ele>868.2</ele></trkpt><trkpt lat="47.665383" lon="11.620936"><ele>868.9</ele></trkpt><trkpt lat="47.665105" lon="11.621007"><ele>871</ele></trkpt><trkpt lat="47.66496" lon="11.621151"><ele>871.7</ele></trkpt><trkpt lat="47.664743" lon="11.621409"><ele>874.1</ele></trkpt><trkpt lat="47.6647" lon="11.62149"><ele>875</ele></trkpt><trkpt lat="47.664679" lon="11.621585"><ele>875.8</ele></trkpt><trkpt lat="47.664672" lon="11.621695"><ele>876.6</ele></trkpt><trkpt lat="47.664684" lon="11.621812"><ele>877.5</ele></trkpt><trkpt lat="47.664798" lon="11.62229"><ele>880.3</ele></trkpt><trkpt lat="47.664814" lon="11.622583"><ele>882.4</ele></trkpt><trkpt lat="47.664809" lon="11.622797"><ele>883.6</ele></trkpt><trkpt lat="47.664747" lon="11.6232"><ele>887.8</ele></trkpt><trkpt lat="47.664628" lon="11.623736"><ele>894.2</ele></trkpt><trkpt lat="47.664598" lon="11.624059"><ele>897.3</ele></trkpt><trkpt lat="47.664548" lon="11.624365"><ele>900.4</ele></trkpt><trkpt lat="47.664636" lon="11.624645"><ele>903.4</ele></trkpt><trkpt lat="47.664684" lon="11.624912"><ele>906.1</ele></trkpt><trkpt lat="47.664703" lon="11.625192"><ele>908.7</ele></trkpt><trkpt lat="47.664686" lon="11.625504"><ele>911</ele></trkpt><trkpt lat="47.664702" lon="11.625631"><ele>911.9</ele></trkpt><trkpt lat="47.664816" lon="11.625876"><ele>913.5</ele></trkpt><trkpt lat="47.66501" lon="11.626155"><ele>915.5</ele></trkpt><trkpt lat="47.665051" lon="11.62627"><ele>916</ele></trkpt><trkpt lat="47.665054" lon="11.626361"><ele>916.3</ele></trkpt><trkpt lat="47.665029" lon="11.626534"><ele>916.5</ele></trkpt><trkpt lat="47.664988" lon="11.62677"><ele>917.9</ele></trkpt><trkpt lat="47.664883" lon="11.627017"><ele>920.8</ele></trkpt><trkpt lat="47.664795" lon="11.627295"><ele>924</ele></trkpt><trkpt lat="47.664785" lon="11.627369"><ele>926.1</ele></trkpt><trkpt lat="47.664611" lon="11.627554"><ele>930.6</ele></trkpt><trkpt lat="47.664419" lon="11.627825"><ele>935.1</ele></trkpt><trkpt lat="47.663996" lon="11.628607"><ele>951.1</ele></trkpt><trkpt lat="47.663684" lon="11.628994"><ele>960.2</ele></trkpt><trkpt lat="47.663291" lon="11.629609"><ele>972.1</ele></trkpt><trkpt lat="47.663199" lon="11.629741"><ele>974.2</ele></trkpt><trkpt lat="47.663163" lon="11.629796"><ele>976.3</ele></trkpt><trkpt lat="47.663067" lon="11.62994"><ele>978.4</ele></trkpt><trkpt lat="47.663" lon="11.629997"><ele>980.5</ele></trkpt><trkpt lat="47.66295" lon="11.630028"><ele>982.6</ele></trkpt><trkpt lat="47.662909" lon="11.630097"><ele>984.6</ele></trkpt><trkpt lat="47.662818" lon="11.63041"><ele>988.5</ele></trkpt><trkpt lat="47.662794" lon="11.630504"><ele>990.3</ele></trkpt><trkpt lat="47.662774" lon="11.630774"><ele>994.7</ele></trkpt><trkpt lat="47.662361" lon="11.631756"><ele>1012.9</ele></trkpt><trkpt lat="47.662245" lon="11.631954"><ele>1015.8</ele></trkpt><trkpt lat="47.662207" lon="11.631986"><ele>1018.7</ele></trkpt><trkpt lat="47.662195" lon="11.631997"><ele>1060.3</ele></trkpt><trkpt lat="47.662094" lon="11.631922"><ele>1060.2</ele></trkpt><trkpt lat="47.661992" lon="11.631965"><ele>1059.9</ele></trkpt><trkpt lat="47.661935" lon="11.632104"><ele>1059.4</ele></trkpt><trkpt lat="47.661862" lon="11.632158"><ele>1059.3</ele></trkpt><trkpt lat="47.661646" lon="11.632093"><ele>1059.4</ele></trkpt><trkpt lat="47.661479" lon="11.632362"><ele>1060.3</ele></trkpt><trkpt lat="47.661458" lon="11.632501"><ele>1061</ele></trkpt><trkpt lat="47.66153" lon="11.63264"><ele>1061.6</ele></trkpt><trkpt lat="47.661487" lon="11.632673"><ele>1062.2</ele></trkpt><trkpt lat="47.661357" lon="11.632522"><ele>1062.8</ele></trkpt><trkpt lat="47.661277" lon="11.632394"><ele>1063.3</ele></trkpt><trkpt lat="47.661219" lon="11.632394"><ele>1063.8</ele></trkpt><trkpt lat="47.661176" lon="11.632458"><ele>1064.4</ele></trkpt><trkpt lat="47.660807" lon="11.633896"><ele>1084</ele></trkpt><trkpt lat="47.660685" lon="11.634078"><ele>1086.8</ele></trkpt><trkpt lat="47.660555" lon="11.634196"><ele>1090.1</ele></trkpt><trkpt lat="47.66049" lon="11.634336"><ele>1093.4</ele></trkpt><trkpt lat="47.660403" lon="11.634411"><ele>1097.1</ele></trkpt><trkpt lat="47.660215" lon="11.634443"><ele>1104.3</ele></trkpt><trkpt lat="47.66002" lon="11.634615"><ele>1112.1</ele></trkpt><trkpt lat="47.660005" lon="11.634722"><ele>1115.9</ele></trkpt><trkpt lat="47.660092" lon="11.634829"><ele>1119.5</ele></trkpt><trkpt lat="47.660135" lon="11.634936"><ele>1122.9</ele></trkpt><trkpt lat="47.660135" lon="11.635044"><ele>1125.9</ele></trkpt><trkpt lat="47.659998" lon="11.635044"><ele>1128.9</ele></trkpt><trkpt lat="47.659709" lon="11.635172"><ele>1137.6</ele></trkpt><trkpt lat="47.659333" lon="11.635548"><ele>1149.8</ele></trkpt><trkpt lat="47.659304" lon="11.635505"><ele>1151.3</ele></trkpt><trkpt lat="47.659341" lon="11.635409"><ele>1152.8</ele></trkpt><trkpt lat="47.659536" lon="11.63513"><ele>1155.1</ele></trkpt><trkpt lat="47.659572" lon="11.635011"><ele>1155.5</ele></trkpt><trkpt lat="47.65955" lon="11.634883"><ele>1155.9</ele></trkpt><trkpt lat="47.659471" lon="11.63484"><ele>1156.4</ele></trkpt><trkpt lat="47.659377" lon="11.634904"><ele>1156.9</ele></trkpt><trkpt lat="47.658936" lon="11.635419"><ele>1161.1</ele></trkpt><trkpt lat="47.658827" lon="11.63529"><ele>1161.7</ele></trkpt><trkpt lat="47.658813" lon="11.635183"><ele>1162.4</ele></trkpt><trkpt lat="47.658864" lon="11.635011"><ele>1163</ele></trkpt><trkpt lat="47.659023" lon="11.634829"><ele>1163.8</ele></trkpt><trkpt lat="47.65903" lon="11.634733"><ele>1164.2</ele></trkpt><trkpt lat="47.658965" lon="11.63469"><ele>1164.8</ele></trkpt><trkpt lat="47.658611" lon="11.634894"><ele>1169.8</ele></trkpt><trkpt lat="47.658524" lon="11.634915"><ele>1171.3</ele></trkpt><trkpt lat="47.658517" lon="11.634829"><ele>1172.8</ele></trkpt><trkpt lat="47.658618" lon="11.634786"><ele>1174.3</ele></trkpt><trkpt lat="47.658647" lon="11.634679"><ele>1175.8</ele></trkpt><trkpt lat="47.65843" lon="11.634668"><ele>1178.6</ele></trkpt><trkpt lat="47.658242" lon="11.634711"><ele>1181.5</ele></trkpt><trkpt lat="47.65822" lon="11.634647"><ele>1183.5</ele></trkpt><trkpt lat="47.658329" lon="11.634604"><ele>1184.9</ele></trkpt><trkpt lat="47.658271" lon="11.634561"><ele>1186.4</ele></trkpt><trkpt lat="47.657924" lon="11.634539"><ele>1192.7</ele></trkpt><trkpt lat="47.657635" lon="11.634657"><ele>1202.9</ele></trkpt><trkpt lat="47.65752" lon="11.634883"><ele>1212.4</ele></trkpt><trkpt lat="47.657476" lon="11.635011"><ele>1217.2</ele></trkpt><trkpt lat="47.657404" lon="11.635011"><ele>1222</ele></trkpt><trkpt lat="47.657375" lon="11.6347"><ele>1231.4</ele></trkpt><trkpt lat="47.657324" lon="11.634636"><ele>1236.1</ele></trkpt><trkpt lat="47.657274" lon="11.634657"><ele>1240.8</ele></trkpt><trkpt lat="47.657238" lon="11.634808"><ele>1245.5</ele></trkpt><trkpt lat="47.65718" lon="11.634904"><ele>1250.1</ele></trkpt><trkpt lat="47.657057" lon="11.6347"><ele>1258.7</ele></trkpt><trkpt lat="47.656985" lon="11.634754"><ele>1263.2</ele></trkpt><trkpt lat="47.656963" lon="11.634883"><ele>1267.6</ele></trkpt><trkpt lat="47.656667" lon="11.634711"><ele>1279.5</ele></trkpt><trkpt lat="47.656595" lon="11.634754"><ele>1282.7</ele></trkpt><trkpt lat="47.656674" lon="11.635108"><ele>1287.4</ele></trkpt><trkpt lat="47.656609" lon="11.635151"><ele>1288.7</ele></trkpt><trkpt lat="47.656392" lon="11.63513"><ele>1289.8</ele></trkpt><trkpt lat="47.656349" lon="11.634926"><ele>1290.5</ele></trkpt><trkpt lat="47.656175" lon="11.634722"><ele>1292.2</ele></trkpt><trkpt lat="47.656016" lon="11.634711"><ele>1293.3</ele></trkpt><trkpt lat="47.655922" lon="11.634936"><ele>1294.5</ele></trkpt><trkpt lat="47.65585" lon="11.634926"><ele>1295.8</ele></trkpt><trkpt lat="47.655807" lon="11.634733"><ele>1297</ele></trkpt><trkpt lat="47.655778" lon="11.634507"><ele>1298.3</ele></trkpt><trkpt lat="47.655691" lon="11.634443"><ele>1299.7</ele></trkpt><trkpt lat="47.655612" lon="11.634475"><ele>1301.2</ele></trkpt><trkpt lat="47.655417" lon="11.634928"><ele>1307</ele></trkpt><trkpt lat="47.655383" lon="11.634928"><ele>1308.3</ele></trkpt><trkpt lat="47.655353" lon="11.634762"><ele>1309.7</ele></trkpt><trkpt lat="47.655328" lon="11.634711"><ele>1311.3</ele></trkpt><trkpt lat="47.655284" lon="11.634678"><ele>1313</ele></trkpt><trkpt lat="47.654836" lon="11.634577"><ele>1320.5</ele></trkpt><trkpt lat="47.654678" lon="11.634493"><ele>1321.6</ele></trkpt><trkpt lat="47.654604" lon="11.633997"><ele>1325</ele></trkpt><trkpt lat="47.654534" lon="11.633785"><ele>1326.2</ele></trkpt><trkpt lat="47.654483" lon="11.633713"><ele>1327.3</ele></trkpt><trkpt lat="47.654411" lon="11.633648"><ele>1328.2</ele></trkpt><trkpt lat="47.653942" lon="11.633455"><ele>1332.4</ele></trkpt><trkpt lat="47.653901" lon="11.633398"><ele>1333.1</ele></trkpt><trkpt lat="47.653909" lon="11.633188"><ele>1333.9</ele></trkpt><trkpt lat="47.653886" lon="11.633072"><ele>1334.6</ele></trkpt><trkpt lat="47.653848" lon="11.632971"><ele>1335.3</ele></trkpt><trkpt lat="47.653753" lon="11.632856"><ele>1336.1</ele></trkpt><trkpt lat="47.653689" lon="11.63272"><ele>1336.9</ele></trkpt><trkpt lat="47.653665" lon="11.632606"><ele>1337.6</ele></trkpt><trkpt lat="47.653656" lon="11.632522"><ele>1338.3</ele></trkpt><trkpt lat="47.653712" lon="11.632179"><ele>1339.7</ele></trkpt><trkpt lat="47.653713" lon="11.632036"><ele>1340.3</ele></trkpt><trkpt lat="47.653666" lon="11.631923"><ele>1340.8</ele></trkpt><trkpt lat="47.653525" lon="11.631855"><ele>1341.3</ele></trkpt><trkpt lat="47.652614" lon="11.631527"><ele>1353.3</ele></trkpt><trkpt lat="47.651992" lon="11.631435"><ele>1358.7</ele></trkpt><trkpt lat="47.651919" lon="11.631418"><ele>1359.1</ele></trkpt><trkpt lat="47.651864" lon="11.631378"><ele>1359.4</ele></trkpt><trkpt lat="47.651715" lon="11.631153"><ele>1360.1</ele></trkpt><trkpt lat="47.651532" lon="11.631548"><ele>1360.5</ele></trkpt><trkpt lat="47.651504" lon="11.631584"><ele>1360.5</ele></trkpt><trkpt lat="47.651397" lon="11.631571"><ele>1360.5</ele></trkpt><trkpt lat="47.651314" lon="11.631703"><ele>1360.4</ele></trkpt><trkpt lat="47.651267" lon="11.63172"><ele>1360.4</ele></trkpt><trkpt lat="47.651128" lon="11.631726"><ele>1360.7</ele></trkpt><trkpt lat="47.650943" lon="11.631696"><ele>1360.8</ele></trkpt><trkpt lat="47.650844" lon="11.631712"><ele>1360.9</ele></trkpt><trkpt lat="47.650758" lon="11.632011"><ele>1361.8</ele></trkpt><trkpt lat="47.650676" lon="11.632029"><ele>1362.6</ele></trkpt><trkpt lat="47.650509" lon="11.631847"><ele>1364.5</ele></trkpt><trkpt lat="47.650292" lon="11.631793"><ele>1366.7</ele></trkpt><trkpt lat="47.650112" lon="11.631557"><ele>1368.8</ele></trkpt><trkpt lat="47.649902" lon="11.631471"><ele>1370.7</ele></trkpt><trkpt lat="47.649752" lon="11.631541"><ele>1371.8</ele></trkpt><trkpt lat="47.649698" lon="11.631802"><ele>1373.8</ele></trkpt><trkpt lat="47.6497" lon="11.631994"><ele>1374.8</ele></trkpt><trkpt lat="47.649584" lon="11.632329"><ele>1376.2</ele></trkpt><trkpt lat="47.649621" lon="11.632647"><ele>1377.7</ele></trkpt><trkpt lat="47.649612" lon="11.632749"><ele>1378.6</ele></trkpt><trkpt lat="47.649544" lon="11.632817"><ele>1379.4</ele></trkpt><trkpt lat="47.649477" lon="11.632983"><ele>1380.3</ele></trkpt><trkpt lat="47.64948" lon="11.633188"><ele>1381.3</ele></trkpt><trkpt lat="47.649427" lon="11.633473"><ele>1383.5</ele></trkpt><trkpt lat="47.649279" lon="11.633649"><ele>1386</ele></trkpt><trkpt lat="47.649237" lon="11.633828"><ele>1387.5</ele></trkpt><trkpt lat="47.649237" lon="11.633971"><ele>1389</ele></trkpt><trkpt lat="47.64921" lon="11.634104"><ele>1390.7</ele></trkpt><trkpt lat="47.649146" lon="11.634172"><ele>1392.4</ele></trkpt><trkpt lat="47.649068" lon="11.63432"><ele>1394</ele></trkpt><trkpt lat="47.649084" lon="11.634488"><ele>1395.7</ele></trkpt><trkpt lat="47.648994" lon="11.634605"><ele>1397.5</ele></trkpt><trkpt lat="47.648945" lon="11.634766"><ele>1399.4</ele></trkpt><trkpt lat="47.648982" lon="11.634938"><ele>1401.3</ele></trkpt><trkpt lat="47.648904" lon="11.635391"><ele>1407.5</ele></trkpt><trkpt lat="47.648849" lon="11.635451"><ele>1409.6</ele></trkpt><trkpt lat="47.64883" lon="11.635545"><ele>1411.9</ele></trkpt><trkpt lat="47.64885" lon="11.635647"><ele>1414</ele></trkpt><trkpt lat="47.649055" lon="11.636071"><ele>1420.7</ele></trkpt><trkpt lat="47.649039" lon="11.636169"><ele>1423.2</ele></trkpt><trkpt lat="47.648988" lon="11.636319"><ele>1425.7</ele></trkpt><trkpt lat="47.648973" lon="11.636522"><ele>1428.2</ele></trkpt><trkpt lat="47.649151" lon="11.636814"><ele>1434.3</ele></trkpt><trkpt lat="47.649167" lon="11.636876"><ele>1437.5</ele></trkpt><trkpt lat="47.649139" lon="11.637008"><ele>1441</ele></trkpt><trkpt lat="47.64919" lon="11.637055"><ele>1444.4</ele></trkpt><trkpt lat="47.649288" lon="11.637093"><ele>1447.7</ele></trkpt><trkpt lat="47.649418" lon="11.637275"><ele>1451.3</ele></trkpt><trkpt lat="47.649252" lon="11.637651"><ele>1461.2</ele></trkpt><trkpt lat="47.649367" lon="11.637887"><ele>1467.5</ele></trkpt><trkpt lat="47.64949" lon="11.638016"><ele>1470.7</ele></trkpt><trkpt lat="47.649424" lon="11.638347"><ele>1477.1</ele></trkpt><trkpt lat="47.64953" lon="11.638364"><ele>1480.3</ele></trkpt><trkpt lat="47.649525" lon="11.638429"><ele>1483.3</ele></trkpt><trkpt lat="47.649469" lon="11.638576"><ele>1486.1</ele></trkpt><trkpt lat="47.649482" lon="11.638692"><ele>1489</ele></trkpt><trkpt lat="47.649634" lon="11.638754"><ele>1491.7</ele></trkpt><trkpt lat="47.649663" lon="11.638789"><ele>1494</ele></trkpt><trkpt lat="47.649631" lon="11.638929"><ele>1496</ele></trkpt><trkpt lat="47.649635" lon="11.638998"><ele>1498.1</ele></trkpt><trkpt lat="47.649725" lon="11.639179"><ele>1499.8</ele></trkpt><trkpt lat="47.649735" lon="11.639367"><ele>1501.4</ele></trkpt><trkpt lat="47.649717" lon="11.639805"><ele>1505.6</ele></trkpt><trkpt lat="47.649725" lon="11.640215"><ele>1508.8</ele></trkpt><trkpt lat="47.649766" lon="11.640552"><ele>1510.7</ele></trkpt><trkpt lat="47.649839" lon="11.640969"><ele>1513</ele></trkpt><trkpt lat="47.649892" lon="11.641187"><ele>1514.5</ele></trkpt><trkpt lat="47.650219" lon="11.641419"><ele>1520.4</ele></trkpt><trkpt lat="47.650315" lon="11.64142"><ele>1521.8</ele></trkpt><trkpt lat="47.650407" lon="11.641492"><ele>1523.2</ele></trkpt><trkpt lat="47.650638" lon="11.641679"><ele>1525.9</ele></trkpt><trkpt lat="47.650959" lon="11.642009"><ele>1531.4</ele></trkpt><trkpt lat="47.651087" lon="11.642065"><ele>1533</ele></trkpt><trkpt lat="47.651253" lon="11.642273"><ele>1536.2</ele></trkpt><trkpt lat="47.651316" lon="11.642283"><ele>1537.8</ele></trkpt><trkpt lat="47.651374" lon="11.64226"><ele>1539.4</ele></trkpt><trkpt lat="47.651389" lon="11.642348"><ele>1541</ele></trkpt><trkpt lat="47.651435" lon="11.642423"><ele>1542.6</ele></trkpt><trkpt lat="47.651495" lon="11.642405"><ele>1543.5</ele></trkpt><trkpt lat="47.651545" lon="11.642425"><ele>1544.4</ele></trkpt><trkpt lat="47.651545" lon="11.642493"><ele>1545.2</ele></trkpt><trkpt lat="47.65158" lon="11.642565"><ele>1546</ele></trkpt><trkpt lat="47.651736" lon="11.642728"><ele>1547.4</ele></trkpt><trkpt lat="47.651815" lon="11.642739"><ele>1548.1</ele></trkpt><trkpt lat="47.651947" lon="11.642826"><ele>1548.8</ele></trkpt><trkpt lat="47.652" lon="11.642971"><ele>1549.5</ele></trkpt><trkpt lat="47.652154" lon="11.643163"><ele>1552.5</ele></trkpt><trkpt lat="47.652" lon="11.642971"><ele>1566</ele></trkpt><trkpt lat="47.651947" lon="11.642826"><ele>1563.2</ele></trkpt><trkpt lat="47.651815" lon="11.642739"><ele>1561.5</ele></trkpt><trkpt lat="47.651736" lon="11.642728"><ele>1560.3</ele></trkpt><trkpt lat="47.65158" lon="11.642565"><ele>1558.6</ele></trkpt><trkpt lat="47.651545" lon="11.642493"><ele>1557.9</ele></trkpt><trkpt lat="47.651545" lon="11.642425"><ele>1557.3</ele></trkpt><trkpt lat="47.651495" lon="11.642405"><ele>1556.7</ele></trkpt><trkpt lat="47.651435" lon="11.642423"><ele>1556.2</ele></trkpt><trkpt lat="47.651389" lon="11.642348"><ele>1555.6</ele></trkpt><trkpt lat="47.651374" lon="11.64226"><ele>1555.1</ele></trkpt><trkpt lat="47.651316" lon="11.642283"><ele>1554.7</ele></trkpt><trkpt lat="47.651253" lon="11.642273"><ele>1554.3</ele></trkpt><trkpt lat="47.651087" lon="11.642065"><ele>1553.5</ele></trkpt><trkpt lat="47.650959" lon="11.642009"><ele>1553</ele></trkpt><trkpt lat="47.650638" lon="11.641679"><ele>1548.8</ele></trkpt><trkpt lat="47.650407" lon="11.641492"><ele>1547.4</ele></trkpt><trkpt lat="47.650315" lon="11.64142"><ele>1546.7</ele></trkpt><trkpt lat="47.650219" lon="11.641419"><ele>1546</ele></trkpt><trkpt lat="47.649892" lon="11.641187"><ele>1542.6</ele></trkpt><trkpt lat="47.649839" lon="11.640969"><ele>1541</ele></trkpt><trkpt lat="47.649766" lon="11.640552"><ele>1536.2</ele></trkpt><trkpt lat="47.649725" lon="11.640215"><ele>1533</ele></trkpt><trkpt lat="47.649717" lon="11.639805"><ele>1528.6</ele></trkpt><trkpt lat="47.649735" lon="11.639367"><ele>1524.6</ele></trkpt><trkpt lat="47.649725" lon="11.639179"><ele>1523.2</ele></trkpt><trkpt lat="47.649635" lon="11.638998"><ele>1521.8</ele></trkpt><trkpt lat="47.649631" lon="11.638929"><ele>1520.4</ele></trkpt><trkpt lat="47.649663" lon="11.638789"><ele>1518.8</ele></trkpt><trkpt lat="47.649634" lon="11.638754"><ele>1517.4</ele></trkpt><trkpt lat="47.649482" lon="11.638692"><ele>1515.9</ele></trkpt><trkpt lat="47.649469" lon="11.638576"><ele>1514.5</ele></trkpt><trkpt lat="47.649525" lon="11.638429"><ele>1513</ele></trkpt><trkpt lat="47.64953" lon="11.638364"><ele>1512.3</ele></trkpt><trkpt lat="47.649424" lon="11.638347"><ele>1511.5</ele></trkpt><trkpt lat="47.64949" lon="11.638016"><ele>1509.8</ele></trkpt><trkpt lat="47.649367" lon="11.637887"><ele>1508.8</ele></trkpt><trkpt lat="47.649252" lon="11.637651"><ele>1506.7</ele></trkpt><trkpt lat="47.649418" lon="11.637275"><ele>1503.1</ele></trkpt><trkpt lat="47.649288" lon="11.637093"><ele>1501.4</ele></trkpt><trkpt lat="47.64919" lon="11.637055"><ele>1499.8</ele></trkpt><trkpt lat="47.649139" lon="11.637008"><ele>1498.1</ele></trkpt><trkpt lat="47.649167" lon="11.636876"><ele>1496</ele></trkpt><trkpt lat="47.649151" lon="11.636814"><ele>1494</ele></trkpt><trkpt lat="47.648973" lon="11.636522"><ele>1489</ele></trkpt><trkpt lat="47.648988" lon="11.636319"><ele>1486.1</ele></trkpt><trkpt lat="47.649039" lon="11.636169"><ele>1483.3</ele></trkpt><trkpt lat="47.649055" lon="11.636071"><ele>1480.3</ele></trkpt><trkpt lat="47.64885" lon="11.635647"><ele>1470.7</ele></trkpt><trkpt lat="47.64883" lon="11.635545"><ele>1467.5</ele></trkpt><trkpt lat="47.648849" lon="11.635451"><ele>1464.4</ele></trkpt><trkpt lat="47.648904" lon="11.635391"><ele>1461.2</ele></trkpt><trkpt lat="47.648982" lon="11.634938"><ele>1451.3</ele></trkpt><trkpt lat="47.648945" lon="11.634766"><ele>1447.7</ele></trkpt><trkpt lat="47.648994" lon="11.634605"><ele>1444.4</ele></trkpt><trkpt lat="47.649084" lon="11.634488"><ele>1441</ele></trkpt><trkpt lat="47.649068" lon="11.63432"><ele>1437.5</ele></trkpt><trkpt lat="47.649146" lon="11.634172"><ele>1434.3</ele></trkpt><trkpt lat="47.64921" lon="11.634104"><ele>1431.1</ele></trkpt><trkpt lat="47.649237" lon="11.633971"><ele>1428.2</ele></trkpt><trkpt lat="47.649237" lon="11.633828"><ele>1425.7</ele></trkpt><trkpt lat="47.649279" lon="11.633649"><ele>1423.2</ele></trkpt><trkpt lat="47.649427" lon="11.633473"><ele>1418.4</ele></trkpt><trkpt lat="47.64948" lon="11.633188"><ele>1414</ele></trkpt><trkpt lat="47.649477" lon="11.632983"><ele>1411.9</ele></trkpt><trkpt lat="47.649544" lon="11.632817"><ele>1409.6</ele></trkpt><trkpt lat="47.649612" lon="11.632749"><ele>1407.5</ele></trkpt><trkpt lat="47.649621" lon="11.632647"><ele>1405.4</ele></trkpt><trkpt lat="47.649584" lon="11.632329"><ele>1401.3</ele></trkpt><trkpt lat="47.6497" lon="11.631994"><ele>1397.5</ele></trkpt><trkpt lat="47.649698" lon="11.631802"><ele>1395.7</ele></trkpt><trkpt lat="47.649752" lon="11.631541"><ele>1392.4</ele></trkpt><trkpt lat="47.649902" lon="11.631471"><ele>1390.7</ele></trkpt><trkpt lat="47.650112" lon="11.631557"><ele>1387.5</ele></trkpt><trkpt lat="47.650292" lon="11.631793"><ele>1384.7</ele></trkpt><trkpt lat="47.650509" lon="11.631847"><ele>1382.4</ele></trkpt><trkpt lat="47.650676" lon="11.632029"><ele>1380.3</ele></trkpt><trkpt lat="47.650758" lon="11.632011"><ele>1379.4</ele></trkpt><trkpt lat="47.650844" lon="11.631712"><ele>1377.7</ele></trkpt><trkpt lat="47.650943" lon="11.631696"><ele>1376.9</ele></trkpt><trkpt lat="47.651128" lon="11.631726"><ele>1375.6</ele></trkpt><trkpt lat="47.651267" lon="11.63172"><ele>1374.8</ele></trkpt><trkpt lat="47.651314" lon="11.631703"><ele>1373.8</ele></trkpt><trkpt lat="47.651397" lon="11.631571"><ele>1372.8</ele></trkpt><trkpt lat="47.651504" lon="11.631584"><ele>1371.8</ele></trkpt><trkpt lat="47.651532" lon="11.631548"><ele>1370.7</ele></trkpt><trkpt lat="47.651505" lon="11.631487"><ele>1369.8</ele></trkpt><trkpt lat="47.651406" lon="11.631205"><ele>1366.5</ele></trkpt><trkpt lat="47.651445" lon="11.630846"><ele>1362.3</ele></trkpt><trkpt lat="47.651449" lon="11.630516"><ele>1358</ele></trkpt><trkpt lat="47.65134" lon="11.629969"><ele>1347.3</ele></trkpt><trkpt lat="47.651066" lon="11.629293"><ele>1331</ele></trkpt><trkpt lat="47.651254" lon="11.62896"><ele>1320.3</ele></trkpt><trkpt lat="47.651398" lon="11.62851"><ele>1307.4</ele></trkpt><trkpt lat="47.651478" lon="11.62807"><ele>1295.8</ele></trkpt><trkpt lat="47.651825" lon="11.627491"><ele>1276.1</ele></trkpt><trkpt lat="47.652013" lon="11.627394"><ele>1269.2</ele></trkpt><trkpt lat="47.65207" lon="11.627072"><ele>1262.5</ele></trkpt><trkpt lat="47.651897" lon="11.626804"><ele>1256.3</ele></trkpt><trkpt lat="47.651702" lon="11.626396"><ele>1247.7</ele></trkpt><trkpt lat="47.651752" lon="11.625785"><ele>1240.2</ele></trkpt><trkpt lat="47.651608" lon="11.625268"><ele>1233.2</ele></trkpt><trkpt lat="47.651527" lon="11.624533"><ele>1221.8</ele></trkpt><trkpt lat="47.651492" lon="11.624669"><ele>1217.5</ele></trkpt><trkpt lat="47.651433" lon="11.624439"><ele>1212.6</ele></trkpt><trkpt lat="47.651396" lon="11.623776"><ele>1193</ele></trkpt><trkpt lat="47.651341" lon="11.623444"><ele>1183.9</ele></trkpt><trkpt lat="47.651372" lon="11.622735"><ele>1160.7</ele></trkpt><trkpt lat="47.651267" lon="11.622047"><ele>1138.6</ele></trkpt><trkpt lat="47.651373" lon="11.621464"><ele>1126</ele></trkpt><trkpt lat="47.651276" lon="11.621034"><ele>1119.8</ele></trkpt><trkpt lat="47.651193" lon="11.620505"><ele>1111.1</ele></trkpt><trkpt lat="47.65123" lon="11.620217"><ele>1106.8</ele></trkpt><trkpt lat="47.651413" lon="11.619606"><ele>1097.2</ele></trkpt><trkpt lat="47.651486" lon="11.619468"><ele>1095.5</ele></trkpt><trkpt lat="47.651599" lon="11.618988"><ele>1090.7</ele></trkpt><trkpt lat="47.651707" lon="11.618752"><ele>1087.9</ele></trkpt><trkpt lat="47.65185" lon="11.618381"><ele>1086.3</ele></trkpt><trkpt lat="47.652107" lon="11.617657"><ele>1082.1</ele></trkpt><trkpt lat="47.652349" lon="11.617073"><ele>1075.7</ele></trkpt><trkpt lat="47.652642" lon="11.616635"><ele>1069.7</ele></trkpt><trkpt lat="47.652969" lon="11.616145"><ele>1058.5</ele></trkpt><trkpt lat="47.653614" lon="11.615444"><ele>1041.2</ele></trkpt><trkpt lat="47.653635" lon="11.615178"><ele>1037.6</ele></trkpt><trkpt lat="47.654004" lon="11.614819"><ele>1029.9</ele></trkpt><trkpt lat="47.654397" lon="11.614092"><ele>1019.7</ele></trkpt><trkpt lat="47.654976" lon="11.613581"><ele>1007.3</ele></trkpt><trkpt lat="47.655597" lon="11.613221"><ele>996.9</ele></trkpt><trkpt lat="47.656023" lon="11.613149"><ele>994.2</ele></trkpt><trkpt lat="47.656249" lon="11.613186"><ele>991</ele></trkpt><trkpt lat="47.65642" lon="11.613014"><ele>987.1</ele></trkpt><trkpt lat="47.656652" lon="11.612996"><ele>983.2</ele></trkpt><trkpt lat="47.657004" lon="11.613177"><ele>975.6</ele></trkpt><trkpt lat="47.65733" lon="11.612921"><ele>966.9</ele></trkpt><trkpt lat="47.657409" lon="11.612704"><ele>964.4</ele></trkpt><trkpt lat="47.657611" lon="11.612594"><ele>959.1</ele></trkpt><trkpt lat="47.657875" lon="11.612627"><ele>953.1</ele></trkpt><trkpt lat="47.657759" lon="11.612403"><ele>947.4</ele></trkpt><trkpt lat="47.657723" lon="11.612213"><ele>945.7</ele></trkpt><trkpt lat="47.657815" lon="11.611918"><ele>942.2</ele></trkpt><trkpt lat="47.657861" lon="11.611866"><ele>940.6</ele></trkpt><trkpt lat="47.657894" lon="11.611792"><ele>939</ele></trkpt><trkpt lat="47.657908" lon="11.6117"><ele>937.5</ele></trkpt><trkpt lat="47.657892" lon="11.611629"><ele>936</ele></trkpt><trkpt lat="47.657853" lon="11.611567"><ele>934.4</ele></trkpt><trkpt lat="47.658046" lon="11.611477"><ele>931.1</ele></trkpt><trkpt lat="47.657885" lon="11.611139"><ele>926.7</ele></trkpt><trkpt lat="47.658093" lon="11.611082"><ele>924.1</ele></trkpt><trkpt lat="47.658096" lon="11.611052"><ele>922.8</ele></trkpt><trkpt lat="47.657936" lon="11.610702"><ele>918.8</ele></trkpt><trkpt lat="47.658165" lon="11.610674"><ele>915.8</ele></trkpt><trkpt lat="47.658149" lon="11.610593"><ele>914.1</ele></trkpt><trkpt lat="47.658252" lon="11.610588"><ele>911.3</ele></trkpt><trkpt lat="47.658384" lon="11.610509"><ele>908.5</ele></trkpt><trkpt lat="47.65842" lon="11.610468"><ele>905.7</ele></trkpt><trkpt lat="47.658603" lon="11.610483"><ele>900.2</ele></trkpt><trkpt lat="47.658689" lon="11.610463"><ele>897.7</ele></trkpt><trkpt lat="47.659327" lon="11.610253"><ele>881.4</ele></trkpt><trkpt lat="47.659477" lon="11.610334"><ele>879.3</ele></trkpt><trkpt lat="47.659627" lon="11.610497"><ele>875.4</ele></trkpt><trkpt lat="47.659767" lon="11.610597"><ele>873.5</ele></trkpt><trkpt lat="47.660071" lon="11.610671"><ele>868.8</ele></trkpt><trkpt lat="47.660328" lon="11.610705"><ele>868.3</ele></trkpt><trkpt lat="47.660462" lon="11.610798"><ele>867.4</ele></trkpt><trkpt lat="47.660534" lon="11.610848"><ele>867.1</ele></trkpt><trkpt lat="47.660779" lon="11.610862"><ele>864.8</ele></trkpt><trkpt lat="47.660861" lon="11.610807"><ele>863.3</ele></trkpt><trkpt lat="47.660985" lon="11.610798"><ele>861.8</ele></trkpt><trkpt lat="47.661142" lon="11.610647"><ele>858.7</ele></trkpt><trkpt lat="47.661513" lon="11.610423"><ele>852.4</ele></trkpt><trkpt lat="47.661598" lon="11.610332"><ele>850.7</ele></trkpt><trkpt lat="47.661654" lon="11.610309"><ele>849.1</ele></trkpt><trkpt lat="47.661894" lon="11.610264"><ele>845.6</ele></trkpt><trkpt lat="47.662184" lon="11.610132"><ele>839.9</ele></trkpt><trkpt lat="47.662393" lon="11.610117"><ele>836.6</ele></trkpt><trkpt lat="47.662846" lon="11.61"><ele>830.3</ele></trkpt><trkpt lat="47.662932" lon="11.609916"><ele>829.3</ele></trkpt><trkpt lat="47.663247" lon="11.6094"><ele>823.4</ele></trkpt><trkpt lat="47.663348" lon="11.609286"><ele>821.9</ele></trkpt><trkpt lat="47.66342" lon="11.609265"><ele>820.3</ele></trkpt><trkpt lat="47.663614" lon="11.609271"><ele>817.2</ele></trkpt><trkpt lat="47.66381" lon="11.609195"><ele>814.6</ele></trkpt><trkpt lat="47.66391" lon="11.609113"><ele>812.8</ele></trkpt><trkpt lat="47.663939" lon="11.609023"><ele>810.8</ele></trkpt><trkpt lat="47.663953" lon="11.60874"><ele>807</ele></trkpt><trkpt lat="47.664017" lon="11.608357"><ele>803.2</ele></trkpt><trkpt lat="47.664074" lon="11.607386"><ele>791.5</ele></trkpt><trkpt lat="47.664151" lon="11.606858"><ele>786.5</ele></trkpt><trkpt lat="47.664364" lon="11.605779"><ele>777.6</ele></trkpt><trkpt lat="47.66471" lon="11.604488"><ele>766.1</ele></trkpt><trkpt lat="47.664929" lon="11.604365"><ele>763.9</ele></trkpt><trkpt lat="47.66497" lon="11.604328"><ele>762.9</ele></trkpt><trkpt lat="47.664997" lon="11.60426"><ele>762</ele></trkpt><trkpt lat="47.664949" lon="11.603934"><ele>760.4</ele></trkpt><trkpt lat="47.664988" lon="11.602955"><ele>756.7</ele></trkpt><trkpt lat="47.664881" lon="11.601572"><ele>753.1</ele></trkpt><trkpt lat="47.664853" lon="11.600662"><ele>751</ele></trkpt><trkpt lat="47.664862" lon="11.600483"><ele>750.6</ele></trkpt><trkpt lat="47.665033" lon="11.60023"><ele>749.8</ele></trkpt><trkpt lat="47.665125" lon="11.600041"><ele>749.5</ele></trkpt><trkpt lat="47.665219" lon="11.599777"><ele>748.8</ele></trkpt><trkpt lat="47.665501" lon="11.598801"><ele>747.1</ele></trkpt><trkpt lat="47.66561" lon="11.598552"><ele>746.8</ele></trkpt><trkpt lat="47.665674" lon="11.598456"><ele>746.7</ele></trkpt><trkpt lat="47.666281" lon="11.597812"><ele>745.9</ele></trkpt><trkpt lat="47.666643" lon="11.597335"><ele>745.6</ele></trkpt><trkpt lat="47.666769" lon="11.597101"><ele>745.1</ele></trkpt><trkpt lat="47.667049" lon="11.596586"><ele>744</ele></trkpt><trkpt lat="47.66719" lon="11.596272"><ele>743.5</ele></trkpt><trkpt lat="47.667266" lon="11.59607"><ele>743.3</ele></trkpt><trkpt lat="47.667319" lon="11.595873"><ele>743</ele></trkpt><trkpt lat="47.667419" lon="11.595463"><ele>742.1</ele></trkpt><trkpt lat="47.66743" lon="11.595258"><ele>741.7</ele></trkpt><trkpt lat="47.667423" lon="11.595116"><ele>741.3</ele></trkpt><trkpt lat="47.667399" lon="11.595047"><ele>740.9</ele></trkpt><trkpt lat="47.667285" lon="11.594778"><ele>740</ele></trkpt><trkpt lat="47.667316" lon="11.594427"><ele>739.1</ele></trkpt><trkpt lat="47.667322" lon="11.594321"><ele>738.8</ele></trkpt><trkpt lat="47.667352" lon="11.594202"><ele>738.6</ele></trkpt><trkpt lat="47.667458" lon="11.593683"><ele>736.4</ele></trkpt><trkpt lat="47.667482" lon="11.593556"><ele>735.5</ele></trkpt><trkpt lat="47.667532" lon="11.593459"><ele>734.7</ele></trkpt><trkpt lat="47.667589" lon="11.593371"><ele>733.8</ele></trkpt><trkpt lat="47.667731" lon="11.593219"><ele>732.9</ele></trkpt><trkpt lat="47.667793" lon="11.592992"><ele>732.1</ele></trkpt><trkpt lat="47.667843" lon="11.592881"><ele>731.2</ele></trkpt><trkpt lat="47.667887" lon="11.592824"><ele>730.3</ele></trkpt><trkpt lat="47.667948" lon="11.59279"><ele>729.4</ele></trkpt><trkpt lat="47.668218" lon="11.592777"><ele>726.9</ele></trkpt><trkpt lat="47.668448" lon="11.592763"><ele>725.3</ele></trkpt><trkpt lat="47.66868" lon="11.592763"><ele>723.8</ele></trkpt><trkpt lat="47.668974" lon="11.592801"><ele>722</ele></trkpt><trkpt lat="47.669237" lon="11.592742"><ele>721.4</ele></trkpt><trkpt lat="47.669829" lon="11.592295"><ele>720.8</ele></trkpt><trkpt lat="47.670125" lon="11.59214"><ele>721</ele></trkpt><trkpt lat="47.670249" lon="11.592076"><ele>721.1</ele></trkpt><trkpt lat="47.670548" lon="11.591947"><ele>721.3</ele></trkpt><trkpt lat="47.670642" lon="11.591969"><ele>721.4</ele></trkpt><trkpt lat="47.670672" lon="11.591981"><ele>721.4</ele></trkpt><trkpt lat="47.670785" lon="11.592047"><ele>721.4</ele></trkpt><trkpt lat="47.670959" lon="11.592148"><ele>721.7</ele></trkpt><trkpt lat="47.671293" lon="11.592356"><ele>722.1</ele></trkpt><trkpt lat="47.67132" lon="11.59236"><ele>722.3</ele></trkpt><trkpt lat="47.671341" lon="11.592328"><ele>722.5</ele></trkpt><trkpt lat="47.671367" lon="11.592049"><ele>722.9</ele></trkpt><trkpt lat="47.671358" lon="11.591765"><ele>723.1</ele></trkpt><trkpt lat="47.671373" lon="11.591461"><ele>723.1</ele></trkpt><trkpt lat="47.671368" lon="11.591101"><ele>723</ele></trkpt><trkpt lat="47.671353" lon="11.590847"><ele>722.7</ele></trkpt><trkpt lat="47.671216" lon="11.590288"><ele>721.5</ele></trkpt><trkpt lat="47.671201" lon="11.590065"><ele>721.1</ele></trkpt><trkpt lat="47.671218" lon="11.589807"><ele>720.7</ele></trkpt><trkpt lat="47.671303" lon="11.589478"><ele>719.4</ele></trkpt><trkpt lat="47.67138" lon="11.588935"><ele>716.9</ele></trkpt><trkpt lat="47.671474" lon="11.588604"><ele>715.8</ele></trkpt><trkpt lat="47.671552" lon="11.588424"><ele>715.3</ele></trkpt><trkpt lat="47.671597" lon="11.588398"><ele>714.8</ele></trkpt><trkpt lat="47.67166" lon="11.588288"><ele>714.3</ele></trkpt><trkpt lat="47.671697" lon="11.588163"><ele>713.9</ele></trkpt><trkpt lat="47.671705" lon="11.58808"><ele>713.5</ele></trkpt><trkpt lat="47.671777" lon="11.58743"><ele>712.6</ele></trkpt><trkpt lat="47.671867" lon="11.586851"><ele>711.7</ele></trkpt><trkpt lat="47.671919" lon="11.586572"><ele>711.9</ele></trkpt><trkpt lat="47.672196" lon="11.585369"><ele>710.3</ele></trkpt><trkpt lat="47.672437" lon="11.584515"><ele>709</ele></trkpt><trkpt lat="47.672523" lon="11.583768"><ele>707.5</ele></trkpt><trkpt lat="47.672538" lon="11.58343"><ele>706.9</ele></trkpt><trkpt lat="47.672523" lon="11.583088"><ele>706.2</ele></trkpt><trkpt lat="47.672547" lon="11.582366"><ele>704.3</ele></trkpt><trkpt lat="47.672538" lon="11.58195"><ele>702.8</ele></trkpt><trkpt lat="47.673166" lon="11.581507"><ele>700.2</ele></trkpt><trkpt lat="47.673215" lon="11.581459"><ele>699.9</ele></trkpt><trkpt lat="47.673264" lon="11.581417"><ele>699.7</ele></trkpt><trkpt lat="47.6733" lon="11.581418"><ele>699.4</ele></trkpt><trkpt lat="47.673857" lon="11.580995"><ele>697.9</ele></trkpt><trkpt lat="47.674438" lon="11.580434"><ele>695.8</ele></trkpt><trkpt lat="47.675013" lon="11.579821"><ele>692</ele></trkpt><trkpt lat="47.675287" lon="11.57964"><ele>690.3</ele></trkpt><trkpt lat="47.675747" lon="11.579173"><ele>687.7</ele></trkpt><trkpt lat="47.67573" lon="11.579179"><ele>687.4</ele></trkpt><trkpt lat="47.676537" lon="11.578537"><ele>685.7</ele></trkpt><trkpt lat="47.676659" lon="11.578443"><ele>685.7</ele></trkpt><trkpt lat="47.676741" lon="11.57838"><ele>685.6</ele></trkpt><trkpt lat="47.677035" lon="11.57819"><ele>685.4</ele></trkpt><trkpt lat="47.677246" lon="11.578101"><ele>685.2</ele></trkpt><trkpt lat="47.677555" lon="11.577988"><ele>684.9</ele></trkpt><trkpt lat="47.677943" lon="11.577839"><ele>684.5</ele></trkpt><trkpt lat="47.678232" lon="11.577756"><ele>684.3</ele></trkpt><trkpt lat="47.678266" lon="11.577743"><ele>684.3</ele></trkpt><trkpt lat="47.678395" lon="11.57774"><ele>684.2</ele></trkpt><trkpt lat="47.67854" lon="11.577729"><ele>684.2</ele></trkpt><trkpt lat="47.678888" lon="11.577765"><ele>684</ele></trkpt><trkpt lat="47.679312" lon="11.577833"><ele>684</ele></trkpt><trkpt lat="47.679482" lon="11.577832"><ele>684</ele></trkpt><trkpt lat="47.679627" lon="11.577756"><ele>684</ele></trkpt><trkpt lat="47.679749" lon="11.577684"><ele>684</ele></trkpt><trkpt lat="47.679895" lon="11.577561"><ele>684</ele></trkpt><trkpt lat="47.680011" lon="11.577466"><ele>683.9</ele></trkpt><trkpt lat="47.68036" lon="11.577196"><ele>683.5</ele></trkpt><trkpt lat="47.680591" lon="11.57703"><ele>683.3</ele></trkpt><trkpt lat="47.680661" lon="11.57693"><ele>683.2</ele></trkpt><trkpt lat="47.680701" lon="11.576827"><ele>683.1</ele></trkpt><trkpt lat="47.680714" lon="11.576674"><ele>683</ele></trkpt><trkpt lat="47.680676" lon="11.576445"><ele>682.9</ele></trkpt><trkpt lat="47.680581" lon="11.576108"><ele>682.8</ele></trkpt><trkpt lat="47.680418" lon="11.575657"><ele>682.6</ele></trkpt><trkpt lat="47.680292" lon="11.575308"><ele>682.4</ele></trkpt><trkpt lat="47.68008" lon="11.574726"><ele>682</ele></trkpt><trkpt lat="47.679993" lon="11.574482"><ele>682</ele></trkpt><trkpt lat="47.679941" lon="11.574257"><ele>682</ele></trkpt><trkpt lat="47.679944" lon="11.574206"><ele>682</ele></trkpt><trkpt lat="47.679967" lon="11.574159"><ele>682</ele></trkpt><trkpt lat="47.680024" lon="11.574107"><ele>681.9</ele></trkpt><trkpt lat="47.680161" lon="11.574076"><ele>681.9</ele></trkpt><trkpt lat="47.680157" lon="11.573972"><ele>681.8</ele></trkpt><trkpt lat="47.680186" lon="11.573821"><ele>681.7</ele></trkpt><trkpt lat="47.680192" lon="11.57382"><ele>681.7</ele></trkpt></trkseg></trk></gpx>