<gpx xmlns="http://www.topografix.com/GPX/1/1" xmlns:xsi="http://www.w3.org/2001/XMLSchema-instance" xsi:schemaLocation="http://www.topografix.com/GPX/1/1 http://www.topografix.com/GPX/1/1/gpx.xsd" version="1.1" creator="togpx"><metadata/><wpt lat="47.569772480739985" lon="11.301267743110659"><name></name><desc>label=Einsiedl, Jachenau,BY,Germany</desc></wpt><wpt lat="47.56964942339962" lon="11.30048990249634"><name></name><desc>label=Einsiedl, Jachenau,BY,Germany</desc></wpt><wpt lat="47.56349618773219" lon="11.275320053100588"><name></name><desc>label=Tyroler Hütte, Wallgau,BY,Germany</desc></wpt><wpt lat="47.56649688530814" lon="11.253733634948732"><name></name><desc>label=Simetsberg, Wallgau,BY,Germany</desc></wpt><wpt lat="47.56340931334826" lon="11.274676322937013"><name></name><desc>label=Tyroler Hütte, Wallgau,BY,Germany</desc></wpt><wpt lat="47.57180984453217" lon="11.306502626620734"><name></name><desc>label=Seestraße, Kochel,BY,Germany</desc></wpt><trk><name></name><desc>ascent=1132.5
descent=1152
opacity=0.9</desc><trkseg><trkpt lat="47.569732" lon="11.30128"><ele>828.5</ele></trkpt><trkpt lat="47.56965" lon="11.300669"><ele>829</ele></trkpt><trkpt lat="47.569621" lon="11.3005"><ele>827.7</ele></trkpt><trkpt lat="47.569563" lon="11.300153"><ele>826.4</ele></trkpt><trkpt lat="47.56945" lon="11.299724"><ele>822</ele></trkpt><trkpt lat="47.569287" lon="11.299252"><ele>821.4</ele></trkpt><trkpt lat="47.569127" lon="11.298872"><ele>831</ele></trkpt><trkpt lat="47.569071" lon="11.298776"><ele>831</ele></trkpt><trkpt lat="47.569164" lon="11.298601"><ele>831</ele></trkpt><trkpt lat="47.569245" lon="11.298467"><ele>816</ele></trkpt><trkpt lat="47.569316" lon="11.298363"><ele>816</ele></trkpt><trkpt lat="47.569303" lon="11.2983"><ele>814</ele></trkpt><trkpt lat="47.569156" lon="11.297857"><ele>812.6</ele></trkpt><trkpt lat="47.569054" lon="11.297641"><ele>812.7</ele></trkpt><trkpt lat="47.569009" lon="11.297578"><ele>812</ele></trkpt><trkpt lat="47.568861" lon="11.297121"><ele>815</ele></trkpt><trkpt lat="47.568875" lon="11.296851"><ele>814.4</ele></trkpt><trkpt lat="47.568915" lon="11.296554"><ele>814.3</ele></trkpt><trkpt lat="47.568972" lon="11.296306"><ele>814.3</ele></trkpt><trkpt lat="47.569014" lon="11.296194"><ele>814.4</ele></trkpt><trkpt lat="47.569076" lon="11.296097"><ele>814</ele></trkpt><trkpt lat="47.569358" lon="11.29615"><ele>833.2</ele></trkpt><trkpt lat="47.569506" lon="11.296133"><ele>835.7</ele></trkpt><trkpt lat="47.56967" lon="11.296157"><ele>836.8</ele></trkpt><trkpt lat="47.569908" lon="11.296282"><ele>839.2</ele></trkpt><trkpt lat="47.57006" lon="11.296412"><ele>840.6</ele></trkpt><trkpt lat="47.57053" lon="11.296678"><ele>842</ele></trkpt><trkpt lat="47.570729" lon="11.29667"><ele>852</ele></trkpt><trkpt lat="47.57081" lon="11.296628"><ele>857.6</ele></trkpt><trkpt lat="47.570851" lon="11.296575"><ele>858.6</ele></trkpt><trkpt lat="47.570876" lon="11.2965"><ele>857.9</ele></trkpt><trkpt lat="47.570872" lon="11.296441"><ele>857.2</ele></trkpt><trkpt lat="47.570842" lon="11.296378"><ele>855.1</ele></trkpt><trkpt lat="47.570584" lon="11.296027"><ele>853.7</ele></trkpt><trkpt lat="47.57013" lon="11.295605"><ele>855.5</ele></trkpt><trkpt lat="47.570054" lon="11.295448"><ele>855.2</ele></trkpt><trkpt lat="47.570005" lon="11.295261"><ele>854.9</ele></trkpt><trkpt lat="47.569961" lon="11.294522"><ele>855</ele></trkpt><trkpt lat="47.570084" lon="11.293996"><ele>871</ele></trkpt><trkpt lat="47.570256" lon="11.293317"><ele>875</ele></trkpt><trkpt lat="47.570219" lon="11.293089"><ele>890.4</ele></trkpt><trkpt lat="47.570094" lon="11.292743"><ele>892.1</ele></trkpt><trkpt lat="47.570004" lon="11.292613"><ele>893</ele></trkpt><trkpt lat="47.569936" lon="11.292467"><ele>893.9</ele></trkpt><trkpt lat="47.569933" lon="11.292286"><ele>893.9</ele></trkpt><trkpt lat="47.569961" lon="11.292153"><ele>893.8</ele></trkpt><trkpt lat="47.570038" lon="11.292047"><ele>894</ele></trkpt><trkpt lat="47.57014" lon="11.291996"><ele>896</ele></trkpt><trkpt lat="47.570342" lon="11.291937"><ele>897.7</ele></trkpt><trkpt lat="47.570551" lon="11.291909"><ele>900.7</ele></trkpt><trkpt lat="47.570759" lon="11.291922"><ele>903.5</ele></trkpt><trkpt lat="47.570987" lon="11.291999"><ele>904</ele></trkpt><trkpt lat="47.57105" lon="11.292001"><ele>904.2</ele></trkpt><trkpt lat="47.571177" lon="11.291919"><ele>904.7</ele></trkpt><trkpt lat="47.571442" lon="11.291495"><ele>912.1</ele></trkpt><trkpt lat="47.57159" lon="11.291332"><ele>912.6</ele></trkpt><trkpt lat="47.571648" lon="11.29118"><ele>913.2</ele></trkpt><trkpt lat="47.571628" lon="11.29062"><ele>938</ele></trkpt><trkpt lat="47.571484" lon="11.290296"><ele>938</ele></trkpt><trkpt lat="47.571418" lon="11.290236"><ele>938</ele></trkpt><trkpt lat="47.569987" lon="11.290444"><ele>967.6</ele></trkpt><trkpt lat="47.56947" lon="11.290441"><ele>972</ele></trkpt><trkpt lat="47.569369" lon="11.290391"><ele>973.8</ele></trkpt><trkpt lat="47.569334" lon="11.290223"><ele>975</ele></trkpt><trkpt lat="47.56941" lon="11.290084"><ele>976.3</ele></trkpt><trkpt lat="47.569585" lon="11.290003"><ele>977.6</ele></trkpt><trkpt lat="47.569854" lon="11.290043"><ele>976.4</ele></trkpt><trkpt lat="47.56993" lon="11.289982"><ele>977.8</ele></trkpt><trkpt lat="47.569952" lon="11.28988"><ele>977.3</ele></trkpt><trkpt lat="47.569919" lon="11.28977"><ele>976.8</ele></trkpt><trkpt lat="47.569836" lon="11.289689"><ele>976.2</ele></trkpt><trkpt lat="47.569678" lon="11.289631"><ele>975.7</ele></trkpt><trkpt lat="47.569413" lon="11.28964"><ele>977.7</ele></trkpt><trkpt lat="47.568698" lon="11.289378"><ele>980.7</ele></trkpt><trkpt lat="47.568333" lon="11.28928"><ele>990.6</ele></trkpt><trkpt lat="47.567687" lon="11.288925"><ele>1007.8</ele></trkpt><trkpt lat="47.566974" lon="11.288164"><ele>1036</ele></trkpt><trkpt lat="47.566389" lon="11.287869"><ele>1047.5</ele></trkpt><trkpt lat="47.565855" lon="11.287212"><ele>1051.5</ele></trkpt><trkpt lat="47.56538" lon="11.287048"><ele>1053</ele></trkpt><trkpt lat="47.564959" lon="11.287051"><ele>1062.9</ele></trkpt><trkpt lat="47.56393" lon="11.286593"><ele>1082.3</ele></trkpt><trkpt lat="47.56356" lon="11.28662"><ele>1072.8</ele></trkpt><trkpt lat="47.562351" lon="11.285909"><ele>1061.3</ele></trkpt><trkpt lat="47.562242" lon="11.285553"><ele>1067</ele></trkpt><trkpt lat="47.561991" lon="11.28475"><ele>1088.3</ele></trkpt><trkpt lat="47.561785" lon="11.284313"><ele>1092.4</ele></trkpt><trkpt lat="47.561746" lon="11.283798"><ele>1095.9</ele></trkpt><trkpt lat="47.561539" lon="11.282497"><ele>1103.1</ele></trkpt><trkpt lat="47.561402" lon="11.28189"><ele>1112</ele></trkpt><trkpt lat="47.561354" lon="11.281629"><ele>1134.5</ele></trkpt><trkpt lat="47.561321" lon="11.28154"><ele>1132.6</ele></trkpt><trkpt lat="47.561255" lon="11.281474"><ele>1142</ele></trkpt><trkpt lat="47.560986" lon="11.281303"><ele>1133.4</ele></trkpt><trkpt lat="47.560533" lon="11.280881"><ele>1134.8</ele></trkpt><trkpt lat="47.560354" lon="11.28047"><ele>1145</ele></trkpt><trkpt lat="47.559948" lon="11.280108"><ele>1152.9</ele></trkpt><trkpt lat="47.559876" lon="11.280014"><ele>1159.1</ele></trkpt><trkpt lat="47.559801" lon="11.279832"><ele>1163.4</ele></trkpt><trkpt lat="47.559762" lon="11.279581"><ele>1164.4</ele></trkpt><trkpt lat="47.559753" lon="11.279226"><ele>1167.9</ele></trkpt><trkpt lat="47.559703" lon="11.278988"><ele>1169.4</ele></trkpt><trkpt lat="47.559647" lon="11.278848"><ele>1168.9</ele></trkpt><trkpt lat="47.559588" lon="11.278779"><ele>1170.4</ele></trkpt><trkpt lat="47.559512" lon="11.27875"><ele>1170</ele></trkpt><trkpt lat="47.559022" lon="11.278756"><ele>1169.6</ele></trkpt><trkpt lat="47.558837" lon="11.278671"><ele>1183</ele></trkpt><trkpt lat="47.558876" lon="11.278354"><ele>1193.8</ele></trkpt><trkpt lat="47.558942" lon="11.278177"><ele>1195.6</ele></trkpt><trkpt lat="47.559291" lon="11.277677"><ele>1195.2</ele></trkpt><trkpt lat="47.559609" lon="11.277683"><ele>1195.1</ele></trkpt><trkpt lat="47.560043" lon="11.277772"><ele>1200.2</ele></trkpt><trkpt lat="47.560318" lon="11.277901"><ele>1203.6</ele></trkpt><trkpt lat="47.560653" lon="11.278129"><ele>1208.3</ele></trkpt><trkpt lat="47.560928" lon="11.278159"><ele>1210.7</ele></trkpt><trkpt lat="47.561303" lon="11.278139"><ele>1209.9</ele></trkpt><trkpt lat="47.561532" lon="11.277949"><ele>1208.8</ele></trkpt><trkpt lat="47.561723" lon="11.277993"><ele>1208.9</ele></trkpt><trkpt lat="47.561841" lon="11.278152"><ele>1209.5</ele></trkpt><trkpt lat="47.562114" lon="11.278338"><ele>1210.2</ele></trkpt><trkpt lat="47.562368" lon="11.278676"><ele>1214.7</ele></trkpt><trkpt lat="47.562482" lon="11.279261"><ele>1216.1</ele></trkpt><trkpt lat="47.562643" lon="11.279569"><ele>1220.7</ele></trkpt><trkpt lat="47.562886" lon="11.279722"><ele>1221.8</ele></trkpt><trkpt lat="47.563149" lon="11.279641"><ele>1223.4</ele></trkpt><trkpt lat="47.563364" lon="11.279809"><ele>1243</ele></trkpt><trkpt lat="47.563695" lon="11.279986"><ele>1243</ele></trkpt><trkpt lat="47.564047" lon="11.279668"><ele>1243</ele></trkpt><trkpt lat="47.564136" lon="11.279736"><ele>1243</ele></trkpt><trkpt lat="47.564408" lon="11.279428"><ele>1249</ele></trkpt><trkpt lat="47.564471" lon="11.27936"><ele>1249</ele></trkpt><trkpt lat="47.564587" lon="11.279178"><ele>1258.8</ele></trkpt><trkpt lat="47.564572" lon="11.279004"><ele>1260.2</ele></trkpt><trkpt lat="47.564495" lon="11.278848"><ele>1259.7</ele></trkpt><trkpt lat="47.564393" lon="11.278807"><ele>1259</ele></trkpt><trkpt lat="47.564279" lon="11.278854"><ele>1264</ele></trkpt><trkpt lat="47.564006" lon="11.278966"><ele>1254</ele></trkpt><trkpt lat="47.563671" lon="11.278536"><ele>1273</ele></trkpt><trkpt lat="47.563678" lon="11.278345"><ele>1275.4</ele></trkpt><trkpt lat="47.563606" lon="11.277579"><ele>1288.3</ele></trkpt><trkpt lat="47.564002" lon="11.27724"><ele>1290.2</ele></trkpt><trkpt lat="47.564216" lon="11.277216"><ele>1291.5</ele></trkpt><trkpt lat="47.564384" lon="11.27723"><ele>1291.3</ele></trkpt><trkpt lat="47.564495" lon="11.276994"><ele>1294.4</ele></trkpt><trkpt lat="47.564422" lon="11.276504"><ele>1299</ele></trkpt><trkpt lat="47.564196" lon="11.276305"><ele>1301.2</ele></trkpt><trkpt lat="47.563759" lon="11.276008"><ele>1301.3</ele></trkpt><trkpt lat="47.56355" lon="11.275673"><ele>1302.2</ele></trkpt><trkpt lat="47.563526" lon="11.275316"><ele>1306.7</ele></trkpt><trkpt lat="47.563503" lon="11.274971"><ele>1311.3</ele></trkpt><trkpt lat="47.563358" lon="11.274223"><ele>1316.1</ele></trkpt><trkpt lat="47.563466" lon="11.272434"><ele>1347.4</ele></trkpt><trkpt lat="47.563443" lon="11.270506"><ele>1375</ele></trkpt><trkpt lat="47.563573" lon="11.269657"><ele>1391.7</ele></trkpt><trkpt lat="47.563594" lon="11.268657"><ele>1401.2</ele></trkpt><trkpt lat="47.563673" lon="11.267115"><ele>1433.8</ele></trkpt><trkpt lat="47.563849" lon="11.26607"><ele>1453.9</ele></trkpt><trkpt lat="47.563705" lon="11.265383"><ele>1456.2</ele></trkpt><trkpt lat="47.56372" lon="11.264807"><ele>1478</ele></trkpt><trkpt lat="47.563855" lon="11.264573"><ele>1499.7</ele></trkpt><trkpt lat="47.563815" lon="11.264187"><ele>1506.2</ele></trkpt><trkpt lat="47.563784" lon="11.263628"><ele>1516.3</ele></trkpt><trkpt lat="47.56393" lon="11.263237"><ele>1534.7</ele></trkpt><trkpt lat="47.563939" lon="11.262853"><ele>1545.4</ele></trkpt><trkpt lat="47.56409" lon="11.26259"><ele>1559.6</ele></trkpt><trkpt lat="47.564078" lon="11.262175"><ele>1570.7</ele></trkpt><trkpt lat="47.564288" lon="11.261761"><ele>1578</ele></trkpt><trkpt lat="47.564267" lon="11.261498"><ele>1584.2</ele></trkpt><trkpt lat="47.564291" lon="11.261419"><ele>1584.5</ele></trkpt><trkpt lat="47.564239" lon="11.261302"><ele>1584.8</ele></trkpt><trkpt lat="47.564297" lon="11.261218"><ele>1587.7</ele></trkpt><trkpt lat="47.564233" lon="11.261148"><ele>1588.2</ele></trkpt><trkpt lat="47.564262" lon="11.261082"><ele>1591</ele></trkpt><trkpt lat="47.564229" lon="11.260962"><ele>1591.5</ele></trkpt><trkpt lat="47.56439" lon="11.260727"><ele>1594.6</ele></trkpt><trkpt lat="47.564273" lon="11.260634"><ele>1594.3</ele></trkpt><trkpt lat="47.564326" lon="11.26053"><ele>1597.8</ele></trkpt><trkpt lat="47.564268" lon="11.260445"><ele>1599.5</ele></trkpt><trkpt lat="47.56428" lon="11.260363"><ele>1599.3</ele></trkpt><trkpt lat="47.564078" lon="11.259778"><ele>1613.1</ele></trkpt><trkpt lat="47.564031" lon="11.259682"><ele>1613.2</ele></trkpt><trkpt lat="47.56388" lon="11.259658"><ele>1613.3</ele></trkpt><trkpt lat="47.563937" lon="11.259151"><ele>1625.4</ele></trkpt><trkpt lat="47.56393" lon="11.258664"><ele>1637.6</ele></trkpt><trkpt lat="47.564224" lon="11.258206"><ele>1658.6</ele></trkpt><trkpt lat="47.564272" lon="11.258085"><ele>1658.9</ele></trkpt><trkpt lat="47.564258" lon="11.257996"><ele>1659.2</ele></trkpt><trkpt lat="47.564123" lon="11.257939"><ele>1659.5</ele></trkpt><trkpt lat="47.564089" lon="11.257802"><ele>1661.2</ele></trkpt><trkpt lat="47.564128" lon="11.257516"><ele>1669.1</ele></trkpt><trkpt lat="47.564081" lon="11.257299"><ele>1671</ele></trkpt><trkpt lat="47.564073" lon="11.256994"><ele>1673.2</ele></trkpt><trkpt lat="47.564005" lon="11.25655"><ele>1674</ele></trkpt><trkpt lat="47.563932" lon="11.256554"><ele>1673.1</ele></trkpt><trkpt lat="47.56377" lon="11.256685"><ele>1670.3</ele></trkpt><trkpt lat="47.563741" lon="11.256663"><ele>1671.8</ele></trkpt><trkpt lat="47.563729" lon="11.256527"><ele>1671.9</ele></trkpt><trkpt lat="47.563927" lon="11.255871"><ele>1674.4</ele></trkpt><trkpt lat="47.564122" lon="11.255451"><ele>1693</ele></trkpt><trkpt lat="47.564303" lon="11.255233"><ele>1721.4</ele></trkpt><trkpt lat="47.564339" lon="11.254999"><ele>1722.3</ele></trkpt><trkpt lat="47.564424" lon="11.254945"><ele>1722.3</ele></trkpt><trkpt lat="47.564457" lon="11.254883"><ele>1722.3</ele></trkpt><trkpt lat="47.564509" lon="11.25489"><ele>1722.3</ele></trkpt><trkpt lat="47.564455" lon="11.254448"><ele>1722.3</ele></trkpt><trkpt lat="47.564473" lon="11.254409"><ele>1722.4</ele></trkpt><trkpt lat="47.564587" lon="11.254513"><ele>1722.4</ele></trkpt><trkpt lat="47.564726" lon="11.254525"><ele>1722.5</ele></trkpt><trkpt lat="47.564806" lon="11.254075"><ele>1722.5</ele></trkpt><trkpt lat="47.565133" lon="11.254556"><ele>1752</ele></trkpt><trkpt lat="47.565065" lon="11.254321"><ele>1752</ele></trkpt><trkpt lat="47.565286" lon="11.254419"><ele>1752</ele></trkpt><trkpt lat="47.565382" lon="11.254175"><ele>1752</ele></trkpt><trkpt lat="47.565402" lon="11.254197"><ele>1752</ele></trkpt><trkpt lat="47.565436" lon="11.254113"><ele>1771.9</ele></trkpt><trkpt lat="47.565522" lon="11.254018"><ele>1770.7</ele></trkpt><trkpt lat="47.565579" lon="11.253903"><ele>1769.5</ele></trkpt><trkpt lat="47.565715" lon="11.253902"><ele>1768.5</ele></trkpt><trkpt lat="47.565847" lon="11.253864"><ele>1768.8</ele></trkpt><trkpt lat="47.565931" lon="11.253983"><ele>1771.3</ele></trkpt><trkpt lat="47.565979" lon="11.253963"><ele>1772.8</ele></trkpt><trkpt lat="47.566028" lon="11.254062"><ele>1774.9</ele></trkpt><trkpt lat="47.566041" lon="11.254031"><ele>1775.6</ele></trkpt><trkpt lat="47.566128" lon="11.253967"><ele>1776.9</ele></trkpt><trkpt lat="47.566184" lon="11.253851"><ele>1778.1</ele></trkpt><trkpt lat="47.566345" lon="11.253767"><ele>1797</ele></trkpt><trkpt lat="47.566365" lon="11.253642"><ele>1797</ele></trkpt><trkpt lat="47.566471" lon="11.253694"><ele>1797</ele></trkpt><trkpt lat="47.566492" lon="11.253734"><ele>1797</ele></trkpt><trkpt lat="47.566471" lon="11.253694"><ele>1797</ele></trkpt><trkpt lat="47.566365" lon="11.253642"><ele>1797</ele></trkpt><trkpt lat="47.566345" lon="11.253767"><ele>1797</ele></trkpt><trkpt lat="47.566184" lon="11.253851"><ele>1778.1</ele></trkpt><trkpt lat="47.566128" lon="11.253967"><ele>1776.9</ele></trkpt><trkpt lat="47.566041" lon="11.254031"><ele>1775.6</ele></trkpt><trkpt lat="47.566028" lon="11.254062"><ele>1774.9</ele></trkpt><trkpt lat="47.565979" lon="11.253963"><ele>1772.8</ele></trkpt><trkpt lat="47.565931" lon="11.253983"><ele>1771.3</ele></trkpt><trkpt lat="47.565847" lon="11.253864"><ele>1768.8</ele></trkpt><trkpt lat="47.565715" lon="11.253902"><ele>1768.5</ele></trkpt><trkpt lat="47.565579" lon="11.253903"><ele>1769.5</ele></trkpt><trkpt lat="47.565522" lon="11.254018"><ele>1770.7</ele></trkpt><trkpt lat="47.565436" lon="11.254113"><ele>1771.9</ele></trkpt><trkpt lat="47.565402" lon="11.254197"><ele>1752</ele></trkpt><trkpt lat="47.565382" lon="11.254175"><ele>1752</ele></trkpt><trkpt lat="47.565286" lon="11.254419"><ele>1752</ele></trkpt><trkpt lat="47.565065" lon="11.254321"><ele>1752</ele></trkpt><trkpt lat="47.565133" lon="11.254556"><ele>1752</ele></trkpt><trkpt lat="47.564806" lon="11.254075"><ele>1722.5</ele></trkpt><trkpt lat="47.564726" lon="11.254525"><ele>1722.5</ele></trkpt><trkpt lat="47.564587" lon="11.254513"><ele>1722.4</ele></trkpt><trkpt lat="47.564473" lon="11.254409"><ele>1722.4</ele></trkpt><trkpt lat="47.564455" lon="11.254448"><ele>1722.3</ele></trkpt><trkpt lat="47.564509" lon="11.25489"><ele>1722.3</ele></trkpt><trkpt lat="47.564457" lon="11.254883"><ele>1722.3</ele></trkpt><trkpt lat="47.564424" lon="11.254945"><ele>1722.3</ele></trkpt><trkpt lat="47.564339" lon="11.254999"><ele>1722.3</ele></trkpt><trkpt lat="47.564303" lon="11.255233"><ele>1721.4</ele></trkpt><trkpt lat="47.564122" lon="11.255451"><ele>1693</ele></trkpt><trkpt lat="47.563927" lon="11.255871"><ele>1674.4</ele></trkpt><trkpt lat="47.563729" lon="11.256527"><ele>1671.9</ele></trkpt><trkpt lat="47.563741" lon="11.256663"><ele>1671.8</ele></trkpt><trkpt lat="47.56377" lon="11.256685"><ele>1670.3</ele></trkpt><trkpt lat="47.563932" lon="11.256554"><ele>1673.1</ele></trkpt><trkpt lat="47.564005" lon="11.25655"><ele>1674</ele></trkpt><trkpt lat="47.564073" lon="11.256994"><ele>1673.2</ele></trkpt><trkpt lat="47.564081" lon="11.257299"><ele>1671</ele></trkpt><trkpt lat="47.564128" lon="11.257516"><ele>1669.1</ele></trkpt><trkpt lat="47.564089" lon="11.257802"><ele>1661.2</ele></trkpt><trkpt lat="47.564123" lon="11.257939"><ele>1659.5</ele></trkpt><trkpt lat="47.564258" lon="11.257996"><ele>1659.2</ele></trkpt><trkpt lat="47.564272" lon="11.258085"><ele>1658.9</ele></trkpt><trkpt lat="47.564224" lon="11.258206"><ele>1658.6</ele></trkpt><trkpt lat="47.56393" lon="11.258664"><ele>1637.6</ele></trkpt><trkpt lat="47.563937" lon="11.259151"><ele>1625.4</ele></trkpt><trkpt lat="47.56388" lon="11.259658"><ele>1613.3</ele></trkpt><trkpt lat="47.564031" lon="11.259682"><ele>1613.2</ele></trkpt><trkpt lat="47.564078" lon="11.259778"><ele>1613.1</ele></trkpt><trkpt lat="47.56428" lon="11.260363"><ele>1599.3</ele></trkpt><trkpt lat="47.564268" lon="11.260445"><ele>1599.5</ele></trkpt><trkpt lat="47.564326" lon="11.26053"><ele>1597.8</ele></trkpt><trkpt lat="47.564273" lon="11.260634"><ele>1594.3</ele></trkpt><trkpt lat="47.56439" lon="11.260727"><ele>1594.6</ele></trkpt><trkpt lat="47.564229" lon="11.260962"><ele>1591.5</ele></trkpt><trkpt lat="47.564262" lon="11.261082"><ele>1591</ele></trkpt><trkpt lat="47.564233" lon="11.261148"><ele>1588.2</ele></trkpt><trkpt lat="47.564297" lon="11.261218"><ele>1587.7</ele></trkpt><trkpt lat="47.564239" lon="11.261302"><ele>1584.8</ele></trkpt><trkpt lat="47.564291" lon="11.261419"><ele>1584.5</ele></trkpt><trkpt lat="47.564267" lon="11.261498"><ele>1584.2</ele></trkpt><trkpt lat="47.564288" lon="11.261761"><ele>1578</ele></trkpt><trkpt lat="47.564078" lon="11.262175"><ele>1570.7</ele></trkpt><trkpt lat="47.56409" lon="11.26259"><ele>1559.6</ele></trkpt><trkpt lat="47.563939" lon="11.262853"><ele>1545.4</ele></trkpt><trkpt lat="47.56393" lon="11.263237"><ele>1534.7</ele></trkpt><trkpt lat="47.563784" lon="11.263628"><ele>1516.3</ele></trkpt><trkpt lat="47.563815" lon="11.264187"><ele>1506.2</ele></trkpt><trkpt lat="47.563855" lon="11.264573"><ele>1499.7</ele></trkpt><trkpt lat="47.56372" lon="11.264807"><ele>1478</ele></trkpt><trkpt lat="47.563705" lon="11.265383"><ele>1456.2</ele></trkpt><trkpt lat="47.563849" lon="11.26607"><ele>1453.9</ele></trkpt><trkpt lat="47.563673" lon="11.267115"><ele>1433.8</ele></trkpt><trkpt lat="47.563594" lon="11.268657"><ele>1401.2</ele></trkpt><trkpt lat="47.563573" lon="11.269657"><ele>1391.7</ele></trkpt><trkpt lat="47.563443" lon="11.270506"><ele>1375</ele></trkpt><trkpt lat="47.563466" lon="11.272434"><ele>1347.4</ele></trkpt><trkpt lat="47.563358" lon="11.274223"><ele>1316.1</ele></trkpt><trkpt lat="47.563443" lon="11.274662"><ele>1313.7</ele></trkpt><trkpt lat="47.563503" lon="11.274971"><ele>1311.3</ele></trkpt><trkpt lat="47.56355" lon="11.275673"><ele>1302.2</ele></trkpt><trkpt lat="47.563759" lon="11.276008"><ele>1301.3</ele></trkpt><trkpt lat="47.564196" lon="11.276305"><ele>1301.2</ele></trkpt><trkpt lat="47.564422" lon="11.276504"><ele>1299</ele></trkpt><trkpt lat="47.564495" lon="11.276994"><ele>1294.4</ele></trkpt><trkpt lat="47.564384" lon="11.27723"><ele>1291.3</ele></trkpt><trkpt lat="47.564216" lon="11.277216"><ele>1291.5</ele></trkpt><trkpt lat="47.564002" lon="11.27724"><ele>1290.2</ele></trkpt><trkpt lat="47.563606" lon="11.277579"><ele>1288.3</ele></trkpt><trkpt lat="47.563678" lon="11.278345"><ele>1275.4</ele></trkpt><trkpt lat="47.563671" lon="11.278536"><ele>1273</ele></trkpt><trkpt lat="47.564006" lon="11.278966"><ele>1254</ele></trkpt><trkpt lat="47.564279" lon="11.278854"><ele>1264</ele></trkpt><trkpt lat="47.564393" lon="11.278807"><ele>1259</ele></trkpt><trkpt lat="47.564495" lon="11.278848"><ele>1259.7</ele></trkpt><trkpt lat="47.564572" lon="11.279004"><ele>1260.2</ele></trkpt><trkpt lat="47.564587" lon="11.279178"><ele>1258.8</ele></trkpt><trkpt lat="47.564471" lon="11.27936"><ele>1249</ele></trkpt><trkpt lat="47.564408" lon="11.279428"><ele>1249</ele></trkpt><trkpt lat="47.564136" lon="11.279736"><ele>1243</ele></trkpt><trkpt lat="47.564047" lon="11.279668"><ele>1243</ele></trkpt><trkpt lat="47.563695" lon="11.279986"><ele>1243</ele></trkpt><trkpt lat="47.563364" lon="11.279809"><ele>1243</ele></trkpt><trkpt lat="47.563149" lon="11.279641"><ele>1223.4</ele></trkpt><trkpt lat="47.562886" lon="11.279722"><ele>1221.8</ele></trkpt><trkpt lat="47.562643" lon="11.279569"><ele>1220.7</ele></trkpt><trkpt lat="47.562482" lon="11.279261"><ele>1216.1</ele></trkpt><trkpt lat="47.562368" lon="11.278676"><ele>1214.7</ele></trkpt><trkpt lat="47.562114" lon="11.278338"><ele>1210.2</ele></trkpt><trkpt lat="47.561841" lon="11.278152"><ele>1209.5</ele></trkpt><trkpt lat="47.561723" lon="11.277993"><ele>1208.9</ele></trkpt><trkpt lat="47.561532" lon="11.277949"><ele>1208.8</ele></trkpt><trkpt lat="47.561303" lon="11.278139"><ele>1209.9</ele></trkpt><trkpt lat="47.560928" lon="11.278159"><ele>1210.7</ele></trkpt><trkpt lat="47.560653" lon="11.278129"><ele>1208.3</ele></trkpt><trkpt lat="47.560318" lon="11.277901"><ele>1203.6</ele></trkpt><trkpt lat="47.560043" lon="11.277772"><ele>1200.2</ele></trkpt><trkpt lat="47.559609" lon="11.277683"><ele>1195.1</ele></trkpt><trkpt lat="47.559291" lon="11.277677"><ele>1195.2</ele></trkpt><trkpt lat="47.558942" lon="11.278177"><ele>1195.6</ele></trkpt><trkpt lat="47.558876" lon="11.278354"><ele>1193.8</ele></trkpt><trkpt lat="47.558837" lon="11.278671"><ele>1183</ele></trkpt><trkpt lat="47.559022" lon="11.278756"><ele>1169.6</ele></trkpt><trkpt lat="47.559512" lon="11.27875"><ele>1170</ele></trkpt><trkpt lat="47.559588" lon="11.278779"><ele>1170.4</ele></trkpt><trkpt lat="47.559647" lon="11.278848"><ele>1168.9</ele></trkpt><trkpt lat="47.559703" lon="11.278988"><ele>1169.4</ele></trkpt><trkpt lat="47.559753" lon="11.279226"><ele>1167.9</ele></trkpt><trkpt lat="47.559762" lon="11.279581"><ele>1164.4</ele></trkpt><trkpt lat="47.559801" lon="11.279832"><ele>1163.4</ele></trkpt><trkpt lat="47.559876" lon="11.280014"><ele>1159.1</ele></trkpt><trkpt lat="47.559948" lon="11.280108"><ele>1152.9</ele></trkpt><trkpt lat="47.560354" lon="11.28047"><ele>1145</ele></trkpt><trkpt lat="47.560533" lon="11.280881"><ele>1134.8</ele></trkpt><trkpt lat="47.560986" lon="11.281303"><ele>1133.4</ele></trkpt><trkpt lat="47.561255" lon="11.281474"><ele>1142</ele></trkpt><trkpt lat="47.561321" lon="11.28154"><ele>1132.6</ele></trkpt><trkpt lat="47.561354" lon="11.281629"><ele>1134.5</ele></trkpt><trkpt lat="47.561402" lon="11.28189"><ele>1112</ele></trkpt><trkpt lat="47.561539" lon="11.282497"><ele>1103.1</ele></trkpt><trkpt lat="47.561746" lon="11.283798"><ele>1095.9</ele></trkpt><trkpt lat="47.561785" lon="11.284313"><ele>1092.4</ele></trkpt><trkpt lat="47.561991" lon="11.28475"><ele>1088.3</ele></trkpt><trkpt lat="47.562242" lon="11.285553"><ele>1067</ele></trkpt><trkpt lat="47.562351" lon="11.285909"><ele>1061.3</ele></trkpt><trkpt lat="47.56356" lon="11.28662"><ele>1072.8</ele></trkpt><trkpt lat="47.56393" lon="11.286593"><ele>1082.3</ele></trkpt><trkpt lat="47.564959" lon="11.287051"><ele>1062.9</ele></trkpt><trkpt lat="47.56538" lon="11.287048"><ele>1053</ele></trkpt><trkpt lat="47.565855" lon="11.287212"><ele>1051.5</ele></trkpt><trkpt lat="47.566389" lon="11.287869"><ele>1047.5</ele></trkpt><trkpt lat="47.566974" lon="11.288164"><ele>1036</ele></trkpt><trkpt lat="47.567687" lon="11.288925"><ele>1007.8</ele></trkpt><trkpt lat="47.568333" lon="11.28928"><ele>990.6</ele></trkpt><trkpt lat="47.568698" lon="11.289378"><ele>980.7</ele></trkpt><trkpt lat="47.569413" lon="11.28964"><ele>977.7</ele></trkpt><trkpt lat="47.569678" lon="11.289631"><ele>975.7</ele></trkpt><trkpt lat="47.569836" lon="11.289689"><ele>976.2</ele></trkpt><trkpt lat="47.569919" lon="11.28977"><ele>976.8</ele></trkpt><trkpt lat="47.569952" lon="11.28988"><ele>977.3</ele></trkpt><trkpt lat="47.56993" lon="11.289982"><ele>977.8</ele></trkpt><trkpt lat="47.569854" lon="11.290043"><ele>976.4</ele></trkpt><trkpt lat="47.569585" lon="11.290003"><ele>977.6</ele></trkpt><trkpt lat="47.56941" lon="11.290084"><ele>976.3</ele></trkpt><trkpt lat="47.569334" lon="11.290223"><ele>975</ele></trkpt><trkpt lat="47.569369" lon="11.290391"><ele>973.8</ele></trkpt><trkpt lat="47.56947" lon="11.290441"><ele>972</ele></trkpt><trkpt lat="47.569987" lon="11.290444"><ele>967.6</ele></trkpt><trkpt lat="47.571418" lon="11.290236"><ele>938</ele></trkpt><trkpt lat="47.571484" lon="11.290296"><ele>938</ele></trkpt><trkpt lat="47.571628" lon="11.29062"><ele>938</ele></trkpt><trkpt lat="47.571648" lon="11.29118"><ele>913.2</ele></trkpt><trkpt lat="47.57159" lon="11.291332"><ele>912.6</ele></trkpt><trkpt lat="47.571442" lon="11.291495"><ele>912.1</ele></trkpt><trkpt lat="47.571177" lon="11.291919"><ele>904.7</ele></trkpt><trkpt lat="47.57105" lon="11.292001"><ele>904.2</ele></trkpt><trkpt lat="47.570987" lon="11.291999"><ele>904</ele></trkpt><trkpt lat="47.570759" lon="11.291922"><ele>903.5</ele></trkpt><trkpt lat="47.570551" lon="11.291909"><ele>900.7</ele></trkpt><trkpt lat="47.570342" lon="11.291937"><ele>897.7</ele></trkpt><trkpt lat="47.57014" lon="11.291996"><ele>896</ele></trkpt><trkpt lat="47.570038" lon="11.292047"><ele>894</ele></trkpt><trkpt lat="47.569961" lon="11.292153"><ele>893.8</ele></trkpt><trkpt lat="47.569933" lon="11.292286"><ele>893.9</ele></trkpt><trkpt lat="47.569936" lon="11.292467"><ele>893.9</ele></trkpt><trkpt lat="47.570004" lon="11.292613"><ele>893</ele></trkpt><trkpt lat="47.570094" lon="11.292743"><ele>892.1</ele></trkpt><trkpt lat="47.570219" lon="11.293089"><ele>890.4</ele></trkpt><trkpt lat="47.570256" lon="11.293317"><ele>875</ele></trkpt><trkpt lat="47.570084" lon="11.293996"><ele>871</ele></trkpt><trkpt lat="47.569961" lon="11.294522"><ele>855</ele></trkpt><trkpt lat="47.570005" lon="11.295261"><ele>854.9</ele></trkpt><trkpt lat="47.570054" lon="11.295448"><ele>855.2</ele></trkpt><trkpt lat="47.57013" lon="11.295605"><ele>855.5</ele></trkpt><trkpt lat="47.570584" lon="11.296027"><ele>853.7</ele></trkpt><trkpt lat="47.570842" lon="11.296378"><ele>855.1</ele></trkpt><trkpt lat="47.570872" lon="11.296441"><ele>857.2</ele></trkpt><trkpt lat="47.570876" lon="11.2965"><ele>857.9</ele></trkpt><trkpt lat="47.570851" lon="11.296575"><ele>858.6</ele></trkpt><trkpt lat="47.57081" lon="11.296628"><ele>857.6</ele></trkpt><trkpt lat="47.570729" lon="11.29667"><ele>852</ele></trkpt><trkpt lat="47.57053" lon="11.296678"><ele>842</ele></trkpt><trkpt lat="47.57006" lon="11.296412"><ele>840.6</ele></trkpt><trkpt lat="47.569908" lon="11.296282"><ele>839.2</ele></trkpt><trkpt lat="47.56967" lon="11.296157"><ele>836.8</ele></trkpt><trkpt lat="47.569506" lon="11.296133"><ele>835.7</ele></trkpt><trkpt lat="47.569358" lon="11.29615"><ele>833.2</ele></trkpt><trkpt lat="47.569076" lon="11.296097"><ele>814</ele></trkpt><trkpt lat="47.569014" lon="11.296194"><ele>814.4</ele></trkpt><trkpt lat="47.568972" lon="11.296306"><ele>814.3</ele></trkpt><trkpt lat="47.568915" lon="11.296554"><ele>814.3</ele></trkpt><trkpt lat="47.568875" lon="11.296851"><ele>814.4</ele></trkpt><trkpt lat="47.568861" lon="11.297121"><ele>815</ele></trkpt><trkpt lat="47.569009" lon="11.297578"><ele>812</ele></trkpt><trkpt lat="47.569054" lon="11.297641"><ele>812.7</ele></trkpt><trkpt lat="47.569156" lon="11.297857"><ele>812.6</ele></trkpt><trkpt lat="47.569303" lon="11.2983"><ele>814</ele></trkpt><trkpt lat="47.569316" lon="11.298363"><ele>816</ele></trkpt><trkpt lat="47.569564" lon="11.298961"><ele>816.6</ele></trkpt><trkpt lat="47.569667" lon="11.299161"><ele>816.5</ele></trkpt><trkpt lat="47.569821" lon="11.299371"><ele>817</ele></trkpt><trkpt lat="47.570458" lon="11.300613"><ele>816</ele></trkpt><trkpt lat="47.57065" lon="11.301099"><ele>813.3</ele></trkpt><trkpt lat="47.570737" lon="11.301399"><ele>812</ele></trkpt><trkpt lat="47.570756" lon="11.301623"><ele>809.3</ele></trkpt><trkpt lat="47.570743" lon="11.301894"><ele>809.3</ele></trkpt><trkpt lat="47.570715" lon="11.302037"><ele>809.3</ele></trkpt><trkpt lat="47.570496" lon="11.302561"><ele>809.1</ele></trkpt><trkpt lat="47.570454" lon="11.302704"><ele>808.9</ele></trkpt><trkpt lat="47.570443" lon="11.303018"><ele>808.7</ele></trkpt><trkpt lat="47.570459" lon="11.303158"><ele>808.5</ele></trkpt><trkpt lat="47.57051" lon="11.303314"><ele>807</ele></trkpt><trkpt lat="47.570594" lon="11.303506"><ele>808.9</ele></trkpt><trkpt lat="47.570692" lon="11.303808"><ele>808.8</ele></trkpt><trkpt lat="47.570962" lon="11.304441"><ele>808.9</ele></trkpt><trkpt lat="47.571031" lon="11.30469"><ele>811</ele></trkpt><trkpt lat="47.571085" lon="11.304718"><ele>811</ele></trkpt><trkpt lat="47.571116" lon="11.305019"><ele>809.5</ele></trkpt><trkpt lat="47.571116" lon="11.305168"><ele>809.5</ele></trkpt><trkpt lat="47.571171" lon="11.305428"><ele>809</ele></trkpt><trkpt lat="47.571362" lon="11.305874"><ele>809</ele></trkpt><trkpt lat="47.571444" lon="11.305969"><ele>809</ele></trkpt><trkpt lat="47.571572" lon="11.306044"><ele>809</ele></trkpt><trkpt lat="47.571727" lon="11.306038"><ele>809</ele></trkpt><trkpt lat="47.571821" lon="11.306494"><ele>809</ele></trkpt></trkseg></trk></gpx>