<gpx xmlns="http://www.topografix.com/GPX/1/1" xmlns:xsi="http://www.w3.org/2001/XMLSchema-instance" xsi:schemaLocation="http://www.topografix.com/GPX/1/1 http://www.topografix.com/GPX/1/1/gpx.xsd" version="1.1" creator="togpx"><metadata/><wpt lat="47.455632249871044" lon="11.27378582954407"><name></name><desc>label=Am Hirtbichl, Mittenwald,BY,Germany</desc></wpt><wpt lat="47.472155221271386" lon="11.295661926269533"><name></name><desc>label=Aschauer Alm, Mittenwald,BY,Germany</desc></wpt><wpt lat="47.47034215501909" lon="11.33321285247803"><name></name><desc>label=Wörner Kopf, Mittenwald,BY,Germany</desc></wpt><wpt lat="47.468935172505994" lon="11.352599859237671"><name></name><desc>label=Vereinsalpe, Mittenwald,BY,Germany</desc></wpt><wpt lat="47.47128495727631" lon="11.352192163467409"><name></name><desc>label=361, Mittenwald,BY,Germany</desc></wpt><wpt lat="47.481564030416635" lon="11.35709524154663"><name></name><desc>label=361, Mittenwald,BY,Germany</desc></wpt><wpt lat="47.46957339604553" lon="11.351280212402346"><name></name><desc>label=Vereinsalpe, Mittenwald,BY,Germany</desc></wpt><wpt lat="47.47469340894405" lon="11.293516159057619"><name></name><desc>label=Aschauer Alm, Mittenwald,BY,Germany</desc></wpt><wpt lat="47.45266148108178" lon="11.27278804779053"><name></name><desc>label=Schwarzkopfstraße, Mittenwald,BY,Germany</desc></wpt><wpt lat="47.44445925671908" lon="11.27098560333252"><name></name><desc>label=Gebirgspionierstraße, Mittenwald,BY,Germany</desc></wpt><wpt lat="47.43998576656041" lon="11.2657767534256"><name></name><desc>label=Mittenwald, BY,Germany</desc></wpt><trk><name></name><desc>ascent=1653.3
descent=1659.9
opacity=0.9</desc><trkseg><trkpt lat="47.455627" lon="11.273877"><ele>922.6</ele></trkpt><trkpt lat="47.456209" lon="11.273949"><ele>926</ele></trkpt><trkpt lat="47.456179" lon="11.274269"><ele>904</ele></trkpt><trkpt lat="47.456152" lon="11.274859"><ele>904</ele></trkpt><trkpt lat="47.456162" lon="11.275258"><ele>904</ele></trkpt><trkpt lat="47.456179" lon="11.275617"><ele>904</ele></trkpt><trkpt lat="47.456247" lon="11.276107"><ele>905.2</ele></trkpt><trkpt lat="47.456368" lon="11.276587"><ele>905.2</ele></trkpt><trkpt lat="47.456569" lon="11.277154"><ele>908</ele></trkpt><trkpt lat="47.456752" lon="11.277686"><ele>905.3</ele></trkpt><trkpt lat="47.456866" lon="11.278108"><ele>904</ele></trkpt><trkpt lat="47.456944" lon="11.278707"><ele>908.8</ele></trkpt><trkpt lat="47.456964" lon="11.279044"><ele>908.8</ele></trkpt><trkpt lat="47.456961" lon="11.279282"><ele>913</ele></trkpt><trkpt lat="47.456885" lon="11.280108"><ele>911</ele></trkpt><trkpt lat="47.456879" lon="11.280157"><ele>911</ele></trkpt><trkpt lat="47.456848" lon="11.280438"><ele>911</ele></trkpt><trkpt lat="47.456834" lon="11.280755"><ele>911</ele></trkpt><trkpt lat="47.456861" lon="11.281399"><ele>910</ele></trkpt><trkpt lat="47.45689" lon="11.282212"><ele>911</ele></trkpt><trkpt lat="47.456928" lon="11.282746"><ele>911.3</ele></trkpt><trkpt lat="47.456987" lon="11.283015"><ele>912</ele></trkpt><trkpt lat="47.457039" lon="11.283141"><ele>912</ele></trkpt><trkpt lat="47.457117" lon="11.283211"><ele>912</ele></trkpt><trkpt lat="47.457262" lon="11.283261"><ele>912</ele></trkpt><trkpt lat="47.457378" lon="11.283238"><ele>912</ele></trkpt><trkpt lat="47.457466" lon="11.283176"><ele>912</ele></trkpt><trkpt lat="47.457545" lon="11.283087"><ele>912</ele></trkpt><trkpt lat="47.457705" lon="11.28283"><ele>912</ele></trkpt><trkpt lat="47.457907" lon="11.282744"><ele>912.5</ele></trkpt><trkpt lat="47.458224" lon="11.282659"><ele>912.3</ele></trkpt><trkpt lat="47.458479" lon="11.282646"><ele>912.4</ele></trkpt><trkpt lat="47.458604" lon="11.282667"><ele>912.5</ele></trkpt><trkpt lat="47.458726" lon="11.282731"><ele>912.6</ele></trkpt><trkpt lat="47.458829" lon="11.282741"><ele>912.7</ele></trkpt><trkpt lat="47.459101" lon="11.282673"><ele>913</ele></trkpt><trkpt lat="47.459258" lon="11.28266"><ele>912.9</ele></trkpt><trkpt lat="47.459468" lon="11.282686"><ele>910</ele></trkpt><trkpt lat="47.45962" lon="11.282777"><ele>910</ele></trkpt><trkpt lat="47.459859" lon="11.283041"><ele>910</ele></trkpt><trkpt lat="47.460066" lon="11.283391"><ele>914.5</ele></trkpt><trkpt lat="47.460147" lon="11.283455"><ele>919</ele></trkpt><trkpt lat="47.460186" lon="11.283477"><ele>919</ele></trkpt><trkpt lat="47.460339" lon="11.283557"><ele>918.7</ele></trkpt><trkpt lat="47.460846" lon="11.283724"><ele>918</ele></trkpt><trkpt lat="47.461246" lon="11.28385"><ele>918</ele></trkpt><trkpt lat="47.461442" lon="11.283942"><ele>918</ele></trkpt><trkpt lat="47.461662" lon="11.28408"><ele>918</ele></trkpt><trkpt lat="47.462737" lon="11.284899"><ele>933.8</ele></trkpt><trkpt lat="47.462957" lon="11.285032"><ele>947</ele></trkpt><trkpt lat="47.463194" lon="11.285191"><ele>948.4</ele></trkpt><trkpt lat="47.463358" lon="11.285208"><ele>948.4</ele></trkpt><trkpt lat="47.463481" lon="11.285194"><ele>948.6</ele></trkpt><trkpt lat="47.463746" lon="11.285333"><ele>948.9</ele></trkpt><trkpt lat="47.464092" lon="11.285346"><ele>950</ele></trkpt><trkpt lat="47.464143" lon="11.285353"><ele>950</ele></trkpt><trkpt lat="47.464901" lon="11.285447"><ele>954.9</ele></trkpt><trkpt lat="47.465198" lon="11.285569"><ele>955.1</ele></trkpt><trkpt lat="47.465306" lon="11.285577"><ele>955.1</ele></trkpt><trkpt lat="47.465976" lon="11.285292"><ele>955.7</ele></trkpt><trkpt lat="47.466112" lon="11.285294"><ele>955.9</ele></trkpt><trkpt lat="47.466358" lon="11.285415"><ele>958</ele></trkpt><trkpt lat="47.466577" lon="11.285582"><ele>963.3</ele></trkpt><trkpt lat="47.466929" lon="11.285801"><ele>963.8</ele></trkpt><trkpt lat="47.467258" lon="11.286063"><ele>966</ele></trkpt><trkpt lat="47.467512" lon="11.286188"><ele>967.3</ele></trkpt><trkpt lat="47.468145" lon="11.287226"><ele>973.7</ele></trkpt><trkpt lat="47.468209" lon="11.287393"><ele>974</ele></trkpt><trkpt lat="47.4683" lon="11.287728"><ele>976.4</ele></trkpt><trkpt lat="47.468372" lon="11.287848"><ele>977.6</ele></trkpt><trkpt lat="47.468472" lon="11.287931"><ele>977</ele></trkpt><trkpt lat="47.468724" lon="11.28818"><ele>980.3</ele></trkpt><trkpt lat="47.468901" lon="11.28843"><ele>981.1</ele></trkpt><trkpt lat="47.469164" lon="11.28888"><ele>982.6</ele></trkpt><trkpt lat="47.469209" lon="11.289044"><ele>983</ele></trkpt><trkpt lat="47.469249" lon="11.289169"><ele>985</ele></trkpt><trkpt lat="47.46949" lon="11.289578"><ele>984.3</ele></trkpt><trkpt lat="47.469794" lon="11.289954"><ele>984.4</ele></trkpt><trkpt lat="47.469826" lon="11.289971"><ele>984.5</ele></trkpt><trkpt lat="47.470045" lon="11.289976"><ele>984.5</ele></trkpt><trkpt lat="47.470487" lon="11.289958"><ele>984.4</ele></trkpt><trkpt lat="47.470667" lon="11.290055"><ele>984.1</ele></trkpt><trkpt lat="47.470772" lon="11.290184"><ele>982</ele></trkpt><trkpt lat="47.471054" lon="11.290668"><ele>978.7</ele></trkpt><trkpt lat="47.47134" lon="11.290971"><ele>978.4</ele></trkpt><trkpt lat="47.471371" lon="11.29105"><ele>978.3</ele></trkpt><trkpt lat="47.471369" lon="11.291242"><ele>978.2</ele></trkpt><trkpt lat="47.471383" lon="11.29128"><ele>978.1</ele></trkpt><trkpt lat="47.471446" lon="11.291222"><ele>977.9</ele></trkpt><trkpt lat="47.471499" lon="11.291246"><ele>977</ele></trkpt><trkpt lat="47.471644" lon="11.291337"><ele>977</ele></trkpt><trkpt lat="47.471722" lon="11.291413"><ele>974</ele></trkpt><trkpt lat="47.471712" lon="11.291793"><ele>982.1</ele></trkpt><trkpt lat="47.471843" lon="11.293208"><ele>988.5</ele></trkpt><trkpt lat="47.471732" lon="11.293605"><ele>990</ele></trkpt><trkpt lat="47.471731" lon="11.29376"><ele>990.5</ele></trkpt><trkpt lat="47.471807" lon="11.29413"><ele>992.2</ele></trkpt><trkpt lat="47.47181" lon="11.294217"><ele>992.2</ele></trkpt><trkpt lat="47.471783" lon="11.294429"><ele>993.2</ele></trkpt><trkpt lat="47.471789" lon="11.294453"><ele>993</ele></trkpt><trkpt lat="47.471809" lon="11.294455"><ele>992.8</ele></trkpt><trkpt lat="47.471924" lon="11.294397"><ele>992.7</ele></trkpt><trkpt lat="47.471927" lon="11.294423"><ele>992.5</ele></trkpt><trkpt lat="47.471855" lon="11.294598"><ele>992.6</ele></trkpt><trkpt lat="47.471854" lon="11.294631"><ele>992.6</ele></trkpt><trkpt lat="47.471863" lon="11.294651"><ele>993.3</ele></trkpt><trkpt lat="47.471932" lon="11.294615"><ele>993.1</ele></trkpt><trkpt lat="47.47201" lon="11.294626"><ele>993.1</ele></trkpt><trkpt lat="47.472022" lon="11.294804"><ele>992.9</ele></trkpt><trkpt lat="47.472056" lon="11.294867"><ele>994.3</ele></trkpt><trkpt lat="47.472059" lon="11.294916"><ele>994.5</ele></trkpt><trkpt lat="47.471952" lon="11.295034"><ele>994.7</ele></trkpt><trkpt lat="47.471929" lon="11.295096"><ele>994.7</ele></trkpt><trkpt lat="47.471917" lon="11.295165"><ele>995.1</ele></trkpt><trkpt lat="47.471926" lon="11.295277"><ele>995.4</ele></trkpt><trkpt lat="47.471956" lon="11.295414"><ele>996.1</ele></trkpt><trkpt lat="47.471986" lon="11.295458"><ele>996.1</ele></trkpt><trkpt lat="47.472111" lon="11.295447"><ele>996.1</ele></trkpt><trkpt lat="47.47215" lon="11.295465"><ele>996.5</ele></trkpt><trkpt lat="47.472184" lon="11.295576"><ele>996.7</ele></trkpt><trkpt lat="47.472182" lon="11.295669"><ele>997.4</ele></trkpt><trkpt lat="47.47218" lon="11.295677"><ele>997.4</ele></trkpt><trkpt lat="47.472154" lon="11.295772"><ele>997.4</ele></trkpt><trkpt lat="47.472172" lon="11.295815"><ele>997.3</ele></trkpt><trkpt lat="47.472205" lon="11.295841"><ele>997.9</ele></trkpt><trkpt lat="47.472247" lon="11.29584"><ele>998.8</ele></trkpt><trkpt lat="47.472271" lon="11.295891"><ele>999.1</ele></trkpt><trkpt lat="47.472295" lon="11.296035"><ele>1000</ele></trkpt><trkpt lat="47.472318" lon="11.296071"><ele>1000.5</ele></trkpt><trkpt lat="47.472436" lon="11.296035"><ele>1001.4</ele></trkpt><trkpt lat="47.472463" lon="11.296086"><ele>1001.6</ele></trkpt><trkpt lat="47.472478" lon="11.296286"><ele>1004.7</ele></trkpt><trkpt lat="47.472506" lon="11.296351"><ele>1006.3</ele></trkpt><trkpt lat="47.472546" lon="11.296347"><ele>1007.9</ele></trkpt><trkpt lat="47.47259" lon="11.296291"><ele>1008</ele></trkpt><trkpt lat="47.472661" lon="11.296253"><ele>1008.9</ele></trkpt><trkpt lat="47.472871" lon="11.296304"><ele>1014.2</ele></trkpt><trkpt lat="47.472888" lon="11.296379"><ele>1015.6</ele></trkpt><trkpt lat="47.472736" lon="11.296495"><ele>1015.8</ele></trkpt><trkpt lat="47.472707" lon="11.296558"><ele>1016.8</ele></trkpt><trkpt lat="47.472704" lon="11.296637"><ele>1018.5</ele></trkpt><trkpt lat="47.472719" lon="11.296714"><ele>1021.5</ele></trkpt><trkpt lat="47.473081" lon="11.297148"><ele>1029</ele></trkpt><trkpt lat="47.473156" lon="11.297291"><ele>1033.7</ele></trkpt><trkpt lat="47.473367" lon="11.297806"><ele>1043.5</ele></trkpt><trkpt lat="47.473426" lon="11.297856"><ele>1045.8</ele></trkpt><trkpt lat="47.473503" lon="11.297855"><ele>1086</ele></trkpt><trkpt lat="47.473513" lon="11.298022"><ele>1086.3</ele></trkpt><trkpt lat="47.473563" lon="11.298188"><ele>1086.3</ele></trkpt><trkpt lat="47.473661" lon="11.298343"><ele>1087</ele></trkpt><trkpt lat="47.473879" lon="11.298597"><ele>1087</ele></trkpt><trkpt lat="47.473925" lon="11.298704"><ele>1087</ele></trkpt><trkpt lat="47.474105" lon="11.299655"><ele>1084.9</ele></trkpt><trkpt lat="47.474275" lon="11.300261"><ele>1090.1</ele></trkpt><trkpt lat="47.474612" lon="11.301762"><ele>1097.8</ele></trkpt><trkpt lat="47.474647" lon="11.302316"><ele>1094.9</ele></trkpt><trkpt lat="47.474653" lon="11.302834"><ele>1096.1</ele></trkpt><trkpt lat="47.474574" lon="11.304061"><ele>1097.3</ele></trkpt><trkpt lat="47.474654" lon="11.304773"><ele>1102</ele></trkpt><trkpt lat="47.474656" lon="11.305146"><ele>1112.5</ele></trkpt><trkpt lat="47.474602" lon="11.306359"><ele>1114</ele></trkpt><trkpt lat="47.474613" lon="11.306753"><ele>1113.7</ele></trkpt><trkpt lat="47.474993" lon="11.308714"><ele>1113.5</ele></trkpt><trkpt lat="47.475183" lon="11.309376"><ele>1118.1</ele></trkpt><trkpt lat="47.475339" lon="11.310352"><ele>1120.5</ele></trkpt><trkpt lat="47.475456" lon="11.311322"><ele>1122.6</ele></trkpt><trkpt lat="47.475495" lon="11.311466"><ele>1132</ele></trkpt><trkpt lat="47.475552" lon="11.311696"><ele>1141.2</ele></trkpt><trkpt lat="47.475726" lon="11.312179"><ele>1139.3</ele></trkpt><trkpt lat="47.475834" lon="11.312391"><ele>1143.3</ele></trkpt><trkpt lat="47.475887" lon="11.31257"><ele>1147.1</ele></trkpt><trkpt lat="47.475982" lon="11.313019"><ele>1150.7</ele></trkpt><trkpt lat="47.476497" lon="11.314198"><ele>1153.5</ele></trkpt><trkpt lat="47.476508" lon="11.314328"><ele>1153.6</ele></trkpt><trkpt lat="47.476499" lon="11.314429"><ele>1153.3</ele></trkpt><trkpt lat="47.476451" lon="11.314514"><ele>1153</ele></trkpt><trkpt lat="47.476387" lon="11.314556"><ele>1152.7</ele></trkpt><trkpt lat="47.476261" lon="11.314579"><ele>1152.6</ele></trkpt><trkpt lat="47.476085" lon="11.31456"><ele>1152.6</ele></trkpt><trkpt lat="47.475861" lon="11.314452"><ele>1153.1</ele></trkpt><trkpt lat="47.475758" lon="11.314437"><ele>1152.3</ele></trkpt><trkpt lat="47.475663" lon="11.314442"><ele>1151.6</ele></trkpt><trkpt lat="47.475508" lon="11.314504"><ele>1150.5</ele></trkpt><trkpt lat="47.475246" lon="11.31453"><ele>1149.2</ele></trkpt><trkpt lat="47.475191" lon="11.314556"><ele>1148</ele></trkpt><trkpt lat="47.475154" lon="11.314625"><ele>1146.2</ele></trkpt><trkpt lat="47.475059" lon="11.315296"><ele>1148.8</ele></trkpt><trkpt lat="47.475046" lon="11.315563"><ele>1150.1</ele></trkpt><trkpt lat="47.475068" lon="11.316615"><ele>1161.4</ele></trkpt><trkpt lat="47.475048" lon="11.316807"><ele>1166.2</ele></trkpt><trkpt lat="47.474971" lon="11.316979"><ele>1167.2</ele></trkpt><trkpt lat="47.474839" lon="11.317169"><ele>1165.8</ele></trkpt><trkpt lat="47.474758" lon="11.31738"><ele>1165.1</ele></trkpt><trkpt lat="47.474635" lon="11.317608"><ele>1166.6</ele></trkpt><trkpt lat="47.474258" lon="11.318102"><ele>1169.7</ele></trkpt><trkpt lat="47.474168" lon="11.318331"><ele>1168.3</ele></trkpt><trkpt lat="47.474126" lon="11.318575"><ele>1170.4</ele></trkpt><trkpt lat="47.474081" lon="11.319329"><ele>1176.7</ele></trkpt><trkpt lat="47.474022" lon="11.319907"><ele>1176.5</ele></trkpt><trkpt lat="47.474018" lon="11.320047"><ele>1176.8</ele></trkpt><trkpt lat="47.474059" lon="11.320231"><ele>1177.4</ele></trkpt><trkpt lat="47.474059" lon="11.320351"><ele>1178.1</ele></trkpt><trkpt lat="47.474028" lon="11.320494"><ele>1180.1</ele></trkpt><trkpt lat="47.47394" lon="11.320647"><ele>1183.6</ele></trkpt><trkpt lat="47.473875" lon="11.320799"><ele>1185.5</ele></trkpt><trkpt lat="47.473872" lon="11.321084"><ele>1190.5</ele></trkpt><trkpt lat="47.473907" lon="11.321285"><ele>1192.9</ele></trkpt><trkpt lat="47.473909" lon="11.321401"><ele>1194.5</ele></trkpt><trkpt lat="47.473721" lon="11.322761"><ele>1221.9</ele></trkpt><trkpt lat="47.473673" lon="11.322957"><ele>1227.2</ele></trkpt><trkpt lat="47.473459" lon="11.323592"><ele>1238</ele></trkpt><trkpt lat="47.473362" lon="11.323783"><ele>1239.7</ele></trkpt><trkpt lat="47.473026" lon="11.324067"><ele>1242.5</ele></trkpt><trkpt lat="47.472957" lon="11.324175"><ele>1247.5</ele></trkpt><trkpt lat="47.472331" lon="11.325669"><ele>1263.9</ele></trkpt><trkpt lat="47.472294" lon="11.325799"><ele>1268</ele></trkpt><trkpt lat="47.472288" lon="11.325886"><ele>1267.6</ele></trkpt><trkpt lat="47.47235" lon="11.32645"><ele>1271.1</ele></trkpt><trkpt lat="47.472455" lon="11.32691"><ele>1273.1</ele></trkpt><trkpt lat="47.472452" lon="11.327102"><ele>1273.9</ele></trkpt><trkpt lat="47.472426" lon="11.327167"><ele>1274.3</ele></trkpt><trkpt lat="47.472001" lon="11.327617"><ele>1280</ele></trkpt><trkpt lat="47.471875" lon="11.327834"><ele>1286.8</ele></trkpt><trkpt lat="47.4718" lon="11.328067"><ele>1288.4</ele></trkpt><trkpt lat="47.471734" lon="11.328485"><ele>1290.9</ele></trkpt><trkpt lat="47.471688" lon="11.32937"><ele>1296.2</ele></trkpt><trkpt lat="47.471693" lon="11.329544"><ele>1297.1</ele></trkpt><trkpt lat="47.471677" lon="11.329666"><ele>1298.5</ele></trkpt><trkpt lat="47.471635" lon="11.329799"><ele>1296.7</ele></trkpt><trkpt lat="47.471535" lon="11.330022"><ele>1294.9</ele></trkpt><trkpt lat="47.471484" lon="11.330254"><ele>1294.6</ele></trkpt><trkpt lat="47.471376" lon="11.330518"><ele>1293.9</ele></trkpt><trkpt lat="47.471178" lon="11.330895"><ele>1309</ele></trkpt><trkpt lat="47.470847" lon="11.331563"><ele>1312.4</ele></trkpt><trkpt lat="47.47074" lon="11.331837"><ele>1310.5</ele></trkpt><trkpt lat="47.470395" lon="11.332741"><ele>1324.4</ele></trkpt><trkpt lat="47.470263" lon="11.333158"><ele>1337.6</ele></trkpt><trkpt lat="47.47005" lon="11.33383"><ele>1350.8</ele></trkpt><trkpt lat="47.469947" lon="11.334085"><ele>1349.5</ele></trkpt><trkpt lat="47.469458" lon="11.335011"><ele>1358.6</ele></trkpt><trkpt lat="47.469375" lon="11.335242"><ele>1359.9</ele></trkpt><trkpt lat="47.469339" lon="11.335444"><ele>1361.5</ele></trkpt><trkpt lat="47.469342" lon="11.335884"><ele>1367.4</ele></trkpt><trkpt lat="47.469319" lon="11.336066"><ele>1368.3</ele></trkpt><trkpt lat="47.469225" lon="11.336629"><ele>1369.3</ele></trkpt><trkpt lat="47.469126" lon="11.337044"><ele>1369.5</ele></trkpt><trkpt lat="47.468983" lon="11.337335"><ele>1369.3</ele></trkpt><trkpt lat="47.46878" lon="11.337565"><ele>1370.8</ele></trkpt><trkpt lat="47.468724" lon="11.337662"><ele>1370.7</ele></trkpt><trkpt lat="47.468546" lon="11.338543"><ele>1373.3</ele></trkpt><trkpt lat="47.468505" lon="11.338648"><ele>1374.1</ele></trkpt><trkpt lat="47.468338" lon="11.33894"><ele>1377.5</ele></trkpt><trkpt lat="47.468261" lon="11.339368"><ele>1381</ele></trkpt><trkpt lat="47.468085" lon="11.33985"><ele>1382.8</ele></trkpt><trkpt lat="47.467986" lon="11.340018"><ele>1384.4</ele></trkpt><trkpt lat="47.467678" lon="11.340433"><ele>1384.8</ele></trkpt><trkpt lat="47.467552" lon="11.340666"><ele>1392</ele></trkpt><trkpt lat="47.467338" lon="11.341198"><ele>1398.6</ele></trkpt><trkpt lat="47.467074" lon="11.342681"><ele>1402.8</ele></trkpt><trkpt lat="47.466902" lon="11.34319"><ele>1404.5</ele></trkpt><trkpt lat="47.466674" lon="11.343962"><ele>1406.5</ele></trkpt><trkpt lat="47.466597" lon="11.344182"><ele>1408</ele></trkpt><trkpt lat="47.466364" lon="11.344571"><ele>1409</ele></trkpt><trkpt lat="47.466186" lon="11.344983"><ele>1411</ele></trkpt><trkpt lat="47.466136" lon="11.345156"><ele>1420.2</ele></trkpt><trkpt lat="47.466113" lon="11.345318"><ele>1420.6</ele></trkpt><trkpt lat="47.466106" lon="11.345534"><ele>1421</ele></trkpt><trkpt lat="47.466127" lon="11.345704"><ele>1420.7</ele></trkpt><trkpt lat="47.466162" lon="11.345902"><ele>1421.5</ele></trkpt><trkpt lat="47.46643" lon="11.346918"><ele>1424.7</ele></trkpt><trkpt lat="47.46649" lon="11.347321"><ele>1427.1</ele></trkpt><trkpt lat="47.466611" lon="11.347817"><ele>1427.6</ele></trkpt><trkpt lat="47.466585" lon="11.34815"><ele>1428.4</ele></trkpt><trkpt lat="47.466486" lon="11.348589"><ele>1442</ele></trkpt><trkpt lat="47.466461" lon="11.348935"><ele>1441.7</ele></trkpt><trkpt lat="47.466462" lon="11.349248"><ele>1441.7</ele></trkpt><trkpt lat="47.466513" lon="11.349765"><ele>1441.8</ele></trkpt><trkpt lat="47.466522" lon="11.350233"><ele>1441.7</ele></trkpt><trkpt lat="47.466573" lon="11.350473"><ele>1441</ele></trkpt><trkpt lat="47.466975" lon="11.350781"><ele>1428.9</ele></trkpt><trkpt lat="47.467082" lon="11.350826"><ele>1427.4</ele></trkpt><trkpt lat="47.467121" lon="11.350804"><ele>1424</ele></trkpt><trkpt lat="47.46715" lon="11.351085"><ele>1420.5</ele></trkpt><trkpt lat="47.467064" lon="11.351322"><ele>1420.4</ele></trkpt><trkpt lat="47.467035" lon="11.351452"><ele>1420.4</ele></trkpt><trkpt lat="47.467033" lon="11.351675"><ele>1415</ele></trkpt><trkpt lat="47.467231" lon="11.352029"><ele>1411.5</ele></trkpt><trkpt lat="47.468067" lon="11.353742"><ele>1405.7</ele></trkpt><trkpt lat="47.468266" lon="11.354064"><ele>1405.9</ele></trkpt><trkpt lat="47.46831" lon="11.354106"><ele>1405</ele></trkpt><trkpt lat="47.468417" lon="11.353667"><ele>1413</ele></trkpt><trkpt lat="47.468583" lon="11.353407"><ele>1414.9</ele></trkpt><trkpt lat="47.468756" lon="11.353096"><ele>1429.8</ele></trkpt><trkpt lat="47.468945" lon="11.352608"><ele>1434.4</ele></trkpt><trkpt lat="47.469109" lon="11.352185"><ele>1439.1</ele></trkpt><trkpt lat="47.469094" lon="11.351753"><ele>1443.7</ele></trkpt><trkpt lat="47.469143" lon="11.351276"><ele>1447.9</ele></trkpt><trkpt lat="47.469164" lon="11.351302"><ele>1450.1</ele></trkpt><trkpt lat="47.469257" lon="11.351603"><ele>1453.3</ele></trkpt><trkpt lat="47.469295" lon="11.351667"><ele>1453.4</ele></trkpt><trkpt lat="47.469392" lon="11.351747"><ele>1455.8</ele></trkpt><trkpt lat="47.469416" lon="11.351748"><ele>1456.1</ele></trkpt><trkpt lat="47.46938" lon="11.351636"><ele>1456.9</ele></trkpt><trkpt lat="47.469376" lon="11.351543"><ele>1457.1</ele></trkpt><trkpt lat="47.469388" lon="11.351119"><ele>1459.4</ele></trkpt><trkpt lat="47.469417" lon="11.351138"><ele>1459.7</ele></trkpt><trkpt lat="47.469465" lon="11.351256"><ele>1460</ele></trkpt><trkpt lat="47.469516" lon="11.351314"><ele>1461.1</ele></trkpt><trkpt lat="47.46981" lon="11.351565"><ele>1466.7</ele></trkpt><trkpt lat="47.469841" lon="11.35157"><ele>1467.2</ele></trkpt><trkpt lat="47.469869" lon="11.35154"><ele>1467.6</ele></trkpt><trkpt lat="47.470092" lon="11.350964"><ele>1469.9</ele></trkpt><trkpt lat="47.47015" lon="11.350886"><ele>1470.5</ele></trkpt><trkpt lat="47.470448" lon="11.35072"><ele>1473.6</ele></trkpt><trkpt lat="47.470471" lon="11.350742"><ele>1473.8</ele></trkpt><trkpt lat="47.470495" lon="11.35082"><ele>1473.5</ele></trkpt><trkpt lat="47.470524" lon="11.350843"><ele>1474.3</ele></trkpt><trkpt lat="47.470551" lon="11.350823"><ele>1474.8</ele></trkpt><trkpt lat="47.47063" lon="11.350615"><ele>1477.7</ele></trkpt><trkpt lat="47.470631" lon="11.350209"><ele>1480.5</ele></trkpt><trkpt lat="47.470641" lon="11.350173"><ele>1481.1</ele></trkpt><trkpt lat="47.470691" lon="11.35018"><ele>1480.6</ele></trkpt><trkpt lat="47.470857" lon="11.350346"><ele>1479.1</ele></trkpt><trkpt lat="47.470865" lon="11.35033"><ele>1477.9</ele></trkpt><trkpt lat="47.470831" lon="11.350105"><ele>1478.1</ele></trkpt><trkpt lat="47.470839" lon="11.350075"><ele>1506</ele></trkpt><trkpt lat="47.471266" lon="11.350582"><ele>1503.7</ele></trkpt><trkpt lat="47.471336" lon="11.350801"><ele>1503.6</ele></trkpt><trkpt lat="47.471368" lon="11.351101"><ele>1503.4</ele></trkpt><trkpt lat="47.471352" lon="11.351368"><ele>1503.4</ele></trkpt><trkpt lat="47.471232" lon="11.351914"><ele>1503.7</ele></trkpt><trkpt lat="47.471227" lon="11.352068"><ele>1503.9</ele></trkpt><trkpt lat="47.47126" lon="11.352205"><ele>1506.3</ele></trkpt><trkpt lat="47.471283" lon="11.352297"><ele>1508.7</ele></trkpt><trkpt lat="47.471334" lon="11.35234"><ele>1514.6</ele></trkpt><trkpt lat="47.471649" lon="11.353251"><ele>1531.9</ele></trkpt><trkpt lat="47.471638" lon="11.353319"><ele>1536.4</ele></trkpt><trkpt lat="47.471522" lon="11.353583"><ele>1537.7</ele></trkpt><trkpt lat="47.471492" lon="11.353936"><ele>1542.3</ele></trkpt><trkpt lat="47.471576" lon="11.353993"><ele>1543.6</ele></trkpt><trkpt lat="47.4716" lon="11.354051"><ele>1548.8</ele></trkpt><trkpt lat="47.471491" lon="11.354211"><ele>1550.3</ele></trkpt><trkpt lat="47.471573" lon="11.354229"><ele>1551.2</ele></trkpt><trkpt lat="47.471803" lon="11.353944"><ele>1552.1</ele></trkpt><trkpt lat="47.472158" lon="11.353828"><ele>1551.5</ele></trkpt><trkpt lat="47.472325" lon="11.353614"><ele>1549.5</ele></trkpt><trkpt lat="47.472365" lon="11.353598"><ele>1549.3</ele></trkpt><trkpt lat="47.472431" lon="11.353524"><ele>1550.6</ele></trkpt><trkpt lat="47.472456" lon="11.353555"><ele>1550.5</ele></trkpt><trkpt lat="47.472397" lon="11.353713"><ele>1550.3</ele></trkpt><trkpt lat="47.472385" lon="11.353922"><ele>1553.5</ele></trkpt><trkpt lat="47.472337" lon="11.354293"><ele>1559.3</ele></trkpt><trkpt lat="47.472234" lon="11.35483"><ele>1559.8</ele></trkpt><trkpt lat="47.472146" lon="11.35512"><ele>1563.5</ele></trkpt><trkpt lat="47.472043" lon="11.355739"><ele>1590.4</ele></trkpt><trkpt lat="47.472005" lon="11.355891"><ele>1592.7</ele></trkpt><trkpt lat="47.472019" lon="11.3565"><ele>1599.3</ele></trkpt><trkpt lat="47.47217" lon="11.35697"><ele>1603.8</ele></trkpt><trkpt lat="47.472177" lon="11.357247"><ele>1613</ele></trkpt><trkpt lat="47.472234" lon="11.357487"><ele>1616.1</ele></trkpt><trkpt lat="47.472337" lon="11.357244"><ele>1616.4</ele></trkpt><trkpt lat="47.472391" lon="11.357633"><ele>1618.3</ele></trkpt><trkpt lat="47.472401" lon="11.357933"><ele>1623.3</ele></trkpt><trkpt lat="47.472378" lon="11.358151"><ele>1627</ele></trkpt><trkpt lat="47.472293" lon="11.358389"><ele>1627.9</ele></trkpt><trkpt lat="47.472339" lon="11.358601"><ele>1630.7</ele></trkpt><trkpt lat="47.472377" lon="11.358692"><ele>1631.9</ele></trkpt><trkpt lat="47.472463" lon="11.35876"><ele>1632.9</ele></trkpt><trkpt lat="47.472639" lon="11.359002"><ele>1635.5</ele></trkpt><trkpt lat="47.472674" lon="11.359009"><ele>1634</ele></trkpt><trkpt lat="47.472777" lon="11.3591"><ele>1636.7</ele></trkpt><trkpt lat="47.472888" lon="11.359234"><ele>1640.6</ele></trkpt><trkpt lat="47.473035" lon="11.359621"><ele>1653.8</ele></trkpt><trkpt lat="47.473062" lon="11.359837"><ele>1659.4</ele></trkpt><trkpt lat="47.473119" lon="11.360013"><ele>1664.5</ele></trkpt><trkpt lat="47.473248" lon="11.360203"><ele>1670.2</ele></trkpt><trkpt lat="47.473322" lon="11.360439"><ele>1678.4</ele></trkpt><trkpt lat="47.473307" lon="11.360691"><ele>1681.7</ele></trkpt><trkpt lat="47.473339" lon="11.360854"><ele>1687.3</ele></trkpt><trkpt lat="47.473391" lon="11.36098"><ele>1698.4</ele></trkpt><trkpt lat="47.47345" lon="11.361061"><ele>1701.2</ele></trkpt><trkpt lat="47.473454" lon="11.361194"><ele>1710.9</ele></trkpt><trkpt lat="47.473481" lon="11.361363"><ele>1711.1</ele></trkpt><trkpt lat="47.473442" lon="11.361473"><ele>1711.4</ele></trkpt><trkpt lat="47.473359" lon="11.361506"><ele>1711.7</ele></trkpt><trkpt lat="47.473363" lon="11.36169"><ele>1713.3</ele></trkpt><trkpt lat="47.473397" lon="11.361726"><ele>1713.5</ele></trkpt><trkpt lat="47.473419" lon="11.361847"><ele>1715</ele></trkpt><trkpt lat="47.473512" lon="11.361936"><ele>1716.5</ele></trkpt><trkpt lat="47.473578" lon="11.362043"><ele>1716.8</ele></trkpt><trkpt lat="47.473576" lon="11.362174"><ele>1718.3</ele></trkpt><trkpt lat="47.473636" lon="11.362161"><ele>1718.7</ele></trkpt><trkpt lat="47.473704" lon="11.362193"><ele>1719.1</ele></trkpt><trkpt lat="47.473724" lon="11.36243"><ele>1720.5</ele></trkpt><trkpt lat="47.473708" lon="11.362532"><ele>1721</ele></trkpt><trkpt lat="47.473515" lon="11.362862"><ele>1723.3</ele></trkpt><trkpt lat="47.473523" lon="11.362897"><ele>1723.8</ele></trkpt><trkpt lat="47.473721" lon="11.362844"><ele>1724.3</ele></trkpt><trkpt lat="47.473801" lon="11.362757"><ele>1724.9</ele></trkpt><trkpt lat="47.473961" lon="11.362695"><ele>1725.5</ele></trkpt><trkpt lat="47.474014" lon="11.362399"><ele>1725.1</ele></trkpt><trkpt lat="47.474056" lon="11.36235"><ele>1724.6</ele></trkpt><trkpt lat="47.474127" lon="11.362312"><ele>1726.3</ele></trkpt><trkpt lat="47.47416" lon="11.362212"><ele>1725.8</ele></trkpt><trkpt lat="47.474188" lon="11.361811"><ele>1725.4</ele></trkpt><trkpt lat="47.474205" lon="11.361806"><ele>1724.9</ele></trkpt><trkpt lat="47.474273" lon="11.362195"><ele>1726.6</ele></trkpt><trkpt lat="47.474275" lon="11.3625"><ele>1727.8</ele></trkpt><trkpt lat="47.474242" lon="11.362772"><ele>1728</ele></trkpt><trkpt lat="47.474254" lon="11.362798"><ele>1727.2</ele></trkpt><trkpt lat="47.474281" lon="11.362694"><ele>1726.4</ele></trkpt><trkpt lat="47.474409" lon="11.362527"><ele>1725.6</ele></trkpt><trkpt lat="47.474422" lon="11.362438"><ele>1724.2</ele></trkpt><trkpt lat="47.474534" lon="11.362259"><ele>1724.2</ele></trkpt><trkpt lat="47.474562" lon="11.362057"><ele>1723</ele></trkpt><trkpt lat="47.474554" lon="11.36188"><ele>1721.8</ele></trkpt><trkpt lat="47.474585" lon="11.361875"><ele>1747</ele></trkpt><trkpt lat="47.474617" lon="11.361943"><ele>1755.9</ele></trkpt><trkpt lat="47.47465" lon="11.36208"><ele>1756.9</ele></trkpt><trkpt lat="47.474647" lon="11.362289"><ele>1758</ele></trkpt><trkpt lat="47.474793" lon="11.362554"><ele>1759.2</ele></trkpt><trkpt lat="47.474737" lon="11.3627"><ele>1759.4</ele></trkpt><trkpt lat="47.474731" lon="11.362775"><ele>1759.7</ele></trkpt><trkpt lat="47.474747" lon="11.362853"><ele>1760</ele></trkpt><trkpt lat="47.474771" lon="11.362869"><ele>1787</ele></trkpt><trkpt lat="47.474825" lon="11.362853"><ele>1793</ele></trkpt><trkpt lat="47.474868" lon="11.36281"><ele>1794.9</ele></trkpt><trkpt lat="47.474955" lon="11.362806"><ele>1796.9</ele></trkpt><trkpt lat="47.474926" lon="11.36275"><ele>1798.3</ele></trkpt><trkpt lat="47.474929" lon="11.362727"><ele>1799.8</ele></trkpt><trkpt lat="47.475002" lon="11.362691"><ele>1801.3</ele></trkpt><trkpt lat="47.475011" lon="11.362657"><ele>1801.2</ele></trkpt><trkpt lat="47.475063" lon="11.362662"><ele>1801</ele></trkpt><trkpt lat="47.47507" lon="11.362687"><ele>1800.9</ele></trkpt><trkpt lat="47.475109" lon="11.362695"><ele>1800.8</ele></trkpt><trkpt lat="47.475095" lon="11.362585"><ele>1801.2</ele></trkpt><trkpt lat="47.47516" lon="11.362606"><ele>1801.1</ele></trkpt><trkpt lat="47.475182" lon="11.362551"><ele>1801</ele></trkpt><trkpt lat="47.475297" lon="11.36252"><ele>1803.1</ele></trkpt><trkpt lat="47.47539" lon="11.362609"><ele>1803</ele></trkpt><trkpt lat="47.475508" lon="11.362596"><ele>1803.6</ele></trkpt><trkpt lat="47.475431" lon="11.362457"><ele>1803.8</ele></trkpt><trkpt lat="47.475541" lon="11.362458"><ele>1804.2</ele></trkpt><trkpt lat="47.475563" lon="11.362433"><ele>1804.4</ele></trkpt><trkpt lat="47.475562" lon="11.362401"><ele>1804.6</ele></trkpt><trkpt lat="47.475489" lon="11.362311"><ele>1804.9</ele></trkpt><trkpt lat="47.475455" lon="11.362225"><ele>1805.3</ele></trkpt><trkpt lat="47.475501" lon="11.362205"><ele>1805.6</ele></trkpt><trkpt lat="47.475548" lon="11.362214"><ele>1806.5</ele></trkpt><trkpt lat="47.475564" lon="11.362192"><ele>1812.1</ele></trkpt><trkpt lat="47.475544" lon="11.362162"><ele>1812.3</ele></trkpt><trkpt lat="47.475556" lon="11.362016"><ele>1812.9</ele></trkpt><trkpt lat="47.475619" lon="11.361897"><ele>1816.2</ele></trkpt><trkpt lat="47.475721" lon="11.36186"><ele>1818.2</ele></trkpt><trkpt lat="47.475724" lon="11.361773"><ele>1819.5</ele></trkpt><trkpt lat="47.475755" lon="11.361707"><ele>1819.9</ele></trkpt><trkpt lat="47.475848" lon="11.36169"><ele>1821.2</ele></trkpt><trkpt lat="47.475865" lon="11.361663"><ele>1821.5</ele></trkpt><trkpt lat="47.47597" lon="11.361679"><ele>1821.4</ele></trkpt><trkpt lat="47.476066" lon="11.361664"><ele>1824.7</ele></trkpt><trkpt lat="47.476257" lon="11.361588"><ele>1829.7</ele></trkpt><trkpt lat="47.476371" lon="11.361481"><ele>1832.6</ele></trkpt><trkpt lat="47.476393" lon="11.361387"><ele>1835.1</ele></trkpt><trkpt lat="47.476501" lon="11.361254"><ele>1837.6</ele></trkpt><trkpt lat="47.47663" lon="11.361041"><ele>1856.7</ele></trkpt><trkpt lat="47.476638" lon="11.361002"><ele>1857.8</ele></trkpt><trkpt lat="47.476435" lon="11.360996"><ele>1850.9</ele></trkpt><trkpt lat="47.476477" lon="11.360907"><ele>1856.2</ele></trkpt><trkpt lat="47.476414" lon="11.360905"><ele>1851.9</ele></trkpt><trkpt lat="47.476576" lon="11.360687"><ele>1868.2</ele></trkpt><trkpt lat="47.476448" lon="11.360668"><ele>1866.1</ele></trkpt><trkpt lat="47.476559" lon="11.360559"><ele>1868.1</ele></trkpt><trkpt lat="47.476433" lon="11.360463"><ele>1868</ele></trkpt><trkpt lat="47.476501" lon="11.360371"><ele>1869</ele></trkpt><trkpt lat="47.47645" lon="11.360181"><ele>1870</ele></trkpt><trkpt lat="47.476506" lon="11.36021"><ele>1871.1</ele></trkpt><trkpt lat="47.47653" lon="11.360024"><ele>1874.5</ele></trkpt><trkpt lat="47.476517" lon="11.359852"><ele>1881.3</ele></trkpt><trkpt lat="47.476654" lon="11.360019"><ele>1878.2</ele></trkpt><trkpt lat="47.476615" lon="11.359787"><ele>1882.7</ele></trkpt><trkpt lat="47.476604" lon="11.359573"><ele>1904.5</ele></trkpt><trkpt lat="47.476651" lon="11.359481"><ele>1910.7</ele></trkpt><trkpt lat="47.476804" lon="11.359717"><ele>1910.1</ele></trkpt><trkpt lat="47.476821" lon="11.359284"><ele>1934.2</ele></trkpt><trkpt lat="47.476873" lon="11.359291"><ele>1935.8</ele></trkpt><trkpt lat="47.476988" lon="11.359505"><ele>1935.4</ele></trkpt><trkpt lat="47.477013" lon="11.359513"><ele>1936.9</ele></trkpt><trkpt lat="47.477051" lon="11.359233"><ele>1941.4</ele></trkpt><trkpt lat="47.477139" lon="11.35937"><ele>1942.8</ele></trkpt><trkpt lat="47.477192" lon="11.359173"><ele>1961.3</ele></trkpt><trkpt lat="47.477277" lon="11.359304"><ele>1961.8</ele></trkpt><trkpt lat="47.477298" lon="11.359213"><ele>1962.3</ele></trkpt><trkpt lat="47.477363" lon="11.359264"><ele>1964.8</ele></trkpt><trkpt lat="47.477625" lon="11.358294"><ele>2007.3</ele></trkpt><trkpt lat="47.477639" lon="11.358305"><ele>2008.3</ele></trkpt><trkpt lat="47.477683" lon="11.358541"><ele>2008</ele></trkpt><trkpt lat="47.477698" lon="11.358556"><ele>2007.8</ele></trkpt><trkpt lat="47.477761" lon="11.358348"><ele>2011.7</ele></trkpt><trkpt lat="47.477803" lon="11.358351"><ele>2015.7</ele></trkpt><trkpt lat="47.477834" lon="11.358542"><ele>2011.4</ele></trkpt><trkpt lat="47.4779" lon="11.358725"><ele>2013.2</ele></trkpt><trkpt lat="47.477923" lon="11.358713"><ele>2013</ele></trkpt><trkpt lat="47.477963" lon="11.358522"><ele>2021.2</ele></trkpt><trkpt lat="47.477978" lon="11.358505"><ele>2023.2</ele></trkpt><trkpt lat="47.477994" lon="11.358516"><ele>2023.2</ele></trkpt><trkpt lat="47.478027" lon="11.358667"><ele>2023.3</ele></trkpt><trkpt lat="47.478122" lon="11.358577"><ele>2027</ele></trkpt><trkpt lat="47.47822" lon="11.358673"><ele>2032.8</ele></trkpt><trkpt lat="47.478265" lon="11.358462"><ele>2035.3</ele></trkpt><trkpt lat="47.478294" lon="11.358389"><ele>2037.5</ele></trkpt><trkpt lat="47.478463" lon="11.358193"><ele>2048.3</ele></trkpt><trkpt lat="47.478501" lon="11.358186"><ele>2051.2</ele></trkpt><trkpt lat="47.478577" lon="11.358242"><ele>2052.1</ele></trkpt><trkpt lat="47.478611" lon="11.358235"><ele>2053.2</ele></trkpt><trkpt lat="47.478688" lon="11.358153"><ele>2054.3</ele></trkpt><trkpt lat="47.478722" lon="11.358151"><ele>2054.1</ele></trkpt><trkpt lat="47.478747" lon="11.358174"><ele>2053.9</ele></trkpt><trkpt lat="47.478771" lon="11.358263"><ele>2053.7</ele></trkpt><trkpt lat="47.478792" lon="11.358278"><ele>2053.4</ele></trkpt><trkpt lat="47.478947" lon="11.358228"><ele>2059.4</ele></trkpt><trkpt lat="47.478981" lon="11.358234"><ele>2061.3</ele></trkpt><trkpt lat="47.479045" lon="11.358288"><ele>2065.7</ele></trkpt><trkpt lat="47.479236" lon="11.35807"><ele>2086.9</ele></trkpt><trkpt lat="47.479249" lon="11.357975"><ele>2088.7</ele></trkpt><trkpt lat="47.479353" lon="11.357971"><ele>2098.1</ele></trkpt><trkpt lat="47.47945" lon="11.357899"><ele>2099.2</ele></trkpt><trkpt lat="47.479596" lon="11.357724"><ele>2113.3</ele></trkpt><trkpt lat="47.479791" lon="11.357701"><ele>2124.6</ele></trkpt><trkpt lat="47.479885" lon="11.357613"><ele>2135</ele></trkpt><trkpt lat="47.479972" lon="11.357562"><ele>2140.2</ele></trkpt><trkpt lat="47.480056" lon="11.357452"><ele>2152</ele></trkpt><trkpt lat="47.480108" lon="11.357428"><ele>2154.3</ele></trkpt><trkpt lat="47.48016" lon="11.357445"><ele>2155.4</ele></trkpt><trkpt lat="47.480371" lon="11.357682"><ele>2164.7</ele></trkpt><trkpt lat="47.480382" lon="11.35766"><ele>2164.6</ele></trkpt><trkpt lat="47.48037" lon="11.357331"><ele>2164.5</ele></trkpt><trkpt lat="47.480425" lon="11.357158"><ele>2164.6</ele></trkpt><trkpt lat="47.480463" lon="11.357157"><ele>2168.5</ele></trkpt><trkpt lat="47.480613" lon="11.357468"><ele>2172.9</ele></trkpt><trkpt lat="47.48063" lon="11.35745"><ele>2173.2</ele></trkpt><trkpt lat="47.480721" lon="11.357077"><ele>2177.4</ele></trkpt><trkpt lat="47.480742" lon="11.357068"><ele>2178.2</ele></trkpt><trkpt lat="47.480921" lon="11.35735"><ele>2178.6</ele></trkpt><trkpt lat="47.481093" lon="11.357548"><ele>2180.6</ele></trkpt><trkpt lat="47.481105" lon="11.357546"><ele>2179.8</ele></trkpt><trkpt lat="47.481114" lon="11.357311"><ele>2178.1</ele></trkpt><trkpt lat="47.481144" lon="11.357104"><ele>2179.3</ele></trkpt><trkpt lat="47.481224" lon="11.357223"><ele>2178.8</ele></trkpt><trkpt lat="47.481299" lon="11.357252"><ele>2177.8</ele></trkpt><trkpt lat="47.481419" lon="11.357348"><ele>2177.8</ele></trkpt><trkpt lat="47.481432" lon="11.357324"><ele>2176.8</ele></trkpt><trkpt lat="47.48145" lon="11.35711"><ele>2176.4</ele></trkpt><trkpt lat="47.481551" lon="11.357109"><ele>2210</ele></trkpt><trkpt lat="47.481551" lon="11.357107"><ele>2202.4</ele></trkpt><trkpt lat="47.481551" lon="11.357109"><ele>2210</ele></trkpt><trkpt lat="47.48145" lon="11.35711"><ele>2176.4</ele></trkpt><trkpt lat="47.481432" lon="11.357324"><ele>2176.8</ele></trkpt><trkpt lat="47.481419" lon="11.357348"><ele>2177.8</ele></trkpt><trkpt lat="47.481299" lon="11.357252"><ele>2177.8</ele></trkpt><trkpt lat="47.481224" lon="11.357223"><ele>2178.8</ele></trkpt><trkpt lat="47.481144" lon="11.357104"><ele>2179.3</ele></trkpt><trkpt lat="47.481114" lon="11.357311"><ele>2178.1</ele></trkpt><trkpt lat="47.481105" lon="11.357546"><ele>2179.8</ele></trkpt><trkpt lat="47.481093" lon="11.357548"><ele>2180.6</ele></trkpt><trkpt lat="47.480921" lon="11.35735"><ele>2178.6</ele></trkpt><trkpt lat="47.480742" lon="11.357068"><ele>2178.2</ele></trkpt><trkpt lat="47.480721" lon="11.357077"><ele>2177.4</ele></trkpt><trkpt lat="47.48063" lon="11.35745"><ele>2173.2</ele></trkpt><trkpt lat="47.480613" lon="11.357468"><ele>2172.9</ele></trkpt><trkpt lat="47.480463" lon="11.357157"><ele>2168.5</ele></trkpt><trkpt lat="47.480425" lon="11.357158"><ele>2164.6</ele></trkpt><trkpt lat="47.48037" lon="11.357331"><ele>2164.5</ele></trkpt><trkpt lat="47.480382" lon="11.35766"><ele>2164.6</ele></trkpt><trkpt lat="47.480371" lon="11.357682"><ele>2164.7</ele></trkpt><trkpt lat="47.48016" lon="11.357445"><ele>2155.4</ele></trkpt><trkpt lat="47.480108" lon="11.357428"><ele>2154.3</ele></trkpt><trkpt lat="47.480056" lon="11.357452"><ele>2152</ele></trkpt><trkpt lat="47.479972" lon="11.357562"><ele>2140.2</ele></trkpt><trkpt lat="47.479885" lon="11.357613"><ele>2135</ele></trkpt><trkpt lat="47.479791" lon="11.357701"><ele>2124.6</ele></trkpt><trkpt lat="47.479596" lon="11.357724"><ele>2113.3</ele></trkpt><trkpt lat="47.47945" lon="11.357899"><ele>2099.2</ele></trkpt><trkpt lat="47.479353" lon="11.357971"><ele>2098.1</ele></trkpt><trkpt lat="47.479249" lon="11.357975"><ele>2088.7</ele></trkpt><trkpt lat="47.479236" lon="11.35807"><ele>2086.9</ele></trkpt><trkpt lat="47.479045" lon="11.358288"><ele>2065.7</ele></trkpt><trkpt lat="47.478981" lon="11.358234"><ele>2061.3</ele></trkpt><trkpt lat="47.478947" lon="11.358228"><ele>2059.4</ele></trkpt><trkpt lat="47.478792" lon="11.358278"><ele>2053.4</ele></trkpt><trkpt lat="47.478771" lon="11.358263"><ele>2053.7</ele></trkpt><trkpt lat="47.478747" lon="11.358174"><ele>2053.9</ele></trkpt><trkpt lat="47.478722" lon="11.358151"><ele>2054.1</ele></trkpt><trkpt lat="47.478688" lon="11.358153"><ele>2054.3</ele></trkpt><trkpt lat="47.478611" lon="11.358235"><ele>2053.2</ele></trkpt><trkpt lat="47.478577" lon="11.358242"><ele>2052.1</ele></trkpt><trkpt lat="47.478501" lon="11.358186"><ele>2051.2</ele></trkpt><trkpt lat="47.478463" lon="11.358193"><ele>2048.3</ele></trkpt><trkpt lat="47.478294" lon="11.358389"><ele>2037.5</ele></trkpt><trkpt lat="47.478265" lon="11.358462"><ele>2035.3</ele></trkpt><trkpt lat="47.47822" lon="11.358673"><ele>2032.8</ele></trkpt><trkpt lat="47.478122" lon="11.358577"><ele>2027</ele></trkpt><trkpt lat="47.478027" lon="11.358667"><ele>2023.3</ele></trkpt><trkpt lat="47.477994" lon="11.358516"><ele>2023.2</ele></trkpt><trkpt lat="47.477978" lon="11.358505"><ele>2023.2</ele></trkpt><trkpt lat="47.477963" lon="11.358522"><ele>2021.2</ele></trkpt><trkpt lat="47.477923" lon="11.358713"><ele>2013</ele></trkpt><trkpt lat="47.4779" lon="11.358725"><ele>2013.2</ele></trkpt><trkpt lat="47.477834" lon="11.358542"><ele>2011.4</ele></trkpt><trkpt lat="47.477803" lon="11.358351"><ele>2015.7</ele></trkpt><trkpt lat="47.477761" lon="11.358348"><ele>2011.7</ele></trkpt><trkpt lat="47.477698" lon="11.358556"><ele>2007.8</ele></trkpt><trkpt lat="47.477683" lon="11.358541"><ele>2008</ele></trkpt><trkpt lat="47.477639" lon="11.358305"><ele>2008.3</ele></trkpt><trkpt lat="47.477625" lon="11.358294"><ele>2007.3</ele></trkpt><trkpt lat="47.477363" lon="11.359264"><ele>1964.8</ele></trkpt><trkpt lat="47.477298" lon="11.359213"><ele>1962.3</ele></trkpt><trkpt lat="47.477277" lon="11.359304"><ele>1961.8</ele></trkpt><trkpt lat="47.477192" lon="11.359173"><ele>1961.3</ele></trkpt><trkpt lat="47.477139" lon="11.35937"><ele>1942.8</ele></trkpt><trkpt lat="47.477051" lon="11.359233"><ele>1941.4</ele></trkpt><trkpt lat="47.477013" lon="11.359513"><ele>1936.9</ele></trkpt><trkpt lat="47.476988" lon="11.359505"><ele>1935.4</ele></trkpt><trkpt lat="47.476873" lon="11.359291"><ele>1935.8</ele></trkpt><trkpt lat="47.476821" lon="11.359284"><ele>1934.2</ele></trkpt><trkpt lat="47.476804" lon="11.359717"><ele>1910.1</ele></trkpt><trkpt lat="47.476651" lon="11.359481"><ele>1910.7</ele></trkpt><trkpt lat="47.476604" lon="11.359573"><ele>1904.5</ele></trkpt><trkpt lat="47.476615" lon="11.359787"><ele>1882.7</ele></trkpt><trkpt lat="47.476654" lon="11.360019"><ele>1878.2</ele></trkpt><trkpt lat="47.476517" lon="11.359852"><ele>1881.3</ele></trkpt><trkpt lat="47.47653" lon="11.360024"><ele>1874.5</ele></trkpt><trkpt lat="47.476506" lon="11.36021"><ele>1871.1</ele></trkpt><trkpt lat="47.47645" lon="11.360181"><ele>1870</ele></trkpt><trkpt lat="47.476501" lon="11.360371"><ele>1869</ele></trkpt><trkpt lat="47.476433" lon="11.360463"><ele>1868</ele></trkpt><trkpt lat="47.476559" lon="11.360559"><ele>1868.1</ele></trkpt><trkpt lat="47.476448" lon="11.360668"><ele>1866.1</ele></trkpt><trkpt lat="47.476576" lon="11.360687"><ele>1868.2</ele></trkpt><trkpt lat="47.476414" lon="11.360905"><ele>1851.9</ele></trkpt><trkpt lat="47.476477" lon="11.360907"><ele>1856.2</ele></trkpt><trkpt lat="47.476435" lon="11.360996"><ele>1850.9</ele></trkpt><trkpt lat="47.476638" lon="11.361002"><ele>1857.8</ele></trkpt><trkpt lat="47.47663" lon="11.361041"><ele>1856.7</ele></trkpt><trkpt lat="47.476501" lon="11.361254"><ele>1837.6</ele></trkpt><trkpt lat="47.476393" lon="11.361387"><ele>1835.1</ele></trkpt><trkpt lat="47.476371" lon="11.361481"><ele>1832.6</ele></trkpt><trkpt lat="47.476257" lon="11.361588"><ele>1829.7</ele></trkpt><trkpt lat="47.476066" lon="11.361664"><ele>1824.7</ele></trkpt><trkpt lat="47.47597" lon="11.361679"><ele>1821.4</ele></trkpt><trkpt lat="47.475865" lon="11.361663"><ele>1821.5</ele></trkpt><trkpt lat="47.475848" lon="11.36169"><ele>1821.2</ele></trkpt><trkpt lat="47.475755" lon="11.361707"><ele>1819.9</ele></trkpt><trkpt lat="47.475724" lon="11.361773"><ele>1819.5</ele></trkpt><trkpt lat="47.475721" lon="11.36186"><ele>1818.2</ele></trkpt><trkpt lat="47.475619" lon="11.361897"><ele>1816.2</ele></trkpt><trkpt lat="47.475556" lon="11.362016"><ele>1812.9</ele></trkpt><trkpt lat="47.475544" lon="11.362162"><ele>1812.3</ele></trkpt><trkpt lat="47.475564" lon="11.362192"><ele>1812.1</ele></trkpt><trkpt lat="47.475548" lon="11.362214"><ele>1806.5</ele></trkpt><trkpt lat="47.475501" lon="11.362205"><ele>1805.6</ele></trkpt><trkpt lat="47.475455" lon="11.362225"><ele>1805.3</ele></trkpt><trkpt lat="47.475489" lon="11.362311"><ele>1804.9</ele></trkpt><trkpt lat="47.475562" lon="11.362401"><ele>1804.6</ele></trkpt><trkpt lat="47.475563" lon="11.362433"><ele>1804.4</ele></trkpt><trkpt lat="47.475541" lon="11.362458"><ele>1804.2</ele></trkpt><trkpt lat="47.475431" lon="11.362457"><ele>1803.8</ele></trkpt><trkpt lat="47.475508" lon="11.362596"><ele>1803.6</ele></trkpt><trkpt lat="47.47539" lon="11.362609"><ele>1803</ele></trkpt><trkpt lat="47.475297" lon="11.36252"><ele>1803.1</ele></trkpt><trkpt lat="47.475182" lon="11.362551"><ele>1801</ele></trkpt><trkpt lat="47.47516" lon="11.362606"><ele>1801.1</ele></trkpt><trkpt lat="47.475095" lon="11.362585"><ele>1801.2</ele></trkpt><trkpt lat="47.475109" lon="11.362695"><ele>1800.8</ele></trkpt><trkpt lat="47.47507" lon="11.362687"><ele>1800.9</ele></trkpt><trkpt lat="47.475063" lon="11.362662"><ele>1801</ele></trkpt><trkpt lat="47.475011" lon="11.362657"><ele>1801.2</ele></trkpt><trkpt lat="47.475002" lon="11.362691"><ele>1801.3</ele></trkpt><trkpt lat="47.474929" lon="11.362727"><ele>1799.8</ele></trkpt><trkpt lat="47.474926" lon="11.36275"><ele>1798.3</ele></trkpt><trkpt lat="47.474955" lon="11.362806"><ele>1796.9</ele></trkpt><trkpt lat="47.474868" lon="11.36281"><ele>1794.9</ele></trkpt><trkpt lat="47.474825" lon="11.362853"><ele>1793</ele></trkpt><trkpt lat="47.474771" lon="11.362869"><ele>1787</ele></trkpt><trkpt lat="47.474747" lon="11.362853"><ele>1760</ele></trkpt><trkpt lat="47.474731" lon="11.362775"><ele>1759.7</ele></trkpt><trkpt lat="47.474737" lon="11.3627"><ele>1759.4</ele></trkpt><trkpt lat="47.474793" lon="11.362554"><ele>1759.2</ele></trkpt><trkpt lat="47.474647" lon="11.362289"><ele>1758</ele></trkpt><trkpt lat="47.47465" lon="11.36208"><ele>1756.9</ele></trkpt><trkpt lat="47.474617" lon="11.361943"><ele>1755.9</ele></trkpt><trkpt lat="47.474585" lon="11.361875"><ele>1747</ele></trkpt><trkpt lat="47.474554" lon="11.36188"><ele>1721.8</ele></trkpt><trkpt lat="47.474562" lon="11.362057"><ele>1723</ele></trkpt><trkpt lat="47.474534" lon="11.362259"><ele>1724.2</ele></trkpt><trkpt lat="47.474422" lon="11.362438"><ele>1724.2</ele></trkpt><trkpt lat="47.474409" lon="11.362527"><ele>1725.6</ele></trkpt><trkpt lat="47.474281" lon="11.362694"><ele>1726.4</ele></trkpt><trkpt lat="47.474254" lon="11.362798"><ele>1727.2</ele></trkpt><trkpt lat="47.474242" lon="11.362772"><ele>1728</ele></trkpt><trkpt lat="47.474275" lon="11.3625"><ele>1727.8</ele></trkpt><trkpt lat="47.474273" lon="11.362195"><ele>1726.6</ele></trkpt><trkpt lat="47.474205" lon="11.361806"><ele>1724.9</ele></trkpt><trkpt lat="47.474188" lon="11.361811"><ele>1725.4</ele></trkpt><trkpt lat="47.47416" lon="11.362212"><ele>1725.8</ele></trkpt><trkpt lat="47.474127" lon="11.362312"><ele>1726.3</ele></trkpt><trkpt lat="47.474056" lon="11.36235"><ele>1724.6</ele></trkpt><trkpt lat="47.474014" lon="11.362399"><ele>1725.1</ele></trkpt><trkpt lat="47.473961" lon="11.362695"><ele>1725.5</ele></trkpt><trkpt lat="47.473801" lon="11.362757"><ele>1724.9</ele></trkpt><trkpt lat="47.473721" lon="11.362844"><ele>1724.3</ele></trkpt><trkpt lat="47.473523" lon="11.362897"><ele>1723.8</ele></trkpt><trkpt lat="47.473515" lon="11.362862"><ele>1723.3</ele></trkpt><trkpt lat="47.473708" lon="11.362532"><ele>1721</ele></trkpt><trkpt lat="47.473724" lon="11.36243"><ele>1720.5</ele></trkpt><trkpt lat="47.473704" lon="11.362193"><ele>1719.1</ele></trkpt><trkpt lat="47.473636" lon="11.362161"><ele>1718.7</ele></trkpt><trkpt lat="47.473576" lon="11.362174"><ele>1718.3</ele></trkpt><trkpt lat="47.473578" lon="11.362043"><ele>1716.8</ele></trkpt><trkpt lat="47.473512" lon="11.361936"><ele>1716.5</ele></trkpt><trkpt lat="47.473419" lon="11.361847"><ele>1715</ele></trkpt><trkpt lat="47.473397" lon="11.361726"><ele>1713.5</ele></trkpt><trkpt lat="47.473363" lon="11.36169"><ele>1713.3</ele></trkpt><trkpt lat="47.473359" lon="11.361506"><ele>1711.7</ele></trkpt><trkpt lat="47.473442" lon="11.361473"><ele>1711.4</ele></trkpt><trkpt lat="47.473481" lon="11.361363"><ele>1711.1</ele></trkpt><trkpt lat="47.473454" lon="11.361194"><ele>1710.9</ele></trkpt><trkpt lat="47.47345" lon="11.361061"><ele>1701.2</ele></trkpt><trkpt lat="47.473391" lon="11.36098"><ele>1698.4</ele></trkpt><trkpt lat="47.473339" lon="11.360854"><ele>1687.3</ele></trkpt><trkpt lat="47.473307" lon="11.360691"><ele>1681.7</ele></trkpt><trkpt lat="47.473322" lon="11.360439"><ele>1678.4</ele></trkpt><trkpt lat="47.473248" lon="11.360203"><ele>1670.2</ele></trkpt><trkpt lat="47.473119" lon="11.360013"><ele>1664.5</ele></trkpt><trkpt lat="47.473062" lon="11.359837"><ele>1659.4</ele></trkpt><trkpt lat="47.473035" lon="11.359621"><ele>1653.8</ele></trkpt><trkpt lat="47.472888" lon="11.359234"><ele>1640.6</ele></trkpt><trkpt lat="47.472777" lon="11.3591"><ele>1636.7</ele></trkpt><trkpt lat="47.472674" lon="11.359009"><ele>1634</ele></trkpt><trkpt lat="47.472639" lon="11.359002"><ele>1635.5</ele></trkpt><trkpt lat="47.472463" lon="11.35876"><ele>1632.9</ele></trkpt><trkpt lat="47.472377" lon="11.358692"><ele>1631.9</ele></trkpt><trkpt lat="47.472339" lon="11.358601"><ele>1630.7</ele></trkpt><trkpt lat="47.472293" lon="11.358389"><ele>1627.9</ele></trkpt><trkpt lat="47.472378" lon="11.358151"><ele>1627</ele></trkpt><trkpt lat="47.472401" lon="11.357933"><ele>1623.3</ele></trkpt><trkpt lat="47.472391" lon="11.357633"><ele>1618.3</ele></trkpt><trkpt lat="47.472337" lon="11.357244"><ele>1616.4</ele></trkpt><trkpt lat="47.472234" lon="11.357487"><ele>1616.1</ele></trkpt><trkpt lat="47.472177" lon="11.357247"><ele>1613</ele></trkpt><trkpt lat="47.47217" lon="11.35697"><ele>1603.8</ele></trkpt><trkpt lat="47.472019" lon="11.3565"><ele>1599.3</ele></trkpt><trkpt lat="47.472005" lon="11.355891"><ele>1592.7</ele></trkpt><trkpt lat="47.472043" lon="11.355739"><ele>1590.4</ele></trkpt><trkpt lat="47.472146" lon="11.35512"><ele>1563.5</ele></trkpt><trkpt lat="47.472234" lon="11.35483"><ele>1559.8</ele></trkpt><trkpt lat="47.472337" lon="11.354293"><ele>1559.3</ele></trkpt><trkpt lat="47.472385" lon="11.353922"><ele>1553.5</ele></trkpt><trkpt lat="47.472397" lon="11.353713"><ele>1550.3</ele></trkpt><trkpt lat="47.472456" lon="11.353555"><ele>1550.5</ele></trkpt><trkpt lat="47.472431" lon="11.353524"><ele>1550.6</ele></trkpt><trkpt lat="47.472365" lon="11.353598"><ele>1549.3</ele></trkpt><trkpt lat="47.472325" lon="11.353614"><ele>1549.5</ele></trkpt><trkpt lat="47.472158" lon="11.353828"><ele>1551.5</ele></trkpt><trkpt lat="47.471803" lon="11.353944"><ele>1552.1</ele></trkpt><trkpt lat="47.471573" lon="11.354229"><ele>1551.2</ele></trkpt><trkpt lat="47.471491" lon="11.354211"><ele>1550.3</ele></trkpt><trkpt lat="47.4716" lon="11.354051"><ele>1548.8</ele></trkpt><trkpt lat="47.471576" lon="11.353993"><ele>1543.6</ele></trkpt><trkpt lat="47.471492" lon="11.353936"><ele>1542.3</ele></trkpt><trkpt lat="47.471522" lon="11.353583"><ele>1537.7</ele></trkpt><trkpt lat="47.471638" lon="11.353319"><ele>1536.4</ele></trkpt><trkpt lat="47.471649" lon="11.353251"><ele>1531.9</ele></trkpt><trkpt lat="47.471334" lon="11.35234"><ele>1514.6</ele></trkpt><trkpt lat="47.471283" lon="11.352297"><ele>1508.7</ele></trkpt><trkpt lat="47.471227" lon="11.352068"><ele>1503.9</ele></trkpt><trkpt lat="47.471232" lon="11.351914"><ele>1503.7</ele></trkpt><trkpt lat="47.471352" lon="11.351368"><ele>1503.4</ele></trkpt><trkpt lat="47.471368" lon="11.351101"><ele>1503.4</ele></trkpt><trkpt lat="47.471336" lon="11.350801"><ele>1503.6</ele></trkpt><trkpt lat="47.471266" lon="11.350582"><ele>1503.7</ele></trkpt><trkpt lat="47.470839" lon="11.350075"><ele>1506</ele></trkpt><trkpt lat="47.470831" lon="11.350105"><ele>1478.1</ele></trkpt><trkpt lat="47.470865" lon="11.35033"><ele>1477.9</ele></trkpt><trkpt lat="47.470857" lon="11.350346"><ele>1479.1</ele></trkpt><trkpt lat="47.470691" lon="11.35018"><ele>1480.6</ele></trkpt><trkpt lat="47.470641" lon="11.350173"><ele>1481.1</ele></trkpt><trkpt lat="47.470631" lon="11.350209"><ele>1480.5</ele></trkpt><trkpt lat="47.47063" lon="11.350615"><ele>1477.7</ele></trkpt><trkpt lat="47.470551" lon="11.350823"><ele>1474.8</ele></trkpt><trkpt lat="47.470524" lon="11.350843"><ele>1474.3</ele></trkpt><trkpt lat="47.470495" lon="11.35082"><ele>1473.5</ele></trkpt><trkpt lat="47.470471" lon="11.350742"><ele>1473.8</ele></trkpt><trkpt lat="47.470448" lon="11.35072"><ele>1473.6</ele></trkpt><trkpt lat="47.47015" lon="11.350886"><ele>1470.5</ele></trkpt><trkpt lat="47.470092" lon="11.350964"><ele>1469.9</ele></trkpt><trkpt lat="47.469869" lon="11.35154"><ele>1467.6</ele></trkpt><trkpt lat="47.469841" lon="11.35157"><ele>1467.2</ele></trkpt><trkpt lat="47.46981" lon="11.351565"><ele>1466.7</ele></trkpt><trkpt lat="47.469549" lon="11.351342"><ele>1463.9</ele></trkpt><trkpt lat="47.469516" lon="11.351314"><ele>1461.1</ele></trkpt><trkpt lat="47.469465" lon="11.351256"><ele>1460</ele></trkpt><trkpt lat="47.469417" lon="11.351138"><ele>1459.7</ele></trkpt><trkpt lat="47.469388" lon="11.351119"><ele>1459.4</ele></trkpt><trkpt lat="47.469376" lon="11.351543"><ele>1457.1</ele></trkpt><trkpt lat="47.46938" lon="11.351636"><ele>1456.9</ele></trkpt><trkpt lat="47.469416" lon="11.351748"><ele>1456.1</ele></trkpt><trkpt lat="47.469392" lon="11.351747"><ele>1455.8</ele></trkpt><trkpt lat="47.469295" lon="11.351667"><ele>1453.4</ele></trkpt><trkpt lat="47.469257" lon="11.351603"><ele>1453.3</ele></trkpt><trkpt lat="47.469164" lon="11.351302"><ele>1450.1</ele></trkpt><trkpt lat="47.469143" lon="11.351276"><ele>1447.9</ele></trkpt><trkpt lat="47.469094" lon="11.351753"><ele>1443.7</ele></trkpt><trkpt lat="47.469109" lon="11.352185"><ele>1439.1</ele></trkpt><trkpt lat="47.468756" lon="11.353096"><ele>1429.8</ele></trkpt><trkpt lat="47.468583" lon="11.353407"><ele>1414.9</ele></trkpt><trkpt lat="47.468417" lon="11.353667"><ele>1413</ele></trkpt><trkpt lat="47.46831" lon="11.354106"><ele>1405</ele></trkpt><trkpt lat="47.468266" lon="11.354064"><ele>1405.9</ele></trkpt><trkpt lat="47.468067" lon="11.353742"><ele>1405.7</ele></trkpt><trkpt lat="47.467231" lon="11.352029"><ele>1411.5</ele></trkpt><trkpt lat="47.467033" lon="11.351675"><ele>1415</ele></trkpt><trkpt lat="47.467035" lon="11.351452"><ele>1420.4</ele></trkpt><trkpt lat="47.467064" lon="11.351322"><ele>1420.4</ele></trkpt><trkpt lat="47.46715" lon="11.351085"><ele>1420.5</ele></trkpt><trkpt lat="47.467121" lon="11.350804"><ele>1424</ele></trkpt><trkpt lat="47.467082" lon="11.350826"><ele>1427.4</ele></trkpt><trkpt lat="47.466975" lon="11.350781"><ele>1428.9</ele></trkpt><trkpt lat="47.466573" lon="11.350473"><ele>1441</ele></trkpt><trkpt lat="47.466522" lon="11.350233"><ele>1441.7</ele></trkpt><trkpt lat="47.466513" lon="11.349765"><ele>1441.8</ele></trkpt><trkpt lat="47.466462" lon="11.349248"><ele>1441.7</ele></trkpt><trkpt lat="47.466461" lon="11.348935"><ele>1441.7</ele></trkpt><trkpt lat="47.466486" lon="11.348589"><ele>1442</ele></trkpt><trkpt lat="47.466585" lon="11.34815"><ele>1428.4</ele></trkpt><trkpt lat="47.466611" lon="11.347817"><ele>1427.6</ele></trkpt><trkpt lat="47.46649" lon="11.347321"><ele>1427.1</ele></trkpt><trkpt lat="47.46643" lon="11.346918"><ele>1424.7</ele></trkpt><trkpt lat="47.466162" lon="11.345902"><ele>1421.5</ele></trkpt><trkpt lat="47.466127" lon="11.345704"><ele>1420.7</ele></trkpt><trkpt lat="47.466106" lon="11.345534"><ele>1421</ele></trkpt><trkpt lat="47.466113" lon="11.345318"><ele>1420.6</ele></trkpt><trkpt lat="47.466136" lon="11.345156"><ele>1420.2</ele></trkpt><trkpt lat="47.466186" lon="11.344983"><ele>1411</ele></trkpt><trkpt lat="47.466364" lon="11.344571"><ele>1409</ele></trkpt><trkpt lat="47.466597" lon="11.344182"><ele>1408</ele></trkpt><trkpt lat="47.466674" lon="11.343962"><ele>1406.5</ele></trkpt><trkpt lat="47.466902" lon="11.34319"><ele>1404.5</ele></trkpt><trkpt lat="47.467074" lon="11.342681"><ele>1402.8</ele></trkpt><trkpt lat="47.467338" lon="11.341198"><ele>1398.6</ele></trkpt><trkpt lat="47.467552" lon="11.340666"><ele>1392</ele></trkpt><trkpt lat="47.467678" lon="11.340433"><ele>1384.8</ele></trkpt><trkpt lat="47.467986" lon="11.340018"><ele>1384.4</ele></trkpt><trkpt lat="47.468085" lon="11.33985"><ele>1382.8</ele></trkpt><trkpt lat="47.468261" lon="11.339368"><ele>1381</ele></trkpt><trkpt lat="47.468338" lon="11.33894"><ele>1377.5</ele></trkpt><trkpt lat="47.468505" lon="11.338648"><ele>1374.1</ele></trkpt><trkpt lat="47.468546" lon="11.338543"><ele>1373.3</ele></trkpt><trkpt lat="47.468724" lon="11.337662"><ele>1370.7</ele></trkpt><trkpt lat="47.46878" lon="11.337565"><ele>1370.8</ele></trkpt><trkpt lat="47.468983" lon="11.337335"><ele>1369.3</ele></trkpt><trkpt lat="47.469126" lon="11.337044"><ele>1369.5</ele></trkpt><trkpt lat="47.469225" lon="11.336629"><ele>1369.3</ele></trkpt><trkpt lat="47.469319" lon="11.336066"><ele>1368.3</ele></trkpt><trkpt lat="47.469342" lon="11.335884"><ele>1367.4</ele></trkpt><trkpt lat="47.469339" lon="11.335444"><ele>1361.5</ele></trkpt><trkpt lat="47.469375" lon="11.335242"><ele>1359.9</ele></trkpt><trkpt lat="47.469458" lon="11.335011"><ele>1358.6</ele></trkpt><trkpt lat="47.469947" lon="11.334085"><ele>1349.5</ele></trkpt><trkpt lat="47.47005" lon="11.33383"><ele>1350.8</ele></trkpt><trkpt lat="47.470395" lon="11.332741"><ele>1324.4</ele></trkpt><trkpt lat="47.47074" lon="11.331837"><ele>1310.5</ele></trkpt><trkpt lat="47.470847" lon="11.331563"><ele>1312.4</ele></trkpt><trkpt lat="47.471178" lon="11.330895"><ele>1309</ele></trkpt><trkpt lat="47.471376" lon="11.330518"><ele>1293.9</ele></trkpt><trkpt lat="47.471484" lon="11.330254"><ele>1294.6</ele></trkpt><trkpt lat="47.471535" lon="11.330022"><ele>1294.9</ele></trkpt><trkpt lat="47.471635" lon="11.329799"><ele>1296.7</ele></trkpt><trkpt lat="47.471677" lon="11.329666"><ele>1298.5</ele></trkpt><trkpt lat="47.471693" lon="11.329544"><ele>1297.1</ele></trkpt><trkpt lat="47.471688" lon="11.32937"><ele>1296.2</ele></trkpt><trkpt lat="47.471734" lon="11.328485"><ele>1290.9</ele></trkpt><trkpt lat="47.4718" lon="11.328067"><ele>1288.4</ele></trkpt><trkpt lat="47.471875" lon="11.327834"><ele>1286.8</ele></trkpt><trkpt lat="47.472001" lon="11.327617"><ele>1280</ele></trkpt><trkpt lat="47.472426" lon="11.327167"><ele>1274.3</ele></trkpt><trkpt lat="47.472452" lon="11.327102"><ele>1273.9</ele></trkpt><trkpt lat="47.472455" lon="11.32691"><ele>1273.1</ele></trkpt><trkpt lat="47.47235" lon="11.32645"><ele>1271.1</ele></trkpt><trkpt lat="47.472288" lon="11.325886"><ele>1267.6</ele></trkpt><trkpt lat="47.472294" lon="11.325799"><ele>1268</ele></trkpt><trkpt lat="47.472331" lon="11.325669"><ele>1263.9</ele></trkpt><trkpt lat="47.472957" lon="11.324175"><ele>1247.5</ele></trkpt><trkpt lat="47.473026" lon="11.324067"><ele>1242.5</ele></trkpt><trkpt lat="47.473362" lon="11.323783"><ele>1239.7</ele></trkpt><trkpt lat="47.473459" lon="11.323592"><ele>1238</ele></trkpt><trkpt lat="47.473673" lon="11.322957"><ele>1227.2</ele></trkpt><trkpt lat="47.473721" lon="11.322761"><ele>1221.9</ele></trkpt><trkpt lat="47.473909" lon="11.321401"><ele>1194.5</ele></trkpt><trkpt lat="47.473907" lon="11.321285"><ele>1192.9</ele></trkpt><trkpt lat="47.473872" lon="11.321084"><ele>1190.5</ele></trkpt><trkpt lat="47.473875" lon="11.320799"><ele>1185.5</ele></trkpt><trkpt lat="47.47394" lon="11.320647"><ele>1183.6</ele></trkpt><trkpt lat="47.474028" lon="11.320494"><ele>1180.1</ele></trkpt><trkpt lat="47.474059" lon="11.320351"><ele>1178.1</ele></trkpt><trkpt lat="47.474059" lon="11.320231"><ele>1177.4</ele></trkpt><trkpt lat="47.474018" lon="11.320047"><ele>1176.8</ele></trkpt><trkpt lat="47.474022" lon="11.319907"><ele>1176.5</ele></trkpt><trkpt lat="47.474081" lon="11.319329"><ele>1176.7</ele></trkpt><trkpt lat="47.474126" lon="11.318575"><ele>1170.4</ele></trkpt><trkpt lat="47.474168" lon="11.318331"><ele>1168.3</ele></trkpt><trkpt lat="47.474258" lon="11.318102"><ele>1169.7</ele></trkpt><trkpt lat="47.474635" lon="11.317608"><ele>1166.6</ele></trkpt><trkpt lat="47.474758" lon="11.31738"><ele>1165.1</ele></trkpt><trkpt lat="47.474839" lon="11.317169"><ele>1165.8</ele></trkpt><trkpt lat="47.474971" lon="11.316979"><ele>1167.2</ele></trkpt><trkpt lat="47.475048" lon="11.316807"><ele>1166.2</ele></trkpt><trkpt lat="47.475068" lon="11.316615"><ele>1161.4</ele></trkpt><trkpt lat="47.475046" lon="11.315563"><ele>1150.1</ele></trkpt><trkpt lat="47.475059" lon="11.315296"><ele>1148.8</ele></trkpt><trkpt lat="47.475154" lon="11.314625"><ele>1146.2</ele></trkpt><trkpt lat="47.475191" lon="11.314556"><ele>1148</ele></trkpt><trkpt lat="47.475246" lon="11.31453"><ele>1149.2</ele></trkpt><trkpt lat="47.475508" lon="11.314504"><ele>1150.5</ele></trkpt><trkpt lat="47.475663" lon="11.314442"><ele>1151.6</ele></trkpt><trkpt lat="47.475758" lon="11.314437"><ele>1152.3</ele></trkpt><trkpt lat="47.475861" lon="11.314452"><ele>1153.1</ele></trkpt><trkpt lat="47.476085" lon="11.31456"><ele>1152.6</ele></trkpt><trkpt lat="47.476261" lon="11.314579"><ele>1152.6</ele></trkpt><trkpt lat="47.476387" lon="11.314556"><ele>1152.7</ele></trkpt><trkpt lat="47.476451" lon="11.314514"><ele>1153</ele></trkpt><trkpt lat="47.476499" lon="11.314429"><ele>1153.3</ele></trkpt><trkpt lat="47.476508" lon="11.314328"><ele>1153.6</ele></trkpt><trkpt lat="47.476497" lon="11.314198"><ele>1153.5</ele></trkpt><trkpt lat="47.475982" lon="11.313019"><ele>1150.7</ele></trkpt><trkpt lat="47.475887" lon="11.31257"><ele>1147.1</ele></trkpt><trkpt lat="47.475834" lon="11.312391"><ele>1143.3</ele></trkpt><trkpt lat="47.475726" lon="11.312179"><ele>1139.3</ele></trkpt><trkpt lat="47.475552" lon="11.311696"><ele>1141.2</ele></trkpt><trkpt lat="47.475495" lon="11.311466"><ele>1132</ele></trkpt><trkpt lat="47.475456" lon="11.311322"><ele>1122.6</ele></trkpt><trkpt lat="47.475339" lon="11.310352"><ele>1120.5</ele></trkpt><trkpt lat="47.475183" lon="11.309376"><ele>1118.1</ele></trkpt><trkpt lat="47.474993" lon="11.308714"><ele>1113.5</ele></trkpt><trkpt lat="47.474613" lon="11.306753"><ele>1113.7</ele></trkpt><trkpt lat="47.474602" lon="11.306359"><ele>1114</ele></trkpt><trkpt lat="47.474656" lon="11.305146"><ele>1112.5</ele></trkpt><trkpt lat="47.474654" lon="11.304773"><ele>1102</ele></trkpt><trkpt lat="47.474574" lon="11.304061"><ele>1097.3</ele></trkpt><trkpt lat="47.474653" lon="11.302834"><ele>1096.1</ele></trkpt><trkpt lat="47.474647" lon="11.302316"><ele>1094.9</ele></trkpt><trkpt lat="47.474612" lon="11.301762"><ele>1097.8</ele></trkpt><trkpt lat="47.474275" lon="11.300261"><ele>1090.1</ele></trkpt><trkpt lat="47.474105" lon="11.299655"><ele>1084.9</ele></trkpt><trkpt lat="47.473925" lon="11.298704"><ele>1087</ele></trkpt><trkpt lat="47.473879" lon="11.298597"><ele>1087</ele></trkpt><trkpt lat="47.473661" lon="11.298343"><ele>1087</ele></trkpt><trkpt lat="47.473563" lon="11.298188"><ele>1086.3</ele></trkpt><trkpt lat="47.473513" lon="11.298022"><ele>1086.3</ele></trkpt><trkpt lat="47.473503" lon="11.297855"><ele>1086</ele></trkpt><trkpt lat="47.473525" lon="11.297689"><ele>1081.7</ele></trkpt><trkpt lat="47.473577" lon="11.297575"><ele>1081.2</ele></trkpt><trkpt lat="47.473665" lon="11.29744"><ele>1081.1</ele></trkpt><trkpt lat="47.473806" lon="11.297307"><ele>1081.8</ele></trkpt><trkpt lat="47.473994" lon="11.297221"><ele>1080.5</ele></trkpt><trkpt lat="47.474221" lon="11.297159"><ele>1079.4</ele></trkpt><trkpt lat="47.474402" lon="11.297066"><ele>1078.9</ele></trkpt><trkpt lat="47.474654" lon="11.296898"><ele>1078.4</ele></trkpt><trkpt lat="47.474861" lon="11.296705"><ele>1071.9</ele></trkpt><trkpt lat="47.475072" lon="11.296463"><ele>1067.9</ele></trkpt><trkpt lat="47.475304" lon="11.296087"><ele>1061.6</ele></trkpt><trkpt lat="47.475712" lon="11.295522"><ele>1053.2</ele></trkpt><trkpt lat="47.476338" lon="11.294896"><ele>1049.7</ele></trkpt><trkpt lat="47.476352" lon="11.294834"><ele>1042</ele></trkpt><trkpt lat="47.476329" lon="11.294772"><ele>1030.4</ele></trkpt><trkpt lat="47.47575" lon="11.294518"><ele>1023</ele></trkpt><trkpt lat="47.475643" lon="11.294511"><ele>1022.8</ele></trkpt><trkpt lat="47.475552" lon="11.29455"><ele>1021.2</ele></trkpt><trkpt lat="47.475139" lon="11.29498"><ele>1020.9</ele></trkpt><trkpt lat="47.475059" lon="11.295006"><ele>1020.6</ele></trkpt><trkpt lat="47.475001" lon="11.294954"><ele>1017.9</ele></trkpt><trkpt lat="47.474958" lon="11.294834"><ele>1016.3</ele></trkpt><trkpt lat="47.47496" lon="11.294176"><ele>1016.1</ele></trkpt><trkpt lat="47.474919" lon="11.29398"><ele>1016.1</ele></trkpt><trkpt lat="47.474671" lon="11.293544"><ele>1014.7</ele></trkpt><trkpt lat="47.474533" lon="11.2933"><ele>1013.4</ele></trkpt><trkpt lat="47.474073" lon="11.292197"><ele>1000.8</ele></trkpt><trkpt lat="47.473985" lon="11.291818"><ele>998.2</ele></trkpt><trkpt lat="47.473942" lon="11.291434"><ele>994.3</ele></trkpt><trkpt lat="47.473895" lon="11.291261"><ele>989</ele></trkpt><trkpt lat="47.473446" lon="11.290538"><ele>986.7</ele></trkpt><trkpt lat="47.473367" lon="11.290361"><ele>986.6</ele></trkpt><trkpt lat="47.473333" lon="11.290185"><ele>986.6</ele></trkpt><trkpt lat="47.473337" lon="11.290007"><ele>987</ele></trkpt><trkpt lat="47.473047" lon="11.290168"><ele>979.9</ele></trkpt><trkpt lat="47.47276" lon="11.290216"><ele>978.3</ele></trkpt><trkpt lat="47.4726" lon="11.290344"><ele>977.8</ele></trkpt><trkpt lat="47.472516" lon="11.290451"><ele>977.6</ele></trkpt><trkpt lat="47.472453" lon="11.290566"><ele>977.3</ele></trkpt><trkpt lat="47.472394" lon="11.290602"><ele>977.3</ele></trkpt><trkpt lat="47.47223" lon="11.290621"><ele>977.4</ele></trkpt><trkpt lat="47.472151" lon="11.290651"><ele>977.4</ele></trkpt><trkpt lat="47.472102" lon="11.290748"><ele>977.4</ele></trkpt><trkpt lat="47.472032" lon="11.291136"><ele>976.9</ele></trkpt><trkpt lat="47.471893" lon="11.291415"><ele>976.9</ele></trkpt><trkpt lat="47.471831" lon="11.291456"><ele>976.8</ele></trkpt><trkpt lat="47.471773" lon="11.291449"><ele>977</ele></trkpt><trkpt lat="47.471722" lon="11.291413"><ele>974</ele></trkpt><trkpt lat="47.471644" lon="11.291337"><ele>977</ele></trkpt><trkpt lat="47.471499" lon="11.291246"><ele>977</ele></trkpt><trkpt lat="47.471446" lon="11.291222"><ele>977.9</ele></trkpt><trkpt lat="47.471383" lon="11.29128"><ele>978.1</ele></trkpt><trkpt lat="47.471369" lon="11.291242"><ele>978.2</ele></trkpt><trkpt lat="47.471371" lon="11.29105"><ele>978.3</ele></trkpt><trkpt lat="47.47134" lon="11.290971"><ele>978.4</ele></trkpt><trkpt lat="47.471054" lon="11.290668"><ele>978.7</ele></trkpt><trkpt lat="47.470772" lon="11.290184"><ele>982</ele></trkpt><trkpt lat="47.470667" lon="11.290055"><ele>984.1</ele></trkpt><trkpt lat="47.470487" lon="11.289958"><ele>984.4</ele></trkpt><trkpt lat="47.470045" lon="11.289976"><ele>984.5</ele></trkpt><trkpt lat="47.469826" lon="11.289971"><ele>984.5</ele></trkpt><trkpt lat="47.469794" lon="11.289954"><ele>984.4</ele></trkpt><trkpt lat="47.46949" lon="11.289578"><ele>984.3</ele></trkpt><trkpt lat="47.469249" lon="11.289169"><ele>985</ele></trkpt><trkpt lat="47.469209" lon="11.289044"><ele>983</ele></trkpt><trkpt lat="47.469164" lon="11.28888"><ele>982.6</ele></trkpt><trkpt lat="47.468901" lon="11.28843"><ele>981.1</ele></trkpt><trkpt lat="47.468724" lon="11.28818"><ele>980.3</ele></trkpt><trkpt lat="47.468472" lon="11.287931"><ele>977</ele></trkpt><trkpt lat="47.468372" lon="11.287848"><ele>977.6</ele></trkpt><trkpt lat="47.4683" lon="11.287728"><ele>976.4</ele></trkpt><trkpt lat="47.468209" lon="11.287393"><ele>974</ele></trkpt><trkpt lat="47.468145" lon="11.287226"><ele>973.7</ele></trkpt><trkpt lat="47.467512" lon="11.286188"><ele>967.3</ele></trkpt><trkpt lat="47.467258" lon="11.286063"><ele>966</ele></trkpt><trkpt lat="47.466929" lon="11.285801"><ele>963.8</ele></trkpt><trkpt lat="47.466577" lon="11.285582"><ele>963.3</ele></trkpt><trkpt lat="47.466358" lon="11.285415"><ele>958</ele></trkpt><trkpt lat="47.466112" lon="11.285294"><ele>955.9</ele></trkpt><trkpt lat="47.465976" lon="11.285292"><ele>955.7</ele></trkpt><trkpt lat="47.465306" lon="11.285577"><ele>955.1</ele></trkpt><trkpt lat="47.465198" lon="11.285569"><ele>955.1</ele></trkpt><trkpt lat="47.464901" lon="11.285447"><ele>954.9</ele></trkpt><trkpt lat="47.464143" lon="11.285353"><ele>950</ele></trkpt><trkpt lat="47.464092" lon="11.285346"><ele>950</ele></trkpt><trkpt lat="47.463746" lon="11.285333"><ele>948.9</ele></trkpt><trkpt lat="47.463481" lon="11.285194"><ele>948.6</ele></trkpt><trkpt lat="47.463358" lon="11.285208"><ele>948.4</ele></trkpt><trkpt lat="47.463194" lon="11.285191"><ele>948.4</ele></trkpt><trkpt lat="47.462957" lon="11.285032"><ele>947</ele></trkpt><trkpt lat="47.462737" lon="11.284899"><ele>933.8</ele></trkpt><trkpt lat="47.461662" lon="11.28408"><ele>918</ele></trkpt><trkpt lat="47.461442" lon="11.283942"><ele>918</ele></trkpt><trkpt lat="47.461246" lon="11.28385"><ele>918</ele></trkpt><trkpt lat="47.460846" lon="11.283724"><ele>918</ele></trkpt><trkpt lat="47.460339" lon="11.283557"><ele>918.7</ele></trkpt><trkpt lat="47.460186" lon="11.283477"><ele>919</ele></trkpt><trkpt lat="47.460147" lon="11.283455"><ele>919</ele></trkpt><trkpt lat="47.460066" lon="11.283391"><ele>914.5</ele></trkpt><trkpt lat="47.459859" lon="11.283041"><ele>910</ele></trkpt><trkpt lat="47.45962" lon="11.282777"><ele>910</ele></trkpt><trkpt lat="47.459468" lon="11.282686"><ele>910</ele></trkpt><trkpt lat="47.459258" lon="11.28266"><ele>912.9</ele></trkpt><trkpt lat="47.459101" lon="11.282673"><ele>913</ele></trkpt><trkpt lat="47.458829" lon="11.282741"><ele>912.7</ele></trkpt><trkpt lat="47.458726" lon="11.282731"><ele>912.6</ele></trkpt><trkpt lat="47.458604" lon="11.282667"><ele>912.5</ele></trkpt><trkpt lat="47.458479" lon="11.282646"><ele>912.4</ele></trkpt><trkpt lat="47.458224" lon="11.282659"><ele>912.3</ele></trkpt><trkpt lat="47.457907" lon="11.282744"><ele>912.5</ele></trkpt><trkpt lat="47.457705" lon="11.28283"><ele>912</ele></trkpt><trkpt lat="47.457545" lon="11.283087"><ele>912</ele></trkpt><trkpt lat="47.457466" lon="11.283176"><ele>912</ele></trkpt><trkpt lat="47.457378" lon="11.283238"><ele>912</ele></trkpt><trkpt lat="47.457262" lon="11.283261"><ele>912</ele></trkpt><trkpt lat="47.457117" lon="11.283211"><ele>912</ele></trkpt><trkpt lat="47.457039" lon="11.283141"><ele>912</ele></trkpt><trkpt lat="47.456987" lon="11.283015"><ele>912</ele></trkpt><trkpt lat="47.456928" lon="11.282746"><ele>911.3</ele></trkpt><trkpt lat="47.45689" lon="11.282212"><ele>911</ele></trkpt><trkpt lat="47.456861" lon="11.281399"><ele>910</ele></trkpt><trkpt lat="47.456834" lon="11.280755"><ele>911</ele></trkpt><trkpt lat="47.456848" lon="11.280438"><ele>911</ele></trkpt><trkpt lat="47.456879" lon="11.280157"><ele>911</ele></trkpt><trkpt lat="47.456885" lon="11.280108"><ele>911</ele></trkpt><trkpt lat="47.456961" lon="11.279282"><ele>913</ele></trkpt><trkpt lat="47.456964" lon="11.279044"><ele>908.8</ele></trkpt><trkpt lat="47.456944" lon="11.278707"><ele>908.8</ele></trkpt><trkpt lat="47.456866" lon="11.278108"><ele>904</ele></trkpt><trkpt lat="47.456752" lon="11.277686"><ele>905.3</ele></trkpt><trkpt lat="47.456569" lon="11.277154"><ele>908</ele></trkpt><trkpt lat="47.456368" lon="11.276587"><ele>905.2</ele></trkpt><trkpt lat="47.456247" lon="11.276107"><ele>905.2</ele></trkpt><trkpt lat="47.456179" lon="11.275617"><ele>904</ele></trkpt><trkpt lat="47.456162" lon="11.275258"><ele>904</ele></trkpt><trkpt lat="47.456152" lon="11.274859"><ele>904</ele></trkpt><trkpt lat="47.456179" lon="11.274269"><ele>904</ele></trkpt><trkpt lat="47.456209" lon="11.273949"><ele>926</ele></trkpt><trkpt lat="47.455155" lon="11.273819"><ele>919.2</ele></trkpt><trkpt lat="47.454981" lon="11.273762"><ele>918</ele></trkpt><trkpt lat="47.454812" lon="11.273676"><ele>915.7</ele></trkpt><trkpt lat="47.454633" lon="11.273498"><ele>908</ele></trkpt><trkpt lat="47.454355" lon="11.273224"><ele>925</ele></trkpt><trkpt lat="47.454239" lon="11.273089"><ele>925</ele></trkpt><trkpt lat="47.454097" lon="11.27286"><ele>911.4</ele></trkpt><trkpt lat="47.453532" lon="11.271691"><ele>910.2</ele></trkpt><trkpt lat="47.453285" lon="11.27124"><ele>908</ele></trkpt><trkpt lat="47.453171" lon="11.271384"><ele>908</ele></trkpt><trkpt lat="47.452965" lon="11.271799"><ele>901</ele></trkpt><trkpt lat="47.452784" lon="11.272418"><ele>901</ele></trkpt><trkpt lat="47.452667" lon="11.272792"><ele>901</ele></trkpt><trkpt lat="47.452579" lon="11.273072"><ele>901</ele></trkpt><trkpt lat="47.45245" lon="11.27328"><ele>902.9</ele></trkpt><trkpt lat="47.452275" lon="11.273382"><ele>903.1</ele></trkpt><trkpt lat="47.451854" lon="11.273379"><ele>903.3</ele></trkpt><trkpt lat="47.451706" lon="11.27352"><ele>903.4</ele></trkpt><trkpt lat="47.451581" lon="11.273561"><ele>903.5</ele></trkpt><trkpt lat="47.450394" lon="11.27317"><ele>904</ele></trkpt><trkpt lat="47.450014" lon="11.273046"><ele>904.4</ele></trkpt><trkpt lat="47.448153" lon="11.272313"><ele>907</ele></trkpt><trkpt lat="47.44671" lon="11.271799"><ele>908</ele></trkpt><trkpt lat="47.446254" lon="11.271695"><ele>906.9</ele></trkpt><trkpt lat="47.446031" lon="11.271611"><ele>907.6</ele></trkpt><trkpt lat="47.445267" lon="11.271233"><ele>908.8</ele></trkpt><trkpt lat="47.444459" lon="11.27099"><ele>909.5</ele></trkpt><trkpt lat="47.444148" lon="11.270896"><ele>910.2</ele></trkpt><trkpt lat="47.443535" lon="11.270673"><ele>910</ele></trkpt><trkpt lat="47.443436" lon="11.27062"><ele>910</ele></trkpt><trkpt lat="47.443064" lon="11.270563"><ele>909.7</ele></trkpt><trkpt lat="47.442962" lon="11.270525"><ele>909.6</ele></trkpt><trkpt lat="47.442849" lon="11.270445"><ele>909.6</ele></trkpt><trkpt lat="47.442726" lon="11.270303"><ele>909.5</ele></trkpt><trkpt lat="47.442348" lon="11.269779"><ele>911</ele></trkpt><trkpt lat="47.441993" lon="11.269325"><ele>911</ele></trkpt><trkpt lat="47.441743" lon="11.268983"><ele>911.7</ele></trkpt><trkpt lat="47.44167" lon="11.268819"><ele>912</ele></trkpt><trkpt lat="47.441711" lon="11.268408"><ele>912.6</ele></trkpt><trkpt lat="47.441597" lon="11.267441"><ele>914</ele></trkpt><trkpt lat="47.441598" lon="11.267356"><ele>914</ele></trkpt><trkpt lat="47.441614" lon="11.267157"><ele>914</ele></trkpt><trkpt lat="47.441616" lon="11.266928"><ele>914</ele></trkpt><trkpt lat="47.441616" lon="11.266808"><ele>914</ele></trkpt><trkpt lat="47.441617" lon="11.266636"><ele>917</ele></trkpt><trkpt lat="47.441621" lon="11.266292"><ele>917</ele></trkpt><trkpt lat="47.441538" lon="11.266292"><ele>917</ele></trkpt><trkpt lat="47.440725" lon="11.265903"><ele>917</ele></trkpt><trkpt lat="47.4407" lon="11.265891"><ele>917</ele></trkpt><trkpt lat="47.440575" lon="11.265818"><ele>919</ele></trkpt><trkpt lat="47.440484" lon="11.265774"><ele>919</ele></trkpt><trkpt lat="47.440369" lon="11.265719"><ele>919</ele></trkpt><trkpt lat="47.44032" lon="11.265696"><ele>919</ele></trkpt><trkpt lat="47.440243" lon="11.265659"><ele>919</ele></trkpt><trkpt lat="47.440227" lon="11.265651"><ele>919</ele></trkpt><trkpt lat="47.440186" lon="11.265838"><ele>918.5</ele></trkpt><trkpt lat="47.440171" lon="11.26583"><ele>919</ele></trkpt><trkpt lat="47.440094" lon="11.265794"><ele>919</ele></trkpt><trkpt lat="47.440056" lon="11.265776"><ele>919</ele></trkpt><trkpt lat="47.439998" lon="11.265748"><ele>916</ele></trkpt><trkpt lat="47.439993" lon="11.265773"><ele>916</ele></trkpt><trkpt lat="47.439991" lon="11.265779"><ele>916</ele></trkpt></trkseg></trk></gpx>