<gpx xmlns="http://www.topografix.com/GPX/1/1" xmlns:xsi="http://www.w3.org/2001/XMLSchema-instance" xsi:schemaLocation="http://www.topografix.com/GPX/1/1 http://www.topografix.com/GPX/1/1/gpx.xsd" version="1.1" creator="togpx"><metadata/><wpt lat="47.66190096828598" lon="11.88775956630707"><name></name><desc>label=Spitzingstraße, Schliersee,BY,Germany</desc></wpt><wpt lat="47.661445733594" lon="11.882545351982118"><name></name><desc>label=Lyraweg, Schliersee,BY,Germany</desc></wpt><wpt lat="47.668270224642285" lon="11.863335371017458"><name></name><desc>label=Kratzerweg, Schliersee,BY,Germany</desc></wpt><wpt lat="47.663255809952275" lon="11.847413778305055"><name></name><desc>label=SB 5, SB 6,Schliersee,BY,Germany</desc></wpt><wpt lat="47.66960683888067" lon="11.856200695037842"><name></name><desc>label= SB 5, Schliersee,BY,Germany</desc></wpt><wpt lat="47.67073390320405" lon="11.871671676635744"><name></name><desc>label=Berghaus Spitzingsee, Schliersee,BY,Germany</desc></wpt><wpt lat="47.679503943863985" lon="11.885071992874147"><name></name><desc>label=St 2077, Schliersee,BY,Germany</desc></wpt><wpt lat="47.68613828758261" lon="11.883687973022461"><name></name><desc>label=Laubenriesbrücke, Schliersee,BY,Germany</desc></wpt><wpt lat="47.702917207465134" lon="11.878859996795656"><name></name><desc>label=Bayrischzeller Straße, Schliersee,BY,Germany</desc></wpt><wpt lat="47.706142748497335" lon="11.87390595674515"><name></name><desc>label=Wendelsteinstraße, Schliersee,BY,Germany</desc></wpt><trk><name></name><desc>ascent=621.6
descent=912.5
opacity=0.9</desc><trkseg><trkpt lat="47.661877" lon="11.887833"><ele>1096.9</ele></trkpt><trkpt lat="47.661636" lon="11.887658"><ele>1104.8</ele></trkpt><trkpt lat="47.661549" lon="11.88755"><ele>1111</ele></trkpt><trkpt lat="47.661516" lon="11.887335"><ele>1096</ele></trkpt><trkpt lat="47.661473" lon="11.886826"><ele>1094.2</ele></trkpt><trkpt lat="47.661395" lon="11.886593"><ele>1088</ele></trkpt><trkpt lat="47.661338" lon="11.886517"><ele>1088</ele></trkpt><trkpt lat="47.661002" lon="11.886282"><ele>1088</ele></trkpt><trkpt lat="47.66093" lon="11.886168"><ele>1088</ele></trkpt><trkpt lat="47.660917" lon="11.886066"><ele>1088</ele></trkpt><trkpt lat="47.660915" lon="11.885914"><ele>1088</ele></trkpt><trkpt lat="47.660918" lon="11.885764"><ele>1100</ele></trkpt><trkpt lat="47.660916" lon="11.885579"><ele>1100</ele></trkpt><trkpt lat="47.661029" lon="11.885498"><ele>1104.2</ele></trkpt><trkpt lat="47.661047" lon="11.885432"><ele>1103.9</ele></trkpt><trkpt lat="47.661015" lon="11.885101"><ele>1103.3</ele></trkpt><trkpt lat="47.661042" lon="11.88486"><ele>1105.4</ele></trkpt><trkpt lat="47.661092" lon="11.884712"><ele>1106.3</ele></trkpt><trkpt lat="47.661167" lon="11.884562"><ele>1117</ele></trkpt><trkpt lat="47.66122" lon="11.884452"><ele>1121.5</ele></trkpt><trkpt lat="47.661398" lon="11.884227"><ele>1121.5</ele></trkpt><trkpt lat="47.661586" lon="11.88395"><ele>1122.6</ele></trkpt><trkpt lat="47.661665" lon="11.883551"><ele>1123.1</ele></trkpt><trkpt lat="47.661585" lon="11.883084"><ele>1123.6</ele></trkpt><trkpt lat="47.661459" lon="11.882707"><ele>1124.5</ele></trkpt><trkpt lat="47.661447" lon="11.882545"><ele>1125.5</ele></trkpt><trkpt lat="47.661418" lon="11.882184"><ele>1126.6</ele></trkpt><trkpt lat="47.661427" lon="11.881993"><ele>1126.5</ele></trkpt><trkpt lat="47.661526" lon="11.88159"><ele>1126.3</ele></trkpt><trkpt lat="47.661504" lon="11.881278"><ele>1126.1</ele></trkpt><trkpt lat="47.661526" lon="11.88089"><ele>1125.4</ele></trkpt><trkpt lat="47.661549" lon="11.880733"><ele>1124</ele></trkpt><trkpt lat="47.661792" lon="11.880583"><ele>1111.3</ele></trkpt><trkpt lat="47.661868" lon="11.880584"><ele>1105</ele></trkpt><trkpt lat="47.66193" lon="11.880462"><ele>1106.7</ele></trkpt><trkpt lat="47.661927" lon="11.880295"><ele>1106.9</ele></trkpt><trkpt lat="47.66196" lon="11.880119"><ele>1107.3</ele></trkpt><trkpt lat="47.661951" lon="11.880025"><ele>1107.6</ele></trkpt><trkpt lat="47.661989" lon="11.879878"><ele>1115</ele></trkpt><trkpt lat="47.662178" lon="11.880247"><ele>1115</ele></trkpt><trkpt lat="47.662289" lon="11.880408"><ele>1113.7</ele></trkpt><trkpt lat="47.66242" lon="11.880469"><ele>1112.6</ele></trkpt><trkpt lat="47.662874" lon="11.880604"><ele>1118.3</ele></trkpt><trkpt lat="47.663456" lon="11.880572"><ele>1124.2</ele></trkpt><trkpt lat="47.663793" lon="11.880825"><ele>1131.5</ele></trkpt><trkpt lat="47.664263" lon="11.88129"><ele>1130.6</ele></trkpt><trkpt lat="47.664357" lon="11.881309"><ele>1129.9</ele></trkpt><trkpt lat="47.664447" lon="11.881283"><ele>1129.2</ele></trkpt><trkpt lat="47.664563" lon="11.881164"><ele>1124</ele></trkpt><trkpt lat="47.664616" lon="11.881032"><ele>1134</ele></trkpt><trkpt lat="47.66468" lon="11.88073"><ele>1135.8</ele></trkpt><trkpt lat="47.664706" lon="11.880223"><ele>1137.3</ele></trkpt><trkpt lat="47.664857" lon="11.879594"><ele>1138.9</ele></trkpt><trkpt lat="47.665013" lon="11.878848"><ele>1139.6</ele></trkpt><trkpt lat="47.665062" lon="11.878686"><ele>1138.9</ele></trkpt><trkpt lat="47.665123" lon="11.878575"><ele>1138.4</ele></trkpt><trkpt lat="47.665175" lon="11.878539"><ele>1138</ele></trkpt><trkpt lat="47.665532" lon="11.878513"><ele>1136.4</ele></trkpt><trkpt lat="47.665591" lon="11.878481"><ele>1136.1</ele></trkpt><trkpt lat="47.665651" lon="11.878425"><ele>1134.3</ele></trkpt><trkpt lat="47.665733" lon="11.87824"><ele>1133.5</ele></trkpt><trkpt lat="47.66575" lon="11.878154"><ele>1133.2</ele></trkpt><trkpt lat="47.665741" lon="11.877922"><ele>1130.9</ele></trkpt><trkpt lat="47.665653" lon="11.877522"><ele>1127</ele></trkpt><trkpt lat="47.665966" lon="11.877105"><ele>1117</ele></trkpt><trkpt lat="47.666045" lon="11.877007"><ele>1117</ele></trkpt><trkpt lat="47.666562" lon="11.876313"><ele>1120</ele></trkpt><trkpt lat="47.666357" lon="11.875918"><ele>1123.3</ele></trkpt><trkpt lat="47.666103" lon="11.875779"><ele>1130</ele></trkpt><trkpt lat="47.665988" lon="11.875554"><ele>1130</ele></trkpt><trkpt lat="47.665988" lon="11.87546"><ele>1130</ele></trkpt><trkpt lat="47.666" lon="11.875214"><ele>1139.7</ele></trkpt><trkpt lat="47.666071" lon="11.874904"><ele>1142.8</ele></trkpt><trkpt lat="47.666238" lon="11.87461"><ele>1143.8</ele></trkpt><trkpt lat="47.66631" lon="11.874335"><ele>1145</ele></trkpt><trkpt lat="47.666308" lon="11.873914"><ele>1146.4</ele></trkpt><trkpt lat="47.666169" lon="11.873103"><ele>1151.3</ele></trkpt><trkpt lat="47.666173" lon="11.872945"><ele>1153.6</ele></trkpt><trkpt lat="47.666222" lon="11.872807"><ele>1154.2</ele></trkpt><trkpt lat="47.666473" lon="11.872402"><ele>1158.2</ele></trkpt><trkpt lat="47.666554" lon="11.872172"><ele>1161.4</ele></trkpt><trkpt lat="47.666612" lon="11.871171"><ele>1166.9</ele></trkpt><trkpt lat="47.666656" lon="11.871082"><ele>1167.9</ele></trkpt><trkpt lat="47.667168" lon="11.870605"><ele>1170.7</ele></trkpt><trkpt lat="47.667225" lon="11.870488"><ele>1170.6</ele></trkpt><trkpt lat="47.66727" lon="11.870359"><ele>1171.2</ele></trkpt><trkpt lat="47.667415" lon="11.869512"><ele>1178</ele></trkpt><trkpt lat="47.667372" lon="11.86922"><ele>1184.1</ele></trkpt><trkpt lat="47.667373" lon="11.869058"><ele>1184.7</ele></trkpt><trkpt lat="47.667455" lon="11.86879"><ele>1185.5</ele></trkpt><trkpt lat="47.667612" lon="11.86847"><ele>1186.7</ele></trkpt><trkpt lat="47.667623" lon="11.868379"><ele>1186.9</ele></trkpt><trkpt lat="47.667586" lon="11.868198"><ele>1186.9</ele></trkpt><trkpt lat="47.667578" lon="11.867894"><ele>1186.8</ele></trkpt><trkpt lat="47.667649" lon="11.867564"><ele>1186.9</ele></trkpt><trkpt lat="47.667728" lon="11.867331"><ele>1188.3</ele></trkpt><trkpt lat="47.667798" lon="11.867242"><ele>1189.4</ele></trkpt><trkpt lat="47.667831" lon="11.867171"><ele>1189.4</ele></trkpt><trkpt lat="47.667822" lon="11.867063"><ele>1189.3</ele></trkpt><trkpt lat="47.667756" lon="11.866917"><ele>1189.1</ele></trkpt><trkpt lat="47.667752" lon="11.866807"><ele>1189.1</ele></trkpt><trkpt lat="47.667781" lon="11.866549"><ele>1189.2</ele></trkpt><trkpt lat="47.667725" lon="11.86585"><ele>1189.9</ele></trkpt><trkpt lat="47.667842" lon="11.865269"><ele>1199</ele></trkpt><trkpt lat="47.668016" lon="11.864855"><ele>1209.2</ele></trkpt><trkpt lat="47.668153" lon="11.864437"><ele>1210.5</ele></trkpt><trkpt lat="47.66817" lon="11.86434"><ele>1210</ele></trkpt><trkpt lat="47.668166" lon="11.864112"><ele>1210.9</ele></trkpt><trkpt lat="47.668182" lon="11.863936"><ele>1210.7</ele></trkpt><trkpt lat="47.668224" lon="11.8638"><ele>1211.7</ele></trkpt><trkpt lat="47.668245" lon="11.863661"><ele>1211.5</ele></trkpt><trkpt lat="47.668265" lon="11.863335"><ele>1213.9</ele></trkpt><trkpt lat="47.668271" lon="11.863239"><ele>1216.3</ele></trkpt><trkpt lat="47.668254" lon="11.862856"><ele>1220.4</ele></trkpt><trkpt lat="47.668181" lon="11.862206"><ele>1226.2</ele></trkpt><trkpt lat="47.6682" lon="11.861481"><ele>1232.9</ele></trkpt><trkpt lat="47.668151" lon="11.860989"><ele>1236.5</ele></trkpt><trkpt lat="47.668152" lon="11.860706"><ele>1237.8</ele></trkpt><trkpt lat="47.668081" lon="11.859849"><ele>1243.1</ele></trkpt><trkpt lat="47.667977" lon="11.859358"><ele>1245.5</ele></trkpt><trkpt lat="47.667952" lon="11.859045"><ele>1248.8</ele></trkpt><trkpt lat="47.667922" lon="11.85745"><ele>1261.2</ele></trkpt><trkpt lat="47.667894" lon="11.857065"><ele>1265.2</ele></trkpt><trkpt lat="47.667906" lon="11.855726"><ele>1276</ele></trkpt><trkpt lat="47.66784" lon="11.855161"><ele>1279.4</ele></trkpt><trkpt lat="47.667858" lon="11.854371"><ele>1283</ele></trkpt><trkpt lat="47.667897" lon="11.853841"><ele>1286.9</ele></trkpt><trkpt lat="47.667973" lon="11.853172"><ele>1293.6</ele></trkpt><trkpt lat="47.668067" lon="11.851931"><ele>1303.2</ele></trkpt><trkpt lat="47.668071" lon="11.851813"><ele>1306</ele></trkpt><trkpt lat="47.668042" lon="11.851656"><ele>1307.1</ele></trkpt><trkpt lat="47.667954" lon="11.851467"><ele>1316</ele></trkpt><trkpt lat="47.667907" lon="11.851405"><ele>1316</ele></trkpt><trkpt lat="47.66782" lon="11.85126"><ele>1316.3</ele></trkpt><trkpt lat="47.66764" lon="11.85075"><ele>1316.4</ele></trkpt><trkpt lat="47.667567" lon="11.850429"><ele>1317</ele></trkpt><trkpt lat="47.667522" lon="11.850303"><ele>1317</ele></trkpt><trkpt lat="47.667386" lon="11.850004"><ele>1337.9</ele></trkpt><trkpt lat="47.667182" lon="11.849655"><ele>1338.2</ele></trkpt><trkpt lat="47.666916" lon="11.849385"><ele>1338.9</ele></trkpt><trkpt lat="47.66675" lon="11.849186"><ele>1340</ele></trkpt><trkpt lat="47.666482" lon="11.848963"><ele>1346.9</ele></trkpt><trkpt lat="47.666326" lon="11.848796"><ele>1349.6</ele></trkpt><trkpt lat="47.666166" lon="11.848777"><ele>1353.7</ele></trkpt><trkpt lat="47.665628" lon="11.848384"><ele>1372.7</ele></trkpt><trkpt lat="47.665481" lon="11.848305"><ele>1377.2</ele></trkpt><trkpt lat="47.665221" lon="11.848092"><ele>1382.7</ele></trkpt><trkpt lat="47.664916" lon="11.847912"><ele>1392.2</ele></trkpt><trkpt lat="47.664771" lon="11.847852"><ele>1393.5</ele></trkpt><trkpt lat="47.664687" lon="11.847837"><ele>1395.9</ele></trkpt><trkpt lat="47.664447" lon="11.847894"><ele>1398.9</ele></trkpt><trkpt lat="47.664213" lon="11.84788"><ele>1401.8</ele></trkpt><trkpt lat="47.664082" lon="11.847915"><ele>1401.9</ele></trkpt><trkpt lat="47.663982" lon="11.847911"><ele>1402.1</ele></trkpt><trkpt lat="47.663763" lon="11.84778"><ele>1401.8</ele></trkpt><trkpt lat="47.663564" lon="11.847626"><ele>1400.9</ele></trkpt><trkpt lat="47.663475" lon="11.847625"><ele>1394</ele></trkpt><trkpt lat="47.663408" lon="11.847627"><ele>1394</ele></trkpt><trkpt lat="47.663286" lon="11.847508"><ele>1376.7</ele></trkpt><trkpt lat="47.663257" lon="11.847428"><ele>1390</ele></trkpt><trkpt lat="47.663286" lon="11.847508"><ele>1376.7</ele></trkpt><trkpt lat="47.663408" lon="11.847627"><ele>1394</ele></trkpt><trkpt lat="47.663475" lon="11.847625"><ele>1394</ele></trkpt><trkpt lat="47.663564" lon="11.847626"><ele>1400.9</ele></trkpt><trkpt lat="47.663763" lon="11.84778"><ele>1401.8</ele></trkpt><trkpt lat="47.663982" lon="11.847911"><ele>1402.1</ele></trkpt><trkpt lat="47.664082" lon="11.847915"><ele>1401.9</ele></trkpt><trkpt lat="47.664213" lon="11.84788"><ele>1401.8</ele></trkpt><trkpt lat="47.664447" lon="11.847894"><ele>1398.9</ele></trkpt><trkpt lat="47.664687" lon="11.847837"><ele>1395.9</ele></trkpt><trkpt lat="47.664771" lon="11.847852"><ele>1393.5</ele></trkpt><trkpt lat="47.664916" lon="11.847912"><ele>1392.2</ele></trkpt><trkpt lat="47.665221" lon="11.848092"><ele>1382.7</ele></trkpt><trkpt lat="47.665481" lon="11.848305"><ele>1377.2</ele></trkpt><trkpt lat="47.665628" lon="11.848384"><ele>1372.7</ele></trkpt><trkpt lat="47.666166" lon="11.848777"><ele>1353.7</ele></trkpt><trkpt lat="47.666326" lon="11.848796"><ele>1349.6</ele></trkpt><trkpt lat="47.666482" lon="11.848963"><ele>1346.9</ele></trkpt><trkpt lat="47.66675" lon="11.849186"><ele>1340</ele></trkpt><trkpt lat="47.666916" lon="11.849385"><ele>1338.9</ele></trkpt><trkpt lat="47.667182" lon="11.849655"><ele>1338.2</ele></trkpt><trkpt lat="47.667386" lon="11.850004"><ele>1337.9</ele></trkpt><trkpt lat="47.667522" lon="11.850303"><ele>1317</ele></trkpt><trkpt lat="47.667567" lon="11.850429"><ele>1317</ele></trkpt><trkpt lat="47.66764" lon="11.85075"><ele>1316.4</ele></trkpt><trkpt lat="47.66782" lon="11.85126"><ele>1316.3</ele></trkpt><trkpt lat="47.667907" lon="11.851405"><ele>1316</ele></trkpt><trkpt lat="47.667954" lon="11.851467"><ele>1316</ele></trkpt><trkpt lat="47.667987" lon="11.851447"><ele>1313.8</ele></trkpt><trkpt lat="47.668035" lon="11.851473"><ele>1314</ele></trkpt><trkpt lat="47.668164" lon="11.851772"><ele>1313.7</ele></trkpt><trkpt lat="47.66823" lon="11.851967"><ele>1313.4</ele></trkpt><trkpt lat="47.668333" lon="11.852187"><ele>1313.2</ele></trkpt><trkpt lat="47.668434" lon="11.852353"><ele>1313.2</ele></trkpt><trkpt lat="47.668617" lon="11.852967"><ele>1312.3</ele></trkpt><trkpt lat="47.668669" lon="11.853201"><ele>1312</ele></trkpt><trkpt lat="47.668694" lon="11.853499"><ele>1310.5</ele></trkpt><trkpt lat="47.668658" lon="11.853932"><ele>1309.8</ele></trkpt><trkpt lat="47.668657" lon="11.854195"><ele>1308.9</ele></trkpt><trkpt lat="47.668769" lon="11.854672"><ele>1307.2</ele></trkpt><trkpt lat="47.66879" lon="11.854895"><ele>1312.7</ele></trkpt><trkpt lat="47.66883" lon="11.855101"><ele>1312.4</ele></trkpt><trkpt lat="47.668856" lon="11.855582"><ele>1310.7</ele></trkpt><trkpt lat="47.668881" lon="11.855723"><ele>1310.6</ele></trkpt><trkpt lat="47.668956" lon="11.855948"><ele>1309.2</ele></trkpt><trkpt lat="47.669155" lon="11.856276"><ele>1309.3</ele></trkpt><trkpt lat="47.669293" lon="11.856421"><ele>1310.7</ele></trkpt><trkpt lat="47.669381" lon="11.856461"><ele>1313.6</ele></trkpt><trkpt lat="47.669437" lon="11.856458"><ele>1314.2</ele></trkpt><trkpt lat="47.669503" lon="11.856421"><ele>1314.8</ele></trkpt><trkpt lat="47.669546" lon="11.856346"><ele>1317.2</ele></trkpt><trkpt lat="47.669603" lon="11.856197"><ele>1317.4</ele></trkpt><trkpt lat="47.669742" lon="11.855831"><ele>1317.6</ele></trkpt><trkpt lat="47.669806" lon="11.855589"><ele>1317.6</ele></trkpt><trkpt lat="47.669977" lon="11.855168"><ele>1320</ele></trkpt><trkpt lat="47.669994" lon="11.854858"><ele>1320.5</ele></trkpt><trkpt lat="47.670016" lon="11.854704"><ele>1337.3</ele></trkpt><trkpt lat="47.670069" lon="11.854549"><ele>1364</ele></trkpt><trkpt lat="47.670134" lon="11.854447"><ele>1364.6</ele></trkpt><trkpt lat="47.670192" lon="11.854227"><ele>1364.5</ele></trkpt><trkpt lat="47.670261" lon="11.854154"><ele>1366</ele></trkpt><trkpt lat="47.670454" lon="11.854366"><ele>1364.3</ele></trkpt><trkpt lat="47.67056" lon="11.854673"><ele>1364.5</ele></trkpt><trkpt lat="47.670556" lon="11.85507"><ele>1364</ele></trkpt><trkpt lat="47.670746" lon="11.855513"><ele>1364.7</ele></trkpt><trkpt lat="47.670876" lon="11.85567"><ele>1365.2</ele></trkpt><trkpt lat="47.670961" lon="11.855849"><ele>1364.5</ele></trkpt><trkpt lat="47.671059" lon="11.856158"><ele>1363.9</ele></trkpt><trkpt lat="47.671324" lon="11.856704"><ele>1358</ele></trkpt><trkpt lat="47.67138" lon="11.856873"><ele>1358</ele></trkpt><trkpt lat="47.671394" lon="11.856964"><ele>1358</ele></trkpt><trkpt lat="47.671389" lon="11.857166"><ele>1356</ele></trkpt><trkpt lat="47.671186" lon="11.859081"><ele>1356.6</ele></trkpt><trkpt lat="47.671145" lon="11.859975"><ele>1359.8</ele></trkpt><trkpt lat="47.671084" lon="11.860763"><ele>1360.5</ele></trkpt><trkpt lat="47.671047" lon="11.861065"><ele>1359.9</ele></trkpt><trkpt lat="47.671053" lon="11.861225"><ele>1359.9</ele></trkpt><trkpt lat="47.671161" lon="11.861772"><ele>1357</ele></trkpt><trkpt lat="47.671224" lon="11.862252"><ele>1354.6</ele></trkpt><trkpt lat="47.671427" lon="11.862861"><ele>1349.9</ele></trkpt><trkpt lat="47.671513" lon="11.863208"><ele>1346.2</ele></trkpt><trkpt lat="47.671554" lon="11.863492"><ele>1340.3</ele></trkpt><trkpt lat="47.671623" lon="11.864788"><ele>1325.7</ele></trkpt><trkpt lat="47.671599" lon="11.865267"><ele>1317.6</ele></trkpt><trkpt lat="47.671502" lon="11.865916"><ele>1310.5</ele></trkpt><trkpt lat="47.671498" lon="11.866214"><ele>1309.7</ele></trkpt><trkpt lat="47.671523" lon="11.866554"><ele>1308.7</ele></trkpt><trkpt lat="47.671528" lon="11.867154"><ele>1305.8</ele></trkpt><trkpt lat="47.671515" lon="11.867554"><ele>1304.6</ele></trkpt><trkpt lat="47.671424" lon="11.86806"><ele>1302.7</ele></trkpt><trkpt lat="47.671371" lon="11.86846"><ele>1301</ele></trkpt><trkpt lat="47.671416" lon="11.869003"><ele>1299.5</ele></trkpt><trkpt lat="47.671263" lon="11.869732"><ele>1297.7</ele></trkpt><trkpt lat="47.671054" lon="11.870127"><ele>1297.6</ele></trkpt><trkpt lat="47.670884" lon="11.870558"><ele>1295</ele></trkpt><trkpt lat="47.670794" lon="11.871326"><ele>1267.2</ele></trkpt><trkpt lat="47.670726" lon="11.871668"><ele>1265.8</ele></trkpt><trkpt lat="47.670701" lon="11.871797"><ele>1264.5</ele></trkpt><trkpt lat="47.670597" lon="11.872931"><ele>1252.5</ele></trkpt><trkpt lat="47.670613" lon="11.873483"><ele>1248.8</ele></trkpt><trkpt lat="47.670584" lon="11.873984"><ele>1248.8</ele></trkpt><trkpt lat="47.670629" lon="11.874575"><ele>1247.8</ele></trkpt><trkpt lat="47.670606" lon="11.874898"><ele>1249.2</ele></trkpt><trkpt lat="47.670701" lon="11.875442"><ele>1249.9</ele></trkpt><trkpt lat="47.670909" lon="11.875788"><ele>1250.2</ele></trkpt><trkpt lat="47.671117" lon="11.876226"><ele>1245.4</ele></trkpt><trkpt lat="47.671226" lon="11.876662"><ele>1240.8</ele></trkpt><trkpt lat="47.671423" lon="11.877186"><ele>1235.9</ele></trkpt><trkpt lat="47.671743" lon="11.878444"><ele>1224.1</ele></trkpt><trkpt lat="47.671764" lon="11.879177"><ele>1213.4</ele></trkpt><trkpt lat="47.67174" lon="11.879967"><ele>1207.1</ele></trkpt><trkpt lat="47.671814" lon="11.88128"><ele>1194</ele></trkpt><trkpt lat="47.67183" lon="11.881608"><ele>1175.8</ele></trkpt><trkpt lat="47.6719" lon="11.882204"><ele>1167.5</ele></trkpt><trkpt lat="47.672051" lon="11.883134"><ele>1162.4</ele></trkpt><trkpt lat="47.672093" lon="11.883708"><ele>1154.5</ele></trkpt><trkpt lat="47.67212" lon="11.884579"><ele>1141.5</ele></trkpt><trkpt lat="47.672308" lon="11.886157"><ele>1131.1</ele></trkpt><trkpt lat="47.672403" lon="11.886418"><ele>1131.8</ele></trkpt><trkpt lat="47.672493" lon="11.886524"><ele>1129</ele></trkpt><trkpt lat="47.672524" lon="11.886557"><ele>1148</ele></trkpt><trkpt lat="47.672574" lon="11.886693"><ele>1135</ele></trkpt><trkpt lat="47.672698" lon="11.886698"><ele>1136.9</ele></trkpt><trkpt lat="47.673083" lon="11.88659"><ele>1148</ele></trkpt><trkpt lat="47.673514" lon="11.886464"><ele>1136</ele></trkpt><trkpt lat="47.673502" lon="11.886363"><ele>1131.3</ele></trkpt><trkpt lat="47.673625" lon="11.886192"><ele>1129.8</ele></trkpt><trkpt lat="47.675576" lon="11.885155"><ele>1092</ele></trkpt><trkpt lat="47.675974" lon="11.885108"><ele>1086</ele></trkpt><trkpt lat="47.6761" lon="11.88515"><ele>1085.9</ele></trkpt><trkpt lat="47.676191" lon="11.885142"><ele>1085.7</ele></trkpt><trkpt lat="47.676391" lon="11.885014"><ele>1085.3</ele></trkpt><trkpt lat="47.676477" lon="11.88488"><ele>1075</ele></trkpt><trkpt lat="47.676397" lon="11.884553"><ele>1070.1</ele></trkpt><trkpt lat="47.676261" lon="11.884427"><ele>1069.7</ele></trkpt><trkpt lat="47.675955" lon="11.884221"><ele>1069.2</ele></trkpt><trkpt lat="47.675874" lon="11.884061"><ele>1068.7</ele></trkpt><trkpt lat="47.675865" lon="11.883916"><ele>1068.7</ele></trkpt><trkpt lat="47.67594" lon="11.88387"><ele>1068.6</ele></trkpt><trkpt lat="47.676562" lon="11.88387"><ele>1068.6</ele></trkpt><trkpt lat="47.677148" lon="11.884129"><ele>1056</ele></trkpt><trkpt lat="47.677425" lon="11.884249"><ele>1054</ele></trkpt><trkpt lat="47.677525" lon="11.884333"><ele>1045</ele></trkpt><trkpt lat="47.677621" lon="11.884511"><ele>1048.8</ele></trkpt><trkpt lat="47.677792" lon="11.885126"><ele>1050.3</ele></trkpt><trkpt lat="47.67783" lon="11.885223"><ele>1050.1</ele></trkpt><trkpt lat="47.677909" lon="11.885335"><ele>1049.9</ele></trkpt><trkpt lat="47.677975" lon="11.88538"><ele>1049.7</ele></trkpt><trkpt lat="47.678049" lon="11.885399"><ele>1052</ele></trkpt><trkpt lat="47.678257" lon="11.88545"><ele>1028.1</ele></trkpt><trkpt lat="47.678624" lon="11.885631"><ele>1027.1</ele></trkpt><trkpt lat="47.678789" lon="11.885657"><ele>1027.4</ele></trkpt><trkpt lat="47.678808" lon="11.88564"><ele>1027.6</ele></trkpt><trkpt lat="47.678812" lon="11.885584"><ele>1027.8</ele></trkpt><trkpt lat="47.678778" lon="11.885425"><ele>1028.1</ele></trkpt><trkpt lat="47.67876" lon="11.885116"><ele>1028.6</ele></trkpt><trkpt lat="47.678773" lon="11.885022"><ele>1028.8</ele></trkpt><trkpt lat="47.678812" lon="11.884935"><ele>1029</ele></trkpt><trkpt lat="47.678879" lon="11.884871"><ele>1027</ele></trkpt><trkpt lat="47.679016" lon="11.884817"><ele>999.3</ele></trkpt><trkpt lat="47.67914" lon="11.884836"><ele>997.2</ele></trkpt><trkpt lat="47.679199" lon="11.884866"><ele>996.2</ele></trkpt><trkpt lat="47.67927" lon="11.884945"><ele>996.3</ele></trkpt><trkpt lat="47.679386" lon="11.885025"><ele>996.5</ele></trkpt><trkpt lat="47.679506" lon="11.885056"><ele>996.1</ele></trkpt><trkpt lat="47.679621" lon="11.885086"><ele>995.6</ele></trkpt><trkpt lat="47.679695" lon="11.885373"><ele>994.6</ele></trkpt><trkpt lat="47.679783" lon="11.885463"><ele>994.2</ele></trkpt><trkpt lat="47.679895" lon="11.885504"><ele>993.7</ele></trkpt><trkpt lat="47.680041" lon="11.885517"><ele>993.4</ele></trkpt><trkpt lat="47.680067" lon="11.885499"><ele>995.1</ele></trkpt><trkpt lat="47.680074" lon="11.885454"><ele>970</ele></trkpt><trkpt lat="47.680263" lon="11.885464"><ele>970</ele></trkpt><trkpt lat="47.680287" lon="11.885355"><ele>970</ele></trkpt><trkpt lat="47.680398" lon="11.885233"><ele>970</ele></trkpt><trkpt lat="47.680461" lon="11.885142"><ele>969.6</ele></trkpt><trkpt lat="47.680498" lon="11.885025"><ele>969.4</ele></trkpt><trkpt lat="47.680493" lon="11.884623"><ele>969</ele></trkpt><trkpt lat="47.680522" lon="11.88455"><ele>971.3</ele></trkpt><trkpt lat="47.680594" lon="11.884469"><ele>971.7</ele></trkpt><trkpt lat="47.68069" lon="11.884049"><ele>972.7</ele></trkpt><trkpt lat="47.680803" lon="11.883787"><ele>976</ele></trkpt><trkpt lat="47.681189" lon="11.883844"><ele>948.1</ele></trkpt><trkpt lat="47.68135" lon="11.883801"><ele>947.4</ele></trkpt><trkpt lat="47.681408" lon="11.883694"><ele>945.9</ele></trkpt><trkpt lat="47.681557" lon="11.88371"><ele>944.9</ele></trkpt><trkpt lat="47.681756" lon="11.883821"><ele>943.6</ele></trkpt><trkpt lat="47.682345" lon="11.883798"><ele>938.8</ele></trkpt><trkpt lat="47.682512" lon="11.883729"><ele>938</ele></trkpt><trkpt lat="47.682619" lon="11.883814"><ele>935.4</ele></trkpt><trkpt lat="47.682717" lon="11.883721"><ele>934.8</ele></trkpt><trkpt lat="47.682737" lon="11.883672"><ele>934.9</ele></trkpt><trkpt lat="47.682883" lon="11.883686"><ele>934.4</ele></trkpt><trkpt lat="47.682944" lon="11.883723"><ele>933.8</ele></trkpt><trkpt lat="47.683064" lon="11.883867"><ele>933.9</ele></trkpt><trkpt lat="47.683177" lon="11.883894"><ele>933.6</ele></trkpt><trkpt lat="47.683288" lon="11.883973"><ele>933.8</ele></trkpt><trkpt lat="47.683353" lon="11.884143"><ele>933.1</ele></trkpt><trkpt lat="47.683442" lon="11.884228"><ele>932.3</ele></trkpt><trkpt lat="47.683537" lon="11.884172"><ele>931.5</ele></trkpt><trkpt lat="47.683638" lon="11.884142"><ele>931.4</ele></trkpt><trkpt lat="47.683711" lon="11.884199"><ele>930</ele></trkpt><trkpt lat="47.683792" lon="11.884394"><ele>928.2</ele></trkpt><trkpt lat="47.683814" lon="11.884347"><ele>927.5</ele></trkpt><trkpt lat="47.683851" lon="11.88437"><ele>926.9</ele></trkpt><trkpt lat="47.683871" lon="11.884472"><ele>915</ele></trkpt><trkpt lat="47.6839" lon="11.884622"><ele>911.2</ele></trkpt><trkpt lat="47.68401" lon="11.884722"><ele>911.5</ele></trkpt><trkpt lat="47.684027" lon="11.884859"><ele>911.8</ele></trkpt><trkpt lat="47.684076" lon="11.885045"><ele>911.9</ele></trkpt><trkpt lat="47.684108" lon="11.885011"><ele>912</ele></trkpt><trkpt lat="47.684162" lon="11.885043"><ele>912.1</ele></trkpt><trkpt lat="47.684172" lon="11.885102"><ele>910.7</ele></trkpt><trkpt lat="47.684213" lon="11.885121"><ele>908.4</ele></trkpt><trkpt lat="47.684239" lon="11.88486"><ele>905</ele></trkpt><trkpt lat="47.684285" lon="11.884885"><ele>905</ele></trkpt><trkpt lat="47.684317" lon="11.884907"><ele>905</ele></trkpt><trkpt lat="47.684322" lon="11.884943"><ele>905</ele></trkpt><trkpt lat="47.684356" lon="11.884975"><ele>905</ele></trkpt><trkpt lat="47.684388" lon="11.884972"><ele>905</ele></trkpt><trkpt lat="47.684456" lon="11.884895"><ele>905</ele></trkpt><trkpt lat="47.684509" lon="11.884881"><ele>905</ele></trkpt><trkpt lat="47.684549" lon="11.88482"><ele>905</ele></trkpt><trkpt lat="47.684738" lon="11.884797"><ele>905</ele></trkpt><trkpt lat="47.684825" lon="11.884771"><ele>894</ele></trkpt><trkpt lat="47.684953" lon="11.884776"><ele>894.2</ele></trkpt><trkpt lat="47.685051" lon="11.884693"><ele>893.7</ele></trkpt><trkpt lat="47.685193" lon="11.884695"><ele>892.7</ele></trkpt><trkpt lat="47.685427" lon="11.884591"><ele>892</ele></trkpt><trkpt lat="47.685659" lon="11.884401"><ele>890.5</ele></trkpt><trkpt lat="47.685892" lon="11.884278"><ele>889</ele></trkpt><trkpt lat="47.686036" lon="11.884284"><ele>888.4</ele></trkpt><trkpt lat="47.686127" lon="11.884206"><ele>885.6</ele></trkpt><trkpt lat="47.686251" lon="11.883927"><ele>884.7</ele></trkpt><trkpt lat="47.686385" lon="11.883894"><ele>884.3</ele></trkpt><trkpt lat="47.686453" lon="11.883982"><ele>884.9</ele></trkpt><trkpt lat="47.686513" lon="11.88395"><ele>884.5</ele></trkpt><trkpt lat="47.686811" lon="11.884004"><ele>859</ele></trkpt><trkpt lat="47.686767" lon="11.883844"><ele>869.3</ele></trkpt><trkpt lat="47.686693" lon="11.883753"><ele>867.3</ele></trkpt><trkpt lat="47.686622" lon="11.88358"><ele>892</ele></trkpt><trkpt lat="47.686543" lon="11.883589"><ele>892</ele></trkpt><trkpt lat="47.686412" lon="11.883649"><ele>892</ele></trkpt><trkpt lat="47.686241" lon="11.883693"><ele>892</ele></trkpt><trkpt lat="47.686154" lon="11.883687"><ele>892</ele></trkpt><trkpt lat="47.686241" lon="11.883693"><ele>892</ele></trkpt><trkpt lat="47.686412" lon="11.883649"><ele>892</ele></trkpt><trkpt lat="47.686543" lon="11.883589"><ele>892</ele></trkpt><trkpt lat="47.686622" lon="11.88358"><ele>892</ele></trkpt><trkpt lat="47.68683" lon="11.883416"><ele>873.6</ele></trkpt><trkpt lat="47.687035" lon="11.883222"><ele>874.4</ele></trkpt><trkpt lat="47.687161" lon="11.883145"><ele>875.1</ele></trkpt><trkpt lat="47.687249" lon="11.883137"><ele>875.7</ele></trkpt><trkpt lat="47.687322" lon="11.883231"><ele>880</ele></trkpt><trkpt lat="47.6875" lon="11.883457"><ele>850.9</ele></trkpt><trkpt lat="47.687769" lon="11.883855"><ele>847.1</ele></trkpt><trkpt lat="47.687968" lon="11.884073"><ele>846.1</ele></trkpt><trkpt lat="47.688318" lon="11.884365"><ele>833</ele></trkpt><trkpt lat="47.688602" lon="11.884243"><ele>822</ele></trkpt><trkpt lat="47.688698" lon="11.884215"><ele>822</ele></trkpt><trkpt lat="47.688805" lon="11.884384"><ele>820.8</ele></trkpt><trkpt lat="47.689171" lon="11.884606"><ele>820.2</ele></trkpt><trkpt lat="47.689523" lon="11.884763"><ele>819.8</ele></trkpt><trkpt lat="47.689818" lon="11.88499"><ele>819.9</ele></trkpt><trkpt lat="47.690231" lon="11.885453"><ele>818.8</ele></trkpt><trkpt lat="47.690332" lon="11.885511"><ele>818.6</ele></trkpt><trkpt lat="47.69054" lon="11.885546"><ele>818.1</ele></trkpt><trkpt lat="47.690711" lon="11.88551"><ele>817</ele></trkpt><trkpt lat="47.690756" lon="11.8855"><ele>814.3</ele></trkpt><trkpt lat="47.691022" lon="11.885284"><ele>809</ele></trkpt><trkpt lat="47.691224" lon="11.885121"><ele>809</ele></trkpt><trkpt lat="47.691698" lon="11.884732"><ele>805</ele></trkpt><trkpt lat="47.691921" lon="11.884546"><ele>805</ele></trkpt><trkpt lat="47.692414" lon="11.884135"><ele>812</ele></trkpt><trkpt lat="47.692543" lon="11.884026"><ele>805</ele></trkpt><trkpt lat="47.692711" lon="11.883886"><ele>805</ele></trkpt><trkpt lat="47.693271" lon="11.883415"><ele>805</ele></trkpt><trkpt lat="47.693317" lon="11.883371"><ele>805</ele></trkpt><trkpt lat="47.694319" lon="11.882518"><ele>795</ele></trkpt><trkpt lat="47.694613" lon="11.882272"><ele>795</ele></trkpt><trkpt lat="47.694994" lon="11.881951"><ele>793.7</ele></trkpt><trkpt lat="47.69519" lon="11.881862"><ele>793.4</ele></trkpt><trkpt lat="47.695379" lon="11.881819"><ele>793.2</ele></trkpt><trkpt lat="47.695525" lon="11.881831"><ele>792</ele></trkpt><trkpt lat="47.696484" lon="11.882054"><ele>794</ele></trkpt><trkpt lat="47.696808" lon="11.882102"><ele>797</ele></trkpt><trkpt lat="47.696913" lon="11.882118"><ele>797</ele></trkpt><trkpt lat="47.697092" lon="11.882087"><ele>797.3</ele></trkpt><trkpt lat="47.697337" lon="11.881956"><ele>797.2</ele></trkpt><trkpt lat="47.697847" lon="11.881616"><ele>797.5</ele></trkpt><trkpt lat="47.698366" lon="11.881314"><ele>797</ele></trkpt><trkpt lat="47.699079" lon="11.880884"><ele>797</ele></trkpt><trkpt lat="47.699582" lon="11.880596"><ele>799</ele></trkpt><trkpt lat="47.699654" lon="11.880742"><ele>799</ele></trkpt><trkpt lat="47.699805" lon="11.88061"><ele>799</ele></trkpt><trkpt lat="47.699889" lon="11.880561"><ele>799</ele></trkpt><trkpt lat="47.700081" lon="11.88053"><ele>799</ele></trkpt><trkpt lat="47.700175" lon="11.880555"><ele>799</ele></trkpt><trkpt lat="47.700113" lon="11.880279"><ele>799</ele></trkpt><trkpt lat="47.700222" lon="11.880215"><ele>799</ele></trkpt><trkpt lat="47.701156" lon="11.879683"><ele>805</ele></trkpt><trkpt lat="47.701679" lon="11.879352"><ele>807</ele></trkpt><trkpt lat="47.70213" lon="11.878971"><ele>808.6</ele></trkpt><trkpt lat="47.702349" lon="11.878879"><ele>811</ele></trkpt><trkpt lat="47.702625" lon="11.87895"><ele>813</ele></trkpt><trkpt lat="47.702917" lon="11.878948"><ele>813</ele></trkpt><trkpt lat="47.702959" lon="11.878948"><ele>813</ele></trkpt><trkpt lat="47.703152" lon="11.878835"><ele>813</ele></trkpt><trkpt lat="47.703563" lon="11.879015"><ele>811</ele></trkpt><trkpt lat="47.70369" lon="11.878581"><ele>811</ele></trkpt><trkpt lat="47.703668" lon="11.878539"><ele>811</ele></trkpt><trkpt lat="47.703735" lon="11.878337"><ele>811</ele></trkpt><trkpt lat="47.703903" lon="11.878067"><ele>811</ele></trkpt><trkpt lat="47.704029" lon="11.877874"><ele>811</ele></trkpt><trkpt lat="47.704589" lon="11.877057"><ele>811</ele></trkpt><trkpt lat="47.705118" lon="11.876306"><ele>811</ele></trkpt><trkpt lat="47.705536" lon="11.875803"><ele>812</ele></trkpt><trkpt lat="47.705571" lon="11.875416"><ele>812</ele></trkpt><trkpt lat="47.705586" lon="11.875249"><ele>812</ele></trkpt><trkpt lat="47.705619" lon="11.875007"><ele>812</ele></trkpt><trkpt lat="47.705697" lon="11.874417"><ele>815</ele></trkpt><trkpt lat="47.705754" lon="11.874304"><ele>815</ele></trkpt><trkpt lat="47.705801" lon="11.874312"><ele>815</ele></trkpt><trkpt lat="47.705807" lon="11.874252"><ele>815</ele></trkpt><trkpt lat="47.705989" lon="11.874278"><ele>811.7</ele></trkpt><trkpt lat="47.706028" lon="11.874229"><ele>810</ele></trkpt><trkpt lat="47.706051" lon="11.874098"><ele>806</ele></trkpt><trkpt lat="47.706115" lon="11.874117"><ele>806</ele></trkpt><trkpt lat="47.706147" lon="11.873919"><ele>806</ele></trkpt><trkpt lat="47.706141" lon="11.873917"><ele>806</ele></trkpt></trkseg></trk></gpx>