<gpx xmlns="http://www.topografix.com/GPX/1/1" xmlns:xsi="http://www.w3.org/2001/XMLSchema-instance" xsi:schemaLocation="http://www.topografix.com/GPX/1/1 http://www.topografix.com/GPX/1/1/gpx.xsd" version="1.1" creator="togpx"><metadata/><wpt lat="47.68686053863603" lon="11.794407963752748"><name></name><desc>label=Robert-Holzer-Straße, Rottach-Egern,BY,Germany</desc></wpt><wpt lat="47.68651024812411" lon="11.818413734436037"><name></name><desc>label=Kühzaglstraße, Rottach-Egern,BY,Germany</desc></wpt><wpt lat="47.68038520087557" lon="11.835944652557375"><name></name><desc>label=Wasserspitz, Schliersee,BY,Germany</desc></wpt><wpt lat="47.676354411901855" lon="11.8340402841568"><name></name><desc>label=627, Schliersee,BY,Germany</desc></wpt><wpt lat="47.67498907406865" lon="11.840472221374513"><name></name><desc>label=627, Schliersee,BY,Germany</desc></wpt><wpt lat="47.672258291225106" lon="11.850621700286865"><name></name><desc>label= SB 5, Schliersee,BY,Germany</desc></wpt><wpt lat="47.6677500195772" lon="11.85104012489319"><name></name><desc>label=SB 5, SB 6,Schliersee,BY,Germany</desc></wpt><wpt lat="47.659978839249426" lon="11.857230663299562"><name></name><desc>label=Stümpflingbahn Berg, Schliersee,BY,Germany</desc></wpt><trk><name></name><desc>ascent=1215.5
descent=481.3
opacity=0.9</desc><trkseg><trkpt lat="47.686798" lon="11.794397"><ele>745</ele></trkpt><trkpt lat="47.686767" lon="11.794773"><ele>746</ele></trkpt><trkpt lat="47.686818" lon="11.794814"><ele>746.3</ele></trkpt><trkpt lat="47.687095" lon="11.795251"><ele>747</ele></trkpt><trkpt lat="47.687289" lon="11.795502"><ele>747</ele></trkpt><trkpt lat="47.687359" lon="11.795567"><ele>747</ele></trkpt><trkpt lat="47.687457" lon="11.795612"><ele>747</ele></trkpt><trkpt lat="47.687489" lon="11.795622"><ele>747</ele></trkpt><trkpt lat="47.687598" lon="11.795652"><ele>749</ele></trkpt><trkpt lat="47.687643" lon="11.795662"><ele>749</ele></trkpt><trkpt lat="47.687674" lon="11.795689"><ele>749</ele></trkpt><trkpt lat="47.68774" lon="11.795786"><ele>749</ele></trkpt><trkpt lat="47.687802" lon="11.795961"><ele>749</ele></trkpt><trkpt lat="47.687844" lon="11.796203"><ele>749.7</ele></trkpt><trkpt lat="47.687856" lon="11.796418"><ele>749.6</ele></trkpt><trkpt lat="47.687843" lon="11.797493"><ele>752</ele></trkpt><trkpt lat="47.687773" lon="11.799109"><ele>753</ele></trkpt><trkpt lat="47.687797" lon="11.799606"><ele>752</ele></trkpt><trkpt lat="47.688071" lon="11.800458"><ele>751</ele></trkpt><trkpt lat="47.688321" lon="11.801122"><ele>750</ele></trkpt><trkpt lat="47.688314" lon="11.801453"><ele>755.2</ele></trkpt><trkpt lat="47.688224" lon="11.802174"><ele>758</ele></trkpt><trkpt lat="47.688056" lon="11.803093"><ele>762.6</ele></trkpt><trkpt lat="47.687914" lon="11.803611"><ele>765.2</ele></trkpt><trkpt lat="47.687755" lon="11.80404"><ele>766.2</ele></trkpt><trkpt lat="47.687716" lon="11.804203"><ele>768.5</ele></trkpt><trkpt lat="47.68766" lon="11.804877"><ele>769.4</ele></trkpt><trkpt lat="47.687701" lon="11.806379"><ele>774</ele></trkpt><trkpt lat="47.687659" lon="11.806481"><ele>774</ele></trkpt><trkpt lat="47.687627" lon="11.806654"><ele>774</ele></trkpt><trkpt lat="47.687615" lon="11.806745"><ele>777</ele></trkpt><trkpt lat="47.687581" lon="11.807006"><ele>775.8</ele></trkpt><trkpt lat="47.687348" lon="11.808153"><ele>775.4</ele></trkpt><trkpt lat="47.687056" lon="11.80909"><ele>770</ele></trkpt><trkpt lat="47.686999" lon="11.809321"><ele>765.4</ele></trkpt><trkpt lat="47.686966" lon="11.809793"><ele>764</ele></trkpt><trkpt lat="47.686925" lon="11.810927"><ele>770.6</ele></trkpt><trkpt lat="47.686875" lon="11.811244"><ele>770.9</ele></trkpt><trkpt lat="47.686833" lon="11.811394"><ele>771.1</ele></trkpt><trkpt lat="47.686725" lon="11.81165"><ele>771.3</ele></trkpt><trkpt lat="47.686597" lon="11.811836"><ele>772.1</ele></trkpt><trkpt lat="47.686406" lon="11.812029"><ele>773</ele></trkpt><trkpt lat="47.685986" lon="11.812357"><ele>774.5</ele></trkpt><trkpt lat="47.685879" lon="11.812494"><ele>774.2</ele></trkpt><trkpt lat="47.685638" lon="11.81295"><ele>774.5</ele></trkpt><trkpt lat="47.685465" lon="11.813579"><ele>780</ele></trkpt><trkpt lat="47.685486" lon="11.813711"><ele>782.5</ele></trkpt><trkpt lat="47.685486" lon="11.814011"><ele>782.3</ele></trkpt><trkpt lat="47.685505" lon="11.814191"><ele>782.5</ele></trkpt><trkpt lat="47.685611" lon="11.814593"><ele>782.8</ele></trkpt><trkpt lat="47.685646" lon="11.814915"><ele>784.7</ele></trkpt><trkpt lat="47.68562" lon="11.816841"><ele>799.5</ele></trkpt><trkpt lat="47.685659" lon="11.817166"><ele>803.8</ele></trkpt><trkpt lat="47.685813" lon="11.817436"><ele>806</ele></trkpt><trkpt lat="47.686037" lon="11.817938"><ele>830.6</ele></trkpt><trkpt lat="47.686117" lon="11.81806"><ele>832.4</ele></trkpt><trkpt lat="47.686503" lon="11.81843"><ele>834.5</ele></trkpt><trkpt lat="47.686505" lon="11.818432"><ele>836.7</ele></trkpt><trkpt lat="47.686694" lon="11.818765"><ele>837.7</ele></trkpt><trkpt lat="47.68693" lon="11.819343"><ele>844.7</ele></trkpt><trkpt lat="47.687063" lon="11.81976"><ele>862</ele></trkpt><trkpt lat="47.687167" lon="11.820323"><ele>876</ele></trkpt><trkpt lat="47.687274" lon="11.820674"><ele>883</ele></trkpt><trkpt lat="47.687453" lon="11.82126"><ele>896.4</ele></trkpt><trkpt lat="47.687753" lon="11.821895"><ele>896.2</ele></trkpt><trkpt lat="47.688143" lon="11.82254"><ele>909</ele></trkpt><trkpt lat="47.688184" lon="11.822609"><ele>909</ele></trkpt><trkpt lat="47.68844" lon="11.823007"><ele>916.1</ele></trkpt><trkpt lat="47.688743" lon="11.823378"><ele>915.9</ele></trkpt><trkpt lat="47.68888" lon="11.823599"><ele>917.9</ele></trkpt><trkpt lat="47.688998" lon="11.824023"><ele>919.6</ele></trkpt><trkpt lat="47.689109" lon="11.824669"><ele>927.1</ele></trkpt><trkpt lat="47.689284" lon="11.825267"><ele>932.6</ele></trkpt><trkpt lat="47.689341" lon="11.825814"><ele>936</ele></trkpt><trkpt lat="47.689424" lon="11.826289"><ele>945</ele></trkpt><trkpt lat="47.689436" lon="11.826372"><ele>945</ele></trkpt><trkpt lat="47.689415" lon="11.826674"><ele>959.8</ele></trkpt><trkpt lat="47.689374" lon="11.826803"><ele>959.3</ele></trkpt><trkpt lat="47.689214" lon="11.827053"><ele>958.8</ele></trkpt><trkpt lat="47.689166" lon="11.827167"><ele>961.5</ele></trkpt><trkpt lat="47.689157" lon="11.827303"><ele>964</ele></trkpt><trkpt lat="47.689189" lon="11.827388"><ele>963.2</ele></trkpt><trkpt lat="47.689258" lon="11.827466"><ele>962.4</ele></trkpt><trkpt lat="47.68978" lon="11.827837"><ele>962.7</ele></trkpt><trkpt lat="47.69006" lon="11.828089"><ele>963.9</ele></trkpt><trkpt lat="47.690121" lon="11.828169"><ele>979</ele></trkpt><trkpt lat="47.69015" lon="11.828285"><ele>992.7</ele></trkpt><trkpt lat="47.69012" lon="11.828671"><ele>992.1</ele></trkpt><trkpt lat="47.689977" lon="11.829188"><ele>998.1</ele></trkpt><trkpt lat="47.689794" lon="11.829641"><ele>1002.8</ele></trkpt><trkpt lat="47.689679" lon="11.829823"><ele>1004.1</ele></trkpt><trkpt lat="47.689301" lon="11.830265"><ele>1011.6</ele></trkpt><trkpt lat="47.689225" lon="11.830407"><ele>1015.1</ele></trkpt><trkpt lat="47.689114" lon="11.830915"><ele>1018</ele></trkpt><trkpt lat="47.6891" lon="11.831057"><ele>1019.6</ele></trkpt><trkpt lat="47.689109" lon="11.831186"><ele>1021.2</ele></trkpt><trkpt lat="47.689175" lon="11.831508"><ele>1025.8</ele></trkpt><trkpt lat="47.689309" lon="11.831848"><ele>1029.7</ele></trkpt><trkpt lat="47.689525" lon="11.832254"><ele>1035.3</ele></trkpt><trkpt lat="47.689876" lon="11.833067"><ele>1051.4</ele></trkpt><trkpt lat="47.69034" lon="11.833849"><ele>1059.8</ele></trkpt><trkpt lat="47.690528" lon="11.8343"><ele>1063.6</ele></trkpt><trkpt lat="47.690639" lon="11.834664"><ele>1065.2</ele></trkpt><trkpt lat="47.691076" lon="11.835405"><ele>1068.3</ele></trkpt><trkpt lat="47.691315" lon="11.83589"><ele>1073.4</ele></trkpt><trkpt lat="47.691375" lon="11.835985"><ele>1075.7</ele></trkpt><trkpt lat="47.691586" lon="11.8362"><ele>1084</ele></trkpt><trkpt lat="47.691644" lon="11.836296"><ele>1085.2</ele></trkpt><trkpt lat="47.691858" lon="11.836861"><ele>1084.3</ele></trkpt><trkpt lat="47.691926" lon="11.837085"><ele>1083.6</ele></trkpt><trkpt lat="47.692022" lon="11.837546"><ele>1090</ele></trkpt><trkpt lat="47.692079" lon="11.837822"><ele>1101.1</ele></trkpt><trkpt lat="47.692185" lon="11.838662"><ele>1108.2</ele></trkpt><trkpt lat="47.692188" lon="11.838822"><ele>1107.9</ele></trkpt><trkpt lat="47.692143" lon="11.839244"><ele>1109.6</ele></trkpt><trkpt lat="47.692021" lon="11.83997"><ele>1119.7</ele></trkpt><trkpt lat="47.692013" lon="11.840315"><ele>1121.2</ele></trkpt><trkpt lat="47.692042" lon="11.840625"><ele>1122.6</ele></trkpt><trkpt lat="47.692044" lon="11.841501"><ele>1138</ele></trkpt><trkpt lat="47.692029" lon="11.841686"><ele>1145.6</ele></trkpt><trkpt lat="47.69194" lon="11.842202"><ele>1147.2</ele></trkpt><trkpt lat="47.691807" lon="11.842775"><ele>1148</ele></trkpt><trkpt lat="47.691734" lon="11.843365"><ele>1150.8</ele></trkpt><trkpt lat="47.691719" lon="11.843654"><ele>1153</ele></trkpt><trkpt lat="47.691697" lon="11.843765"><ele>1152.7</ele></trkpt><trkpt lat="47.691569" lon="11.844151"><ele>1156.1</ele></trkpt><trkpt lat="47.691293" lon="11.844832"><ele>1159</ele></trkpt><trkpt lat="47.69123" lon="11.845032"><ele>1158.7</ele></trkpt><trkpt lat="47.69121" lon="11.845175"><ele>1158.4</ele></trkpt><trkpt lat="47.691221" lon="11.845465"><ele>1156</ele></trkpt><trkpt lat="47.690954" lon="11.845716"><ele>1157.4</ele></trkpt><trkpt lat="47.690741" lon="11.846083"><ele>1158.3</ele></trkpt><trkpt lat="47.690626" lon="11.846412"><ele>1158.5</ele></trkpt><trkpt lat="47.690503" lon="11.846661"><ele>1158.6</ele></trkpt><trkpt lat="47.690347" lon="11.846792"><ele>1157.6</ele></trkpt><trkpt lat="47.690145" lon="11.846848"><ele>1156.7</ele></trkpt><trkpt lat="47.689784" lon="11.846997"><ele>1164</ele></trkpt><trkpt lat="47.689615" lon="11.847363"><ele>1161.3</ele></trkpt><trkpt lat="47.689547" lon="11.847735"><ele>1156</ele></trkpt><trkpt lat="47.689757" lon="11.847852"><ele>1156</ele></trkpt><trkpt lat="47.689929" lon="11.848024"><ele>1156</ele></trkpt><trkpt lat="47.689932" lon="11.848159"><ele>1156</ele></trkpt><trkpt lat="47.689815" lon="11.848264"><ele>1156</ele></trkpt><trkpt lat="47.689588" lon="11.848289"><ele>1156</ele></trkpt><trkpt lat="47.689555" lon="11.848198"><ele>1156</ele></trkpt><trkpt lat="47.689489" lon="11.848153"><ele>1164.7</ele></trkpt><trkpt lat="47.68937" lon="11.848116"><ele>1167.1</ele></trkpt><trkpt lat="47.689191" lon="11.848088"><ele>1168.2</ele></trkpt><trkpt lat="47.688779" lon="11.848097"><ele>1171.5</ele></trkpt><trkpt lat="47.688492" lon="11.848149"><ele>1173.6</ele></trkpt><trkpt lat="47.68832" lon="11.848092"><ele>1176.7</ele></trkpt><trkpt lat="47.688175" lon="11.847986"><ele>1178.9</ele></trkpt><trkpt lat="47.687551" lon="11.847981"><ele>1188.4</ele></trkpt><trkpt lat="47.687356" lon="11.847947"><ele>1190.3</ele></trkpt><trkpt lat="47.687109" lon="11.847878"><ele>1191.5</ele></trkpt><trkpt lat="47.686857" lon="11.847727"><ele>1192.5</ele></trkpt><trkpt lat="47.686485" lon="11.847641"><ele>1212</ele></trkpt><trkpt lat="47.686267" lon="11.847568"><ele>1226.7</ele></trkpt><trkpt lat="47.685953" lon="11.847398"><ele>1227.5</ele></trkpt><trkpt lat="47.685869" lon="11.847418"><ele>1226.9</ele></trkpt><trkpt lat="47.685708" lon="11.847579"><ele>1226.5</ele></trkpt><trkpt lat="47.685418" lon="11.847648"><ele>1229.2</ele></trkpt><trkpt lat="47.684928" lon="11.847571"><ele>1231.8</ele></trkpt><trkpt lat="47.68474" lon="11.847649"><ele>1233.7</ele></trkpt><trkpt lat="47.684619" lon="11.847637"><ele>1235.1</ele></trkpt><trkpt lat="47.684493" lon="11.847571"><ele>1238.3</ele></trkpt><trkpt lat="47.684129" lon="11.847301"><ele>1244.5</ele></trkpt><trkpt lat="47.683773" lon="11.84679"><ele>1249.8</ele></trkpt><trkpt lat="47.6837" lon="11.846584"><ele>1251</ele></trkpt><trkpt lat="47.683611" lon="11.845897"><ele>1254</ele></trkpt><trkpt lat="47.683538" lon="11.845623"><ele>1254.5</ele></trkpt><trkpt lat="47.683477" lon="11.845529"><ele>1254.9</ele></trkpt><trkpt lat="47.683396" lon="11.845475"><ele>1254.4</ele></trkpt><trkpt lat="47.683259" lon="11.845453"><ele>1262</ele></trkpt><trkpt lat="47.68316" lon="11.845348"><ele>1262</ele></trkpt><trkpt lat="47.6831" lon="11.845151"><ele>1262</ele></trkpt><trkpt lat="47.683091" lon="11.844854"><ele>1271</ele></trkpt><trkpt lat="47.683177" lon="11.844792"><ele>1288</ele></trkpt><trkpt lat="47.683422" lon="11.844326"><ele>1299.6</ele></trkpt><trkpt lat="47.683389" lon="11.843625"><ele>1304.6</ele></trkpt><trkpt lat="47.683447" lon="11.843236"><ele>1306.4</ele></trkpt><trkpt lat="47.68338" lon="11.843039"><ele>1305.6</ele></trkpt><trkpt lat="47.683332" lon="11.842265"><ele>1312.8</ele></trkpt><trkpt lat="47.683317" lon="11.841641"><ele>1319.4</ele></trkpt><trkpt lat="47.683279" lon="11.841367"><ele>1320.7</ele></trkpt><trkpt lat="47.68325" lon="11.840488"><ele>1345.4</ele></trkpt><trkpt lat="47.683259" lon="11.840119"><ele>1351.5</ele></trkpt><trkpt lat="47.683288" lon="11.83973"><ele>1356.1</ele></trkpt><trkpt lat="47.683355" lon="11.839171"><ele>1363.5</ele></trkpt><trkpt lat="47.683381" lon="11.83919"><ele>1362</ele></trkpt><trkpt lat="47.683379" lon="11.839152"><ele>1360.4</ele></trkpt><trkpt lat="47.68343" lon="11.839193"><ele>1358.3</ele></trkpt><trkpt lat="47.68342" lon="11.838996"><ele>1381</ele></trkpt><trkpt lat="47.683403" lon="11.838778"><ele>1381</ele></trkpt><trkpt lat="47.683439" lon="11.838665"><ele>1381</ele></trkpt><trkpt lat="47.683302" lon="11.838519"><ele>1417.8</ele></trkpt><trkpt lat="47.68323" lon="11.838317"><ele>1423.2</ele></trkpt><trkpt lat="47.683158" lon="11.838269"><ele>1423.8</ele></trkpt><trkpt lat="47.682966" lon="11.837986"><ele>1429.7</ele></trkpt><trkpt lat="47.682845" lon="11.83784"><ele>1434.5</ele></trkpt><trkpt lat="47.682772" lon="11.837662"><ele>1438.6</ele></trkpt><trkpt lat="47.682664" lon="11.837262"><ele>1447</ele></trkpt><trkpt lat="47.682434" lon="11.837053"><ele>1461.8</ele></trkpt><trkpt lat="47.682394" lon="11.836903"><ele>1467</ele></trkpt><trkpt lat="47.682212" lon="11.836666"><ele>1476.6</ele></trkpt><trkpt lat="47.682108" lon="11.836601"><ele>1477.9</ele></trkpt><trkpt lat="47.681982" lon="11.836558"><ele>1482.4</ele></trkpt><trkpt lat="47.681871" lon="11.836485"><ele>1484</ele></trkpt><trkpt lat="47.681828" lon="11.836426"><ele>1486.3</ele></trkpt><trkpt lat="47.68163" lon="11.836258"><ele>1494.4</ele></trkpt><trkpt lat="47.681506" lon="11.836238"><ele>1494.2</ele></trkpt><trkpt lat="47.68151" lon="11.836175"><ele>1495.5</ele></trkpt><trkpt lat="47.681443" lon="11.836114"><ele>1495.3</ele></trkpt><trkpt lat="47.681374" lon="11.835998"><ele>1496.5</ele></trkpt><trkpt lat="47.681341" lon="11.835908"><ele>1496.3</ele></trkpt><trkpt lat="47.681266" lon="11.83598"><ele>1497.4</ele></trkpt><trkpt lat="47.681241" lon="11.835935"><ele>1497.2</ele></trkpt><trkpt lat="47.681197" lon="11.835935"><ele>1498.1</ele></trkpt><trkpt lat="47.681154" lon="11.835872"><ele>1498</ele></trkpt><trkpt lat="47.681087" lon="11.835843"><ele>1497.9</ele></trkpt><trkpt lat="47.68104" lon="11.835888"><ele>1497.7</ele></trkpt><trkpt lat="47.68082" lon="11.835976"><ele>1498.8</ele></trkpt><trkpt lat="47.680749" lon="11.835963"><ele>1498.2</ele></trkpt><trkpt lat="47.680692" lon="11.835921"><ele>1498.2</ele></trkpt><trkpt lat="47.68044" lon="11.835913"><ele>1498.5</ele></trkpt><trkpt lat="47.680407" lon="11.835886"><ele>1506.2</ele></trkpt><trkpt lat="47.680402" lon="11.835882"><ele>1514</ele></trkpt><trkpt lat="47.680193" lon="11.835649"><ele>1512.6</ele></trkpt><trkpt lat="47.680132" lon="11.835655"><ele>1513</ele></trkpt><trkpt lat="47.680066" lon="11.835597"><ele>1513.3</ele></trkpt><trkpt lat="47.680031" lon="11.835499"><ele>1513.5</ele></trkpt><trkpt lat="47.679853" lon="11.835417"><ele>1507</ele></trkpt><trkpt lat="47.679676" lon="11.835123"><ele>1509.3</ele></trkpt><trkpt lat="47.679475" lon="11.834958"><ele>1516</ele></trkpt><trkpt lat="47.679421" lon="11.834871"><ele>1503.9</ele></trkpt><trkpt lat="47.67928" lon="11.834729"><ele>1503.7</ele></trkpt><trkpt lat="47.678998" lon="11.834497"><ele>1503.1</ele></trkpt><trkpt lat="47.678923" lon="11.834364"><ele>1502.5</ele></trkpt><trkpt lat="47.678809" lon="11.834097"><ele>1501</ele></trkpt><trkpt lat="47.678499" lon="11.833972"><ele>1500</ele></trkpt><trkpt lat="47.678455" lon="11.833894"><ele>1499.5</ele></trkpt><trkpt lat="47.678403" lon="11.833858"><ele>1499.1</ele></trkpt><trkpt lat="47.678246" lon="11.833832"><ele>1496.2</ele></trkpt><trkpt lat="47.678147" lon="11.833876"><ele>1495.6</ele></trkpt><trkpt lat="47.67798" lon="11.833832"><ele>1493.6</ele></trkpt><trkpt lat="47.677845" lon="11.833711"><ele>1492.2</ele></trkpt><trkpt lat="47.677725" lon="11.833645"><ele>1489.3</ele></trkpt><trkpt lat="47.677643" lon="11.833636"><ele>1485</ele></trkpt><trkpt lat="47.677554" lon="11.833535"><ele>1486</ele></trkpt><trkpt lat="47.677374" lon="11.833446"><ele>1486.4</ele></trkpt><trkpt lat="47.677121" lon="11.833255"><ele>1485.3</ele></trkpt><trkpt lat="47.676988" lon="11.833253"><ele>1484</ele></trkpt><trkpt lat="47.67692" lon="11.833228"><ele>1482.8</ele></trkpt><trkpt lat="47.676559" lon="11.83331"><ele>1481.2</ele></trkpt><trkpt lat="47.67643" lon="11.833375"><ele>1502</ele></trkpt><trkpt lat="47.676245" lon="11.833363"><ele>1502</ele></trkpt><trkpt lat="47.676146" lon="11.833568"><ele>1497.7</ele></trkpt><trkpt lat="47.676242" lon="11.833666"><ele>1498</ele></trkpt><trkpt lat="47.676251" lon="11.833755"><ele>1498.3</ele></trkpt><trkpt lat="47.676316" lon="11.833772"><ele>1498.6</ele></trkpt><trkpt lat="47.676283" lon="11.833892"><ele>1498.8</ele></trkpt><trkpt lat="47.676284" lon="11.833959"><ele>1499</ele></trkpt><trkpt lat="47.676352" lon="11.834045"><ele>1499.1</ele></trkpt><trkpt lat="47.6764" lon="11.834105"><ele>1499.2</ele></trkpt><trkpt lat="47.676362" lon="11.8342"><ele>1498.3</ele></trkpt><trkpt lat="47.676465" lon="11.834308"><ele>1497.4</ele></trkpt><trkpt lat="47.676458" lon="11.834353"><ele>1496.6</ele></trkpt><trkpt lat="47.676195" lon="11.834661"><ele>1495.8</ele></trkpt><trkpt lat="47.676173" lon="11.834821"><ele>1486</ele></trkpt><trkpt lat="47.676398" lon="11.835106"><ele>1429.5</ele></trkpt><trkpt lat="47.676818" lon="11.835328"><ele>1415.7</ele></trkpt><trkpt lat="47.677227" lon="11.835889"><ele>1416.4</ele></trkpt><trkpt lat="47.677517" lon="11.836847"><ele>1393.3</ele></trkpt><trkpt lat="47.677634" lon="11.83799"><ele>1372.8</ele></trkpt><trkpt lat="47.677743" lon="11.838836"><ele>1356</ele></trkpt><trkpt lat="47.677541" lon="11.838524"><ele>1356</ele></trkpt><trkpt lat="47.677494" lon="11.838409"><ele>1351</ele></trkpt><trkpt lat="47.677377" lon="11.838186"><ele>1367.7</ele></trkpt><trkpt lat="47.677338" lon="11.838163"><ele>1367.9</ele></trkpt><trkpt lat="47.67726" lon="11.838158"><ele>1368.4</ele></trkpt><trkpt lat="47.677047" lon="11.838197"><ele>1371.8</ele></trkpt><trkpt lat="47.676878" lon="11.838088"><ele>1375</ele></trkpt><trkpt lat="47.676652" lon="11.838066"><ele>1378.6</ele></trkpt><trkpt lat="47.676577" lon="11.83814"><ele>1381.3</ele></trkpt><trkpt lat="47.676485" lon="11.838154"><ele>1381.6</ele></trkpt><trkpt lat="47.676361" lon="11.838019"><ele>1382.1</ele></trkpt><trkpt lat="47.676325" lon="11.838007"><ele>1382.2</ele></trkpt><trkpt lat="47.676064" lon="11.838084"><ele>1384</ele></trkpt><trkpt lat="47.675987" lon="11.838267"><ele>1385.2</ele></trkpt><trkpt lat="47.675871" lon="11.838852"><ele>1386.6</ele></trkpt><trkpt lat="47.67575" lon="11.839217"><ele>1388.2</ele></trkpt><trkpt lat="47.675701" lon="11.839286"><ele>1387.7</ele></trkpt><trkpt lat="47.67555" lon="11.839366"><ele>1416</ele></trkpt><trkpt lat="47.67527" lon="11.839829"><ele>1413.9</ele></trkpt><trkpt lat="47.675039" lon="11.840277"><ele>1411.5</ele></trkpt><trkpt lat="47.675014" lon="11.840392"><ele>1410</ele></trkpt><trkpt lat="47.675009" lon="11.840475"><ele>1410</ele></trkpt><trkpt lat="47.675002" lon="11.8406"><ele>1409.9</ele></trkpt><trkpt lat="47.674946" lon="11.840926"><ele>1415.6</ele></trkpt><trkpt lat="47.674906" lon="11.841064"><ele>1415.7</ele></trkpt><trkpt lat="47.674818" lon="11.841215"><ele>1415.7</ele></trkpt><trkpt lat="47.674678" lon="11.841277"><ele>1416.4</ele></trkpt><trkpt lat="47.674458" lon="11.841525"><ele>1417.2</ele></trkpt><trkpt lat="47.674301" lon="11.84184"><ele>1421.5</ele></trkpt><trkpt lat="47.674195" lon="11.842165"><ele>1427.2</ele></trkpt><trkpt lat="47.674176" lon="11.842369"><ele>1429.9</ele></trkpt><trkpt lat="47.674114" lon="11.84219"><ele>1427.9</ele></trkpt><trkpt lat="47.673972" lon="11.842175"><ele>1428.7</ele></trkpt><trkpt lat="47.673885" lon="11.842079"><ele>1428.1</ele></trkpt><trkpt lat="47.67383" lon="11.841958"><ele>1426</ele></trkpt><trkpt lat="47.673755" lon="11.841865"><ele>1425.5</ele></trkpt><trkpt lat="47.673525" lon="11.841938"><ele>1427.7</ele></trkpt><trkpt lat="47.673342" lon="11.842246"><ele>1430.8</ele></trkpt><trkpt lat="47.673235" lon="11.842458"><ele>1435.6</ele></trkpt><trkpt lat="47.673178" lon="11.842622"><ele>1439.1</ele></trkpt><trkpt lat="47.673208" lon="11.842915"><ele>1442.7</ele></trkpt><trkpt lat="47.673146" lon="11.84324"><ele>1447.2</ele></trkpt><trkpt lat="47.67316" lon="11.843371"><ele>1447.9</ele></trkpt><trkpt lat="47.673198" lon="11.843503"><ele>1449.6</ele></trkpt><trkpt lat="47.673259" lon="11.843616"><ele>1452</ele></trkpt><trkpt lat="47.673273" lon="11.843787"><ele>1463.6</ele></trkpt><trkpt lat="47.673154" lon="11.844125"><ele>1467</ele></trkpt><trkpt lat="47.673123" lon="11.844461"><ele>1472.1</ele></trkpt><trkpt lat="47.673143" lon="11.844606"><ele>1472.6</ele></trkpt><trkpt lat="47.673122" lon="11.844721"><ele>1473.8</ele></trkpt><trkpt lat="47.673078" lon="11.844876"><ele>1474.8</ele></trkpt><trkpt lat="47.67297" lon="11.845005"><ele>1475.5</ele></trkpt><trkpt lat="47.672966" lon="11.845193"><ele>1476.2</ele></trkpt><trkpt lat="47.672984" lon="11.845402"><ele>1476.9</ele></trkpt><trkpt lat="47.673035" lon="11.845595"><ele>1477.2</ele></trkpt><trkpt lat="47.673028" lon="11.845864"><ele>1476.6</ele></trkpt><trkpt lat="47.672992" lon="11.846057"><ele>1476.1</ele></trkpt><trkpt lat="47.672876" lon="11.846175"><ele>1475.6</ele></trkpt><trkpt lat="47.672735" lon="11.846223"><ele>1474.5</ele></trkpt><trkpt lat="47.672427" lon="11.846389"><ele>1472.6</ele></trkpt><trkpt lat="47.672384" lon="11.8465"><ele>1472.6</ele></trkpt><trkpt lat="47.672405" lon="11.846642"><ele>1472.6</ele></trkpt><trkpt lat="47.672374" lon="11.846761"><ele>1472.6</ele></trkpt><trkpt lat="47.672287" lon="11.846914"><ele>1472.2</ele></trkpt><trkpt lat="47.672247" lon="11.847034"><ele>1471.7</ele></trkpt><trkpt lat="47.672341" lon="11.847093"><ele>1471.7</ele></trkpt><trkpt lat="47.672341" lon="11.847221"><ele>1471.2</ele></trkpt><trkpt lat="47.672244" lon="11.847407"><ele>1472</ele></trkpt><trkpt lat="47.672336" lon="11.847654"><ele>1451.3</ele></trkpt><trkpt lat="47.672437" lon="11.847824"><ele>1451.9</ele></trkpt><trkpt lat="47.672556" lon="11.847897"><ele>1451.2</ele></trkpt><trkpt lat="47.672654" lon="11.848052"><ele>1450.9</ele></trkpt><trkpt lat="47.672688" lon="11.848208"><ele>1450.4</ele></trkpt><trkpt lat="47.672583" lon="11.848501"><ele>1449.1</ele></trkpt><trkpt lat="47.672526" lon="11.848519"><ele>1448.8</ele></trkpt><trkpt lat="47.672496" lon="11.848596"><ele>1448.9</ele></trkpt><trkpt lat="47.672457" lon="11.848595"><ele>1449.1</ele></trkpt><trkpt lat="47.672406" lon="11.848708"><ele>1449</ele></trkpt><trkpt lat="47.672401" lon="11.848819"><ele>1448.8</ele></trkpt><trkpt lat="47.672349" lon="11.848932"><ele>1448.9</ele></trkpt><trkpt lat="47.672328" lon="11.849479"><ele>1447.1</ele></trkpt><trkpt lat="47.672206" lon="11.849804"><ele>1446</ele></trkpt><trkpt lat="47.672175" lon="11.849928"><ele>1445.8</ele></trkpt><trkpt lat="47.672187" lon="11.850085"><ele>1444.8</ele></trkpt><trkpt lat="47.672206" lon="11.850217"><ele>1444.3</ele></trkpt><trkpt lat="47.672285" lon="11.850429"><ele>1443.9</ele></trkpt><trkpt lat="47.672282" lon="11.850611"><ele>1443.6</ele></trkpt><trkpt lat="47.672354" lon="11.850764"><ele>1441.8</ele></trkpt><trkpt lat="47.672434" lon="11.851003"><ele>1439.3</ele></trkpt><trkpt lat="47.672602" lon="11.851236"><ele>1437.3</ele></trkpt><trkpt lat="47.672627" lon="11.851403"><ele>1436.1</ele></trkpt><trkpt lat="47.672697" lon="11.851551"><ele>1433.1</ele></trkpt><trkpt lat="47.672755" lon="11.851786"><ele>1429.5</ele></trkpt><trkpt lat="47.67273" lon="11.8519"><ele>1428.6</ele></trkpt><trkpt lat="47.672616" lon="11.852122"><ele>1426.3</ele></trkpt><trkpt lat="47.672446" lon="11.85229"><ele>1424.8</ele></trkpt><trkpt lat="47.672311" lon="11.852623"><ele>1421.4</ele></trkpt><trkpt lat="47.672303" lon="11.852836"><ele>1420.3</ele></trkpt><trkpt lat="47.672204" lon="11.853143"><ele>1416.6</ele></trkpt><trkpt lat="47.672195" lon="11.85339"><ele>1415.9</ele></trkpt><trkpt lat="47.672103" lon="11.853622"><ele>1414.7</ele></trkpt><trkpt lat="47.671906" lon="11.853763"><ele>1414</ele></trkpt><trkpt lat="47.671804" lon="11.853901"><ele>1413.5</ele></trkpt><trkpt lat="47.671735" lon="11.853933"><ele>1413.3</ele></trkpt><trkpt lat="47.671608" lon="11.854048"><ele>1411.1</ele></trkpt><trkpt lat="47.671441" lon="11.854144"><ele>1409.5</ele></trkpt><trkpt lat="47.671259" lon="11.85418"><ele>1402.7</ele></trkpt><trkpt lat="47.671231" lon="11.854218"><ele>1378</ele></trkpt><trkpt lat="47.671033" lon="11.854299"><ele>1368.9</ele></trkpt><trkpt lat="47.670727" lon="11.854314"><ele>1367.6</ele></trkpt><trkpt lat="47.670663" lon="11.85427"><ele>1368.1</ele></trkpt><trkpt lat="47.67052" lon="11.854301"><ele>1368.6</ele></trkpt><trkpt lat="47.670454" lon="11.854366"><ele>1364</ele></trkpt><trkpt lat="47.670261" lon="11.854154"><ele>1366</ele></trkpt><trkpt lat="47.670213" lon="11.853984"><ele>1366</ele></trkpt><trkpt lat="47.670168" lon="11.853779"><ele>1366</ele></trkpt><trkpt lat="47.669978" lon="11.85376"><ele>1337</ele></trkpt><trkpt lat="47.669965" lon="11.853677"><ele>1334.9</ele></trkpt><trkpt lat="47.669891" lon="11.853582"><ele>1334.9</ele></trkpt><trkpt lat="47.669812" lon="11.853415"><ele>1334.8</ele></trkpt><trkpt lat="47.66976" lon="11.85319"><ele>1334.9</ele></trkpt><trkpt lat="47.669714" lon="11.853116"><ele>1334.9</ele></trkpt><trkpt lat="47.669467" lon="11.852533"><ele>1334.6</ele></trkpt><trkpt lat="47.669391" lon="11.852467"><ele>1334.4</ele></trkpt><trkpt lat="47.669334" lon="11.852381"><ele>1334.4</ele></trkpt><trkpt lat="47.669237" lon="11.852306"><ele>1334.6</ele></trkpt><trkpt lat="47.668992" lon="11.851962"><ele>1331.9</ele></trkpt><trkpt lat="47.668871" lon="11.851865"><ele>1331</ele></trkpt><trkpt lat="47.668757" lon="11.851812"><ele>1330.4</ele></trkpt><trkpt lat="47.668673" lon="11.851789"><ele>1329.7</ele></trkpt><trkpt lat="47.668596" lon="11.851796"><ele>1329</ele></trkpt><trkpt lat="47.668501" lon="11.851739"><ele>1328.3</ele></trkpt><trkpt lat="47.668297" lon="11.851525"><ele>1325.4</ele></trkpt><trkpt lat="47.668264" lon="11.85148"><ele>1324.4</ele></trkpt><trkpt lat="47.668231" lon="11.851385"><ele>1322.9</ele></trkpt><trkpt lat="47.668207" lon="11.851369"><ele>1321.8</ele></trkpt><trkpt lat="47.668114" lon="11.851352"><ele>1319.5</ele></trkpt><trkpt lat="47.668028" lon="11.851301"><ele>1318.1</ele></trkpt><trkpt lat="47.667907" lon="11.851405"><ele>1316</ele></trkpt><trkpt lat="47.66782" lon="11.85126"><ele>1316.3</ele></trkpt><trkpt lat="47.667744" lon="11.851045"><ele>1316.3</ele></trkpt><trkpt lat="47.66764" lon="11.85075"><ele>1316.4</ele></trkpt><trkpt lat="47.667567" lon="11.850429"><ele>1317</ele></trkpt><trkpt lat="47.667522" lon="11.850303"><ele>1317</ele></trkpt><trkpt lat="47.667386" lon="11.850004"><ele>1337.9</ele></trkpt><trkpt lat="47.667182" lon="11.849655"><ele>1338.2</ele></trkpt><trkpt lat="47.666916" lon="11.849385"><ele>1338.9</ele></trkpt><trkpt lat="47.66675" lon="11.849186"><ele>1340</ele></trkpt><trkpt lat="47.666482" lon="11.848963"><ele>1346.9</ele></trkpt><trkpt lat="47.666326" lon="11.848796"><ele>1349.6</ele></trkpt><trkpt lat="47.666166" lon="11.848777"><ele>1353.7</ele></trkpt><trkpt lat="47.665628" lon="11.848384"><ele>1372.7</ele></trkpt><trkpt lat="47.665481" lon="11.848305"><ele>1377.2</ele></trkpt><trkpt lat="47.665221" lon="11.848092"><ele>1382.7</ele></trkpt><trkpt lat="47.664916" lon="11.847912"><ele>1392.2</ele></trkpt><trkpt lat="47.664771" lon="11.847852"><ele>1393.5</ele></trkpt><trkpt lat="47.664687" lon="11.847837"><ele>1395.9</ele></trkpt><trkpt lat="47.664447" lon="11.847894"><ele>1398.9</ele></trkpt><trkpt lat="47.664213" lon="11.84788"><ele>1401.8</ele></trkpt><trkpt lat="47.664082" lon="11.847915"><ele>1401.9</ele></trkpt><trkpt lat="47.663982" lon="11.847911"><ele>1402.1</ele></trkpt><trkpt lat="47.663763" lon="11.84778"><ele>1401.8</ele></trkpt><trkpt lat="47.663564" lon="11.847626"><ele>1400.9</ele></trkpt><trkpt lat="47.663475" lon="11.847625"><ele>1394</ele></trkpt><trkpt lat="47.663408" lon="11.847627"><ele>1394</ele></trkpt><trkpt lat="47.663343" lon="11.847763"><ele>1365.2</ele></trkpt><trkpt lat="47.663309" lon="11.84795"><ele>1359.4</ele></trkpt><trkpt lat="47.663304" lon="11.848225"><ele>1346</ele></trkpt><trkpt lat="47.663298" lon="11.848339"><ele>1367</ele></trkpt><trkpt lat="47.663262" lon="11.848789"><ele>1388.1</ele></trkpt><trkpt lat="47.663213" lon="11.849098"><ele>1395</ele></trkpt><trkpt lat="47.663202" lon="11.849355"><ele>1398.8</ele></trkpt><trkpt lat="47.663214" lon="11.84958"><ele>1402</ele></trkpt><trkpt lat="47.663191" lon="11.849691"><ele>1402.7</ele></trkpt><trkpt lat="47.663087" lon="11.849804"><ele>1404</ele></trkpt><trkpt lat="47.663054" lon="11.849906"><ele>1404.7</ele></trkpt><trkpt lat="47.662937" lon="11.850532"><ele>1409.1</ele></trkpt><trkpt lat="47.662954" lon="11.85078"><ele>1410.2</ele></trkpt><trkpt lat="47.662984" lon="11.850881"><ele>1411.9</ele></trkpt><trkpt lat="47.662947" lon="11.851216"><ele>1414.3</ele></trkpt><trkpt lat="47.662911" lon="11.851363"><ele>1415.9</ele></trkpt><trkpt lat="47.662932" lon="11.85141"><ele>1415.7</ele></trkpt><trkpt lat="47.662934" lon="11.851489"><ele>1417.4</ele></trkpt><trkpt lat="47.663088" lon="11.852298"><ele>1429.1</ele></trkpt><trkpt lat="47.663217" lon="11.852809"><ele>1441.4</ele></trkpt><trkpt lat="47.66328" lon="11.853226"><ele>1451</ele></trkpt><trkpt lat="47.663276" lon="11.853516"><ele>1463.7</ele></trkpt><trkpt lat="47.663252" lon="11.853706"><ele>1463.9</ele></trkpt><trkpt lat="47.663079" lon="11.854685"><ele>1473.3</ele></trkpt><trkpt lat="47.66292" lon="11.855059"><ele>1476.9</ele></trkpt><trkpt lat="47.662745" lon="11.855612"><ele>1480.5</ele></trkpt><trkpt lat="47.662527" lon="11.856143"><ele>1478.6</ele></trkpt><trkpt lat="47.662454" lon="11.856205"><ele>1478</ele></trkpt><trkpt lat="47.662251" lon="11.856205"><ele>1477.5</ele></trkpt><trkpt lat="47.662145" lon="11.856286"><ele>1477.4</ele></trkpt><trkpt lat="47.662052" lon="11.856515"><ele>1477.1</ele></trkpt><trkpt lat="47.661981" lon="11.856573"><ele>1476.9</ele></trkpt><trkpt lat="47.661724" lon="11.856559"><ele>1476.5</ele></trkpt><trkpt lat="47.661641" lon="11.856776"><ele>1475.9</ele></trkpt><trkpt lat="47.661598" lon="11.856835"><ele>1476</ele></trkpt><trkpt lat="47.661374" lon="11.857078"><ele>1476.1</ele></trkpt><trkpt lat="47.661219" lon="11.857193"><ele>1476</ele></trkpt><trkpt lat="47.661141" lon="11.857206"><ele>1476</ele></trkpt><trkpt lat="47.661043" lon="11.857293"><ele>1476.1</ele></trkpt><trkpt lat="47.660962" lon="11.857336"><ele>1476.1</ele></trkpt><trkpt lat="47.660734" lon="11.857382"><ele>1478</ele></trkpt><trkpt lat="47.66029" lon="11.857255"><ele>1478.5</ele></trkpt><trkpt lat="47.659981" lon="11.857205"><ele>1479.2</ele></trkpt></trkseg></trk></gpx>