<gpx xmlns="http://www.topografix.com/GPX/1/1" xmlns:xsi="http://www.w3.org/2001/XMLSchema-instance" xsi:schemaLocation="http://www.topografix.com/GPX/1/1 http://www.topografix.com/GPX/1/1/gpx.xsd" version="1.1" creator="togpx"><metadata/><wpt lat="47.68788972910744" lon="11.9865882396698"><name></name><desc>label=Osterhofen, Bayrischzell,BY,Germany</desc></wpt><wpt lat="47.684491517785254" lon="12.006313204765322"><name></name><desc>label=Hochkreuth, Bayrischzell,BY,Germany</desc></wpt><wpt lat="47.69397056636677" lon="12.013002634048464"><name></name><desc>label=Sigl-Alm, Bayrischzell,BY,Germany</desc></wpt><wpt lat="47.69959579269347" lon="12.014129161834719"><name></name><desc>label=Geheimversteck, Bayrischzell,BY,Germany</desc></wpt><wpt lat="47.70178361794914" lon="12.010105848312378"><name></name><desc>label=Tod der Riffe, Bayrischzell,BY,Germany</desc></wpt><wpt lat="47.703498433294115" lon="12.012265026569368"><name></name><desc>label=Gipfelterrasse, Brannenburg,BY,Germany</desc></wpt><wpt lat="47.70208080866467" lon="12.012388961712716"><name></name><desc>label=Wendelsteinhaus, Bayrischzell,BY,Germany</desc></wpt><wpt lat="47.70259229579273" lon="12.015309333801271"><name></name><desc>label=Wetterkreuz, Brannenburg,BY,Germany</desc></wpt><wpt lat="47.68278330032169" lon="12.015416622161867"><name></name><desc>label=Gschwandgraben, Bayrischzell,BY,Germany</desc></wpt><wpt lat="47.67809534641793" lon="12.01257348060608"><name></name><desc>label=Haus Glück am Bach, Bayrischzell,BY,Germany</desc></wpt><wpt lat="47.67523469303378" lon="12.014536857604982"><name></name><desc>label=Michael-Meindl-Straße, Bayrischzell,BY,Germany</desc></wpt><wpt lat="47.675707867486935" lon="12.010980248451233"><name></name><desc>label=Bahnhofstraße, Bayrischzell,BY,Germany</desc></wpt><trk><name></name><desc>ascent=1449.6
descent=1446.4
opacity=0.9</desc><trkseg><trkpt lat="47.687899" lon="11.986597"><ele>802</ele></trkpt><trkpt lat="47.687837" lon="11.986738"><ele>802</ele></trkpt><trkpt lat="47.687804" lon="11.986731"><ele>802</ele></trkpt><trkpt lat="47.687755" lon="11.986831"><ele>802</ele></trkpt><trkpt lat="47.687728" lon="11.986954"><ele>802</ele></trkpt><trkpt lat="47.687525" lon="11.987428"><ele>802</ele></trkpt><trkpt lat="47.687514" lon="11.987517"><ele>805</ele></trkpt><trkpt lat="47.687412" lon="11.987678"><ele>801</ele></trkpt><trkpt lat="47.687074" lon="11.988433"><ele>804</ele></trkpt><trkpt lat="47.687047" lon="11.988422"><ele>804</ele></trkpt><trkpt lat="47.686989" lon="11.988559"><ele>804</ele></trkpt><trkpt lat="47.686998" lon="11.988588"><ele>804</ele></trkpt><trkpt lat="47.687085" lon="11.988675"><ele>804</ele></trkpt><trkpt lat="47.687185" lon="11.988684"><ele>804</ele></trkpt><trkpt lat="47.687163" lon="11.988821"><ele>804</ele></trkpt><trkpt lat="47.687159" lon="11.989125"><ele>804</ele></trkpt><trkpt lat="47.687126" lon="11.989183"><ele>809</ele></trkpt><trkpt lat="47.687061" lon="11.98916"><ele>807.6</ele></trkpt><trkpt lat="47.68702" lon="11.989193"><ele>807.8</ele></trkpt><trkpt lat="47.687032" lon="11.989257"><ele>808</ele></trkpt><trkpt lat="47.687162" lon="11.989425"><ele>809</ele></trkpt><trkpt lat="47.687318" lon="11.98955"><ele>819</ele></trkpt><trkpt lat="47.68759" lon="11.989984"><ele>822.4</ele></trkpt><trkpt lat="47.687698" lon="11.990128"><ele>823.2</ele></trkpt><trkpt lat="47.687778" lon="11.990292"><ele>822.2</ele></trkpt><trkpt lat="47.687803" lon="11.990456"><ele>831</ele></trkpt><trkpt lat="47.687772" lon="11.990607"><ele>838.6</ele></trkpt><trkpt lat="47.687602" lon="11.990919"><ele>840.9</ele></trkpt><trkpt lat="47.687496" lon="11.991045"><ele>839.9</ele></trkpt><trkpt lat="47.687162" lon="11.991091"><ele>843</ele></trkpt><trkpt lat="47.687047" lon="11.991131"><ele>843</ele></trkpt><trkpt lat="47.686802" lon="11.991171"><ele>843</ele></trkpt><trkpt lat="47.686739" lon="11.991242"><ele>843</ele></trkpt><trkpt lat="47.686706" lon="11.991364"><ele>843</ele></trkpt><trkpt lat="47.686683" lon="11.991835"><ele>843</ele></trkpt><trkpt lat="47.686634" lon="11.992037"><ele>841.4</ele></trkpt><trkpt lat="47.686564" lon="11.992205"><ele>841.8</ele></trkpt><trkpt lat="47.686511" lon="11.992448"><ele>837</ele></trkpt><trkpt lat="47.686549" lon="11.992516"><ele>856</ele></trkpt><trkpt lat="47.686684" lon="11.99254"><ele>868.9</ele></trkpt><trkpt lat="47.686959" lon="11.992475"><ele>867.9</ele></trkpt><trkpt lat="47.687004" lon="11.992489"><ele>868.4</ele></trkpt><trkpt lat="47.687061" lon="11.992577"><ele>870.5</ele></trkpt><trkpt lat="47.68708" lon="11.992736"><ele>872.3</ele></trkpt><trkpt lat="47.687033" lon="11.993031"><ele>875.4</ele></trkpt><trkpt lat="47.686855" lon="11.99373"><ele>879.1</ele></trkpt><trkpt lat="47.686686" lon="11.994487"><ele>885.3</ele></trkpt><trkpt lat="47.686681" lon="11.994907"><ele>888.2</ele></trkpt><trkpt lat="47.68665" lon="11.995225"><ele>889.4</ele></trkpt><trkpt lat="47.686621" lon="11.995338"><ele>890.2</ele></trkpt><trkpt lat="47.686568" lon="11.995462"><ele>892</ele></trkpt><trkpt lat="47.68652" lon="11.995545"><ele>893.7</ele></trkpt><trkpt lat="47.686456" lon="11.995595"><ele>895.4</ele></trkpt><trkpt lat="47.686318" lon="11.995757"><ele>898.1</ele></trkpt><trkpt lat="47.686194" lon="11.996033"><ele>901.1</ele></trkpt><trkpt lat="47.686119" lon="11.996281"><ele>901.9</ele></trkpt><trkpt lat="47.686039" lon="11.996624"><ele>904.7</ele></trkpt><trkpt lat="47.685953" lon="11.997142"><ele>907.4</ele></trkpt><trkpt lat="47.685887" lon="11.997331"><ele>907.3</ele></trkpt><trkpt lat="47.685795" lon="11.997456"><ele>906.3</ele></trkpt><trkpt lat="47.685517" lon="11.997627"><ele>908.8</ele></trkpt><trkpt lat="47.685226" lon="11.997997"><ele>919</ele></trkpt><trkpt lat="47.685147" lon="11.998115"><ele>931.5</ele></trkpt><trkpt lat="47.684996" lon="11.99859"><ele>933</ele></trkpt><trkpt lat="47.684833" lon="11.999372"><ele>937.8</ele></trkpt><trkpt lat="47.684782" lon="11.999508"><ele>937.4</ele></trkpt><trkpt lat="47.684649" lon="11.999661"><ele>938.1</ele></trkpt><trkpt lat="47.68445" lon="11.999823"><ele>939.9</ele></trkpt><trkpt lat="47.68425" lon="11.999931"><ele>941.8</ele></trkpt><trkpt lat="47.684135" lon="12.000023"><ele>943.6</ele></trkpt><trkpt lat="47.684057" lon="12.000256"><ele>949.1</ele></trkpt><trkpt lat="47.684032" lon="12.000572"><ele>950.8</ele></trkpt><trkpt lat="47.684034" lon="12.000964"><ele>954</ele></trkpt><trkpt lat="47.684065" lon="12.001612"><ele>957.5</ele></trkpt><trkpt lat="47.684095" lon="12.001823"><ele>959</ele></trkpt><trkpt lat="47.684124" lon="12.001953"><ele>959.9</ele></trkpt><trkpt lat="47.684211" lon="12.002144"><ele>960.6</ele></trkpt><trkpt lat="47.684458" lon="12.002486"><ele>973</ele></trkpt><trkpt lat="47.684515" lon="12.002572"><ele>974</ele></trkpt><trkpt lat="47.684629" lon="12.002739"><ele>974</ele></trkpt><trkpt lat="47.684722" lon="12.003096"><ele>975</ele></trkpt><trkpt lat="47.68479" lon="12.003494"><ele>978</ele></trkpt><trkpt lat="47.684821" lon="12.003763"><ele>978.7</ele></trkpt><trkpt lat="47.684816" lon="12.003947"><ele>978.9</ele></trkpt><trkpt lat="47.684666" lon="12.004854"><ele>980</ele></trkpt><trkpt lat="47.684586" lon="12.004873"><ele>984.5</ele></trkpt><trkpt lat="47.684546" lon="12.004947"><ele>984.8</ele></trkpt><trkpt lat="47.684448" lon="12.005317"><ele>985.1</ele></trkpt><trkpt lat="47.684296" lon="12.005555"><ele>985.3</ele></trkpt><trkpt lat="47.684286" lon="12.005597"><ele>985.3</ele></trkpt><trkpt lat="47.684279" lon="12.005644"><ele>985.4</ele></trkpt><trkpt lat="47.684309" lon="12.005741"><ele>985.5</ele></trkpt><trkpt lat="47.684294" lon="12.006032"><ele>985.6</ele></trkpt><trkpt lat="47.684325" lon="12.006137"><ele>985.4</ele></trkpt><trkpt lat="47.684329" lon="12.006232"><ele>985.2</ele></trkpt><trkpt lat="47.684366" lon="12.006278"><ele>987</ele></trkpt><trkpt lat="47.684464" lon="12.006272"><ele>986.7</ele></trkpt><trkpt lat="47.684491" lon="12.006291"><ele>986.7</ele></trkpt><trkpt lat="47.684498" lon="12.006308"><ele>986.7</ele></trkpt><trkpt lat="47.684519" lon="12.006363"><ele>986.6</ele></trkpt><trkpt lat="47.684546" lon="12.00655"><ele>986.6</ele></trkpt><trkpt lat="47.684643" lon="12.006712"><ele>986.6</ele></trkpt><trkpt lat="47.684688" lon="12.006677"><ele>986.7</ele></trkpt><trkpt lat="47.684755" lon="12.00656"><ele>987</ele></trkpt><trkpt lat="47.684788" lon="12.006727"><ele>986.3</ele></trkpt><trkpt lat="47.684829" lon="12.006801"><ele>986.3</ele></trkpt><trkpt lat="47.684896" lon="12.00685"><ele>986</ele></trkpt><trkpt lat="47.685023" lon="12.007113"><ele>998.4</ele></trkpt><trkpt lat="47.685155" lon="12.007224"><ele>1002</ele></trkpt><trkpt lat="47.685219" lon="12.007341"><ele>1003.4</ele></trkpt><trkpt lat="47.68528" lon="12.007576"><ele>1003.5</ele></trkpt><trkpt lat="47.685324" lon="12.007587"><ele>1003.2</ele></trkpt><trkpt lat="47.685545" lon="12.007211"><ele>1003</ele></trkpt><trkpt lat="47.685615" lon="12.007032"><ele>1002</ele></trkpt><trkpt lat="47.685755" lon="12.006757"><ele>1021.2</ele></trkpt><trkpt lat="47.685795" lon="12.006593"><ele>1022.2</ele></trkpt><trkpt lat="47.685822" lon="12.006143"><ele>1026.1</ele></trkpt><trkpt lat="47.685843" lon="12.006083"><ele>1027.5</ele></trkpt><trkpt lat="47.685869" lon="12.006063"><ele>1027.3</ele></trkpt><trkpt lat="47.685897" lon="12.006076"><ele>1027.1</ele></trkpt><trkpt lat="47.685921" lon="12.006126"><ele>1026.9</ele></trkpt><trkpt lat="47.685924" lon="12.006254"><ele>1026.5</ele></trkpt><trkpt lat="47.685974" lon="12.006347"><ele>1026.3</ele></trkpt><trkpt lat="47.686033" lon="12.006393"><ele>1026</ele></trkpt><trkpt lat="47.686102" lon="12.006371"><ele>1025.7</ele></trkpt><trkpt lat="47.686185" lon="12.006281"><ele>1025.5</ele></trkpt><trkpt lat="47.686333" lon="12.006212"><ele>1025.2</ele></trkpt><trkpt lat="47.68649" lon="12.006215"><ele>1031</ele></trkpt><trkpt lat="47.686529" lon="12.006275"><ele>1031</ele></trkpt><trkpt lat="47.686547" lon="12.006449"><ele>1031</ele></trkpt><trkpt lat="47.686519" lon="12.006721"><ele>1053.3</ele></trkpt><trkpt lat="47.68651" lon="12.007222"><ele>1054.7</ele></trkpt><trkpt lat="47.686573" lon="12.007468"><ele>1056.2</ele></trkpt><trkpt lat="47.686588" lon="12.007607"><ele>1057.8</ele></trkpt><trkpt lat="47.686638" lon="12.007713"><ele>1059.2</ele></trkpt><trkpt lat="47.686686" lon="12.007761"><ele>1060.6</ele></trkpt><trkpt lat="47.686748" lon="12.007784"><ele>1059.7</ele></trkpt><trkpt lat="47.686841" lon="12.007761"><ele>1058.7</ele></trkpt><trkpt lat="47.686926" lon="12.007686"><ele>1057.6</ele></trkpt><trkpt lat="47.687" lon="12.007537"><ele>1071</ele></trkpt><trkpt lat="47.68706" lon="12.007504"><ele>1081</ele></trkpt><trkpt lat="47.68709" lon="12.007534"><ele>1081.9</ele></trkpt><trkpt lat="47.68718" lon="12.007854"><ele>1082.9</ele></trkpt><trkpt lat="47.687273" lon="12.008078"><ele>1084</ele></trkpt><trkpt lat="47.687307" lon="12.008303"><ele>1085.2</ele></trkpt><trkpt lat="47.687397" lon="12.008541"><ele>1086.5</ele></trkpt><trkpt lat="47.687526" lon="12.009005"><ele>1088</ele></trkpt><trkpt lat="47.687569" lon="12.009084"><ele>1086.4</ele></trkpt><trkpt lat="47.687606" lon="12.009109"><ele>1105</ele></trkpt><trkpt lat="47.687644" lon="12.009097"><ele>1105</ele></trkpt><trkpt lat="47.687669" lon="12.009047"><ele>1105</ele></trkpt><trkpt lat="47.687698" lon="12.008832"><ele>1105</ele></trkpt><trkpt lat="47.687719" lon="12.008797"><ele>1105</ele></trkpt><trkpt lat="47.687792" lon="12.008786"><ele>1105</ele></trkpt><trkpt lat="47.687815" lon="12.008818"><ele>1105</ele></trkpt><trkpt lat="47.687896" lon="12.009268"><ele>1102.8</ele></trkpt><trkpt lat="47.688023" lon="12.009634"><ele>1102.9</ele></trkpt><trkpt lat="47.688171" lon="12.009958"><ele>1102</ele></trkpt><trkpt lat="47.688301" lon="12.010152"><ele>1129</ele></trkpt><trkpt lat="47.688506" lon="12.01036"><ele>1138.6</ele></trkpt><trkpt lat="47.688741" lon="12.010722"><ele>1144.5</ele></trkpt><trkpt lat="47.68889" lon="12.01105"><ele>1148.2</ele></trkpt><trkpt lat="47.689076" lon="12.011142"><ele>1154.9</ele></trkpt><trkpt lat="47.68993" lon="12.011361"><ele>1168.9</ele></trkpt><trkpt lat="47.690045" lon="12.011337"><ele>1171.1</ele></trkpt><trkpt lat="47.69027" lon="12.011241"><ele>1172.3</ele></trkpt><trkpt lat="47.690367" lon="12.011243"><ele>1171.3</ele></trkpt><trkpt lat="47.690485" lon="12.011282"><ele>1171.9</ele></trkpt><trkpt lat="47.690572" lon="12.011377"><ele>1182</ele></trkpt><trkpt lat="47.690628" lon="12.011511"><ele>1189.7</ele></trkpt><trkpt lat="47.69099" lon="12.011683"><ele>1191.3</ele></trkpt><trkpt lat="47.691124" lon="12.011799"><ele>1190.9</ele></trkpt><trkpt lat="47.691225" lon="12.011971"><ele>1190.5</ele></trkpt><trkpt lat="47.691265" lon="12.012103"><ele>1190.1</ele></trkpt><trkpt lat="47.691188" lon="12.012337"><ele>1189.6</ele></trkpt><trkpt lat="47.691209" lon="12.012521"><ele>1189.1</ele></trkpt><trkpt lat="47.691435" lon="12.012654"><ele>1188</ele></trkpt><trkpt lat="47.691498" lon="12.012633"><ele>1211</ele></trkpt><trkpt lat="47.691665" lon="12.012378"><ele>1214.8</ele></trkpt><trkpt lat="47.691752" lon="12.012114"><ele>1218.1</ele></trkpt><trkpt lat="47.69178" lon="12.011843"><ele>1216.7</ele></trkpt><trkpt lat="47.69184" lon="12.011558"><ele>1241</ele></trkpt><trkpt lat="47.692159" lon="12.011589"><ele>1244.6</ele></trkpt><trkpt lat="47.692165" lon="12.011536"><ele>1245</ele></trkpt><trkpt lat="47.692122" lon="12.011416"><ele>1245.4</ele></trkpt><trkpt lat="47.692123" lon="12.011225"><ele>1245.8</ele></trkpt><trkpt lat="47.691883" lon="12.010839"><ele>1247.4</ele></trkpt><trkpt lat="47.69183" lon="12.01061"><ele>1248</ele></trkpt><trkpt lat="47.691842" lon="12.010443"><ele>1259</ele></trkpt><trkpt lat="47.692009" lon="12.010545"><ele>1268.2</ele></trkpt><trkpt lat="47.692101" lon="12.010443"><ele>1269.1</ele></trkpt><trkpt lat="47.692155" lon="12.010453"><ele>1274.6</ele></trkpt><trkpt lat="47.692622" lon="12.010924"><ele>1288</ele></trkpt><trkpt lat="47.692859" lon="12.01091"><ele>1289.7</ele></trkpt><trkpt lat="47.693113" lon="12.011033"><ele>1289.7</ele></trkpt><trkpt lat="47.69342" lon="12.011115"><ele>1295.4</ele></trkpt><trkpt lat="47.693688" lon="12.011162"><ele>1299.3</ele></trkpt><trkpt lat="47.693996" lon="12.011442"><ele>1303.9</ele></trkpt><trkpt lat="47.69394" lon="12.012007"><ele>1306.6</ele></trkpt><trkpt lat="47.69388" lon="12.012378"><ele>1308.1</ele></trkpt><trkpt lat="47.693856" lon="12.01306"><ele>1312.1</ele></trkpt><trkpt lat="47.693875" lon="12.01312"><ele>1313.2</ele></trkpt><trkpt lat="47.693913" lon="12.013116"><ele>1314.3</ele></trkpt><trkpt lat="47.693955" lon="12.013036"><ele>1317.7</ele></trkpt><trkpt lat="47.693963" lon="12.012999"><ele>1318.8</ele></trkpt><trkpt lat="47.694052" lon="12.012609"><ele>1320</ele></trkpt><trkpt lat="47.694205" lon="12.012114"><ele>1323.1</ele></trkpt><trkpt lat="47.694255" lon="12.0121"><ele>1324.1</ele></trkpt><trkpt lat="47.69439" lon="12.012282"><ele>1325</ele></trkpt><trkpt lat="47.694731" lon="12.01256"><ele>1326.9</ele></trkpt><trkpt lat="47.694889" lon="12.01266"><ele>1327.5</ele></trkpt><trkpt lat="47.695038" lon="12.012697"><ele>1328.3</ele></trkpt><trkpt lat="47.695083" lon="12.012771"><ele>1327.5</ele></trkpt><trkpt lat="47.695266" lon="12.012767"><ele>1333</ele></trkpt><trkpt lat="47.695339" lon="12.012813"><ele>1332.5</ele></trkpt><trkpt lat="47.695401" lon="12.012925"><ele>1369</ele></trkpt><trkpt lat="47.69545" lon="12.013044"><ele>1367.3</ele></trkpt><trkpt lat="47.695473" lon="12.013301"><ele>1366.8</ele></trkpt><trkpt lat="47.695507" lon="12.013421"><ele>1362</ele></trkpt><trkpt lat="47.69553" lon="12.013524"><ele>1380.1</ele></trkpt><trkpt lat="47.695608" lon="12.013674"><ele>1381.4</ele></trkpt><trkpt lat="47.695776" lon="12.013742"><ele>1384.3</ele></trkpt><trkpt lat="47.695799" lon="12.013867"><ele>1385.9</ele></trkpt><trkpt lat="47.695911" lon="12.013975"><ele>1387.6</ele></trkpt><trkpt lat="47.696011" lon="12.014127"><ele>1387</ele></trkpt><trkpt lat="47.696146" lon="12.014102"><ele>1385.7</ele></trkpt><trkpt lat="47.69617" lon="12.014136"><ele>1385</ele></trkpt><trkpt lat="47.696196" lon="12.014312"><ele>1383.7</ele></trkpt><trkpt lat="47.696354" lon="12.014571"><ele>1390</ele></trkpt><trkpt lat="47.696448" lon="12.014829"><ele>1401.3</ele></trkpt><trkpt lat="47.696693" lon="12.015157"><ele>1406.6</ele></trkpt><trkpt lat="47.696802" lon="12.015194"><ele>1405.9</ele></trkpt><trkpt lat="47.696866" lon="12.015339"><ele>1405.1</ele></trkpt><trkpt lat="47.696874" lon="12.015418"><ele>1404.3</ele></trkpt><trkpt lat="47.69694" lon="12.015423"><ele>1414</ele></trkpt><trkpt lat="47.697033" lon="12.0154"><ele>1420</ele></trkpt><trkpt lat="47.697075" lon="12.015426"><ele>1419.4</ele></trkpt><trkpt lat="47.697117" lon="12.0155"><ele>1418.8</ele></trkpt><trkpt lat="47.697195" lon="12.015525"><ele>1418.3</ele></trkpt><trkpt lat="47.697271" lon="12.01562"><ele>1417.9</ele></trkpt><trkpt lat="47.697376" lon="12.015614"><ele>1417.5</ele></trkpt><trkpt lat="47.697582" lon="12.015893"><ele>1441</ele></trkpt><trkpt lat="47.697659" lon="12.016044"><ele>1441</ele></trkpt><trkpt lat="47.69774" lon="12.016078"><ele>1441</ele></trkpt><trkpt lat="47.697822" lon="12.016243"><ele>1441</ele></trkpt><trkpt lat="47.697891" lon="12.016243"><ele>1450.7</ele></trkpt><trkpt lat="47.69817" lon="12.016032"><ele>1450.6</ele></trkpt><trkpt lat="47.698324" lon="12.016036"><ele>1449.4</ele></trkpt><trkpt lat="47.698361" lon="12.015953"><ele>1452.1</ele></trkpt><trkpt lat="47.69844" lon="12.015968"><ele>1453.6</ele></trkpt><trkpt lat="47.69862" lon="12.015659"><ele>1454.3</ele></trkpt><trkpt lat="47.698672" lon="12.01529"><ele>1454.9</ele></trkpt><trkpt lat="47.69878" lon="12.01496"><ele>1455.1</ele></trkpt><trkpt lat="47.698847" lon="12.014873"><ele>1456.1</ele></trkpt><trkpt lat="47.698916" lon="12.014438"><ele>1459.6</ele></trkpt><trkpt lat="47.698948" lon="12.014395"><ele>1459.2</ele></trkpt><trkpt lat="47.698969" lon="12.014249"><ele>1461.9</ele></trkpt><trkpt lat="47.698996" lon="12.014191"><ele>1461.3</ele></trkpt><trkpt lat="47.699075" lon="12.014214"><ele>1460</ele></trkpt><trkpt lat="47.699597" lon="12.014199"><ele>1461</ele></trkpt><trkpt lat="47.699637" lon="12.014198"><ele>1461.9</ele></trkpt><trkpt lat="47.699852" lon="12.014126"><ele>1462.5</ele></trkpt><trkpt lat="47.700035" lon="12.014147"><ele>1466.6</ele></trkpt><trkpt lat="47.700097" lon="12.014119"><ele>1501</ele></trkpt><trkpt lat="47.700132" lon="12.013997"><ele>1498.3</ele></trkpt><trkpt lat="47.700082" lon="12.01376"><ele>1497.1</ele></trkpt><trkpt lat="47.700092" lon="12.013529"><ele>1497</ele></trkpt><trkpt lat="47.700057" lon="12.013314"><ele>1497.9</ele></trkpt><trkpt lat="47.700059" lon="12.013198"><ele>1496.7</ele></trkpt><trkpt lat="47.700036" lon="12.013088"><ele>1497</ele></trkpt><trkpt lat="47.699988" lon="12.013023"><ele>1496</ele></trkpt><trkpt lat="47.699763" lon="12.012348"><ele>1509.1</ele></trkpt><trkpt lat="47.699671" lon="12.011871"><ele>1513.5</ele></trkpt><trkpt lat="47.699693" lon="12.011744"><ele>1517</ele></trkpt><trkpt lat="47.69969" lon="12.011617"><ele>1518.2</ele></trkpt><trkpt lat="47.69979" lon="12.011389"><ele>1523.5</ele></trkpt><trkpt lat="47.69979" lon="12.011165"><ele>1526.1</ele></trkpt><trkpt lat="47.699811" lon="12.011126"><ele>1526.6</ele></trkpt><trkpt lat="47.699846" lon="12.011207"><ele>1527.1</ele></trkpt><trkpt lat="47.699862" lon="12.011108"><ele>1527.6</ele></trkpt><trkpt lat="47.69991" lon="12.010984"><ele>1531.3</ele></trkpt><trkpt lat="47.699998" lon="12.010915"><ele>1533.1</ele></trkpt><trkpt lat="47.699998" lon="12.010833"><ele>1534.5</ele></trkpt><trkpt lat="47.700052" lon="12.010763"><ele>1535.3</ele></trkpt><trkpt lat="47.700144" lon="12.010751"><ele>1535.5</ele></trkpt><trkpt lat="47.700213" lon="12.010691"><ele>1536.1</ele></trkpt><trkpt lat="47.700194" lon="12.010781"><ele>1535.3</ele></trkpt><trkpt lat="47.700273" lon="12.010748"><ele>1536</ele></trkpt><trkpt lat="47.700381" lon="12.010629"><ele>1535.9</ele></trkpt><trkpt lat="47.700442" lon="12.010501"><ele>1536.4</ele></trkpt><trkpt lat="47.700534" lon="12.010402"><ele>1537.6</ele></trkpt><trkpt lat="47.700605" lon="12.010368"><ele>1538.2</ele></trkpt><trkpt lat="47.700619" lon="12.010281"><ele>1538.7</ele></trkpt><trkpt lat="47.700677" lon="12.01023"><ele>1539.3</ele></trkpt><trkpt lat="47.700728" lon="12.010217"><ele>1539.8</ele></trkpt><trkpt lat="47.700795" lon="12.010244"><ele>1539.9</ele></trkpt><trkpt lat="47.700876" lon="12.010232"><ele>1539.8</ele></trkpt><trkpt lat="47.701029" lon="12.010085"><ele>1540.2</ele></trkpt><trkpt lat="47.70111" lon="12.009907"><ele>1538.7</ele></trkpt><trkpt lat="47.701168" lon="12.009831"><ele>1538.8</ele></trkpt><trkpt lat="47.701251" lon="12.009787"><ele>1547</ele></trkpt><trkpt lat="47.701324" lon="12.009731"><ele>1553.5</ele></trkpt><trkpt lat="47.701413" lon="12.009715"><ele>1554.6</ele></trkpt><trkpt lat="47.701454" lon="12.009632"><ele>1555.3</ele></trkpt><trkpt lat="47.701516" lon="12.009586"><ele>1556</ele></trkpt><trkpt lat="47.701572" lon="12.009419"><ele>1557.5</ele></trkpt><trkpt lat="47.70171" lon="12.009222"><ele>1559.3</ele></trkpt><trkpt lat="47.701774" lon="12.009247"><ele>1558.2</ele></trkpt><trkpt lat="47.701782" lon="12.009307"><ele>1573</ele></trkpt><trkpt lat="47.701754" lon="12.009354"><ele>1601.6</ele></trkpt><trkpt lat="47.701751" lon="12.009397"><ele>1602</ele></trkpt><trkpt lat="47.701768" lon="12.009445"><ele>1602.4</ele></trkpt><trkpt lat="47.70182" lon="12.009474"><ele>1603.3</ele></trkpt><trkpt lat="47.701878" lon="12.009604"><ele>1605.6</ele></trkpt><trkpt lat="47.701945" lon="12.009634"><ele>1606.9</ele></trkpt><trkpt lat="47.701904" lon="12.009657"><ele>1607.4</ele></trkpt><trkpt lat="47.701831" lon="12.00975"><ele>1608.3</ele></trkpt><trkpt lat="47.701779" lon="12.0099"><ele>1611.4</ele></trkpt><trkpt lat="47.701785" lon="12.009938"><ele>1611.9</ele></trkpt><trkpt lat="47.701841" lon="12.00991"><ele>1612.9</ele></trkpt><trkpt lat="47.701843" lon="12.00994"><ele>1613.4</ele></trkpt><trkpt lat="47.701818" lon="12.01"><ele>1613.9</ele></trkpt><trkpt lat="47.70182" lon="12.010039"><ele>1614</ele></trkpt><trkpt lat="47.701788" lon="12.01011"><ele>1614</ele></trkpt><trkpt lat="47.701763" lon="12.010165"><ele>1614.1</ele></trkpt><trkpt lat="47.701727" lon="12.010213"><ele>1614.3</ele></trkpt><trkpt lat="47.701623" lon="12.010284"><ele>1614.5</ele></trkpt><trkpt lat="47.701624" lon="12.010306"><ele>1615.1</ele></trkpt><trkpt lat="47.701701" lon="12.01035"><ele>1616.4</ele></trkpt><trkpt lat="47.701681" lon="12.010373"><ele>1616.5</ele></trkpt><trkpt lat="47.701685" lon="12.010427"><ele>1616.7</ele></trkpt><trkpt lat="47.701711" lon="12.010418"><ele>1616.8</ele></trkpt><trkpt lat="47.701696" lon="12.010501"><ele>1617</ele></trkpt><trkpt lat="47.701706" lon="12.010523"><ele>1617.1</ele></trkpt><trkpt lat="47.701772" lon="12.010513"><ele>1617.4</ele></trkpt><trkpt lat="47.701737" lon="12.010611"><ele>1617.7</ele></trkpt><trkpt lat="47.701745" lon="12.010634"><ele>1617.8</ele></trkpt><trkpt lat="47.701893" lon="12.010567"><ele>1618.2</ele></trkpt><trkpt lat="47.702001" lon="12.010567"><ele>1618.5</ele></trkpt><trkpt lat="47.70205" lon="12.010516"><ele>1618.6</ele></trkpt><trkpt lat="47.702097" lon="12.010508"><ele>1618.8</ele></trkpt><trkpt lat="47.702127" lon="12.010473"><ele>1618.9</ele></trkpt><trkpt lat="47.702238" lon="12.010417"><ele>1619.1</ele></trkpt><trkpt lat="47.702348" lon="12.010367"><ele>1619.2</ele></trkpt><trkpt lat="47.702394" lon="12.010381"><ele>1619.4</ele></trkpt><trkpt lat="47.702382" lon="12.010425"><ele>1619.5</ele></trkpt><trkpt lat="47.702278" lon="12.010566"><ele>1619.7</ele></trkpt><trkpt lat="47.702224" lon="12.010752"><ele>1620</ele></trkpt><trkpt lat="47.702245" lon="12.010752"><ele>1620.2</ele></trkpt><trkpt lat="47.702306" lon="12.010693"><ele>1620.3</ele></trkpt><trkpt lat="47.702345" lon="12.010689"><ele>1620.5</ele></trkpt><trkpt lat="47.70233" lon="12.010743"><ele>1620.7</ele></trkpt><trkpt lat="47.702361" lon="12.010735"><ele>1620.8</ele></trkpt><trkpt lat="47.702356" lon="12.010784"><ele>1621</ele></trkpt><trkpt lat="47.702302" lon="12.010952"><ele>1620.9</ele></trkpt><trkpt lat="47.702328" lon="12.010958"><ele>1620.7</ele></trkpt><trkpt lat="47.702462" lon="12.010889"><ele>1620.2</ele></trkpt><trkpt lat="47.702491" lon="12.0109"><ele>1620</ele></trkpt><trkpt lat="47.702501" lon="12.010941"><ele>1619.7</ele></trkpt><trkpt lat="47.702441" lon="12.011007"><ele>1618.8</ele></trkpt><trkpt lat="47.702423" lon="12.011081"><ele>1619.1</ele></trkpt><trkpt lat="47.702412" lon="12.011306"><ele>1619.5</ele></trkpt><trkpt lat="47.70236" lon="12.011401"><ele>1619.2</ele></trkpt><trkpt lat="47.702362" lon="12.011526"><ele>1619.2</ele></trkpt><trkpt lat="47.702308" lon="12.011678"><ele>1619.3</ele></trkpt><trkpt lat="47.702198" lon="12.011774"><ele>1656</ele></trkpt><trkpt lat="47.70223" lon="12.011865"><ele>1656</ele></trkpt><trkpt lat="47.702106" lon="12.011975"><ele>1656</ele></trkpt><trkpt lat="47.702095" lon="12.012016"><ele>1656</ele></trkpt><trkpt lat="47.702067" lon="12.012042"><ele>1656</ele></trkpt><trkpt lat="47.70204" lon="12.01207"><ele>1656.7</ele></trkpt><trkpt lat="47.702006" lon="12.012253"><ele>1656.8</ele></trkpt><trkpt lat="47.702132" lon="12.012482"><ele>1657.1</ele></trkpt><trkpt lat="47.702147" lon="12.012543"><ele>1660</ele></trkpt><trkpt lat="47.702165" lon="12.012664"><ele>1660</ele></trkpt><trkpt lat="47.702188" lon="12.012697"><ele>1660</ele></trkpt><trkpt lat="47.702215" lon="12.012794"><ele>1660</ele></trkpt><trkpt lat="47.702222" lon="12.012803"><ele>1660</ele></trkpt><trkpt lat="47.70225" lon="12.012755"><ele>1660</ele></trkpt><trkpt lat="47.702313" lon="12.012728"><ele>1660</ele></trkpt><trkpt lat="47.702329" lon="12.012743"><ele>1660</ele></trkpt><trkpt lat="47.702365" lon="12.012617"><ele>1660</ele></trkpt><trkpt lat="47.702384" lon="12.012609"><ele>1660</ele></trkpt><trkpt lat="47.702399" lon="12.012376"><ele>1675.8</ele></trkpt><trkpt lat="47.702421" lon="12.012306"><ele>1677.4</ele></trkpt><trkpt lat="47.70247" lon="12.012258"><ele>1681.2</ele></trkpt><trkpt lat="47.70251" lon="12.012123"><ele>1688</ele></trkpt><trkpt lat="47.702563" lon="12.012015"><ele>1722</ele></trkpt><trkpt lat="47.702661" lon="12.011774"><ele>1705</ele></trkpt><trkpt lat="47.702718" lon="12.01152"><ele>1691</ele></trkpt><trkpt lat="47.702728" lon="12.011524"><ele>1691</ele></trkpt><trkpt lat="47.702735" lon="12.011683"><ele>1697.1</ele></trkpt><trkpt lat="47.702747" lon="12.011547"><ele>1695.9</ele></trkpt><trkpt lat="47.70278" lon="12.011496"><ele>1696.1</ele></trkpt><trkpt lat="47.702789" lon="12.011401"><ele>1696.6</ele></trkpt><trkpt lat="47.702799" lon="12.011403"><ele>1696.7</ele></trkpt><trkpt lat="47.702805" lon="12.011501"><ele>1697.1</ele></trkpt><trkpt lat="47.702776" lon="12.011573"><ele>1697.6</ele></trkpt><trkpt lat="47.7028" lon="12.011631"><ele>1697.8</ele></trkpt><trkpt lat="47.702816" lon="12.011639"><ele>1698.2</ele></trkpt><trkpt lat="47.702804" lon="12.011568"><ele>1698.7</ele></trkpt><trkpt lat="47.702825" lon="12.011553"><ele>1699.1</ele></trkpt><trkpt lat="47.702885" lon="12.011709"><ele>1699.8</ele></trkpt><trkpt lat="47.702912" lon="12.01175"><ele>1699.2</ele></trkpt><trkpt lat="47.702942" lon="12.011756"><ele>1698.6</ele></trkpt><trkpt lat="47.703012" lon="12.011642"><ele>1696.8</ele></trkpt><trkpt lat="47.703016" lon="12.011539"><ele>1697.1</ele></trkpt><trkpt lat="47.703031" lon="12.011514"><ele>1691</ele></trkpt><trkpt lat="47.703107" lon="12.01142"><ele>1691</ele></trkpt><trkpt lat="47.703198" lon="12.011278"><ele>1691</ele></trkpt><trkpt lat="47.703199" lon="12.01112"><ele>1691</ele></trkpt><trkpt lat="47.70327" lon="12.011093"><ele>1691</ele></trkpt><trkpt lat="47.703327" lon="12.011026"><ele>1691</ele></trkpt><trkpt lat="47.703348" lon="12.011013"><ele>1748</ele></trkpt><trkpt lat="47.703341" lon="12.011047"><ele>1705.3</ele></trkpt><trkpt lat="47.703265" lon="12.01116"><ele>1705.2</ele></trkpt><trkpt lat="47.703284" lon="12.011163"><ele>1706</ele></trkpt><trkpt lat="47.703361" lon="12.011065"><ele>1706.2</ele></trkpt><trkpt lat="47.703353" lon="12.011099"><ele>1703.9</ele></trkpt><trkpt lat="47.703135" lon="12.011463"><ele>1704.7</ele></trkpt><trkpt lat="47.703135" lon="12.011493"><ele>1705.5</ele></trkpt><trkpt lat="47.703183" lon="12.011539"><ele>1706.3</ele></trkpt><trkpt lat="47.703185" lon="12.011563"><ele>1706.7</ele></trkpt><trkpt lat="47.70315" lon="12.011727"><ele>1705.8</ele></trkpt><trkpt lat="47.70319" lon="12.01164"><ele>1705</ele></trkpt><trkpt lat="47.703209" lon="12.01151"><ele>1691</ele></trkpt><trkpt lat="47.703187" lon="12.011454"><ele>1691</ele></trkpt><trkpt lat="47.703221" lon="12.01144"><ele>1691</ele></trkpt><trkpt lat="47.703251" lon="12.011504"><ele>1691</ele></trkpt><trkpt lat="47.703249" lon="12.011673"><ele>1718.9</ele></trkpt><trkpt lat="47.703196" lon="12.01179"><ele>1718.5</ele></trkpt><trkpt lat="47.703174" lon="12.011919"><ele>1717.8</ele></trkpt><trkpt lat="47.703113" lon="12.012102"><ele>1716.6</ele></trkpt><trkpt lat="47.703124" lon="12.012112"><ele>1722</ele></trkpt><trkpt lat="47.703179" lon="12.011983"><ele>1722</ele></trkpt><trkpt lat="47.703235" lon="12.011855"><ele>1731.8</ele></trkpt><trkpt lat="47.703339" lon="12.011746"><ele>1784</ele></trkpt><trkpt lat="47.703356" lon="12.011772"><ele>1760.7</ele></trkpt><trkpt lat="47.703364" lon="12.011622"><ele>1758.5</ele></trkpt><trkpt lat="47.703427" lon="12.011481"><ele>1759.6</ele></trkpt><trkpt lat="47.703423" lon="12.011366"><ele>1760.8</ele></trkpt><trkpt lat="47.703439" lon="12.011459"><ele>1762.2</ele></trkpt><trkpt lat="47.703397" lon="12.011625"><ele>1763.3</ele></trkpt><trkpt lat="47.703393" lon="12.011764"><ele>1763.6</ele></trkpt><trkpt lat="47.703375" lon="12.011821"><ele>1762.5</ele></trkpt><trkpt lat="47.703425" lon="12.01174"><ele>1760.8</ele></trkpt><trkpt lat="47.703471" lon="12.011409"><ele>1760.6</ele></trkpt><trkpt lat="47.70349" lon="12.011316"><ele>1760.9</ele></trkpt><trkpt lat="47.703502" lon="12.011313"><ele>1748</ele></trkpt><trkpt lat="47.703481" lon="12.011559"><ele>1780.3</ele></trkpt><trkpt lat="47.703422" lon="12.011872"><ele>1782.2</ele></trkpt><trkpt lat="47.703359" lon="12.011969"><ele>1782.1</ele></trkpt><trkpt lat="47.703371" lon="12.011979"><ele>1781.9</ele></trkpt><trkpt lat="47.703423" lon="12.01192"><ele>1781.8</ele></trkpt><trkpt lat="47.703505" lon="12.011698"><ele>1781.5</ele></trkpt><trkpt lat="47.703448" lon="12.011932"><ele>1781.1</ele></trkpt><trkpt lat="47.703377" lon="12.012043"><ele>1780.9</ele></trkpt><trkpt lat="47.703368" lon="12.012085"><ele>1780.8</ele></trkpt><trkpt lat="47.703402" lon="12.012197"><ele>1780.5</ele></trkpt><trkpt lat="47.703445" lon="12.012154"><ele>1784</ele></trkpt><trkpt lat="47.703454" lon="12.012189"><ele>1784</ele></trkpt><trkpt lat="47.703432" lon="12.012201"><ele>1784</ele></trkpt><trkpt lat="47.703466" lon="12.012292"><ele>1784</ele></trkpt><trkpt lat="47.703432" lon="12.012201"><ele>1784</ele></trkpt><trkpt lat="47.703454" lon="12.012189"><ele>1784</ele></trkpt><trkpt lat="47.703445" lon="12.012154"><ele>1784</ele></trkpt><trkpt lat="47.703402" lon="12.012197"><ele>1780.5</ele></trkpt><trkpt lat="47.703368" lon="12.012085"><ele>1780.8</ele></trkpt><trkpt lat="47.703377" lon="12.012043"><ele>1780.9</ele></trkpt><trkpt lat="47.703448" lon="12.011932"><ele>1781.1</ele></trkpt><trkpt lat="47.703505" lon="12.011698"><ele>1781.5</ele></trkpt><trkpt lat="47.703423" lon="12.01192"><ele>1781.8</ele></trkpt><trkpt lat="47.703371" lon="12.011979"><ele>1781.9</ele></trkpt><trkpt lat="47.703359" lon="12.011969"><ele>1782.1</ele></trkpt><trkpt lat="47.703422" lon="12.011872"><ele>1782.2</ele></trkpt><trkpt lat="47.703481" lon="12.011559"><ele>1780.3</ele></trkpt><trkpt lat="47.703502" lon="12.011313"><ele>1748</ele></trkpt><trkpt lat="47.70349" lon="12.011316"><ele>1760.9</ele></trkpt><trkpt lat="47.703471" lon="12.011409"><ele>1760.6</ele></trkpt><trkpt lat="47.703425" lon="12.01174"><ele>1760.8</ele></trkpt><trkpt lat="47.703375" lon="12.011821"><ele>1762.5</ele></trkpt><trkpt lat="47.703393" lon="12.011764"><ele>1763.6</ele></trkpt><trkpt lat="47.703397" lon="12.011625"><ele>1763.3</ele></trkpt><trkpt lat="47.703439" lon="12.011459"><ele>1762.2</ele></trkpt><trkpt lat="47.703423" lon="12.011366"><ele>1760.8</ele></trkpt><trkpt lat="47.703427" lon="12.011481"><ele>1759.6</ele></trkpt><trkpt lat="47.703364" lon="12.011622"><ele>1758.5</ele></trkpt><trkpt lat="47.703356" lon="12.011772"><ele>1760.7</ele></trkpt><trkpt lat="47.703339" lon="12.011746"><ele>1784</ele></trkpt><trkpt lat="47.703235" lon="12.011855"><ele>1731.8</ele></trkpt><trkpt lat="47.703179" lon="12.011983"><ele>1722</ele></trkpt><trkpt lat="47.703124" lon="12.012112"><ele>1722</ele></trkpt><trkpt lat="47.703113" lon="12.012102"><ele>1716.6</ele></trkpt><trkpt lat="47.703174" lon="12.011919"><ele>1717.8</ele></trkpt><trkpt lat="47.703196" lon="12.01179"><ele>1718.5</ele></trkpt><trkpt lat="47.703249" lon="12.011673"><ele>1718.9</ele></trkpt><trkpt lat="47.703251" lon="12.011504"><ele>1691</ele></trkpt><trkpt lat="47.703221" lon="12.01144"><ele>1691</ele></trkpt><trkpt lat="47.703187" lon="12.011454"><ele>1691</ele></trkpt><trkpt lat="47.703209" lon="12.01151"><ele>1691</ele></trkpt><trkpt lat="47.70319" lon="12.01164"><ele>1705</ele></trkpt><trkpt lat="47.70315" lon="12.011727"><ele>1705.8</ele></trkpt><trkpt lat="47.703185" lon="12.011563"><ele>1706.7</ele></trkpt><trkpt lat="47.703183" lon="12.011539"><ele>1706.3</ele></trkpt><trkpt lat="47.703135" lon="12.011493"><ele>1705.5</ele></trkpt><trkpt lat="47.703135" lon="12.011463"><ele>1704.7</ele></trkpt><trkpt lat="47.703353" lon="12.011099"><ele>1703.9</ele></trkpt><trkpt lat="47.703361" lon="12.011065"><ele>1706.2</ele></trkpt><trkpt lat="47.703284" lon="12.011163"><ele>1706</ele></trkpt><trkpt lat="47.703265" lon="12.01116"><ele>1705.2</ele></trkpt><trkpt lat="47.703341" lon="12.011047"><ele>1705.3</ele></trkpt><trkpt lat="47.703348" lon="12.011013"><ele>1748</ele></trkpt><trkpt lat="47.703327" lon="12.011026"><ele>1691</ele></trkpt><trkpt lat="47.70327" lon="12.011093"><ele>1691</ele></trkpt><trkpt lat="47.703199" lon="12.01112"><ele>1691</ele></trkpt><trkpt lat="47.703198" lon="12.011278"><ele>1691</ele></trkpt><trkpt lat="47.703107" lon="12.01142"><ele>1691</ele></trkpt><trkpt lat="47.703031" lon="12.011514"><ele>1691</ele></trkpt><trkpt lat="47.703016" lon="12.011539"><ele>1697.1</ele></trkpt><trkpt lat="47.703012" lon="12.011642"><ele>1696.8</ele></trkpt><trkpt lat="47.702942" lon="12.011756"><ele>1698.6</ele></trkpt><trkpt lat="47.702912" lon="12.01175"><ele>1699.2</ele></trkpt><trkpt lat="47.702885" lon="12.011709"><ele>1699.8</ele></trkpt><trkpt lat="47.702825" lon="12.011553"><ele>1699.1</ele></trkpt><trkpt lat="47.702804" lon="12.011568"><ele>1698.7</ele></trkpt><trkpt lat="47.702816" lon="12.011639"><ele>1698.2</ele></trkpt><trkpt lat="47.7028" lon="12.011631"><ele>1697.8</ele></trkpt><trkpt lat="47.702776" lon="12.011573"><ele>1697.6</ele></trkpt><trkpt lat="47.702805" lon="12.011501"><ele>1697.1</ele></trkpt><trkpt lat="47.702799" lon="12.011403"><ele>1696.7</ele></trkpt><trkpt lat="47.702789" lon="12.011401"><ele>1696.6</ele></trkpt><trkpt lat="47.70278" lon="12.011496"><ele>1696.1</ele></trkpt><trkpt lat="47.702747" lon="12.011547"><ele>1695.9</ele></trkpt><trkpt lat="47.702735" lon="12.011683"><ele>1697.1</ele></trkpt><trkpt lat="47.702728" lon="12.011524"><ele>1691</ele></trkpt><trkpt lat="47.702718" lon="12.01152"><ele>1691</ele></trkpt><trkpt lat="47.702661" lon="12.011774"><ele>1705</ele></trkpt><trkpt lat="47.702563" lon="12.012015"><ele>1722</ele></trkpt><trkpt lat="47.70251" lon="12.012123"><ele>1688</ele></trkpt><trkpt lat="47.70247" lon="12.012258"><ele>1681.2</ele></trkpt><trkpt lat="47.702421" lon="12.012306"><ele>1677.4</ele></trkpt><trkpt lat="47.702399" lon="12.012376"><ele>1675.8</ele></trkpt><trkpt lat="47.702384" lon="12.012609"><ele>1660</ele></trkpt><trkpt lat="47.702365" lon="12.012617"><ele>1660</ele></trkpt><trkpt lat="47.702329" lon="12.012743"><ele>1660</ele></trkpt><trkpt lat="47.702313" lon="12.012728"><ele>1660</ele></trkpt><trkpt lat="47.70225" lon="12.012755"><ele>1660</ele></trkpt><trkpt lat="47.702222" lon="12.012803"><ele>1660</ele></trkpt><trkpt lat="47.702215" lon="12.012794"><ele>1660</ele></trkpt><trkpt lat="47.702188" lon="12.012697"><ele>1660</ele></trkpt><trkpt lat="47.702165" lon="12.012664"><ele>1660</ele></trkpt><trkpt lat="47.702147" lon="12.012543"><ele>1660</ele></trkpt><trkpt lat="47.702132" lon="12.012482"><ele>1657.1</ele></trkpt><trkpt lat="47.702081" lon="12.012389"><ele>1656.9</ele></trkpt><trkpt lat="47.702132" lon="12.012482"><ele>1657.1</ele></trkpt><trkpt lat="47.702147" lon="12.012543"><ele>1660</ele></trkpt><trkpt lat="47.702165" lon="12.012664"><ele>1660</ele></trkpt><trkpt lat="47.70217" lon="12.012738"><ele>1660</ele></trkpt><trkpt lat="47.702179" lon="12.012867"><ele>1660</ele></trkpt><trkpt lat="47.702146" lon="12.012989"><ele>1660</ele></trkpt><trkpt lat="47.702169" lon="12.013049"><ele>1660</ele></trkpt><trkpt lat="47.702228" lon="12.013076"><ele>1660</ele></trkpt><trkpt lat="47.70229" lon="12.013048"><ele>1660</ele></trkpt><trkpt lat="47.702301" lon="12.013111"><ele>1660</ele></trkpt><trkpt lat="47.702328" lon="12.013363"><ele>1645.3</ele></trkpt><trkpt lat="47.702361" lon="12.013475"><ele>1646.3</ele></trkpt><trkpt lat="47.702363" lon="12.013559"><ele>1646.9</ele></trkpt><trkpt lat="47.702388" lon="12.013554"><ele>1642</ele></trkpt><trkpt lat="47.702434" lon="12.013523"><ele>1642</ele></trkpt><trkpt lat="47.70243" lon="12.013552"><ele>1642</ele></trkpt><trkpt lat="47.70241" lon="12.013617"><ele>1642</ele></trkpt><trkpt lat="47.702378" lon="12.013665"><ele>1642</ele></trkpt><trkpt lat="47.702386" lon="12.013703"><ele>1642</ele></trkpt><trkpt lat="47.702451" lon="12.014067"><ele>1637.8</ele></trkpt><trkpt lat="47.702453" lon="12.014511"><ele>1627</ele></trkpt><trkpt lat="47.702443" lon="12.014824"><ele>1644.3</ele></trkpt><trkpt lat="47.702457" lon="12.014948"><ele>1641.9</ele></trkpt><trkpt lat="47.702539" lon="12.01521"><ele>1642.4</ele></trkpt><trkpt lat="47.702587" lon="12.015315"><ele>1645.6</ele></trkpt><trkpt lat="47.702643" lon="12.015436"><ele>1648.7</ele></trkpt><trkpt lat="47.702743" lon="12.015336"><ele>1667</ele></trkpt><trkpt lat="47.702842" lon="12.015214"><ele>1667</ele></trkpt><trkpt lat="47.702825" lon="12.015337"><ele>1667</ele></trkpt><trkpt lat="47.702851" lon="12.015368"><ele>1667</ele></trkpt><trkpt lat="47.702833" lon="12.015426"><ele>1667</ele></trkpt><trkpt lat="47.702879" lon="12.015422"><ele>1667</ele></trkpt><trkpt lat="47.702831" lon="12.015503"><ele>1667</ele></trkpt><trkpt lat="47.702759" lon="12.015652"><ele>1667</ele></trkpt><trkpt lat="47.702756" lon="12.015696"><ele>1667</ele></trkpt><trkpt lat="47.702819" lon="12.015623"><ele>1660</ele></trkpt><trkpt lat="47.702853" lon="12.01563"><ele>1660.8</ele></trkpt><trkpt lat="47.702859" lon="12.015815"><ele>1662.3</ele></trkpt><trkpt lat="47.702837" lon="12.015901"><ele>1634</ele></trkpt><trkpt lat="47.702814" lon="12.015999"><ele>1634</ele></trkpt><trkpt lat="47.702833" lon="12.016141"><ele>1634</ele></trkpt><trkpt lat="47.702784" lon="12.016326"><ele>1634</ele></trkpt><trkpt lat="47.702801" lon="12.01635"><ele>1634</ele></trkpt><trkpt lat="47.702805" lon="12.016396"><ele>1634</ele></trkpt><trkpt lat="47.702781" lon="12.016487"><ele>1634</ele></trkpt><trkpt lat="47.702781" lon="12.016637"><ele>1634</ele></trkpt><trkpt lat="47.702803" lon="12.016779"><ele>1609</ele></trkpt><trkpt lat="47.702788" lon="12.016986"><ele>1609</ele></trkpt><trkpt lat="47.702829" lon="12.017006"><ele>1609</ele></trkpt><trkpt lat="47.702818" lon="12.017169"><ele>1609</ele></trkpt><trkpt lat="47.702887" lon="12.017304"><ele>1609</ele></trkpt><trkpt lat="47.702862" lon="12.01733"><ele>1590.3</ele></trkpt><trkpt lat="47.702817" lon="12.017634"><ele>1586</ele></trkpt><trkpt lat="47.702604" lon="12.018215"><ele>1584.8</ele></trkpt><trkpt lat="47.702482" lon="12.018468"><ele>1584.1</ele></trkpt><trkpt lat="47.702049" lon="12.018894"><ele>1571</ele></trkpt><trkpt lat="47.701808" lon="12.018943"><ele>1571</ele></trkpt><trkpt lat="47.701692" lon="12.018934"><ele>1571</ele></trkpt><trkpt lat="47.701676" lon="12.018874"><ele>1557.6</ele></trkpt><trkpt lat="47.701684" lon="12.018815"><ele>1556.7</ele></trkpt><trkpt lat="47.701839" lon="12.018657"><ele>1553.9</ele></trkpt><trkpt lat="47.7018" lon="12.018591"><ele>1552.8</ele></trkpt><trkpt lat="47.701854" lon="12.01834"><ele>1551.7</ele></trkpt><trkpt lat="47.701762" lon="12.018122"><ele>1550.4</ele></trkpt><trkpt lat="47.701692" lon="12.01805"><ele>1550.4</ele></trkpt><trkpt lat="47.701423" lon="12.018105"><ele>1551</ele></trkpt><trkpt lat="47.701324" lon="12.018074"><ele>1551.7</ele></trkpt><trkpt lat="47.701138" lon="12.018124"><ele>1540</ele></trkpt><trkpt lat="47.70102" lon="12.017917"><ele>1533</ele></trkpt><trkpt lat="47.701025" lon="12.01785"><ele>1532.6</ele></trkpt><trkpt lat="47.701078" lon="12.017744"><ele>1532.1</ele></trkpt><trkpt lat="47.701032" lon="12.017671"><ele>1531.5</ele></trkpt><trkpt lat="47.701018" lon="12.017603"><ele>1531</ele></trkpt><trkpt lat="47.701082" lon="12.017389"><ele>1530.3</ele></trkpt><trkpt lat="47.700978" lon="12.017289"><ele>1530.1</ele></trkpt><trkpt lat="47.700977" lon="12.017026"><ele>1530</ele></trkpt><trkpt lat="47.70091" lon="12.01699"><ele>1529.9</ele></trkpt><trkpt lat="47.700761" lon="12.016562"><ele>1529.7</ele></trkpt><trkpt lat="47.700676" lon="12.016524"><ele>1514</ele></trkpt><trkpt lat="47.700622" lon="12.0164"><ele>1514</ele></trkpt><trkpt lat="47.700514" lon="12.016271"><ele>1514</ele></trkpt><trkpt lat="47.700366" lon="12.016191"><ele>1514</ele></trkpt><trkpt lat="47.700358" lon="12.016122"><ele>1514</ele></trkpt><trkpt lat="47.700427" lon="12.015843"><ele>1514</ele></trkpt><trkpt lat="47.70039" lon="12.015688"><ele>1503.8</ele></trkpt><trkpt lat="47.700294" lon="12.015554"><ele>1503.7</ele></trkpt><trkpt lat="47.700233" lon="12.015376"><ele>1503.7</ele></trkpt><trkpt lat="47.700206" lon="12.015141"><ele>1503.6</ele></trkpt><trkpt lat="47.700119" lon="12.015059"><ele>1503.6</ele></trkpt><trkpt lat="47.700111" lon="12.014732"><ele>1503.5</ele></trkpt><trkpt lat="47.700078" lon="12.014633"><ele>1498</ele></trkpt><trkpt lat="47.700009" lon="12.014466"><ele>1498.8</ele></trkpt><trkpt lat="47.700014" lon="12.014322"><ele>1498.9</ele></trkpt><trkpt lat="47.700097" lon="12.014119"><ele>1501</ele></trkpt><trkpt lat="47.700035" lon="12.014147"><ele>1466.6</ele></trkpt><trkpt lat="47.699852" lon="12.014126"><ele>1462.5</ele></trkpt><trkpt lat="47.699637" lon="12.014198"><ele>1461.9</ele></trkpt><trkpt lat="47.699075" lon="12.014214"><ele>1460</ele></trkpt><trkpt lat="47.698996" lon="12.014191"><ele>1461.3</ele></trkpt><trkpt lat="47.698969" lon="12.014249"><ele>1461.9</ele></trkpt><trkpt lat="47.698948" lon="12.014395"><ele>1459.2</ele></trkpt><trkpt lat="47.698916" lon="12.014438"><ele>1459.6</ele></trkpt><trkpt lat="47.698847" lon="12.014873"><ele>1456.1</ele></trkpt><trkpt lat="47.69878" lon="12.01496"><ele>1455.1</ele></trkpt><trkpt lat="47.698672" lon="12.01529"><ele>1454.9</ele></trkpt><trkpt lat="47.69862" lon="12.015659"><ele>1454.3</ele></trkpt><trkpt lat="47.69844" lon="12.015968"><ele>1453.6</ele></trkpt><trkpt lat="47.698361" lon="12.015953"><ele>1452.1</ele></trkpt><trkpt lat="47.698324" lon="12.016036"><ele>1449.4</ele></trkpt><trkpt lat="47.69817" lon="12.016032"><ele>1450.6</ele></trkpt><trkpt lat="47.697891" lon="12.016243"><ele>1450.7</ele></trkpt><trkpt lat="47.697822" lon="12.016243"><ele>1441</ele></trkpt><trkpt lat="47.69774" lon="12.016078"><ele>1441</ele></trkpt><trkpt lat="47.697659" lon="12.016044"><ele>1441</ele></trkpt><trkpt lat="47.697582" lon="12.015893"><ele>1441</ele></trkpt><trkpt lat="47.697376" lon="12.015614"><ele>1417.5</ele></trkpt><trkpt lat="47.697271" lon="12.01562"><ele>1417.9</ele></trkpt><trkpt lat="47.697195" lon="12.015525"><ele>1418.3</ele></trkpt><trkpt lat="47.697117" lon="12.0155"><ele>1418.8</ele></trkpt><trkpt lat="47.697075" lon="12.015426"><ele>1419.4</ele></trkpt><trkpt lat="47.697033" lon="12.0154"><ele>1420</ele></trkpt><trkpt lat="47.69694" lon="12.015423"><ele>1414</ele></trkpt><trkpt lat="47.696845" lon="12.01558"><ele>1414</ele></trkpt><trkpt lat="47.696318" lon="12.015651"><ele>1377</ele></trkpt><trkpt lat="47.696186" lon="12.015577"><ele>1376.4</ele></trkpt><trkpt lat="47.69603" lon="12.015571"><ele>1372.2</ele></trkpt><trkpt lat="47.695849" lon="12.01568"><ele>1369.2</ele></trkpt><trkpt lat="47.695752" lon="12.015791"><ele>1367.5</ele></trkpt><trkpt lat="47.695701" lon="12.015792"><ele>1367.5</ele></trkpt><trkpt lat="47.695657" lon="12.015853"><ele>1367.4</ele></trkpt><trkpt lat="47.695541" lon="12.016169"><ele>1363.3</ele></trkpt><trkpt lat="47.695308" lon="12.016497"><ele>1356.6</ele></trkpt><trkpt lat="47.69519" lon="12.016577"><ele>1356</ele></trkpt><trkpt lat="47.694922" lon="12.016585"><ele>1351.3</ele></trkpt><trkpt lat="47.694834" lon="12.016616"><ele>1349.5</ele></trkpt><trkpt lat="47.694758" lon="12.016744"><ele>1348.5</ele></trkpt><trkpt lat="47.694676" lon="12.016778"><ele>1347.4</ele></trkpt><trkpt lat="47.694607" lon="12.016865"><ele>1344.4</ele></trkpt><trkpt lat="47.694541" lon="12.016884"><ele>1343</ele></trkpt><trkpt lat="47.694472" lon="12.016953"><ele>1336</ele></trkpt><trkpt lat="47.694398" lon="12.016973"><ele>1332.9</ele></trkpt><trkpt lat="47.69434" lon="12.016946"><ele>1332</ele></trkpt><trkpt lat="47.694167" lon="12.016963"><ele>1325.7</ele></trkpt><trkpt lat="47.69412" lon="12.017027"><ele>1324.4</ele></trkpt><trkpt lat="47.694062" lon="12.017027"><ele>1322.5</ele></trkpt><trkpt lat="47.694018" lon="12.017068"><ele>1322.3</ele></trkpt><trkpt lat="47.693859" lon="12.017086"><ele>1306.5</ele></trkpt><trkpt lat="47.693688" lon="12.017016"><ele>1304.8</ele></trkpt><trkpt lat="47.693555" lon="12.016929"><ele>1299.3</ele></trkpt><trkpt lat="47.693489" lon="12.016831"><ele>1294.3</ele></trkpt><trkpt lat="47.693176" lon="12.016596"><ele>1280.2</ele></trkpt><trkpt lat="47.693166" lon="12.016547"><ele>1280.4</ele></trkpt><trkpt lat="47.69292" lon="12.016422"><ele>1273.2</ele></trkpt><trkpt lat="47.692716" lon="12.016364"><ele>1262.2</ele></trkpt><trkpt lat="47.692681" lon="12.016333"><ele>1261.8</ele></trkpt><trkpt lat="47.692688" lon="12.016269"><ele>1261.4</ele></trkpt><trkpt lat="47.692975" lon="12.015906"><ele>1268.2</ele></trkpt><trkpt lat="47.692978" lon="12.015828"><ele>1266.3</ele></trkpt><trkpt lat="47.692961" lon="12.015762"><ele>1262.4</ele></trkpt><trkpt lat="47.692913" lon="12.015774"><ele>1262.3</ele></trkpt><trkpt lat="47.692879" lon="12.015717"><ele>1262.2</ele></trkpt><trkpt lat="47.692681" lon="12.015635"><ele>1257</ele></trkpt><trkpt lat="47.692626" lon="12.015589"><ele>1256.8</ele></trkpt><trkpt lat="47.692533" lon="12.015598"><ele>1255.1</ele></trkpt><trkpt lat="47.692374" lon="12.01549"><ele>1254.2</ele></trkpt><trkpt lat="47.692293" lon="12.015483"><ele>1255</ele></trkpt><trkpt lat="47.692202" lon="12.015511"><ele>1254.8</ele></trkpt><trkpt lat="47.692116" lon="12.015487"><ele>1255.6</ele></trkpt><trkpt lat="47.691763" lon="12.015503"><ele>1253.9</ele></trkpt><trkpt lat="47.691504" lon="12.015616"><ele>1197</ele></trkpt><trkpt lat="47.691255" lon="12.015737"><ele>1181.4</ele></trkpt><trkpt lat="47.691199" lon="12.015746"><ele>1180.7</ele></trkpt><trkpt lat="47.691076" lon="12.015721"><ele>1179.9</ele></trkpt><trkpt lat="47.690966" lon="12.015755"><ele>1173.9</ele></trkpt><trkpt lat="47.690884" lon="12.015855"><ele>1168.9</ele></trkpt><trkpt lat="47.690836" lon="12.015858"><ele>1167.5</ele></trkpt><trkpt lat="47.690808" lon="12.01583"><ele>1166.1</ele></trkpt><trkpt lat="47.690774" lon="12.015748"><ele>1165.9</ele></trkpt><trkpt lat="47.690745" lon="12.015724"><ele>1164.7</ele></trkpt><trkpt lat="47.690697" lon="12.015726"><ele>1163.5</ele></trkpt><trkpt lat="47.690654" lon="12.015765"><ele>1163.2</ele></trkpt><trkpt lat="47.690616" lon="12.015876"><ele>1163</ele></trkpt><trkpt lat="47.690556" lon="12.016355"><ele>1162.7</ele></trkpt><trkpt lat="47.690554" lon="12.016524"><ele>1162.4</ele></trkpt><trkpt lat="47.690504" lon="12.016939"><ele>1161.8</ele></trkpt><trkpt lat="47.69047" lon="12.017058"><ele>1160.4</ele></trkpt><trkpt lat="47.690428" lon="12.017133"><ele>1160.1</ele></trkpt><trkpt lat="47.690355" lon="12.017191"><ele>1159.7</ele></trkpt><trkpt lat="47.690249" lon="12.017327"><ele>1157.1</ele></trkpt><trkpt lat="47.690215" lon="12.017346"><ele>1156.7</ele></trkpt><trkpt lat="47.690173" lon="12.017323"><ele>1156.2</ele></trkpt><trkpt lat="47.69001" lon="12.017074"><ele>1155.2</ele></trkpt><trkpt lat="47.689898" lon="12.016861"><ele>1154.7</ele></trkpt><trkpt lat="47.689865" lon="12.016833"><ele>1155.5</ele></trkpt><trkpt lat="47.689789" lon="12.016844"><ele>1156.5</ele></trkpt><trkpt lat="47.689722" lon="12.017023"><ele>1156.9</ele></trkpt><trkpt lat="47.689694" lon="12.01705"><ele>1132</ele></trkpt><trkpt lat="47.689552" lon="12.017034"><ele>1131</ele></trkpt><trkpt lat="47.689433" lon="12.01711"><ele>1130.9</ele></trkpt><trkpt lat="47.689403" lon="12.017161"><ele>1130.8</ele></trkpt><trkpt lat="47.68937" lon="12.017358"><ele>1130.7</ele></trkpt><trkpt lat="47.689334" lon="12.017402"><ele>1130.5</ele></trkpt><trkpt lat="47.689291" lon="12.017404"><ele>1130.4</ele></trkpt><trkpt lat="47.688804" lon="12.017175"><ele>1127</ele></trkpt><trkpt lat="47.688764" lon="12.017044"><ele>1112.2</ele></trkpt><trkpt lat="47.68859" lon="12.016701"><ele>1109</ele></trkpt><trkpt lat="47.688561" lon="12.016609"><ele>1108</ele></trkpt><trkpt lat="47.688567" lon="12.01657"><ele>1107.8</ele></trkpt><trkpt lat="47.688603" lon="12.016531"><ele>1107.5</ele></trkpt><trkpt lat="47.688952" lon="12.016522"><ele>1107</ele></trkpt><trkpt lat="47.689004" lon="12.016477"><ele>1106.7</ele></trkpt><trkpt lat="47.68902" lon="12.016388"><ele>1106.4</ele></trkpt><trkpt lat="47.688903" lon="12.016051"><ele>1104</ele></trkpt><trkpt lat="47.688818" lon="12.015714"><ele>1103.6</ele></trkpt><trkpt lat="47.688743" lon="12.015533"><ele>1101.3</ele></trkpt><trkpt lat="47.688573" lon="12.015224"><ele>1099.2</ele></trkpt><trkpt lat="47.688483" lon="12.01515"><ele>1097.9</ele></trkpt><trkpt lat="47.688339" lon="12.014949"><ele>1090.1</ele></trkpt><trkpt lat="47.688042" lon="12.013949"><ele>1063.1</ele></trkpt><trkpt lat="47.687957" lon="12.013802"><ele>1058.3</ele></trkpt><trkpt lat="47.687708" lon="12.013494"><ele>1042</ele></trkpt><trkpt lat="47.687647" lon="12.013453"><ele>1041.3</ele></trkpt><trkpt lat="47.687563" lon="12.013425"><ele>1037.5</ele></trkpt><trkpt lat="47.687351" lon="12.013437"><ele>1028.4</ele></trkpt><trkpt lat="47.687274" lon="12.013491"><ele>1027.4</ele></trkpt><trkpt lat="47.687241" lon="12.013481"><ele>1026.5</ele></trkpt><trkpt lat="47.687022" lon="12.013175"><ele>1015.1</ele></trkpt><trkpt lat="47.686709" lon="12.012815"><ele>1005.2</ele></trkpt><trkpt lat="47.686667" lon="12.012712"><ele>1004.4</ele></trkpt><trkpt lat="47.686651" lon="12.012561"><ele>1003.6</ele></trkpt><trkpt lat="47.686613" lon="12.012473"><ele>1003.3</ele></trkpt><trkpt lat="47.686494" lon="12.012313"><ele>1000.5</ele></trkpt><trkpt lat="47.686233" lon="12.012077"><ele>995.7</ele></trkpt><trkpt lat="47.686083" lon="12.011877"><ele>996.9</ele></trkpt><trkpt lat="47.686038" lon="12.011844"><ele>997.3</ele></trkpt><trkpt lat="47.685939" lon="12.011848"><ele>997.2</ele></trkpt><trkpt lat="47.685841" lon="12.011893"><ele>997.7</ele></trkpt><trkpt lat="47.685763" lon="12.01196"><ele>972</ele></trkpt><trkpt lat="47.685745" lon="12.012039"><ele>964</ele></trkpt><trkpt lat="47.685688" lon="12.012116"><ele>962.4</ele></trkpt><trkpt lat="47.684957" lon="12.012558"><ele>958.7</ele></trkpt><trkpt lat="47.684882" lon="12.012645"><ele>958.5</ele></trkpt><trkpt lat="47.684357" lon="12.013439"><ele>960.4</ele></trkpt><trkpt lat="47.684176" lon="12.013896"><ele>962.2</ele></trkpt><trkpt lat="47.684148" lon="12.014035"><ele>962.6</ele></trkpt><trkpt lat="47.68415" lon="12.014287"><ele>965.6</ele></trkpt><trkpt lat="47.684107" lon="12.014688"><ele>968.4</ele></trkpt><trkpt lat="47.684121" lon="12.014785"><ele>969.8</ele></trkpt><trkpt lat="47.684188" lon="12.014958"><ele>973.4</ele></trkpt><trkpt lat="47.684266" lon="12.01537"><ele>974.2</ele></trkpt><trkpt lat="47.68422" lon="12.015633"><ele>974.4</ele></trkpt><trkpt lat="47.684238" lon="12.01606"><ele>975.4</ele></trkpt><trkpt lat="47.684218" lon="12.016197"><ele>975.6</ele></trkpt><trkpt lat="47.684221" lon="12.016334"><ele>975.9</ele></trkpt><trkpt lat="47.684258" lon="12.016665"><ele>976.1</ele></trkpt><trkpt lat="47.684253" lon="12.016775"><ele>976.3</ele></trkpt><trkpt lat="47.684233" lon="12.016821"><ele>976.1</ele></trkpt><trkpt lat="47.684192" lon="12.016852"><ele>975.6</ele></trkpt><trkpt lat="47.683879" lon="12.016586"><ele>973.9</ele></trkpt><trkpt lat="47.683609" lon="12.016428"><ele>972</ele></trkpt><trkpt lat="47.683591" lon="12.01638"><ele>968.8</ele></trkpt><trkpt lat="47.683538" lon="12.016328"><ele>965.9</ele></trkpt><trkpt lat="47.68329" lon="12.016299"><ele>964.3</ele></trkpt><trkpt lat="47.683197" lon="12.016238"><ele>961</ele></trkpt><trkpt lat="47.682794" lon="12.015532"><ele>947</ele></trkpt><trkpt lat="47.68276" lon="12.015435"><ele>943.9</ele></trkpt><trkpt lat="47.682599" lon="12.014976"><ele>940.8</ele></trkpt><trkpt lat="47.682434" lon="12.014652"><ele>933.8</ele></trkpt><trkpt lat="47.682432" lon="12.014609"><ele>933.4</ele></trkpt><trkpt lat="47.682454" lon="12.01456"><ele>931.8</ele></trkpt><trkpt lat="47.68256" lon="12.014541"><ele>932.9</ele></trkpt><trkpt lat="47.68261" lon="12.014481"><ele>932.7</ele></trkpt><trkpt lat="47.682637" lon="12.014431"><ele>932.5</ele></trkpt><trkpt lat="47.682659" lon="12.014321"><ele>931.1</ele></trkpt><trkpt lat="47.682658" lon="12.014208"><ele>930.7</ele></trkpt><trkpt lat="47.682638" lon="12.014126"><ele>929.9</ele></trkpt><trkpt lat="47.682567" lon="12.013971"><ele>930.2</ele></trkpt><trkpt lat="47.682526" lon="12.013926"><ele>929</ele></trkpt><trkpt lat="47.682117" lon="12.013738"><ele>923.1</ele></trkpt><trkpt lat="47.681603" lon="12.013553"><ele>916.8</ele></trkpt><trkpt lat="47.68149" lon="12.013435"><ele>916.8</ele></trkpt><trkpt lat="47.681416" lon="12.013392"><ele>911</ele></trkpt><trkpt lat="47.68127" lon="12.013341"><ele>907.6</ele></trkpt><trkpt lat="47.68107" lon="12.013324"><ele>904.5</ele></trkpt><trkpt lat="47.680963" lon="12.01329"><ele>903.7</ele></trkpt><trkpt lat="47.680732" lon="12.013178"><ele>904.8</ele></trkpt><trkpt lat="47.680553" lon="12.013188"><ele>906.3</ele></trkpt><trkpt lat="47.680482" lon="12.013171"><ele>886</ele></trkpt><trkpt lat="47.680302" lon="12.013137"><ele>873.4</ele></trkpt><trkpt lat="47.680121" lon="12.013131"><ele>871.7</ele></trkpt><trkpt lat="47.67966" lon="12.013128"><ele>870.6</ele></trkpt><trkpt lat="47.679513" lon="12.013155"><ele>869.9</ele></trkpt><trkpt lat="47.679237" lon="12.013115"><ele>868.9</ele></trkpt><trkpt lat="47.679209" lon="12.013021"><ele>867.3</ele></trkpt><trkpt lat="47.679145" lon="12.012996"><ele>866.4</ele></trkpt><trkpt lat="47.67912" lon="12.012861"><ele>866</ele></trkpt><trkpt lat="47.679116" lon="12.012735"><ele>866.7</ele></trkpt><trkpt lat="47.67904" lon="12.01272"><ele>867.1</ele></trkpt><trkpt lat="47.678892" lon="12.012497"><ele>853</ele></trkpt><trkpt lat="47.678732" lon="12.012331"><ele>847.6</ele></trkpt><trkpt lat="47.678663" lon="12.012304"><ele>846.5</ele></trkpt><trkpt lat="47.678345" lon="12.01242"><ele>845.2</ele></trkpt><trkpt lat="47.678216" lon="12.012395"><ele>826</ele></trkpt><trkpt lat="47.678098" lon="12.012578"><ele>826</ele></trkpt><trkpt lat="47.677903" lon="12.012879"><ele>826</ele></trkpt><trkpt lat="47.677838" lon="12.012935"><ele>825.7</ele></trkpt><trkpt lat="47.677736" lon="12.01298"><ele>825.4</ele></trkpt><trkpt lat="47.677668" lon="12.012972"><ele>825.1</ele></trkpt><trkpt lat="47.677565" lon="12.013005"><ele>824.3</ele></trkpt><trkpt lat="47.67712" lon="12.013276"><ele>820</ele></trkpt><trkpt lat="47.677028" lon="12.013546"><ele>822</ele></trkpt><trkpt lat="47.676885" lon="12.014028"><ele>821.5</ele></trkpt><trkpt lat="47.676827" lon="12.014188"><ele>821.4</ele></trkpt><trkpt lat="47.676778" lon="12.014265"><ele>821</ele></trkpt><trkpt lat="47.676521" lon="12.014298"><ele>810.6</ele></trkpt><trkpt lat="47.676237" lon="12.014367"><ele>810.7</ele></trkpt><trkpt lat="47.675747" lon="12.014433"><ele>806</ele></trkpt><trkpt lat="47.675235" lon="12.014541"><ele>805</ele></trkpt><trkpt lat="47.674764" lon="12.014641"><ele>804</ele></trkpt><trkpt lat="47.674516" lon="12.014664"><ele>803</ele></trkpt><trkpt lat="47.67448" lon="12.014705"><ele>803</ele></trkpt><trkpt lat="47.674386" lon="12.014717"><ele>803</ele></trkpt><trkpt lat="47.674367" lon="12.014658"><ele>803</ele></trkpt><trkpt lat="47.674335" lon="12.014556"><ele>802</ele></trkpt><trkpt lat="47.674265" lon="12.014432"><ele>801.8</ele></trkpt><trkpt lat="47.674256" lon="12.014069"><ele>801.5</ele></trkpt><trkpt lat="47.674194" lon="12.013963"><ele>801.6</ele></trkpt><trkpt lat="47.67409" lon="12.013858"><ele>801.6</ele></trkpt><trkpt lat="47.674093" lon="12.013651"><ele>801</ele></trkpt><trkpt lat="47.674052" lon="12.013635"><ele>801</ele></trkpt><trkpt lat="47.673981" lon="12.013656"><ele>801</ele></trkpt><trkpt lat="47.674019" lon="12.013526"><ele>801</ele></trkpt><trkpt lat="47.67404" lon="12.013457"><ele>801</ele></trkpt><trkpt lat="47.674103" lon="12.013351"><ele>801</ele></trkpt><trkpt lat="47.674141" lon="12.013257"><ele>799</ele></trkpt><trkpt lat="47.67427" lon="12.012893"><ele>801</ele></trkpt><trkpt lat="47.674323" lon="12.012702"><ele>801</ele></trkpt><trkpt lat="47.674389" lon="12.012428"><ele>802</ele></trkpt><trkpt lat="47.674473" lon="12.012079"><ele>802</ele></trkpt><trkpt lat="47.67449" lon="12.012009"><ele>802</ele></trkpt><trkpt lat="47.674536" lon="12.012037"><ele>803</ele></trkpt><trkpt lat="47.674815" lon="12.011926"><ele>803.3</ele></trkpt><trkpt lat="47.675006" lon="12.011707"><ele>806</ele></trkpt><trkpt lat="47.675021" lon="12.011725"><ele>806</ele></trkpt><trkpt lat="47.675176" lon="12.011899"><ele>806</ele></trkpt><trkpt lat="47.675184" lon="12.011897"><ele>806</ele></trkpt><trkpt lat="47.675281" lon="12.012"><ele>806</ele></trkpt><trkpt lat="47.675301" lon="12.012001"><ele>806</ele></trkpt><trkpt lat="47.675346" lon="12.011904"><ele>806</ele></trkpt><trkpt lat="47.675332" lon="12.011889"><ele>806</ele></trkpt><trkpt lat="47.675724" lon="12.010996"><ele>805.2</ele></trkpt></trkseg></trk></gpx>